{
  "type": "Feature",
  "properties": {},
  "geometry": {
    "coordinates": [
      [
        -97.854778,
        30.58302
      ],
      [
        -97.854939,
        30.582968
      ],
      [
        -97.85582,
        30.582679
      ],
      [
        -97.855953,
        30.582635
      ],
      [
        -97.856661,
        30.582404
      ],
      [
        -97.857099,
        30.582248
      ],
      [
        -97.857354,
        30.582144
      ],
      [
        -97.857691,
        30.581982
      ],
      [
        -97.858024,
        30.581799
      ],
      [
        -97.85827,
        30.581648
      ],
      [
        -97.858789,
        30.581295
      ],
      [
        -97.859017,
        30.581137
      ],
      [
        -97.859287,
        30.58095
      ],
      [
        -97.85949,
        30.580809
      ],
      [
        -97.859983,
        30.580571
      ],
      [
        -97.860194,
        30.580474
      ],
      [
        -97.86058,
        30.580333
      ],
      [
        -97.860748,
        30.580271
      ],
      [
        -97.860787,
        30.580259
      ],
      [
        -97.861599,
        30.580005
      ],
      [
        -97.862296,
        30.57978
      ],
      [
        -97.863012,
        30.579548
      ],
      [
        -97.863715,
        30.57932
      ],
      [
        -97.864676,
        30.579009
      ],
      [
        -97.865916,
        30.578608
      ],
      [
        -97.867157,
        30.578207
      ],
      [
        -97.867781,
        30.578006
      ],
      [
        -97.867857,
        30.577985
      ],
      [
        -97.868651,
        30.577764
      ],
      [
        -97.868664,
        30.577761
      ],
      [
        -97.869523,
        30.577482
      ],
      [
        -97.869656,
        30.577437
      ],
      [
        -97.870559,
        30.577151
      ],
      [
        -97.870598,
        30.57714
      ],
      [
        -97.870883,
        30.577047
      ],
      [
        -97.871233,
        30.576998
      ],
      [
        -97.871943,
        30.57677
      ],
      [
        -97.872107,
        30.576667
      ],
      [
        -97.872318,
        30.576582
      ],
      [
        -97.872881,
        30.57639
      ],
      [
        -97.873163,
        30.57629
      ],
      [
        -97.873314,
        30.576228
      ],
      [
        -97.87373,
        30.576065
      ],
      [
        -97.874876,
        30.575691
      ],
      [
        -97.875113,
        30.575618
      ],
      [
        -97.87692,
        30.575048
      ],
      [
        -97.878625,
        30.574517
      ],
      [
        -97.881366,
        30.573646
      ],
      [
        -97.882105,
        30.573422
      ],
      [
        -97.884562,
        30.572637
      ],
      [
        -97.885848,
        30.572239
      ],
      [
        -97.886379,
        30.572069
      ],
      [
        -97.887447,
        30.571737
      ],
      [
        -97.888739,
        30.571336
      ],
      [
        -97.888953,
        30.571263
      ],
      [
        -97.889723,
        30.571018
      ],
      [
        -97.890313,
        30.57083
      ],
      [
        -97.891237,
        30.570536
      ],
      [
        -97.891313,
        30.570511
      ],
      [
        -97.892104,
        30.570266
      ],
      [
        -97.893062,
        30.56997
      ],
      [
        -97.893638,
        30.569787
      ],
      [
        -97.893777,
        30.569743
      ],
      [
        -97.893981,
        30.569679
      ],
      [
        -97.894884,
        30.569397
      ],
      [
        -97.895634,
        30.569186
      ],
      [
        -97.896428,
        30.568963
      ],
      [
        -97.897168,
        30.568729
      ],
      [
        -97.897689,
        30.568598
      ],
      [
        -97.898028,
        30.568547
      ],
      [
        -97.898334,
        30.568527
      ],
      [
        -97.898635,
        30.568529
      ],
      [
        -97.898915,
        30.56855
      ],
      [
        -97.899195,
        30.568594
      ],
      [
        -97.899465,
        30.568646
      ],
      [
        -97.899655,
        30.568701
      ],
      [
        -97.899855,
        30.568773
      ],
      [
        -97.900008,
        30.568829
      ],
      [
        -97.901923,
        30.569755
      ],
      [
        -97.902631,
        30.570087
      ],
      [
        -97.902854,
        30.570193
      ],
      [
        -97.903328,
        30.570415
      ],
      [
        -97.904149,
        30.570802
      ],
      [
        -97.906167,
        30.571758
      ],
      [
        -97.907083,
        30.572187
      ],
      [
        -97.908456,
        30.572837
      ],
      [
        -97.909327,
        30.573263
      ],
      [
        -97.910726,
        30.573943
      ],
      [
        -97.911202,
        30.574175
      ],
      [
        -97.9116,
        30.574386
      ],
      [
        -97.911804,
        30.574502
      ],
      [
        -97.911844,
        30.574528
      ],
      [
        -97.912872,
        30.575183
      ],
      [
        -97.91307,
        30.575292
      ],
      [
        -97.913128,
        30.575324
      ],
      [
        -97.913394,
        30.57545
      ],
      [
        -97.913485,
        30.575488
      ],
      [
        -97.913745,
        30.575577
      ],
      [
        -97.914011,
        30.57565
      ],
      [
        -97.914283,
        30.575706
      ],
      [
        -97.914558,
        30.575747
      ],
      [
        -97.915599,
        30.575832
      ],
      [
        -97.916255,
        30.575893
      ],
      [
        -97.916967,
        30.575975
      ],
      [
        -97.917295,
        30.576026
      ],
      [
        -97.917988,
        30.576133
      ],
      [
        -97.918027,
        30.576138
      ],
      [
        -97.918459,
        30.576206
      ],
      [
        -97.9187,
        30.576247
      ],
      [
        -97.918843,
        30.576282
      ],
      [
        -97.919033,
        30.576328
      ],
      [
        -97.919599,
        30.576461
      ],
      [
        -97.919773,
        30.576516
      ],
      [
        -97.920139,
        30.576633
      ],
      [
        -97.920428,
        30.576761
      ],
      [
        -97.920444,
        30.576768
      ],
      [
        -97.920737,
        30.576936
      ],
      [
        -97.921191,
        30.577258
      ],
      [
        -97.921809,
        30.577666
      ],
      [
        -97.921888,
        30.577722
      ],
      [
        -97.922223,
        30.577984
      ],
      [
        -97.922682,
        30.578464
      ],
      [
        -97.922856,
        30.578645
      ],
      [
        -97.923075,
        30.578874
      ],
      [
        -97.923216,
        30.579022
      ],
      [
        -97.923351,
        30.579163
      ],
      [
        -97.923588,
        30.579377
      ],
      [
        -97.924034,
        30.579693
      ],
      [
        -97.924409,
        30.579959
      ],
      [
        -97.924892,
        30.580188
      ],
      [
        -97.925537,
        30.580406
      ],
      [
        -97.925726,
        30.580453
      ],
      [
        -97.925917,
        30.580508
      ],
      [
        -97.926233,
        30.580598
      ],
      [
        -97.927761,
        30.581034
      ],
      [
        -97.928308,
        30.581166
      ],
      [
        -97.929188,
        30.581377
      ],
      [
        -97.929815,
        30.581366
      ],
      [
        -97.930747,
        30.581351
      ],
      [
        -97.931019,
        30.58135
      ],
      [
        -97.931426,
        30.581339
      ],
      [
        -97.932148,
        30.581251
      ],
      [
        -97.932749,
        30.581105
      ],
      [
        -97.932954,
        30.581041
      ],
      [
        -97.933526,
        30.580836
      ],
      [
        -97.934194,
        30.580691
      ],
      [
        -97.934887,
        30.580558
      ],
      [
        -97.935053,
        30.580553
      ],
      [
        -97.936472,
        30.580631
      ],
      [
        -97.936772,
        30.580586
      ],
      [
        -97.937124,
        30.580416
      ],
      [
        -97.937571,
        30.580092
      ],
      [
        -97.937725,
        30.57998
      ],
      [
        -97.938129,
        30.579611
      ],
      [
        -97.938789,
        30.578916
      ],
      [
        -97.93903,
        30.578591
      ],
      [
        -97.939227,
        30.578177
      ],
      [
        -97.939347,
        30.577712
      ],
      [
        -97.939347,
        30.577251
      ],
      [
        -97.939347,
        30.57718
      ],
      [
        -97.939382,
        30.576869
      ],
      [
        -97.939485,
        30.576603
      ],
      [
        -97.939631,
        30.576382
      ],
      [
        -97.939965,
        30.575877
      ],
      [
        -97.940032,
        30.575721
      ],
      [
        -97.940086,
        30.575593
      ],
      [
        -97.940163,
        30.575195
      ],
      [
        -97.940285,
        30.574733
      ],
      [
        -97.940514,
        30.574319
      ],
      [
        -97.940978,
        30.573632
      ],
      [
        -97.941641,
        30.572649
      ],
      [
        -97.941751,
        30.572487
      ],
      [
        -97.941767,
        30.572463
      ],
      [
        -97.941795,
        30.572425
      ],
      [
        -97.942377,
        30.5716
      ],
      [
        -97.942925,
        30.570817
      ],
      [
        -97.94305,
        30.570639
      ],
      [
        -97.94322,
        30.570396
      ],
      [
        -97.944227,
        30.568958
      ],
      [
        -97.944349,
        30.569016
      ],
      [
        -97.944561,
        30.569118
      ],
      [
        -97.9459,
        30.569695
      ],
      [
        -97.945982,
        30.569731
      ],
      [
        -97.946941,
        30.570215
      ],
      [
        -97.946964,
        30.570226
      ],
      [
        -97.94744,
        30.570471
      ],
      [
        -97.947665,
        30.570586
      ],
      [
        -97.947872,
        30.570693
      ],
      [
        -97.947885,
        30.570699
      ],
      [
        -97.947937,
        30.570726
      ],
      [
        -97.948154,
        30.570836
      ],
      [
        -97.948351,
        30.570983
      ],
      [
        -97.94857,
        30.571125
      ],
      [
        -97.948704,
        30.571297
      ],
      [
        -97.948815,
        30.571497
      ],
      [
        -97.948962,
        30.571947
      ],
      [
        -97.948981,
        30.572004
      ],
      [
        -97.949133,
        30.572471
      ],
      [
        -97.949313,
        30.573022
      ],
      [
        -97.949375,
        30.57331
      ],
      [
        -97.949386,
        30.573509
      ],
      [
        -97.949361,
        30.573655
      ],
      [
        -97.949323,
        30.573787
      ],
      [
        -97.949223,
        30.573998
      ],
      [
        -97.949049,
        30.574285
      ],
      [
        -97.948815,
        30.574611
      ],
      [
        -97.948428,
        30.575205
      ],
      [
        -97.948344,
        30.57532
      ],
      [
        -97.947076,
        30.577036
      ],
      [
        -97.94663,
        30.577679
      ],
      [
        -97.946376,
        30.578045
      ],
      [
        -97.946349,
        30.578085
      ],
      [
        -97.946279,
        30.57819
      ],
      [
        -97.945125,
        30.57992
      ],
      [
        -97.945064,
        30.58001
      ],
      [
        -97.944982,
        30.580134
      ],
      [
        -97.944822,
        30.580373
      ],
      [
        -97.944722,
        30.580543
      ],
      [
        -97.944461,
        30.580988
      ],
      [
        -97.943751,
        30.582195
      ],
      [
        -97.943476,
        30.582664
      ],
      [
        -97.943313,
        30.582941
      ],
      [
        -97.942869,
        30.58367
      ],
      [
        -97.94231,
        30.584677
      ],
      [
        -97.940579,
        30.58738
      ],
      [
        -97.940493,
        30.587515
      ],
      [
        -97.938389,
        30.590707
      ],
      [
        -97.938039,
        30.591237
      ],
      [
        -97.937514,
        30.592034
      ],
      [
        -97.937326,
        30.592315
      ],
      [
        -97.935277,
        30.595397
      ],
      [
        -97.9351,
        30.595663
      ],
      [
        -97.934582,
        30.596404
      ],
      [
        -97.93422,
        30.596912
      ],
      [
        -97.933957,
        30.597315
      ],
      [
        -97.933478,
        30.597956
      ],
      [
        -97.93307,
        30.598504
      ],
      [
        -97.932584,
        30.59919
      ],
      [
        -97.932139,
        30.599816
      ],
      [
        -97.931841,
        30.600237
      ],
      [
        -97.931742,
        30.60039
      ],
      [
        -97.931639,
        30.600575
      ],
      [
        -97.931621,
        30.600767
      ],
      [
        -97.931673,
        30.600907
      ],
      [
        -97.931776,
        30.601048
      ],
      [
        -97.93183,
        30.601092
      ],
      [
        -97.931934,
        30.601178
      ],
      [
        -97.932738,
        30.601571
      ],
      [
        -97.933471,
        30.601929
      ],
      [
        -97.93487,
        30.602614
      ],
      [
        -97.935244,
        30.602797
      ],
      [
        -97.936089,
        30.603211
      ],
      [
        -97.936335,
        30.603423
      ],
      [
        -97.936344,
        30.603659
      ],
      [
        -97.93522,
        30.605401
      ],
      [
        -97.933493,
        30.608103
      ],
      [
        -97.933434,
        30.608377
      ],
      [
        -97.933498,
        30.608561
      ],
      [
        -97.933579,
        30.608641
      ],
      [
        -97.933709,
        30.608769
      ],
      [
        -97.933723,
        30.608783
      ],
      [
        -97.935111,
        30.609383
      ],
      [
        -97.935263,
        30.609449
      ],
      [
        -97.935422,
        30.609532
      ],
      [
        -97.935682,
        30.609668
      ],
      [
        -97.936484,
        30.610088
      ],
      [
        -97.936956,
        30.610626
      ],
      [
        -97.937484,
        30.611227
      ],
      [
        -97.938547,
        30.612437
      ],
      [
        -97.938564,
        30.612448
      ],
      [
        -97.939617,
        30.613436
      ],
      [
        -97.940515,
        30.614331
      ],
      [
        -97.94064,
        30.614479
      ],
      [
        -97.940735,
        30.614652
      ],
      [
        -97.940772,
        30.61478
      ],
      [
        -97.940778,
        30.6148
      ],
      [
        -97.94079,
        30.614915
      ],
      [
        -97.940799,
        30.615042
      ],
      [
        -97.940803,
        30.615127
      ],
      [
        -97.940808,
        30.615198
      ],
      [
        -97.940818,
        30.615275
      ],
      [
        -97.940827,
        30.615352
      ],
      [
        -97.940881,
        30.615526
      ],
      [
        -97.940924,
        30.615607
      ],
      [
        -97.940974,
        30.615683
      ],
      [
        -97.941033,
        30.615754
      ],
      [
        -97.941097,
        30.61582
      ],
      [
        -97.941907,
        30.616514
      ],
      [
        -97.942023,
        30.616613
      ],
      [
        -97.942236,
        30.616795
      ],
      [
        -97.944138,
        30.618467
      ],
      [
        -97.944239,
        30.618558
      ],
      [
        -97.94438,
        30.618686
      ],
      [
        -97.944489,
        30.618785
      ],
      [
        -97.944624,
        30.618927
      ],
      [
        -97.944652,
        30.618956
      ],
      [
        -97.944799,
        30.619137
      ],
      [
        -97.944829,
        30.61918
      ],
      [
        -97.944931,
        30.619326
      ],
      [
        -97.945084,
        30.619593
      ],
      [
        -97.945172,
        30.619745
      ],
      [
        -97.945238,
        30.619872
      ],
      [
        -97.945272,
        30.619933
      ],
      [
        -97.945398,
        30.620176
      ],
      [
        -97.945499,
        30.62037
      ],
      [
        -97.945525,
        30.620429
      ],
      [
        -97.945672,
        30.620726
      ],
      [
        -97.945697,
        30.620796
      ],
      [
        -97.945715,
        30.620868
      ],
      [
        -97.945722,
        30.620929
      ],
      [
        -97.945723,
        30.620942
      ],
      [
        -97.94572,
        30.621054
      ],
      [
        -97.945707,
        30.621127
      ],
      [
        -97.945693,
        30.621173
      ],
      [
        -97.945463,
        30.621932
      ],
      [
        -97.945435,
        30.622059
      ],
      [
        -97.945419,
        30.622185
      ],
      [
        -97.945413,
        30.622295
      ],
      [
        -97.945412,
        30.622332
      ],
      [
        -97.945414,
        30.622441
      ],
      [
        -97.945425,
        30.622567
      ],
      [
        -97.945447,
        30.622693
      ],
      [
        -97.945558,
        30.623168
      ],
      [
        -97.945673,
        30.623662
      ],
      [
        -97.945691,
        30.623779
      ],
      [
        -97.945702,
        30.623896
      ],
      [
        -97.945703,
        30.62396
      ],
      [
        -97.945703,
        30.623984
      ],
      [
        -97.945704,
        30.62407
      ],
      [
        -97.945697,
        30.624189
      ],
      [
        -97.945671,
        30.624342
      ],
      [
        -97.945622,
        30.624534
      ],
      [
        -97.945611,
        30.624558
      ],
      [
        -97.945544,
        30.624713
      ],
      [
        -97.945453,
        30.624887
      ],
      [
        -97.945289,
        30.625144
      ],
      [
        -97.945029,
        30.62555
      ],
      [
        -97.944912,
        30.625711
      ],
      [
        -97.944841,
        30.625809
      ],
      [
        -97.944743,
        30.625937
      ],
      [
        -97.944668,
        30.626034
      ],
      [
        -97.944204,
        30.626612
      ],
      [
        -97.943872,
        30.627003
      ],
      [
        -97.943815,
        30.627079
      ],
      [
        -97.94377,
        30.627152
      ],
      [
        -97.943723,
        30.627234
      ],
      [
        -97.943684,
        30.627315
      ],
      [
        -97.943656,
        30.627407
      ],
      [
        -97.943651,
        30.627489
      ],
      [
        -97.943653,
        30.627572
      ],
      [
        -97.943676,
        30.627659
      ],
      [
        -97.94371,
        30.627742
      ],
      [
        -97.943739,
        30.62782
      ],
      [
        -97.943778,
        30.627923
      ],
      [
        -97.944015,
        30.628467
      ],
      [
        -97.944261,
        30.629035
      ],
      [
        -97.94436,
        30.629262
      ],
      [
        -97.944474,
        30.629522
      ],
      [
        -97.944618,
        30.629852
      ],
      [
        -97.944718,
        30.630081
      ],
      [
        -97.944793,
        30.630252
      ],
      [
        -97.9448,
        30.63027
      ],
      [
        -97.944904,
        30.630521
      ],
      [
        -97.945042,
        30.630853
      ],
      [
        -97.945061,
        30.630922
      ],
      [
        -97.945073,
        30.631037
      ],
      [
        -97.945064,
        30.631133
      ],
      [
        -97.945047,
        30.631202
      ],
      [
        -97.945022,
        30.631271
      ],
      [
        -97.944987,
        30.631334
      ],
      [
        -97.944945,
        30.631396
      ],
      [
        -97.944898,
        30.631451
      ],
      [
        -97.944842,
        30.631505
      ],
      [
        -97.94478,
        30.63155
      ],
      [
        -97.944454,
        30.631739
      ],
      [
        -97.944122,
        30.631912
      ],
      [
        -97.943636,
        30.632165
      ],
      [
        -97.943608,
        30.632179
      ],
      [
        -97.943271,
        30.632354
      ],
      [
        -97.942918,
        30.632538
      ],
      [
        -97.942806,
        30.632605
      ],
      [
        -97.942699,
        30.632677
      ],
      [
        -97.942598,
        30.632757
      ],
      [
        -97.942504,
        30.63284
      ],
      [
        -97.942416,
        30.63293
      ],
      [
        -97.942363,
        30.632994
      ],
      [
        -97.942068,
        30.633354
      ],
      [
        -97.941751,
        30.633717
      ],
      [
        -97.940962,
        30.634618
      ],
      [
        -97.940649,
        30.634955
      ],
      [
        -97.940366,
        30.635293
      ],
      [
        -97.939678,
        30.636178
      ],
      [
        -97.939438,
        30.636486
      ],
      [
        -97.939387,
        30.636564
      ],
      [
        -97.939345,
        30.636646
      ],
      [
        -97.939309,
        30.63673
      ],
      [
        -97.939281,
        30.636818
      ],
      [
        -97.939263,
        30.636905
      ],
      [
        -97.939251,
        30.636995
      ],
      [
        -97.939248,
        30.637129
      ],
      [
        -97.939257,
        30.63721
      ],
      [
        -97.939285,
        30.637357
      ],
      [
        -97.939302,
        30.637429
      ],
      [
        -97.93932,
        30.637503
      ],
      [
        -97.939349,
        30.637602
      ],
      [
        -97.939364,
        30.637642
      ],
      [
        -97.939575,
        30.638162
      ],
      [
        -97.93964,
        30.638317
      ],
      [
        -97.939974,
        30.639107
      ],
      [
        -97.941459,
        30.64263
      ],
      [
        -97.942081,
        30.644122
      ],
      [
        -97.942419,
        30.644933
      ],
      [
        -97.942589,
        30.645342
      ],
      [
        -97.943044,
        30.646387
      ],
      [
        -97.943884,
        30.648365
      ],
      [
        -97.944494,
        30.64977
      ],
      [
        -97.945831,
        30.652857
      ],
      [
        -97.946037,
        30.653366
      ],
      [
        -97.946093,
        30.65359
      ],
      [
        -97.946116,
        30.653729
      ],
      [
        -97.946112,
        30.653855
      ],
      [
        -97.946108,
        30.653897
      ],
      [
        -97.9461,
        30.653941
      ],
      [
        -97.946074,
        30.654024
      ],
      [
        -97.94605,
        30.654083
      ],
      [
        -97.946015,
        30.654151
      ],
      [
        -97.945964,
        30.65423
      ],
      [
        -97.945917,
        30.654284
      ],
      [
        -97.945864,
        30.654331
      ],
      [
        -97.945782,
        30.654386
      ],
      [
        -97.94565,
        30.654458
      ],
      [
        -97.945342,
        30.654623
      ],
      [
        -97.944809,
        30.654914
      ],
      [
        -97.942885,
        30.655953
      ],
      [
        -97.94242,
        30.656198
      ],
      [
        -97.942314,
        30.65626
      ],
      [
        -97.94217,
        30.656344
      ],
      [
        -97.94199,
        30.656467
      ],
      [
        -97.941869,
        30.656562
      ],
      [
        -97.941799,
        30.656626
      ],
      [
        -97.941717,
        30.656714
      ],
      [
        -97.941592,
        30.656867
      ],
      [
        -97.941473,
        30.657036
      ],
      [
        -97.94139,
        30.657174
      ],
      [
        -97.941316,
        30.657324
      ],
      [
        -97.941277,
        30.65742
      ],
      [
        -97.941253,
        30.657502
      ],
      [
        -97.941217,
        30.657721
      ],
      [
        -97.941211,
        30.657841
      ],
      [
        -97.94121,
        30.658207
      ],
      [
        -97.941217,
        30.65831
      ],
      [
        -97.941241,
        30.65869
      ],
      [
        -97.941304,
        30.659214
      ],
      [
        -97.941412,
        30.659874
      ],
      [
        -97.941418,
        30.65997
      ],
      [
        -97.941418,
        30.659991
      ],
      [
        -97.941413,
        30.660185
      ],
      [
        -97.941186,
        30.660152
      ],
      [
        -97.939919,
        30.659965
      ],
      [
        -97.939637,
        30.659939
      ],
      [
        -97.939291,
        30.659933
      ],
      [
        -97.938883,
        30.659966
      ],
      [
        -97.93826,
        30.66005
      ],
      [
        -97.937536,
        30.660143
      ],
      [
        -97.936769,
        30.660236
      ],
      [
        -97.936359,
        30.660286
      ],
      [
        -97.935887,
        30.660375
      ],
      [
        -97.935112,
        30.660608
      ],
      [
        -97.934871,
        30.660687
      ],
      [
        -97.933781,
        30.661047
      ],
      [
        -97.933428,
        30.661182
      ],
      [
        -97.933283,
        30.661246
      ],
      [
        -97.933002,
        30.66137
      ],
      [
        -97.932647,
        30.661526
      ],
      [
        -97.932075,
        30.661793
      ],
      [
        -97.931894,
        30.661877
      ],
      [
        -97.931757,
        30.661934
      ],
      [
        -97.931588,
        30.661996
      ],
      [
        -97.931156,
        30.662139
      ],
      [
        -97.930856,
        30.662222
      ],
      [
        -97.930581,
        30.662299
      ],
      [
        -97.930154,
        30.662415
      ],
      [
        -97.929587,
        30.662561
      ],
      [
        -97.928791,
        30.662753
      ],
      [
        -97.928097,
        30.662972
      ],
      [
        -97.927909,
        30.663051
      ],
      [
        -97.92785,
        30.663076
      ],
      [
        -97.926816,
        30.663531
      ],
      [
        -97.926442,
        30.663694
      ],
      [
        -97.926339,
        30.663731
      ],
      [
        -97.925934,
        30.663872
      ],
      [
        -97.925435,
        30.664035
      ],
      [
        -97.924629,
        30.664279
      ],
      [
        -97.924342,
        30.664376
      ],
      [
        -97.924112,
        30.664448
      ],
      [
        -97.923757,
        30.66455
      ],
      [
        -97.923251,
        30.664712
      ],
      [
        -97.922733,
        30.664899
      ],
      [
        -97.921837,
        30.665156
      ],
      [
        -97.920936,
        30.665447
      ],
      [
        -97.920706,
        30.66552
      ],
      [
        -97.920621,
        30.665547
      ],
      [
        -97.920337,
        30.665638
      ],
      [
        -97.920268,
        30.66566
      ],
      [
        -97.92004,
        30.665727
      ],
      [
        -97.91969,
        30.665836
      ],
      [
        -97.919494,
        30.665885
      ],
      [
        -97.919342,
        30.665911
      ],
      [
        -97.919323,
        30.665913
      ],
      [
        -97.919288,
        30.665917
      ],
      [
        -97.91925,
        30.665921
      ],
      [
        -97.918955,
        30.66593
      ],
      [
        -97.918829,
        30.665941
      ],
      [
        -97.918711,
        30.665963
      ],
      [
        -97.918589,
        30.666004
      ],
      [
        -97.918456,
        30.66607
      ],
      [
        -97.918419,
        30.666097
      ],
      [
        -97.918328,
        30.666163
      ],
      [
        -97.918267,
        30.666207
      ],
      [
        -97.918224,
        30.666238
      ],
      [
        -97.918097,
        30.666329
      ],
      [
        -97.917994,
        30.666403
      ],
      [
        -97.917949,
        30.666432
      ],
      [
        -97.917605,
        30.66665
      ],
      [
        -97.917441,
        30.666747
      ],
      [
        -97.91699,
        30.667022
      ],
      [
        -97.916912,
        30.667065
      ],
      [
        -97.916725,
        30.667178
      ],
      [
        -97.91646,
        30.667328
      ],
      [
        -97.916314,
        30.667403
      ],
      [
        -97.916212,
        30.667448
      ],
      [
        -97.916106,
        30.66749
      ],
      [
        -97.916024,
        30.667518
      ],
      [
        -97.91595,
        30.667541
      ],
      [
        -97.915859,
        30.667563
      ],
      [
        -97.915792,
        30.667576
      ],
      [
        -97.915583,
        30.667614
      ],
      [
        -97.915166,
        30.667669
      ],
      [
        -97.915032,
        30.667686
      ],
      [
        -97.914429,
        30.667759
      ],
      [
        -97.91395,
        30.667813
      ],
      [
        -97.913314,
        30.667885
      ],
      [
        -97.913294,
        30.668022
      ],
      [
        -97.913189,
        30.668144
      ],
      [
        -97.913059,
        30.66834
      ],
      [
        -97.912992,
        30.66855
      ],
      [
        -97.912988,
        30.66858
      ],
      [
        -97.912978,
        30.668664
      ],
      [
        -97.912921,
        30.668783
      ],
      [
        -97.912799,
        30.668721
      ],
      [
        -97.912647,
        30.668644
      ],
      [
        -97.912455,
        30.668547
      ],
      [
        -97.912373,
        30.668505
      ],
      [
        -97.912297,
        30.668466
      ],
      [
        -97.912013,
        30.668322
      ],
      [
        -97.911685,
        30.668156
      ],
      [
        -97.911569,
        30.668097
      ],
      [
        -97.911108,
        30.667855
      ],
      [
        -97.911067,
        30.667835
      ],
      [
        -97.910778,
        30.667693
      ],
      [
        -97.910376,
        30.667496
      ],
      [
        -97.909928,
        30.667268
      ],
      [
        -97.909495,
        30.667047
      ],
      [
        -97.909155,
        30.666874
      ],
      [
        -97.908964,
        30.666777
      ],
      [
        -97.908608,
        30.666596
      ],
      [
        -97.907799,
        30.666184
      ],
      [
        -97.907651,
        30.666108
      ],
      [
        -97.906903,
        30.665727
      ],
      [
        -97.906598,
        30.665572
      ],
      [
        -97.906403,
        30.665473
      ],
      [
        -97.906341,
        30.665441
      ],
      [
        -97.906135,
        30.665337
      ],
      [
        -97.905668,
        30.665102
      ],
      [
        -97.905256,
        30.664894
      ],
      [
        -97.905123,
        30.664826
      ],
      [
        -97.904461,
        30.664523
      ],
      [
        -97.90272,
        30.663721
      ],
      [
        -97.902171,
        30.663477
      ],
      [
        -97.901462,
        30.663144
      ],
      [
        -97.901112,
        30.662994
      ],
      [
        -97.900887,
        30.662898
      ],
      [
        -97.900565,
        30.662759
      ],
      [
        -97.900047,
        30.662537
      ],
      [
        -97.898854,
        30.662038
      ],
      [
        -97.898526,
        30.661901
      ],
      [
        -97.898001,
        30.661674
      ],
      [
        -97.897801,
        30.661587
      ],
      [
        -97.897485,
        30.66146
      ],
      [
        -97.897143,
        30.661321
      ],
      [
        -97.896889,
        30.661217
      ],
      [
        -97.896803,
        30.661182
      ],
      [
        -97.896287,
        30.660969
      ],
      [
        -97.896179,
        30.660928
      ],
      [
        -97.895584,
        30.660692
      ],
      [
        -97.895332,
        30.660585
      ],
      [
        -97.895239,
        30.660547
      ],
      [
        -97.895221,
        30.66054
      ],
      [
        -97.894732,
        30.660343
      ],
      [
        -97.894327,
        30.660194
      ],
      [
        -97.893877,
        30.660039
      ],
      [
        -97.892972,
        30.659675
      ],
      [
        -97.891423,
        30.659053
      ],
      [
        -97.890943,
        30.65886
      ],
      [
        -97.890893,
        30.65884
      ],
      [
        -97.890859,
        30.658827
      ],
      [
        -97.890381,
        30.65864
      ],
      [
        -97.890042,
        30.658511
      ],
      [
        -97.889555,
        30.658326
      ],
      [
        -97.889497,
        30.658303
      ],
      [
        -97.889362,
        30.658252
      ],
      [
        -97.888734,
        30.658013
      ],
      [
        -97.888655,
        30.657986
      ],
      [
        -97.888065,
        30.657781
      ],
      [
        -97.887273,
        30.657506
      ],
      [
        -97.886897,
        30.657376
      ],
      [
        -97.886513,
        30.657242
      ],
      [
        -97.884947,
        30.656709
      ],
      [
        -97.88417,
        30.656426
      ],
      [
        -97.882707,
        30.655913
      ],
      [
        -97.882196,
        30.655734
      ],
      [
        -97.881379,
        30.655451
      ],
      [
        -97.879757,
        30.654888
      ],
      [
        -97.878941,
        30.654578
      ],
      [
        -97.87838,
        30.654371
      ],
      [
        -97.877518,
        30.654053
      ],
      [
        -97.877366,
        30.653993
      ],
      [
        -97.876652,
        30.653725
      ],
      [
        -97.876323,
        30.653615
      ]
    ],
    "type": "LineString"
  }
}
