{
  "type": "Feature",
  "properties": {},
  "geometry": {
    "coordinates": [
      [
        -97.877436,
        30.654021
      ],
      [
        -97.877366,
        30.653993
      ],
      [
        -97.876652,
        30.653725
      ],
      [
        -97.875496,
        30.653339
      ],
      [
        -97.875699,
        30.653869
      ],
      [
        -97.875715,
        30.653916
      ],
      [
        -97.875779,
        30.654058
      ],
      [
        -97.875979,
        30.654542
      ],
      [
        -97.876104,
        30.654849
      ],
      [
        -97.876118,
        30.654885
      ],
      [
        -97.87635,
        30.655468
      ],
      [
        -97.876726,
        30.65638
      ],
      [
        -97.876889,
        30.656785
      ],
      [
        -97.877186,
        30.657542
      ],
      [
        -97.877628,
        30.658668
      ],
      [
        -97.878027,
        30.659662
      ],
      [
        -97.878156,
        30.659982
      ],
      [
        -97.878326,
        30.660718
      ],
      [
        -97.878395,
        30.661018
      ],
      [
        -97.878467,
        30.661377
      ],
      [
        -97.878549,
        30.661806
      ],
      [
        -97.87877,
        30.663064
      ],
      [
        -97.878868,
        30.663808
      ],
      [
        -97.878992,
        30.664418
      ],
      [
        -97.879084,
        30.664932
      ],
      [
        -97.879144,
        30.665176
      ],
      [
        -97.879267,
        30.665483
      ],
      [
        -97.879775,
        30.66658
      ],
      [
        -97.879858,
        30.66676
      ],
      [
        -97.87997,
        30.666999
      ],
      [
        -97.880006,
        30.667091
      ],
      [
        -97.880073,
        30.667258
      ],
      [
        -97.880169,
        30.667568
      ],
      [
        -97.880219,
        30.668364
      ],
      [
        -97.880123,
        30.669164
      ],
      [
        -97.88,
        30.670158
      ],
      [
        -97.879979,
        30.670327
      ],
      [
        -97.879748,
        30.672223
      ],
      [
        -97.879694,
        30.672663
      ],
      [
        -97.87969,
        30.672702
      ],
      [
        -97.87968,
        30.67279
      ],
      [
        -97.879528,
        30.674103
      ],
      [
        -97.879327,
        30.675772
      ],
      [
        -97.879177,
        30.676959
      ],
      [
        -97.879114,
        30.677461
      ],
      [
        -97.879109,
        30.677497
      ],
      [
        -97.879104,
        30.677575
      ],
      [
        -97.879075,
        30.677999
      ],
      [
        -97.879053,
        30.678364
      ],
      [
        -97.879045,
        30.678659
      ],
      [
        -97.879034,
        30.679048
      ],
      [
        -97.879024,
        30.679828
      ],
      [
        -97.879009,
        30.681094
      ],
      [
        -97.879008,
        30.68117
      ],
      [
        -97.879007,
        30.68143
      ],
      [
        -97.879009,
        30.683509
      ],
      [
        -97.879012,
        30.686087
      ],
      [
        -97.878998,
        30.68707
      ],
      [
        -97.878986,
        30.687903
      ],
      [
        -97.878973,
        30.688846
      ],
      [
        -97.87897,
        30.689329
      ],
      [
        -97.878969,
        30.68957
      ],
      [
        -97.878967,
        30.690015
      ],
      [
        -97.878944,
        30.690542
      ],
      [
        -97.878914,
        30.690869
      ],
      [
        -97.878854,
        30.691341
      ],
      [
        -97.878802,
        30.69175
      ],
      [
        -97.87873,
        30.692195
      ],
      [
        -97.878726,
        30.692218
      ],
      [
        -97.878488,
        30.693689
      ],
      [
        -97.878301,
        30.69484
      ],
      [
        -97.878232,
        30.695263
      ],
      [
        -97.878112,
        30.696003
      ],
      [
        -97.878022,
        30.696559
      ],
      [
        -97.877959,
        30.697075
      ],
      [
        -97.877945,
        30.697187
      ],
      [
        -97.877916,
        30.697559
      ],
      [
        -97.87791,
        30.697649
      ],
      [
        -97.877835,
        30.698833
      ],
      [
        -97.877799,
        30.699465
      ],
      [
        -97.877778,
        30.699841
      ],
      [
        -97.877758,
        30.700192
      ],
      [
        -97.877673,
        30.701572
      ],
      [
        -97.877625,
        30.702511
      ],
      [
        -97.877566,
        30.703559
      ],
      [
        -97.877514,
        30.704513
      ],
      [
        -97.877479,
        30.705037
      ],
      [
        -97.877459,
        30.705231
      ],
      [
        -97.877423,
        30.705589
      ],
      [
        -97.877415,
        30.705744
      ],
      [
        -97.877352,
        30.707051
      ],
      [
        -97.877278,
        30.708236
      ],
      [
        -97.877231,
        30.708984
      ],
      [
        -97.877168,
        30.709984
      ],
      [
        -97.877086,
        30.711315
      ],
      [
        -97.877033,
        30.712197
      ],
      [
        -97.876917,
        30.714127
      ],
      [
        -97.876907,
        30.714277
      ],
      [
        -97.876865,
        30.714923
      ],
      [
        -97.876815,
        30.715822
      ],
      [
        -97.876736,
        30.71725
      ],
      [
        -97.876602,
        30.71936
      ],
      [
        -97.876541,
        30.720326
      ],
      [
        -97.876508,
        30.720851
      ],
      [
        -97.876488,
        30.721236
      ],
      [
        -97.87646,
        30.721721
      ],
      [
        -97.876418,
        30.722454
      ],
      [
        -97.876401,
        30.7228
      ],
      [
        -97.876283,
        30.725243
      ],
      [
        -97.876273,
        30.725945
      ],
      [
        -97.876294,
        30.729152
      ],
      [
        -97.876339,
        30.731769
      ],
      [
        -97.876354,
        30.732643
      ],
      [
        -97.876355,
        30.732675
      ],
      [
        -97.876365,
        30.734071
      ],
      [
        -97.876373,
        30.73514
      ],
      [
        -97.876387,
        30.736071
      ],
      [
        -97.876408,
        30.737174
      ],
      [
        -97.876409,
        30.737283
      ],
      [
        -97.876418,
        30.738078
      ],
      [
        -97.876421,
        30.738322
      ],
      [
        -97.876445,
        30.739896
      ],
      [
        -97.876452,
        30.740717
      ],
      [
        -97.876458,
        30.741436
      ],
      [
        -97.87646,
        30.741696
      ],
      [
        -97.876518,
        30.745822
      ],
      [
        -97.876578,
        30.750904
      ],
      [
        -97.876581,
        30.75114
      ],
      [
        -97.87662,
        30.754208
      ],
      [
        -97.876642,
        30.756185
      ],
      [
        -97.876647,
        30.756658
      ],
      [
        -97.876652,
        30.75714
      ],
      [
        -97.876696,
        30.760484
      ],
      [
        -97.876708,
        30.761391
      ],
      [
        -97.876711,
        30.761593
      ],
      [
        -97.876717,
        30.762107
      ],
      [
        -97.876825,
        30.771286
      ],
      [
        -97.876863,
        30.773091
      ],
      [
        -97.876887,
        30.773465
      ],
      [
        -97.87692,
        30.773845
      ],
      [
        -97.877077,
        30.774898
      ],
      [
        -97.877168,
        30.775423
      ],
      [
        -97.877297,
        30.775953
      ],
      [
        -97.877449,
        30.776478
      ],
      [
        -97.877607,
        30.776955
      ],
      [
        -97.87803,
        30.778023
      ],
      [
        -97.878181,
        30.778405
      ],
      [
        -97.878366,
        30.778857
      ],
      [
        -97.878768,
        30.779836
      ],
      [
        -97.880186,
        30.78325
      ],
      [
        -97.880215,
        30.783319
      ],
      [
        -97.882196,
        30.788094
      ],
      [
        -97.882279,
        30.788293
      ],
      [
        -97.882641,
        30.78917
      ],
      [
        -97.883497,
        30.791242
      ],
      [
        -97.885219,
        30.795411
      ],
      [
        -97.885434,
        30.795933
      ],
      [
        -97.885689,
        30.79655
      ],
      [
        -97.886289,
        30.797982
      ],
      [
        -97.887195,
        30.800168
      ],
      [
        -97.889321,
        30.805291
      ],
      [
        -97.891155,
        30.809703
      ],
      [
        -97.891553,
        30.810704
      ],
      [
        -97.891644,
        30.810924
      ],
      [
        -97.891667,
        30.810977
      ],
      [
        -97.894082,
        30.816797
      ],
      [
        -97.894322,
        30.817377
      ],
      [
        -97.894412,
        30.817593
      ],
      [
        -97.89445,
        30.817684
      ],
      [
        -97.894559,
        30.817945
      ],
      [
        -97.89474,
        30.818382
      ],
      [
        -97.894852,
        30.818649
      ],
      [
        -97.895317,
        30.819754
      ],
      [
        -97.895451,
        30.820073
      ],
      [
        -97.895692,
        30.820663
      ],
      [
        -97.895826,
        30.820991
      ],
      [
        -97.89585,
        30.821048
      ],
      [
        -97.896341,
        30.822228
      ],
      [
        -97.896577,
        30.822794
      ],
      [
        -97.896622,
        30.822903
      ],
      [
        -97.897017,
        30.823862
      ],
      [
        -97.897118,
        30.824108
      ],
      [
        -97.897325,
        30.824595
      ],
      [
        -97.897338,
        30.824627
      ],
      [
        -97.897349,
        30.824653
      ],
      [
        -97.897377,
        30.82472
      ],
      [
        -97.897429,
        30.824848
      ],
      [
        -97.897558,
        30.825159
      ],
      [
        -97.897625,
        30.82532
      ],
      [
        -97.897674,
        30.82544
      ],
      [
        -97.898259,
        30.826853
      ],
      [
        -97.898401,
        30.827197
      ],
      [
        -97.898417,
        30.827237
      ],
      [
        -97.898597,
        30.827671
      ],
      [
        -97.898746,
        30.828066
      ],
      [
        -97.899837,
        30.830648
      ],
      [
        -97.900753,
        30.832898
      ],
      [
        -97.901652,
        30.835125
      ],
      [
        -97.901956,
        30.835809
      ],
      [
        -97.902229,
        30.836445
      ],
      [
        -97.90297,
        30.838243
      ],
      [
        -97.903174,
        30.838757
      ],
      [
        -97.903188,
        30.838788
      ],
      [
        -97.903664,
        30.839911
      ],
      [
        -97.90432,
        30.84141
      ],
      [
        -97.904424,
        30.841719
      ],
      [
        -97.904881,
        30.843215
      ],
      [
        -97.905115,
        30.844009
      ],
      [
        -97.905153,
        30.844174
      ],
      [
        -97.906047,
        30.847001
      ],
      [
        -97.906477,
        30.848087
      ],
      [
        -97.906604,
        30.848391
      ],
      [
        -97.907201,
        30.84986
      ],
      [
        -97.907887,
        30.851546
      ],
      [
        -97.908503,
        30.852872
      ],
      [
        -97.910354,
        30.857428
      ],
      [
        -97.911638,
        30.860459
      ],
      [
        -97.911771,
        30.86075
      ],
      [
        -97.914273,
        30.866454
      ],
      [
        -97.914392,
        30.866731
      ],
      [
        -97.915151,
        30.868494
      ],
      [
        -97.918283,
        30.876273
      ],
      [
        -97.919949,
        30.880226
      ],
      [
        -97.920087,
        30.880551
      ],
      [
        -97.920382,
        30.881248
      ],
      [
        -97.920779,
        30.882176
      ],
      [
        -97.920925,
        30.882499
      ],
      [
        -97.921004,
        30.882657
      ],
      [
        -97.921069,
        30.882778
      ],
      [
        -97.921134,
        30.882898
      ],
      [
        -97.921304,
        30.88318
      ],
      [
        -97.921418,
        30.883351
      ],
      [
        -97.921549,
        30.883512
      ],
      [
        -97.921685,
        30.88368
      ],
      [
        -97.92183,
        30.883836
      ],
      [
        -97.92202,
        30.884029
      ],
      [
        -97.922196,
        30.884194
      ],
      [
        -97.922388,
        30.884361
      ],
      [
        -97.922571,
        30.884507
      ],
      [
        -97.922753,
        30.884636
      ],
      [
        -97.92298,
        30.884791
      ],
      [
        -97.923121,
        30.88488
      ],
      [
        -97.923177,
        30.884916
      ],
      [
        -97.923391,
        30.885041
      ],
      [
        -97.924447,
        30.885637
      ],
      [
        -97.924932,
        30.885907
      ],
      [
        -97.925935,
        30.886457
      ],
      [
        -97.926448,
        30.886739
      ],
      [
        -97.92739,
        30.887282
      ],
      [
        -97.927691,
        30.88745
      ],
      [
        -97.928393,
        30.887844
      ],
      [
        -97.928634,
        30.887973
      ],
      [
        -97.929019,
        30.888171
      ],
      [
        -97.92933,
        30.888326
      ],
      [
        -97.929688,
        30.888493
      ],
      [
        -97.930072,
        30.888659
      ],
      [
        -97.931163,
        30.889131
      ],
      [
        -97.931339,
        30.889205
      ],
      [
        -97.931709,
        30.88936
      ],
      [
        -97.931908,
        30.889436
      ],
      [
        -97.932045,
        30.889488
      ],
      [
        -97.932387,
        30.889607
      ],
      [
        -97.932717,
        30.889701
      ],
      [
        -97.933023,
        30.889773
      ],
      [
        -97.933295,
        30.889824
      ],
      [
        -97.933581,
        30.889865
      ],
      [
        -97.933898,
        30.889897
      ],
      [
        -97.934307,
        30.889923
      ],
      [
        -97.934541,
        30.889927
      ],
      [
        -97.935128,
        30.889931
      ],
      [
        -97.935303,
        30.889933
      ],
      [
        -97.935402,
        30.889933
      ],
      [
        -97.939831,
        30.889936
      ],
      [
        -97.940473,
        30.88995
      ],
      [
        -97.942349,
        30.889991
      ],
      [
        -97.945825,
        30.890077
      ],
      [
        -97.948969,
        30.890144
      ],
      [
        -97.950956,
        30.890194
      ],
      [
        -97.951658,
        30.890221
      ],
      [
        -97.951776,
        30.890237
      ],
      [
        -97.952305,
        30.89031
      ],
      [
        -97.952472,
        30.890339
      ],
      [
        -97.952995,
        30.89043
      ],
      [
        -97.953609,
        30.890582
      ],
      [
        -97.954064,
        30.890719
      ],
      [
        -97.956555,
        30.891678
      ],
      [
        -97.958415,
        30.892465
      ],
      [
        -97.958669,
        30.892573
      ],
      [
        -97.958816,
        30.892655
      ],
      [
        -97.959711,
        30.893153
      ],
      [
        -97.960295,
        30.893573
      ],
      [
        -97.960665,
        30.893896
      ],
      [
        -97.961054,
        30.89426
      ],
      [
        -97.961412,
        30.894595
      ],
      [
        -97.962698,
        30.895949
      ],
      [
        -97.968898,
        30.902477
      ],
      [
        -97.96965,
        30.903324
      ],
      [
        -97.970141,
        30.90396
      ],
      [
        -97.970926,
        30.905105
      ],
      [
        -97.971558,
        30.906208
      ],
      [
        -97.972359,
        30.907512
      ],
      [
        -97.974957,
        30.911743
      ],
      [
        -97.97524,
        30.912147
      ],
      [
        -97.975446,
        30.912407
      ],
      [
        -97.975709,
        30.912715
      ],
      [
        -97.97579,
        30.912809
      ],
      [
        -97.976025,
        30.913063
      ],
      [
        -97.976298,
        30.913358
      ],
      [
        -97.977958,
        30.915151
      ],
      [
        -97.978961,
        30.916233
      ],
      [
        -97.980119,
        30.917469
      ],
      [
        -97.981539,
        30.919041
      ],
      [
        -97.981627,
        30.919136
      ],
      [
        -97.982189,
        30.919745
      ],
      [
        -97.983872,
        30.921569
      ],
      [
        -97.984603,
        30.922361
      ],
      [
        -97.984762,
        30.922519
      ],
      [
        -97.9856,
        30.92343
      ],
      [
        -97.986459,
        30.924372
      ],
      [
        -97.987101,
        30.925055
      ],
      [
        -97.98744,
        30.925416
      ],
      [
        -97.987662,
        30.925621
      ],
      [
        -97.987869,
        30.925792
      ],
      [
        -97.988128,
        30.925979
      ],
      [
        -97.988379,
        30.926137
      ],
      [
        -97.988665,
        30.926294
      ],
      [
        -97.988922,
        30.926414
      ],
      [
        -97.989206,
        30.926529
      ],
      [
        -97.989419,
        30.926598
      ],
      [
        -97.989548,
        30.92664
      ],
      [
        -97.989772,
        30.926702
      ],
      [
        -97.990094,
        30.926771
      ],
      [
        -97.990909,
        30.926904
      ],
      [
        -97.991063,
        30.92692
      ],
      [
        -97.99201,
        30.927036
      ],
      [
        -97.993466,
        30.92721
      ],
      [
        -97.993665,
        30.927232
      ],
      [
        -97.995127,
        30.92741
      ],
      [
        -97.995285,
        30.927427
      ],
      [
        -97.996383,
        30.927572
      ],
      [
        -97.996452,
        30.92758
      ],
      [
        -97.998947,
        30.927885
      ],
      [
        -97.99903,
        30.927895
      ],
      [
        -97.999849,
        30.92799
      ],
      [
        -98.000924,
        30.928152
      ],
      [
        -98.001557,
        30.928287
      ],
      [
        -98.002037,
        30.928402
      ],
      [
        -98.002441,
        30.928499
      ],
      [
        -98.003155,
        30.928679
      ],
      [
        -98.003669,
        30.928826
      ],
      [
        -98.00417,
        30.928995
      ],
      [
        -98.005024,
        30.929318
      ],
      [
        -98.005846,
        30.92974
      ],
      [
        -98.006276,
        30.929973
      ],
      [
        -98.006946,
        30.930337
      ],
      [
        -98.013676,
        30.93399
      ],
      [
        -98.01449,
        30.934326
      ],
      [
        -98.016028,
        30.934953
      ],
      [
        -98.016149,
        30.935002
      ],
      [
        -98.016623,
        30.935186
      ],
      [
        -98.018681,
        30.936013
      ],
      [
        -98.019268,
        30.936276
      ],
      [
        -98.019297,
        30.936293
      ],
      [
        -98.019598,
        30.936453
      ],
      [
        -98.020047,
        30.936686
      ],
      [
        -98.020461,
        30.936928
      ],
      [
        -98.023473,
        30.939217
      ],
      [
        -98.023559,
        30.939277
      ],
      [
        -98.024359,
        30.939973
      ],
      [
        -98.02479,
        30.9404
      ],
      [
        -98.024964,
        30.940572
      ],
      [
        -98.025178,
        30.94084
      ],
      [
        -98.02546,
        30.941219
      ],
      [
        -98.025619,
        30.941478
      ],
      [
        -98.026,
        30.942147
      ],
      [
        -98.026706,
        30.943362
      ],
      [
        -98.027329,
        30.944501
      ],
      [
        -98.028008,
        30.945709
      ],
      [
        -98.028342,
        30.94632
      ],
      [
        -98.029114,
        30.947685
      ],
      [
        -98.029161,
        30.947769
      ],
      [
        -98.029204,
        30.947847
      ],
      [
        -98.029257,
        30.947941
      ],
      [
        -98.02935,
        30.948106
      ],
      [
        -98.029577,
        30.948512
      ],
      [
        -98.029825,
        30.948888
      ],
      [
        -98.030096,
        30.949255
      ],
      [
        -98.030227,
        30.949409
      ],
      [
        -98.030575,
        30.949817
      ],
      [
        -98.030656,
        30.949889
      ],
      [
        -98.03067,
        30.949902
      ],
      [
        -98.031092,
        30.950294
      ],
      [
        -98.031583,
        30.950616
      ],
      [
        -98.032459,
        30.951071
      ],
      [
        -98.032919,
        30.951304
      ],
      [
        -98.034555,
        30.952135
      ],
      [
        -98.035394,
        30.952579
      ],
      [
        -98.036179,
        30.953093
      ],
      [
        -98.036815,
        30.953619
      ],
      [
        -98.037978,
        30.954615
      ],
      [
        -98.04068,
        30.95693
      ],
      [
        -98.042173,
        30.958199
      ],
      [
        -98.04383,
        30.959461
      ],
      [
        -98.044481,
        30.959956
      ],
      [
        -98.045033,
        30.960371
      ],
      [
        -98.045131,
        30.96044
      ],
      [
        -98.046197,
        30.961203
      ],
      [
        -98.046268,
        30.961256
      ],
      [
        -98.047638,
        30.962292
      ],
      [
        -98.048296,
        30.96273
      ],
      [
        -98.049048,
        30.963159
      ],
      [
        -98.049672,
        30.963456
      ],
      [
        -98.054578,
        30.965587
      ],
      [
        -98.056114,
        30.966254
      ],
      [
        -98.056561,
        30.966458
      ],
      [
        -98.057109,
        30.966708
      ],
      [
        -98.05791,
        30.967073
      ],
      [
        -98.058272,
        30.967238
      ],
      [
        -98.059452,
        30.967794
      ],
      [
        -98.060362,
        30.968223
      ],
      [
        -98.064008,
        30.969948
      ],
      [
        -98.064949,
        30.970393
      ],
      [
        -98.066696,
        30.97122
      ],
      [
        -98.075355,
        30.975378
      ],
      [
        -98.07846,
        30.976807
      ],
      [
        -98.079464,
        30.977369
      ],
      [
        -98.080353,
        30.977974
      ],
      [
        -98.081299,
        30.978845
      ],
      [
        -98.081844,
        30.979487
      ],
      [
        -98.084599,
        30.982813
      ],
      [
        -98.085199,
        30.983426
      ],
      [
        -98.085679,
        30.983814
      ],
      [
        -98.086192,
        30.984257
      ],
      [
        -98.087068,
        30.984792
      ],
      [
        -98.087971,
        30.985257
      ],
      [
        -98.088073,
        30.985316
      ],
      [
        -98.091126,
        30.986699
      ],
      [
        -98.094859,
        30.988426
      ],
      [
        -98.095084,
        30.988529
      ],
      [
        -98.095371,
        30.988669
      ],
      [
        -98.098274,
        30.990014
      ],
      [
        -98.100697,
        30.991142
      ],
      [
        -98.10217,
        30.991836
      ],
      [
        -98.102649,
        30.992084
      ],
      [
        -98.103115,
        30.992353
      ],
      [
        -98.103392,
        30.992525
      ],
      [
        -98.103837,
        30.992836
      ],
      [
        -98.104276,
        30.993167
      ],
      [
        -98.104297,
        30.993182
      ],
      [
        -98.10466,
        30.993482
      ],
      [
        -98.106872,
        30.995423
      ],
      [
        -98.107889,
        30.996316
      ],
      [
        -98.109912,
        30.998077
      ],
      [
        -98.110205,
        30.998342
      ],
      [
        -98.110532,
        30.998638
      ],
      [
        -98.110856,
        30.99893
      ],
      [
        -98.111143,
        30.99921
      ],
      [
        -98.111433,
        30.99952
      ],
      [
        -98.111776,
        30.999911
      ],
      [
        -98.111979,
        31.000159
      ],
      [
        -98.112007,
        31.000198
      ],
      [
        -98.11256,
        31.000969
      ],
      [
        -98.113317,
        31.002003
      ],
      [
        -98.114021,
        31.002986
      ],
      [
        -98.114771,
        31.004024
      ],
      [
        -98.116338,
        31.006163
      ],
      [
        -98.116822,
        31.006735
      ],
      [
        -98.117134,
        31.007082
      ],
      [
        -98.117422,
        31.007386
      ],
      [
        -98.117634,
        31.00761
      ],
      [
        -98.118406,
        31.008399
      ],
      [
        -98.119142,
        31.009151
      ],
      [
        -98.11941,
        31.00945
      ],
      [
        -98.119684,
        31.009787
      ],
      [
        -98.119919,
        31.010113
      ],
      [
        -98.120138,
        31.010439
      ],
      [
        -98.121633,
        31.012978
      ],
      [
        -98.121788,
        31.013272
      ],
      [
        -98.121861,
        31.013429
      ],
      [
        -98.121965,
        31.013655
      ],
      [
        -98.122104,
        31.014012
      ],
      [
        -98.123244,
        31.01743
      ],
      [
        -98.12332,
        31.017687
      ],
      [
        -98.123414,
        31.017942
      ],
      [
        -98.123564,
        31.018296
      ],
      [
        -98.123652,
        31.018468
      ],
      [
        -98.123809,
        31.018752
      ],
      [
        -98.123968,
        31.019007
      ],
      [
        -98.124193,
        31.0193
      ],
      [
        -98.124375,
        31.019509
      ],
      [
        -98.124665,
        31.019814
      ],
      [
        -98.124908,
        31.02003
      ],
      [
        -98.125558,
        31.020545
      ],
      [
        -98.125819,
        31.020763
      ],
      [
        -98.126556,
        31.021342
      ],
      [
        -98.127561,
        31.022212
      ],
      [
        -98.128306,
        31.023048
      ],
      [
        -98.128372,
        31.023122
      ],
      [
        -98.12848,
        31.023259
      ],
      [
        -98.131329,
        31.026884
      ],
      [
        -98.131678,
        31.027329
      ],
      [
        -98.132105,
        31.027797
      ],
      [
        -98.13232,
        31.028033
      ],
      [
        -98.132946,
        31.028602
      ],
      [
        -98.133699,
        31.029153
      ],
      [
        -98.134647,
        31.02972
      ],
      [
        -98.13615,
        31.030631
      ],
      [
        -98.138078,
        31.03176
      ],
      [
        -98.139249,
        31.03245
      ],
      [
        -98.140192,
        31.032925
      ],
      [
        -98.141103,
        31.033302
      ],
      [
        -98.141566,
        31.033473
      ],
      [
        -98.14206,
        31.033631
      ],
      [
        -98.14281,
        31.033839
      ],
      [
        -98.143757,
        31.034028
      ],
      [
        -98.144515,
        31.034146
      ],
      [
        -98.144632,
        31.034163
      ],
      [
        -98.145486,
        31.034295
      ],
      [
        -98.145884,
        31.034371
      ],
      [
        -98.146344,
        31.034468
      ],
      [
        -98.147052,
        31.034646
      ],
      [
        -98.147685,
        31.034856
      ],
      [
        -98.148276,
        31.03506
      ],
      [
        -98.148903,
        31.035328
      ],
      [
        -98.14949,
        31.035604
      ],
      [
        -98.149954,
        31.035832
      ],
      [
        -98.150479,
        31.036131
      ],
      [
        -98.151868,
        31.036944
      ],
      [
        -98.152236,
        31.03716
      ],
      [
        -98.152561,
        31.037357
      ],
      [
        -98.153709,
        31.038031
      ],
      [
        -98.156271,
        31.039558
      ],
      [
        -98.156896,
        31.039925
      ],
      [
        -98.159596,
        31.041515
      ],
      [
        -98.160821,
        31.042229
      ],
      [
        -98.162278,
        31.04308
      ],
      [
        -98.162386,
        31.043144
      ],
      [
        -98.163766,
        31.043967
      ],
      [
        -98.166325,
        31.045472
      ],
      [
        -98.166716,
        31.045702
      ],
      [
        -98.168311,
        31.046646
      ],
      [
        -98.168407,
        31.046703
      ],
      [
        -98.169112,
        31.047121
      ],
      [
        -98.170656,
        31.04801
      ],
      [
        -98.170873,
        31.048132
      ],
      [
        -98.172716,
        31.049219
      ],
      [
        -98.172913,
        31.049335
      ],
      [
        -98.173344,
        31.049613
      ],
      [
        -98.174558,
        31.050324
      ],
      [
        -98.175017,
        31.050611
      ],
      [
        -98.17529,
        31.050803
      ],
      [
        -98.175637,
        31.05108
      ],
      [
        -98.175913,
        31.051294
      ],
      [
        -98.176167,
        31.051532
      ],
      [
        -98.176366,
        31.051724
      ],
      [
        -98.176772,
        31.052153
      ],
      [
        -98.177173,
        31.052648
      ],
      [
        -98.177401,
        31.053007
      ],
      [
        -98.177688,
        31.05347
      ],
      [
        -98.177917,
        31.053937
      ],
      [
        -98.178165,
        31.054497
      ],
      [
        -98.178248,
        31.054698
      ],
      [
        -98.178325,
        31.054885
      ],
      [
        -98.178356,
        31.054956
      ],
      [
        -98.178441,
        31.05515
      ],
      [
        -98.178554,
        31.055435
      ],
      [
        -98.179004,
        31.055301
      ],
      [
        -98.179431,
        31.055165
      ],
      [
        -98.180006,
        31.054987
      ],
      [
        -98.180277,
        31.054891
      ],
      [
        -98.180519,
        31.054815
      ],
      [
        -98.180766,
        31.054738
      ],
      [
        -98.180921,
        31.054683
      ],
      [
        -98.181053,
        31.054631
      ],
      [
        -98.181206,
        31.054566
      ],
      [
        -98.181448,
        31.054439
      ],
      [
        -98.181729,
        31.054267
      ],
      [
        -98.181902,
        31.05419
      ],
      [
        -98.182095,
        31.054144
      ],
      [
        -98.182095,
        31.053262
      ],
      [
        -98.182088,
        31.052818
      ],
      [
        -98.182066,
        31.052529
      ],
      [
        -98.182049,
        31.052405
      ],
      [
        -98.181975,
        31.051984
      ],
      [
        -98.181941,
        31.051793
      ],
      [
        -98.181876,
        31.05145
      ],
      [
        -98.181987,
        31.051412
      ],
      [
        -98.182069,
        31.051359
      ],
      [
        -98.182061,
        31.051322
      ],
      [
        -98.182082,
        31.051266
      ],
      [
        -98.182135,
        31.051233
      ],
      [
        -98.182496,
        31.051146
      ],
      [
        -98.182572,
        31.051205
      ],
      [
        -98.182535,
        31.051277
      ],
      [
        -98.182208,
        31.051369
      ],
      [
        -98.182191,
        31.051374
      ],
      [
        -98.182121,
        31.05138
      ],
      [
        -98.182069,
        31.051359
      ],
      [
        -98.181987,
        31.051412
      ],
      [
        -98.181876,
        31.05145
      ],
      [
        -98.181745,
        31.05074
      ],
      [
        -98.181735,
        31.050688
      ],
      [
        -98.18171,
        31.050554
      ],
      [
        -98.181688,
        31.050428
      ],
      [
        -98.181625,
        31.050092
      ],
      [
        -98.181397,
        31.04887
      ],
      [
        -98.181119,
        31.047377
      ],
      [
        -98.181066,
        31.047095
      ],
      [
        -98.180947,
        31.04644
      ],
      [
        -98.180821,
        31.045845
      ],
      [
        -98.180645,
        31.045017
      ],
      [
        -98.180367,
        31.043708
      ],
      [
        -98.180299,
        31.043161
      ],
      [
        -98.180286,
        31.04253
      ],
      [
        -98.180317,
        31.042032
      ],
      [
        -98.180414,
        31.04133
      ],
      [
        -98.18066,
        31.040452
      ],
      [
        -98.181044,
        31.039187
      ],
      [
        -98.181154,
        31.038857
      ],
      [
        -98.181339,
        31.038136
      ],
      [
        -98.181397,
        31.037834
      ],
      [
        -98.181491,
        31.036899
      ],
      [
        -98.181733,
        31.034881
      ],
      [
        -98.182079,
        31.031888
      ],
      [
        -98.182242,
        31.030789
      ],
      [
        -98.182459,
        31.029646
      ],
      [
        -98.182614,
        31.028944
      ],
      [
        -98.182926,
        31.02778
      ],
      [
        -98.18323,
        31.026793
      ],
      [
        -98.183574,
        31.025791
      ],
      [
        -98.184026,
        31.024644
      ],
      [
        -98.184521,
        31.023519
      ],
      [
        -98.185653,
        31.021329
      ],
      [
        -98.187097,
        31.018676
      ],
      [
        -98.1885,
        31.016125
      ],
      [
        -98.189079,
        31.015063
      ],
      [
        -98.189755,
        31.01385
      ],
      [
        -98.190548,
        31.012379
      ],
      [
        -98.190775,
        31.011921
      ],
      [
        -98.1911,
        31.011208
      ],
      [
        -98.191424,
        31.010316
      ],
      [
        -98.193085,
        31.005413
      ],
      [
        -98.194347,
        31.001774
      ],
      [
        -98.194873,
        31.00025
      ],
      [
        -98.195178,
        30.999397
      ],
      [
        -98.195591,
        30.998364
      ],
      [
        -98.195749,
        30.998034
      ],
      [
        -98.1975,
        30.994618
      ],
      [
        -98.197794,
        30.994091
      ],
      [
        -98.198329,
        30.993118
      ],
      [
        -98.200454,
        30.989002
      ],
      [
        -98.202894,
        30.984636
      ],
      [
        -98.20342,
        30.983662
      ],
      [
        -98.204377,
        30.981816
      ],
      [
        -98.205554,
        30.979816
      ],
      [
        -98.207121,
        30.97688
      ],
      [
        -98.209487,
        30.972697
      ],
      [
        -98.210067,
        30.971552
      ],
      [
        -98.211745,
        30.968585
      ],
      [
        -98.212337,
        30.967507
      ],
      [
        -98.215669,
        30.961415
      ],
      [
        -98.215873,
        30.961023
      ],
      [
        -98.219367,
        30.954751
      ],
      [
        -98.219655,
        30.954324
      ],
      [
        -98.220345,
        30.953331
      ],
      [
        -98.222587,
        30.950413
      ],
      [
        -98.224634,
        30.947669
      ],
      [
        -98.225186,
        30.946967
      ],
      [
        -98.226208,
        30.945634
      ],
      [
        -98.230392,
        30.940167
      ],
      [
        -98.230745,
        30.939734
      ],
      [
        -98.231986,
        30.93805
      ],
      [
        -98.233744,
        30.935745
      ],
      [
        -98.233847,
        30.93561
      ],
      [
        -98.234497,
        30.934776
      ],
      [
        -98.235498,
        30.933449
      ],
      [
        -98.23608,
        30.932673
      ],
      [
        -98.236354,
        30.932232
      ],
      [
        -98.236521,
        30.931913
      ],
      [
        -98.236723,
        30.931451
      ],
      [
        -98.237045,
        30.93042
      ],
      [
        -98.237115,
        30.930081
      ],
      [
        -98.237178,
        30.929663
      ],
      [
        -98.237221,
        30.929294
      ],
      [
        -98.237242,
        30.928984
      ],
      [
        -98.237286,
        30.927142
      ],
      [
        -98.237291,
        30.926854
      ],
      [
        -98.237313,
        30.924401
      ],
      [
        -98.237357,
        30.922525
      ],
      [
        -98.237357,
        30.922491
      ],
      [
        -98.237372,
        30.920736
      ],
      [
        -98.237412,
        30.919373
      ],
      [
        -98.237488,
        30.913767
      ],
      [
        -98.23755,
        30.90979
      ],
      [
        -98.237596,
        30.906167
      ],
      [
        -98.237613,
        30.904876
      ],
      [
        -98.237648,
        30.903458
      ],
      [
        -98.237651,
        30.903114
      ],
      [
        -98.237698,
        30.900775
      ],
      [
        -98.237727,
        30.897265
      ],
      [
        -98.23769,
        30.896791
      ],
      [
        -98.237617,
        30.896004
      ],
      [
        -98.237576,
        30.895621
      ],
      [
        -98.237543,
        30.895311
      ],
      [
        -98.237268,
        30.892883
      ],
      [
        -98.236877,
        30.889502
      ],
      [
        -98.236863,
        30.889373
      ],
      [
        -98.236537,
        30.886466
      ],
      [
        -98.236061,
        30.88229
      ],
      [
        -98.235958,
        30.881294
      ],
      [
        -98.235779,
        30.87969
      ],
      [
        -98.235383,
        30.876137
      ],
      [
        -98.235326,
        30.875683
      ],
      [
        -98.235165,
        30.874373
      ],
      [
        -98.234984,
        30.872651
      ],
      [
        -98.234926,
        30.872171
      ],
      [
        -98.234883,
        30.870998
      ],
      [
        -98.234921,
        30.870186
      ],
      [
        -98.234986,
        30.869365
      ],
      [
        -98.23539,
        30.864256
      ],
      [
        -98.235462,
        30.863172
      ],
      [
        -98.236368,
        30.851747
      ],
      [
        -98.236759,
        30.846779
      ],
      [
        -98.23719,
        30.84122
      ],
      [
        -98.237242,
        30.840499
      ],
      [
        -98.237518,
        30.837083
      ],
      [
        -98.237715,
        30.834469
      ],
      [
        -98.237763,
        30.833866
      ],
      [
        -98.237766,
        30.833753
      ],
      [
        -98.238078,
        30.829809
      ],
      [
        -98.238094,
        30.829613
      ],
      [
        -98.238428,
        30.825459
      ],
      [
        -98.238466,
        30.824977
      ],
      [
        -98.23847,
        30.82486
      ],
      [
        -98.238599,
        30.823211
      ],
      [
        -98.238777,
        30.820902
      ],
      [
        -98.23904,
        30.817535
      ],
      [
        -98.239063,
        30.817258
      ],
      [
        -98.239111,
        30.816798
      ],
      [
        -98.239135,
        30.816515
      ],
      [
        -98.239222,
        30.815344
      ],
      [
        -98.239224,
        30.815298
      ],
      [
        -98.239314,
        30.814066
      ],
      [
        -98.239324,
        30.813941
      ],
      [
        -98.239433,
        30.812766
      ],
      [
        -98.239683,
        30.80935
      ],
      [
        -98.239706,
        30.809092
      ],
      [
        -98.239723,
        30.808896
      ],
      [
        -98.239738,
        30.808698
      ],
      [
        -98.23977,
        30.808157
      ],
      [
        -98.239856,
        30.807093
      ],
      [
        -98.239929,
        30.806293
      ],
      [
        -98.239935,
        30.806202
      ],
      [
        -98.240051,
        30.804692
      ],
      [
        -98.240055,
        30.804197
      ],
      [
        -98.240039,
        30.803707
      ],
      [
        -98.24002,
        30.803476
      ],
      [
        -98.240003,
        30.803257
      ],
      [
        -98.239914,
        30.802686
      ],
      [
        -98.239781,
        30.802051
      ],
      [
        -98.239648,
        30.801495
      ],
      [
        -98.23934,
        30.800171
      ],
      [
        -98.239326,
        30.800104
      ],
      [
        -98.23898,
        30.798598
      ],
      [
        -98.238917,
        30.798328
      ],
      [
        -98.238807,
        30.797876
      ],
      [
        -98.238565,
        30.796792
      ],
      [
        -98.238299,
        30.795693
      ],
      [
        -98.238279,
        30.79559
      ],
      [
        -98.238201,
        30.795279
      ],
      [
        -98.23808,
        30.794705
      ],
      [
        -98.237943,
        30.794191
      ],
      [
        -98.237872,
        30.793804
      ],
      [
        -98.237854,
        30.793727
      ],
      [
        -98.237666,
        30.792931
      ],
      [
        -98.237637,
        30.79279
      ],
      [
        -98.237498,
        30.792256
      ],
      [
        -98.23729,
        30.791351
      ],
      [
        -98.237202,
        30.790979
      ],
      [
        -98.237087,
        30.790486
      ],
      [
        -98.236851,
        30.789427
      ],
      [
        -98.236785,
        30.789183
      ],
      [
        -98.236662,
        30.788662
      ],
      [
        -98.236612,
        30.788476
      ],
      [
        -98.23636,
        30.787548
      ],
      [
        -98.236351,
        30.787521
      ],
      [
        -98.236199,
        30.787019
      ],
      [
        -98.236168,
        30.786896
      ],
      [
        -98.235617,
        30.784947
      ],
      [
        -98.235597,
        30.784875
      ],
      [
        -98.234908,
        30.782443
      ],
      [
        -98.234655,
        30.781471
      ],
      [
        -98.234382,
        30.780387
      ],
      [
        -98.234194,
        30.779661
      ],
      [
        -98.234147,
        30.779487
      ],
      [
        -98.233972,
        30.778855
      ],
      [
        -98.233728,
        30.777898
      ],
      [
        -98.233549,
        30.777192
      ],
      [
        -98.233538,
        30.777149
      ],
      [
        -98.233291,
        30.776201
      ],
      [
        -98.233048,
        30.775256
      ],
      [
        -98.232832,
        30.774346
      ],
      [
        -98.232579,
        30.773394
      ],
      [
        -98.232352,
        30.772468
      ],
      [
        -98.232146,
        30.77167
      ],
      [
        -98.232059,
        30.771292
      ],
      [
        -98.231936,
        30.770822
      ],
      [
        -98.231459,
        30.768929
      ],
      [
        -98.231302,
        30.76831
      ],
      [
        -98.231279,
        30.76822
      ],
      [
        -98.231247,
        30.768088
      ],
      [
        -98.231183,
        30.767807
      ],
      [
        -98.231107,
        30.767521
      ],
      [
        -98.230689,
        30.765855
      ],
      [
        -98.230182,
        30.763851
      ],
      [
        -98.230088,
        30.763471
      ],
      [
        -98.229678,
        30.761869
      ],
      [
        -98.229521,
        30.761214
      ],
      [
        -98.22945,
        30.760945
      ],
      [
        -98.229377,
        30.760654
      ],
      [
        -98.229315,
        30.760412
      ],
      [
        -98.229226,
        30.760033
      ],
      [
        -98.229176,
        30.759836
      ],
      [
        -98.229086,
        30.759484
      ],
      [
        -98.228986,
        30.759096
      ],
      [
        -98.228936,
        30.758885
      ],
      [
        -98.228868,
        30.758592
      ],
      [
        -98.228741,
        30.758109
      ],
      [
        -98.22854,
        30.758149
      ],
      [
        -98.228311,
        30.758195
      ],
      [
        -98.227978,
        30.758263
      ],
      [
        -98.227746,
        30.758316
      ],
      [
        -98.227595,
        30.75835
      ],
      [
        -98.227176,
        30.758444
      ],
      [
        -98.226684,
        30.758554
      ],
      [
        -98.226238,
        30.758656
      ],
      [
        -98.225894,
        30.758734
      ],
      [
        -98.225609,
        30.758795
      ],
      [
        -98.225169,
        30.758873
      ],
      [
        -98.224514,
        30.758989
      ],
      [
        -98.224368,
        30.759015
      ],
      [
        -98.2241,
        30.759063
      ],
      [
        -98.224,
        30.759081
      ],
      [
        -98.223439,
        30.759158
      ],
      [
        -98.223149,
        30.759208
      ],
      [
        -98.22239,
        30.759344
      ],
      [
        -98.221963,
        30.759426
      ],
      [
        -98.221594,
        30.759489
      ],
      [
        -98.221243,
        30.759551
      ],
      [
        -98.220861,
        30.75963
      ],
      [
        -98.220522,
        30.759695
      ],
      [
        -98.219895,
        30.759825
      ],
      [
        -98.219219,
        30.759911
      ],
      [
        -98.218938,
        30.759931
      ],
      [
        -98.218723,
        30.759942
      ],
      [
        -98.218635,
        30.759946
      ],
      [
        -98.218382,
        30.759952
      ],
      [
        -98.218108,
        30.759948
      ],
      [
        -98.217719,
        30.759928
      ],
      [
        -98.217576,
        30.75992
      ],
      [
        -98.217483,
        30.759911
      ],
      [
        -98.217167,
        30.759883
      ],
      [
        -98.217052,
        30.759866
      ],
      [
        -98.216651,
        30.759807
      ],
      [
        -98.216553,
        30.759793
      ],
      [
        -98.216195,
        30.759721
      ],
      [
        -98.215819,
        30.759638
      ],
      [
        -98.215589,
        30.759576
      ],
      [
        -98.215517,
        30.759556
      ],
      [
        -98.21512,
        30.75944
      ],
      [
        -98.214636,
        30.759267
      ],
      [
        -98.214579,
        30.759242
      ],
      [
        -98.214471,
        30.759195
      ],
      [
        -98.214248,
        30.759106
      ],
      [
        -98.214072,
        30.759024
      ],
      [
        -98.213641,
        30.758832
      ],
      [
        -98.213437,
        30.758741
      ],
      [
        -98.213286,
        30.758683
      ],
      [
        -98.212997,
        30.758544
      ],
      [
        -98.212822,
        30.75846
      ],
      [
        -98.212536,
        30.758322
      ],
      [
        -98.212158,
        30.75815
      ],
      [
        -98.211895,
        30.758029
      ],
      [
        -98.211652,
        30.757917
      ],
      [
        -98.211168,
        30.757692
      ],
      [
        -98.210608,
        30.757432
      ],
      [
        -98.210414,
        30.75734
      ],
      [
        -98.210117,
        30.757207
      ],
      [
        -98.210029,
        30.757165
      ],
      [
        -98.209829,
        30.757073
      ],
      [
        -98.20934,
        30.756846
      ],
      [
        -98.208963,
        30.756672
      ],
      [
        -98.2088,
        30.7566
      ],
      [
        -98.208737,
        30.75657
      ],
      [
        -98.20861,
        30.756508
      ],
      [
        -98.208505,
        30.756459
      ],
      [
        -98.207846,
        30.756154
      ],
      [
        -98.206876,
        30.755705
      ],
      [
        -98.206783,
        30.755662
      ],
      [
        -98.206513,
        30.755532
      ],
      [
        -98.206423,
        30.75549
      ],
      [
        -98.205404,
        30.755026
      ],
      [
        -98.204125,
        30.754435
      ],
      [
        -98.20391,
        30.754336
      ],
      [
        -98.202845,
        30.753861
      ],
      [
        -98.201671,
        30.753346
      ],
      [
        -98.201463,
        30.753273
      ],
      [
        -98.20093,
        30.753086
      ],
      [
        -98.200731,
        30.753028
      ],
      [
        -98.200699,
        30.753018
      ],
      [
        -98.200559,
        30.752973
      ],
      [
        -98.199932,
        30.752806
      ],
      [
        -98.1995,
        30.752708
      ],
      [
        -98.199377,
        30.752685
      ],
      [
        -98.198963,
        30.752608
      ],
      [
        -98.198839,
        30.752593
      ],
      [
        -98.198433,
        30.752522
      ],
      [
        -98.197867,
        30.752469
      ],
      [
        -98.197349,
        30.752428
      ],
      [
        -98.197025,
        30.7524
      ],
      [
        -98.196517,
        30.752356
      ],
      [
        -98.195576,
        30.752266
      ],
      [
        -98.195538,
        30.752263
      ],
      [
        -98.194961,
        30.752217
      ],
      [
        -98.194529,
        30.752175
      ],
      [
        -98.193708,
        30.752095
      ],
      [
        -98.19231,
        30.751959
      ],
      [
        -98.191587,
        30.751895
      ],
      [
        -98.190255,
        30.751765
      ],
      [
        -98.18808,
        30.751571
      ],
      [
        -98.187806,
        30.751546
      ],
      [
        -98.18764,
        30.751532
      ],
      [
        -98.18695,
        30.751466
      ],
      [
        -98.186493,
        30.751422
      ],
      [
        -98.185784,
        30.751361
      ],
      [
        -98.185531,
        30.751337
      ],
      [
        -98.185448,
        30.751329
      ],
      [
        -98.185297,
        30.751314
      ],
      [
        -98.185083,
        30.751293
      ],
      [
        -98.185016,
        30.751287
      ],
      [
        -98.184926,
        30.751279
      ],
      [
        -98.184614,
        30.75125
      ],
      [
        -98.184352,
        30.751226
      ],
      [
        -98.184091,
        30.751203
      ],
      [
        -98.184059,
        30.7512
      ],
      [
        -98.183725,
        30.75117
      ],
      [
        -98.183088,
        30.751112
      ],
      [
        -98.18266,
        30.751071
      ],
      [
        -98.182257,
        30.751032
      ],
      [
        -98.182016,
        30.751004
      ],
      [
        -98.181938,
        30.750995
      ],
      [
        -98.181618,
        30.750969
      ],
      [
        -98.181564,
        30.750965
      ],
      [
        -98.181248,
        30.750938
      ],
      [
        -98.180954,
        30.750901
      ],
      [
        -98.180624,
        30.750873
      ],
      [
        -98.179983,
        30.750818
      ],
      [
        -98.177108,
        30.75055
      ],
      [
        -98.174061,
        30.750265
      ],
      [
        -98.173878,
        30.750251
      ],
      [
        -98.173577,
        30.750223
      ],
      [
        -98.172676,
        30.750139
      ],
      [
        -98.171951,
        30.750071
      ],
      [
        -98.170966,
        30.74998
      ],
      [
        -98.170587,
        30.749945
      ],
      [
        -98.170274,
        30.749921
      ],
      [
        -98.169922,
        30.749884
      ],
      [
        -98.168557,
        30.749758
      ],
      [
        -98.168071,
        30.749713
      ],
      [
        -98.167816,
        30.74969
      ],
      [
        -98.167703,
        30.749679
      ],
      [
        -98.166169,
        30.749538
      ],
      [
        -98.165748,
        30.749499
      ],
      [
        -98.165029,
        30.749456
      ],
      [
        -98.165005,
        30.749454
      ],
      [
        -98.164675,
        30.749433
      ],
      [
        -98.164455,
        30.749429
      ],
      [
        -98.163505,
        30.749411
      ],
      [
        -98.162499,
        30.749411
      ],
      [
        -98.160871,
        30.749411
      ],
      [
        -98.159617,
        30.749415
      ],
      [
        -98.159142,
        30.749414
      ],
      [
        -98.158666,
        30.749412
      ],
      [
        -98.15764,
        30.749417
      ],
      [
        -98.155328,
        30.749419
      ],
      [
        -98.151883,
        30.749414
      ],
      [
        -98.14842,
        30.749429
      ],
      [
        -98.147797,
        30.74943
      ],
      [
        -98.147172,
        30.749432
      ],
      [
        -98.146768,
        30.749431
      ],
      [
        -98.146606,
        30.749431
      ],
      [
        -98.146465,
        30.749431
      ],
      [
        -98.146096,
        30.74945
      ],
      [
        -98.145728,
        30.749485
      ],
      [
        -98.145364,
        30.749539
      ],
      [
        -98.145123,
        30.749584
      ],
      [
        -98.144756,
        30.749674
      ],
      [
        -98.144524,
        30.749745
      ],
      [
        -98.144041,
        30.74992
      ],
      [
        -98.143391,
        30.750156
      ],
      [
        -98.143019,
        30.750291
      ],
      [
        -98.142983,
        30.750304
      ],
      [
        -98.14222,
        30.750525
      ],
      [
        -98.141052,
        30.75093
      ],
      [
        -98.139313,
        30.751532
      ],
      [
        -98.13882,
        30.751697
      ],
      [
        -98.138416,
        30.751846
      ],
      [
        -98.137965,
        30.75199
      ],
      [
        -98.137611,
        30.752086
      ],
      [
        -98.137563,
        30.752099
      ],
      [
        -98.137484,
        30.752117
      ],
      [
        -98.137156,
        30.752193
      ],
      [
        -98.13697,
        30.752232
      ],
      [
        -98.136588,
        30.752283
      ],
      [
        -98.136259,
        30.752307
      ],
      [
        -98.135846,
        30.752325
      ],
      [
        -98.135798,
        30.752324
      ],
      [
        -98.135687,
        30.752322
      ],
      [
        -98.13538,
        30.752312
      ],
      [
        -98.135014,
        30.752286
      ],
      [
        -98.134594,
        30.752232
      ],
      [
        -98.13396,
        30.752121
      ],
      [
        -98.132864,
        30.75193
      ],
      [
        -98.132202,
        30.751809
      ],
      [
        -98.131476,
        30.751683
      ],
      [
        -98.130741,
        30.751556
      ],
      [
        -98.130693,
        30.751545
      ],
      [
        -98.129977,
        30.751422
      ],
      [
        -98.129773,
        30.751387
      ],
      [
        -98.129527,
        30.751345
      ],
      [
        -98.129345,
        30.751312
      ],
      [
        -98.128073,
        30.751093
      ],
      [
        -98.127599,
        30.751011
      ],
      [
        -98.126966,
        30.750901
      ],
      [
        -98.126854,
        30.750882
      ],
      [
        -98.12653,
        30.750828
      ],
      [
        -98.126184,
        30.750769
      ],
      [
        -98.126158,
        30.750765
      ],
      [
        -98.125045,
        30.750571
      ],
      [
        -98.124817,
        30.750531
      ],
      [
        -98.124619,
        30.750496
      ],
      [
        -98.123117,
        30.750234
      ],
      [
        -98.120864,
        30.749817
      ],
      [
        -98.120741,
        30.749796
      ],
      [
        -98.12045,
        30.749748
      ],
      [
        -98.118551,
        30.749412
      ],
      [
        -98.116145,
        30.749002
      ],
      [
        -98.115831,
        30.748946
      ],
      [
        -98.11537,
        30.748865
      ],
      [
        -98.114141,
        30.748649
      ],
      [
        -98.113249,
        30.748493
      ],
      [
        -98.110589,
        30.748033
      ],
      [
        -98.107572,
        30.747536
      ],
      [
        -98.10497,
        30.747079
      ],
      [
        -98.104423,
        30.746983
      ],
      [
        -98.103563,
        30.746832
      ],
      [
        -98.102589,
        30.746661
      ],
      [
        -98.100533,
        30.7463
      ],
      [
        -98.100152,
        30.746247
      ],
      [
        -98.099746,
        30.746198
      ],
      [
        -98.0994,
        30.746181
      ],
      [
        -98.098985,
        30.74618
      ],
      [
        -98.098505,
        30.746215
      ],
      [
        -98.098035,
        30.746281
      ],
      [
        -98.097741,
        30.746334
      ],
      [
        -98.097224,
        30.746452
      ],
      [
        -98.092444,
        30.7476
      ],
      [
        -98.089499,
        30.748295
      ],
      [
        -98.088928,
        30.748419
      ],
      [
        -98.088466,
        30.74851
      ],
      [
        -98.087817,
        30.748551
      ],
      [
        -98.087365,
        30.748543
      ],
      [
        -98.085769,
        30.748434
      ],
      [
        -98.085179,
        30.748395
      ],
      [
        -98.083338,
        30.74828
      ],
      [
        -98.082248,
        30.748212
      ],
      [
        -98.081366,
        30.748158
      ],
      [
        -98.081223,
        30.748149
      ],
      [
        -98.081127,
        30.748143
      ],
      [
        -98.080594,
        30.748113
      ],
      [
        -98.079886,
        30.748069
      ],
      [
        -98.079569,
        30.748049
      ],
      [
        -98.077907,
        30.747943
      ],
      [
        -98.075723,
        30.747813
      ],
      [
        -98.073344,
        30.747671
      ],
      [
        -98.072199,
        30.747603
      ],
      [
        -98.070539,
        30.747504
      ],
      [
        -98.070227,
        30.747485
      ],
      [
        -98.070073,
        30.747476
      ],
      [
        -98.069205,
        30.747424
      ],
      [
        -98.068781,
        30.747399
      ],
      [
        -98.068605,
        30.747388
      ],
      [
        -98.0679,
        30.747346
      ],
      [
        -98.067595,
        30.747328
      ],
      [
        -98.067128,
        30.7473
      ],
      [
        -98.066749,
        30.747278
      ],
      [
        -98.066442,
        30.74726
      ],
      [
        -98.066267,
        30.747249
      ],
      [
        -98.065851,
        30.747226
      ],
      [
        -98.064372,
        30.747139
      ],
      [
        -98.064178,
        30.747128
      ],
      [
        -98.063057,
        30.747034
      ],
      [
        -98.062688,
        30.74698
      ],
      [
        -98.062352,
        30.746922
      ],
      [
        -98.061968,
        30.746836
      ],
      [
        -98.061082,
        30.74657
      ],
      [
        -98.060811,
        30.746477
      ],
      [
        -98.060267,
        30.746261
      ],
      [
        -98.058055,
        30.745246
      ],
      [
        -98.057028,
        30.744774
      ],
      [
        -98.056929,
        30.744729
      ],
      [
        -98.056504,
        30.744533
      ],
      [
        -98.056195,
        30.744404
      ],
      [
        -98.05559,
        30.74412
      ],
      [
        -98.05536,
        30.744014
      ],
      [
        -98.055282,
        30.74398
      ],
      [
        -98.054702,
        30.743707
      ],
      [
        -98.054567,
        30.743628
      ],
      [
        -98.054231,
        30.743421
      ],
      [
        -98.053838,
        30.743097
      ],
      [
        -98.053291,
        30.742643
      ],
      [
        -98.053192,
        30.742562
      ],
      [
        -98.053132,
        30.742512
      ],
      [
        -98.052883,
        30.742306
      ],
      [
        -98.052667,
        30.742134
      ],
      [
        -98.052241,
        30.741796
      ],
      [
        -98.051972,
        30.741587
      ],
      [
        -98.051616,
        30.741338
      ],
      [
        -98.051321,
        30.741168
      ],
      [
        -98.05118,
        30.741078
      ],
      [
        -98.050829,
        30.740879
      ],
      [
        -98.050754,
        30.740837
      ],
      [
        -98.050649,
        30.740785
      ],
      [
        -98.050516,
        30.740717
      ],
      [
        -98.050333,
        30.740636
      ],
      [
        -98.050193,
        30.74057
      ],
      [
        -98.05002,
        30.740491
      ],
      [
        -98.049714,
        30.740352
      ],
      [
        -98.049461,
        30.740237
      ],
      [
        -98.049235,
        30.740134
      ],
      [
        -98.049043,
        30.740047
      ],
      [
        -98.048899,
        30.739975
      ],
      [
        -98.048301,
        30.739709
      ],
      [
        -98.04819,
        30.739659
      ],
      [
        -98.048016,
        30.73958
      ],
      [
        -98.047467,
        30.73933
      ],
      [
        -98.047008,
        30.739122
      ],
      [
        -98.045505,
        30.738427
      ],
      [
        -98.044981,
        30.738185
      ],
      [
        -98.044222,
        30.737859
      ],
      [
        -98.043637,
        30.737594
      ],
      [
        -98.043343,
        30.737463
      ],
      [
        -98.043005,
        30.737301
      ],
      [
        -98.042951,
        30.737275
      ],
      [
        -98.042459,
        30.73705
      ],
      [
        -98.042279,
        30.736968
      ],
      [
        -98.041683,
        30.736695
      ],
      [
        -98.041196,
        30.736473
      ],
      [
        -98.040242,
        30.736044
      ],
      [
        -98.04007,
        30.735961
      ],
      [
        -98.039692,
        30.735792
      ],
      [
        -98.038985,
        30.735471
      ],
      [
        -98.038461,
        30.735245
      ],
      [
        -98.038128,
        30.735126
      ],
      [
        -98.038008,
        30.735083
      ],
      [
        -98.037826,
        30.735027
      ],
      [
        -98.03743,
        30.734924
      ],
      [
        -98.037075,
        30.734857
      ],
      [
        -98.036783,
        30.734822
      ],
      [
        -98.036283,
        30.734785
      ],
      [
        -98.036141,
        30.734781
      ],
      [
        -98.035838,
        30.734772
      ],
      [
        -98.035258,
        30.734789
      ],
      [
        -98.034286,
        30.734849
      ],
      [
        -98.034195,
        30.734858
      ],
      [
        -98.033909,
        30.734865
      ],
      [
        -98.033863,
        30.734866
      ],
      [
        -98.033604,
        30.734861
      ],
      [
        -98.033329,
        30.73484
      ],
      [
        -98.033098,
        30.734811
      ],
      [
        -98.032842,
        30.734771
      ],
      [
        -98.032523,
        30.734699
      ],
      [
        -98.032224,
        30.734616
      ],
      [
        -98.031892,
        30.734512
      ],
      [
        -98.031606,
        30.734402
      ],
      [
        -98.031365,
        30.734296
      ],
      [
        -98.031031,
        30.734119
      ],
      [
        -98.030829,
        30.733997
      ],
      [
        -98.030533,
        30.733794
      ],
      [
        -98.029635,
        30.733154
      ],
      [
        -98.028969,
        30.732669
      ],
      [
        -98.028743,
        30.7325
      ],
      [
        -98.028452,
        30.73229
      ],
      [
        -98.028304,
        30.73218
      ],
      [
        -98.027455,
        30.731555
      ],
      [
        -98.026478,
        30.730836
      ],
      [
        -98.025862,
        30.730382
      ],
      [
        -98.025259,
        30.729938
      ],
      [
        -98.02482,
        30.729612
      ],
      [
        -98.024384,
        30.729288
      ],
      [
        -98.024237,
        30.729179
      ],
      [
        -98.021981,
        30.727565
      ],
      [
        -98.02112,
        30.726949
      ],
      [
        -98.019566,
        30.725837
      ],
      [
        -98.019458,
        30.725753
      ],
      [
        -98.019302,
        30.725631
      ],
      [
        -98.019157,
        30.725524
      ],
      [
        -98.019047,
        30.725448
      ],
      [
        -98.017161,
        30.724068
      ],
      [
        -98.016865,
        30.723852
      ],
      [
        -98.016195,
        30.723367
      ],
      [
        -98.015658,
        30.722978
      ],
      [
        -98.015037,
        30.722519
      ],
      [
        -98.013567,
        30.72143
      ],
      [
        -98.013475,
        30.721362
      ],
      [
        -98.012936,
        30.720882
      ],
      [
        -98.012725,
        30.720686
      ],
      [
        -98.012672,
        30.720635
      ],
      [
        -98.012448,
        30.720422
      ],
      [
        -98.012026,
        30.720019
      ],
      [
        -98.011926,
        30.71991
      ],
      [
        -98.011587,
        30.719541
      ],
      [
        -98.011512,
        30.719453
      ],
      [
        -98.010718,
        30.718521
      ],
      [
        -98.00989,
        30.717536
      ],
      [
        -98.00936,
        30.716902
      ],
      [
        -98.009093,
        30.716582
      ],
      [
        -98.008685,
        30.716093
      ],
      [
        -98.008638,
        30.716036
      ],
      [
        -98.008606,
        30.715999
      ],
      [
        -98.008041,
        30.71533
      ],
      [
        -98.007723,
        30.714954
      ],
      [
        -98.007698,
        30.714924
      ],
      [
        -98.007615,
        30.714825
      ],
      [
        -98.007566,
        30.714767
      ],
      [
        -98.007375,
        30.714539
      ],
      [
        -98.006981,
        30.71407
      ],
      [
        -98.006483,
        30.713475
      ],
      [
        -98.006068,
        30.712981
      ],
      [
        -98.005705,
        30.712548
      ],
      [
        -98.005119,
        30.71185
      ],
      [
        -98.005032,
        30.711746
      ],
      [
        -98.004714,
        30.711367
      ],
      [
        -98.004273,
        30.710883
      ],
      [
        -98.003741,
        30.7103
      ],
      [
        -98.002212,
        30.708444
      ],
      [
        -98.002065,
        30.708294
      ],
      [
        -98.001527,
        30.707744
      ],
      [
        -98.001158,
        30.707392
      ],
      [
        -98.000769,
        30.707055
      ],
      [
        -98.000151,
        30.706544
      ],
      [
        -97.999399,
        30.706006
      ],
      [
        -97.998443,
        30.705345
      ],
      [
        -97.997238,
        30.704497
      ],
      [
        -97.995787,
        30.703455
      ],
      [
        -97.994538,
        30.702542
      ],
      [
        -97.994419,
        30.702457
      ],
      [
        -97.99333,
        30.701646
      ],
      [
        -97.991922,
        30.700526
      ],
      [
        -97.991058,
        30.699838
      ],
      [
        -97.990193,
        30.699151
      ],
      [
        -97.990072,
        30.699055
      ],
      [
        -97.98903,
        30.698262
      ],
      [
        -97.988885,
        30.698163
      ],
      [
        -97.988537,
        30.697942
      ],
      [
        -97.988436,
        30.697885
      ],
      [
        -97.988175,
        30.697737
      ],
      [
        -97.987802,
        30.697548
      ],
      [
        -97.987246,
        30.6973
      ],
      [
        -97.987146,
        30.697256
      ],
      [
        -97.987016,
        30.697204
      ],
      [
        -97.985321,
        30.696521
      ],
      [
        -97.983694,
        30.695865
      ],
      [
        -97.983264,
        30.69569
      ],
      [
        -97.98246,
        30.695363
      ],
      [
        -97.982391,
        30.695335
      ],
      [
        -97.98214,
        30.695233
      ],
      [
        -97.981581,
        30.694992
      ],
      [
        -97.980749,
        30.694611
      ],
      [
        -97.979261,
        30.693887
      ],
      [
        -97.979182,
        30.693848
      ],
      [
        -97.979127,
        30.693822
      ],
      [
        -97.977081,
        30.692814
      ],
      [
        -97.976427,
        30.692504
      ],
      [
        -97.976405,
        30.692495
      ],
      [
        -97.975817,
        30.692237
      ],
      [
        -97.971817,
        30.690514
      ],
      [
        -97.971413,
        30.690332
      ],
      [
        -97.970811,
        30.690059
      ],
      [
        -97.970221,
        30.689767
      ],
      [
        -97.969738,
        30.689507
      ],
      [
        -97.969587,
        30.689417
      ],
      [
        -97.969277,
        30.689236
      ],
      [
        -97.969009,
        30.689073
      ],
      [
        -97.9685,
        30.688763
      ],
      [
        -97.967361,
        30.688017
      ],
      [
        -97.965375,
        30.686744
      ],
      [
        -97.964575,
        30.686224
      ],
      [
        -97.964087,
        30.685916
      ],
      [
        -97.96322,
        30.685351
      ],
      [
        -97.963177,
        30.685324
      ],
      [
        -97.96291,
        30.685151
      ],
      [
        -97.962169,
        30.684671
      ],
      [
        -97.962141,
        30.684653
      ],
      [
        -97.961261,
        30.684097
      ],
      [
        -97.960529,
        30.683633
      ],
      [
        -97.960246,
        30.683431
      ],
      [
        -97.959467,
        30.682932
      ],
      [
        -97.958646,
        30.682408
      ],
      [
        -97.958472,
        30.682296
      ],
      [
        -97.95794,
        30.681969
      ],
      [
        -97.957841,
        30.681916
      ],
      [
        -97.95758,
        30.681777
      ],
      [
        -97.957015,
        30.681486
      ],
      [
        -97.95652,
        30.681248
      ],
      [
        -97.956238,
        30.681129
      ],
      [
        -97.955749,
        30.680933
      ],
      [
        -97.955225,
        30.680739
      ],
      [
        -97.95442,
        30.68048
      ],
      [
        -97.954151,
        30.680407
      ],
      [
        -97.954079,
        30.680388
      ],
      [
        -97.953685,
        30.680291
      ],
      [
        -97.953284,
        30.680205
      ],
      [
        -97.95246,
        30.680045
      ],
      [
        -97.9522,
        30.679996
      ],
      [
        -97.951292,
        30.679826
      ],
      [
        -97.951001,
        30.679772
      ],
      [
        -97.950622,
        30.679703
      ],
      [
        -97.949968,
        30.679591
      ],
      [
        -97.949921,
        30.679582
      ],
      [
        -97.94967,
        30.679533
      ],
      [
        -97.948937,
        30.679386
      ],
      [
        -97.948469,
        30.679291
      ],
      [
        -97.948181,
        30.679225
      ],
      [
        -97.947736,
        30.679105
      ],
      [
        -97.947353,
        30.679006
      ],
      [
        -97.947012,
        30.678891
      ],
      [
        -97.946745,
        30.678802
      ],
      [
        -97.946444,
        30.678691
      ],
      [
        -97.946134,
        30.678572
      ],
      [
        -97.945485,
        30.678303
      ],
      [
        -97.944766,
        30.677995
      ],
      [
        -97.943781,
        30.677573
      ],
      [
        -97.94285,
        30.677174
      ],
      [
        -97.942452,
        30.677003
      ],
      [
        -97.942229,
        30.676908
      ],
      [
        -97.941852,
        30.676746
      ],
      [
        -97.94166,
        30.676664
      ],
      [
        -97.941364,
        30.676537
      ],
      [
        -97.941148,
        30.676448
      ],
      [
        -97.940568,
        30.676212
      ],
      [
        -97.940416,
        30.67615
      ],
      [
        -97.940342,
        30.67612
      ],
      [
        -97.939911,
        30.675961
      ],
      [
        -97.939714,
        30.675889
      ],
      [
        -97.939138,
        30.675711
      ],
      [
        -97.938984,
        30.675667
      ],
      [
        -97.938739,
        30.675596
      ],
      [
        -97.93826,
        30.675466
      ],
      [
        -97.938188,
        30.675447
      ],
      [
        -97.937963,
        30.675389
      ],
      [
        -97.937381,
        30.675268
      ],
      [
        -97.937068,
        30.675202
      ],
      [
        -97.936171,
        30.675015
      ],
      [
        -97.935598,
        30.674896
      ],
      [
        -97.934966,
        30.674796
      ],
      [
        -97.934551,
        30.67473
      ],
      [
        -97.934507,
        30.674725
      ],
      [
        -97.934148,
        30.674681
      ],
      [
        -97.934109,
        30.674676
      ],
      [
        -97.933914,
        30.674654
      ],
      [
        -97.933535,
        30.674628
      ],
      [
        -97.933269,
        30.674627
      ],
      [
        -97.932912,
        30.674637
      ],
      [
        -97.932586,
        30.674642
      ],
      [
        -97.93244,
        30.674653
      ],
      [
        -97.932138,
        30.674676
      ],
      [
        -97.931948,
        30.674691
      ],
      [
        -97.931116,
        30.674806
      ],
      [
        -97.931076,
        30.674811
      ],
      [
        -97.93014,
        30.674948
      ],
      [
        -97.929038,
        30.67511
      ],
      [
        -97.928969,
        30.67512
      ],
      [
        -97.92894,
        30.675123
      ],
      [
        -97.928742,
        30.675146
      ],
      [
        -97.928409,
        30.675183
      ],
      [
        -97.927962,
        30.675214
      ],
      [
        -97.927851,
        30.675221
      ],
      [
        -97.927788,
        30.67522
      ],
      [
        -97.92777,
        30.67522
      ],
      [
        -97.927614,
        30.675219
      ],
      [
        -97.927469,
        30.675217
      ],
      [
        -97.926867,
        30.675201
      ],
      [
        -97.926443,
        30.675146
      ],
      [
        -97.926292,
        30.675126
      ],
      [
        -97.926234,
        30.675114
      ],
      [
        -97.925969,
        30.675059
      ],
      [
        -97.925919,
        30.675049
      ],
      [
        -97.925843,
        30.675033
      ],
      [
        -97.925645,
        30.674984
      ],
      [
        -97.925541,
        30.674958
      ],
      [
        -97.925188,
        30.674862
      ],
      [
        -97.925111,
        30.674841
      ],
      [
        -97.92488,
        30.674779
      ],
      [
        -97.924596,
        30.674666
      ],
      [
        -97.924258,
        30.674531
      ],
      [
        -97.923744,
        30.674283
      ],
      [
        -97.923706,
        30.674264
      ],
      [
        -97.923382,
        30.674086
      ],
      [
        -97.923324,
        30.674057
      ],
      [
        -97.923004,
        30.673898
      ],
      [
        -97.922856,
        30.673824
      ],
      [
        -97.922256,
        30.67352
      ],
      [
        -97.921628,
        30.673202
      ],
      [
        -97.921199,
        30.672979
      ],
      [
        -97.921031,
        30.672891
      ],
      [
        -97.920571,
        30.672651
      ],
      [
        -97.920385,
        30.672554
      ],
      [
        -97.920333,
        30.672527
      ],
      [
        -97.919735,
        30.672237
      ],
      [
        -97.919149,
        30.671953
      ],
      [
        -97.918581,
        30.671678
      ],
      [
        -97.918524,
        30.671648
      ],
      [
        -97.917923,
        30.671329
      ],
      [
        -97.91759,
        30.671152
      ],
      [
        -97.917387,
        30.671049
      ],
      [
        -97.917281,
        30.670995
      ],
      [
        -97.916891,
        30.670797
      ],
      [
        -97.916259,
        30.670477
      ],
      [
        -97.916044,
        30.670368
      ],
      [
        -97.915965,
        30.670328
      ],
      [
        -97.915592,
        30.670138
      ],
      [
        -97.91527,
        30.669975
      ],
      [
        -97.915094,
        30.669886
      ],
      [
        -97.914924,
        30.6698
      ],
      [
        -97.91481,
        30.669742
      ],
      [
        -97.914646,
        30.669658
      ],
      [
        -97.914332,
        30.6695
      ],
      [
        -97.913753,
        30.669206
      ],
      [
        -97.913162,
        30.668906
      ],
      [
        -97.913017,
        30.668832
      ],
      [
        -97.912921,
        30.668783
      ],
      [
        -97.912799,
        30.668721
      ],
      [
        -97.912647,
        30.668644
      ],
      [
        -97.912455,
        30.668547
      ],
      [
        -97.912373,
        30.668505
      ],
      [
        -97.912297,
        30.668466
      ],
      [
        -97.912013,
        30.668322
      ],
      [
        -97.911569,
        30.668097
      ],
      [
        -97.911108,
        30.667855
      ],
      [
        -97.911067,
        30.667835
      ],
      [
        -97.910778,
        30.667693
      ],
      [
        -97.910376,
        30.667496
      ],
      [
        -97.909928,
        30.667268
      ],
      [
        -97.909495,
        30.667047
      ],
      [
        -97.909155,
        30.666874
      ],
      [
        -97.908964,
        30.666777
      ],
      [
        -97.908608,
        30.666596
      ],
      [
        -97.907799,
        30.666184
      ],
      [
        -97.907651,
        30.666108
      ],
      [
        -97.906903,
        30.665727
      ],
      [
        -97.906598,
        30.665572
      ],
      [
        -97.906403,
        30.665473
      ],
      [
        -97.906341,
        30.665441
      ],
      [
        -97.906135,
        30.665337
      ],
      [
        -97.905668,
        30.665102
      ],
      [
        -97.905256,
        30.664894
      ],
      [
        -97.905123,
        30.664826
      ],
      [
        -97.904461,
        30.664523
      ],
      [
        -97.90272,
        30.663721
      ],
      [
        -97.902171,
        30.663477
      ],
      [
        -97.901462,
        30.663144
      ],
      [
        -97.901112,
        30.662994
      ],
      [
        -97.900887,
        30.662898
      ],
      [
        -97.900565,
        30.662759
      ],
      [
        -97.900047,
        30.662537
      ],
      [
        -97.898854,
        30.662038
      ],
      [
        -97.898526,
        30.661901
      ],
      [
        -97.898001,
        30.661674
      ],
      [
        -97.897801,
        30.661587
      ],
      [
        -97.897485,
        30.66146
      ],
      [
        -97.897143,
        30.661321
      ],
      [
        -97.896889,
        30.661217
      ],
      [
        -97.896803,
        30.661182
      ],
      [
        -97.896287,
        30.660969
      ],
      [
        -97.896179,
        30.660928
      ],
      [
        -97.895584,
        30.660692
      ],
      [
        -97.895332,
        30.660585
      ],
      [
        -97.895239,
        30.660547
      ],
      [
        -97.895221,
        30.66054
      ],
      [
        -97.894732,
        30.660343
      ],
      [
        -97.894327,
        30.660194
      ],
      [
        -97.893877,
        30.660039
      ],
      [
        -97.892972,
        30.659675
      ],
      [
        -97.891423,
        30.659053
      ],
      [
        -97.890943,
        30.65886
      ],
      [
        -97.890893,
        30.65884
      ],
      [
        -97.890859,
        30.658827
      ],
      [
        -97.890381,
        30.65864
      ],
      [
        -97.890042,
        30.658511
      ],
      [
        -97.889555,
        30.658326
      ],
      [
        -97.889497,
        30.658303
      ],
      [
        -97.889362,
        30.658252
      ],
      [
        -97.888734,
        30.658013
      ],
      [
        -97.888655,
        30.657986
      ],
      [
        -97.888065,
        30.657781
      ],
      [
        -97.887273,
        30.657506
      ],
      [
        -97.886897,
        30.657376
      ],
      [
        -97.886513,
        30.657242
      ],
      [
        -97.884947,
        30.656709
      ],
      [
        -97.88417,
        30.656426
      ],
      [
        -97.882707,
        30.655913
      ],
      [
        -97.882196,
        30.655734
      ],
      [
        -97.881379,
        30.655451
      ],
      [
        -97.879757,
        30.654888
      ],
      [
        -97.878941,
        30.654578
      ],
      [
        -97.87838,
        30.654371
      ],
      [
        -97.877518,
        30.654053
      ],
      [
        -97.877436,
        30.654021
      ]
    ],
    "type": "LineString"
  }
}
