{
  "type": "FeatureCollection",
  "features": [
    {
      "type": "Feature",
      "properties": {
        "route": "Balcones Escarpment Twisties",
        "category": "Twisties & Canyons",
        "color": "#e74c3c",
        "waypoints": [
          "Marble Falls",
          "Cow Creek",
          "Liberty Hill"
        ],
        "via": "FM 1431 -> Cow Creek Rd (FM 1174) -> RM 1869",
        "distance_mi": 29.1,
        "source": "road-snapped"
      },
      "geometry": {
        "type": "LineString",
        "coordinates": [
          [
            -98.27851,
            30.578585
          ],
          [
            -98.278352,
            30.578507
          ],
          [
            -98.277671,
            30.578184
          ],
          [
            -98.27736,
            30.578638
          ],
          [
            -98.277274,
            30.578741
          ],
          [
            -98.27711,
            30.579054
          ],
          [
            -98.277075,
            30.57912
          ],
          [
            -98.276572,
            30.579868
          ],
          [
            -98.276539,
            30.579917
          ],
          [
            -98.276441,
            30.580058
          ],
          [
            -98.276329,
            30.579999
          ],
          [
            -98.276115,
            30.579897
          ],
          [
            -98.276089,
            30.579884
          ],
          [
            -98.275849,
            30.579769
          ],
          [
            -98.27534,
            30.579525
          ],
          [
            -98.275101,
            30.579403
          ],
          [
            -98.274905,
            30.579303
          ],
          [
            -98.274816,
            30.579258
          ],
          [
            -98.274782,
            30.579241
          ],
          [
            -98.274436,
            30.579065
          ],
          [
            -98.27426,
            30.578975
          ],
          [
            -98.273865,
            30.578802
          ],
          [
            -98.273812,
            30.578779
          ],
          [
            -98.273706,
            30.578723
          ],
          [
            -98.273658,
            30.578698
          ],
          [
            -98.273557,
            30.578645
          ],
          [
            -98.273427,
            30.578576
          ],
          [
            -98.273178,
            30.578445
          ],
          [
            -98.272941,
            30.578336
          ],
          [
            -98.272823,
            30.578285
          ],
          [
            -98.272654,
            30.578201
          ],
          [
            -98.272499,
            30.578123
          ],
          [
            -98.272461,
            30.578103
          ],
          [
            -98.272246,
            30.577997
          ],
          [
            -98.271987,
            30.577867
          ],
          [
            -98.270898,
            30.577362
          ],
          [
            -98.269757,
            30.576792
          ],
          [
            -98.269269,
            30.576563
          ],
          [
            -98.26922,
            30.576537
          ],
          [
            -98.268664,
            30.576246
          ],
          [
            -98.268131,
            30.575985
          ],
          [
            -98.268104,
            30.575971
          ],
          [
            -98.267577,
            30.575701
          ],
          [
            -98.267414,
            30.575616
          ],
          [
            -98.267226,
            30.575541
          ],
          [
            -98.266939,
            30.575476
          ],
          [
            -98.266624,
            30.575444
          ],
          [
            -98.2665,
            30.57544
          ],
          [
            -98.26638,
            30.575445
          ],
          [
            -98.266315,
            30.575447
          ],
          [
            -98.266235,
            30.575458
          ],
          [
            -98.266084,
            30.575479
          ],
          [
            -98.265082,
            30.575635
          ],
          [
            -98.264923,
            30.575657
          ],
          [
            -98.264426,
            30.575725
          ],
          [
            -98.264097,
            30.57577
          ],
          [
            -98.263937,
            30.575792
          ],
          [
            -98.263605,
            30.575838
          ],
          [
            -98.26346,
            30.575856
          ],
          [
            -98.26336,
            30.575869
          ],
          [
            -98.263147,
            30.575896
          ],
          [
            -98.260609,
            30.576295
          ],
          [
            -98.259654,
            30.576409
          ],
          [
            -98.258865,
            30.57654
          ],
          [
            -98.258714,
            30.576555
          ],
          [
            -98.258334,
            30.576592
          ],
          [
            -98.257951,
            30.57662
          ],
          [
            -98.257909,
            30.576623
          ],
          [
            -98.257787,
            30.576624
          ],
          [
            -98.257539,
            30.576625
          ],
          [
            -98.257221,
            30.576596
          ],
          [
            -98.256981,
            30.576559
          ],
          [
            -98.256713,
            30.576491
          ],
          [
            -98.256469,
            30.576413
          ],
          [
            -98.255982,
            30.576202
          ],
          [
            -98.255909,
            30.57617
          ],
          [
            -98.255493,
            30.57599
          ],
          [
            -98.255432,
            30.575964
          ],
          [
            -98.255089,
            30.575816
          ],
          [
            -98.25382,
            30.575259
          ],
          [
            -98.253758,
            30.575232
          ],
          [
            -98.253692,
            30.575202
          ],
          [
            -98.251809,
            30.574341
          ],
          [
            -98.251061,
            30.574007
          ],
          [
            -98.250476,
            30.573747
          ],
          [
            -98.250273,
            30.573678
          ],
          [
            -98.249935,
            30.573596
          ],
          [
            -98.249749,
            30.573552
          ],
          [
            -98.249607,
            30.573516
          ],
          [
            -98.249403,
            30.573466
          ],
          [
            -98.249193,
            30.573432
          ],
          [
            -98.247752,
            30.573272
          ],
          [
            -98.246858,
            30.573144
          ],
          [
            -98.246454,
            30.573085
          ],
          [
            -98.24623,
            30.573029
          ],
          [
            -98.245974,
            30.572948
          ],
          [
            -98.245527,
            30.572743
          ],
          [
            -98.244953,
            30.572416
          ],
          [
            -98.244604,
            30.572217
          ],
          [
            -98.244337,
            30.572094
          ],
          [
            -98.244067,
            30.571985
          ],
          [
            -98.24383,
            30.571915
          ],
          [
            -98.241978,
            30.571434
          ],
          [
            -98.241758,
            30.571381
          ],
          [
            -98.240808,
            30.571154
          ],
          [
            -98.240267,
            30.571024
          ],
          [
            -98.239759,
            30.570886
          ],
          [
            -98.239616,
            30.570845
          ],
          [
            -98.239224,
            30.57074
          ],
          [
            -98.238987,
            30.570697
          ],
          [
            -98.238892,
            30.57068
          ],
          [
            -98.238721,
            30.570669
          ],
          [
            -98.238616,
            30.570662
          ],
          [
            -98.238387,
            30.570666
          ],
          [
            -98.238228,
            30.570669
          ],
          [
            -98.23797,
            30.570692
          ],
          [
            -98.237733,
            30.570738
          ],
          [
            -98.237464,
            30.570819
          ],
          [
            -98.237297,
            30.570896
          ],
          [
            -98.237094,
            30.570999
          ],
          [
            -98.237073,
            30.57101
          ],
          [
            -98.236839,
            30.57115
          ],
          [
            -98.236674,
            30.571282
          ],
          [
            -98.236531,
            30.571403
          ],
          [
            -98.236214,
            30.57181
          ],
          [
            -98.236042,
            30.572047
          ],
          [
            -98.234314,
            30.574728
          ],
          [
            -98.234104,
            30.575054
          ],
          [
            -98.234082,
            30.575084
          ],
          [
            -98.233703,
            30.575587
          ],
          [
            -98.233355,
            30.576128
          ],
          [
            -98.232665,
            30.576909
          ],
          [
            -98.232202,
            30.577363
          ],
          [
            -98.230639,
            30.578762
          ],
          [
            -98.230399,
            30.578976
          ],
          [
            -98.229801,
            30.579556
          ],
          [
            -98.229281,
            30.5802
          ],
          [
            -98.228806,
            30.580742
          ],
          [
            -98.228015,
            30.58176
          ],
          [
            -98.226759,
            30.583237
          ],
          [
            -98.226557,
            30.583439
          ],
          [
            -98.226523,
            30.583478
          ],
          [
            -98.226215,
            30.583756
          ],
          [
            -98.22562,
            30.584191
          ],
          [
            -98.224442,
            30.584904
          ],
          [
            -98.224118,
            30.585083
          ],
          [
            -98.223753,
            30.585258
          ],
          [
            -98.223448,
            30.585371
          ],
          [
            -98.223159,
            30.585465
          ],
          [
            -98.22263,
            30.585638
          ],
          [
            -98.222571,
            30.585646
          ],
          [
            -98.221941,
            30.585754
          ],
          [
            -98.220941,
            30.585869
          ],
          [
            -98.219405,
            30.586069
          ],
          [
            -98.21848,
            30.586179
          ],
          [
            -98.218105,
            30.586224
          ],
          [
            -98.217212,
            30.586289
          ],
          [
            -98.216051,
            30.586358
          ],
          [
            -98.215722,
            30.586376
          ],
          [
            -98.214631,
            30.586434
          ],
          [
            -98.213068,
            30.586526
          ],
          [
            -98.210852,
            30.586579
          ],
          [
            -98.209615,
            30.586609
          ],
          [
            -98.209517,
            30.586625
          ],
          [
            -98.209098,
            30.586694
          ],
          [
            -98.208582,
            30.586843
          ],
          [
            -98.207613,
            30.587261
          ],
          [
            -98.205812,
            30.588023
          ],
          [
            -98.205163,
            30.588266
          ],
          [
            -98.205146,
            30.58827
          ],
          [
            -98.204583,
            30.588407
          ],
          [
            -98.203907,
            30.588525
          ],
          [
            -98.203094,
            30.588583
          ],
          [
            -98.201801,
            30.588675
          ],
          [
            -98.200633,
            30.588741
          ],
          [
            -98.199863,
            30.588695
          ],
          [
            -98.198754,
            30.588544
          ],
          [
            -98.19811,
            30.588398
          ],
          [
            -98.197222,
            30.5882
          ],
          [
            -98.196762,
            30.588099
          ],
          [
            -98.196006,
            30.587938
          ],
          [
            -98.195571,
            30.587842
          ],
          [
            -98.195071,
            30.587774
          ],
          [
            -98.194279,
            30.587752
          ],
          [
            -98.193884,
            30.587685
          ],
          [
            -98.193515,
            30.587591
          ],
          [
            -98.193321,
            30.587524
          ],
          [
            -98.192755,
            30.587273
          ],
          [
            -98.192281,
            30.58704
          ],
          [
            -98.191832,
            30.586837
          ],
          [
            -98.19129,
            30.586699
          ],
          [
            -98.190884,
            30.586659
          ],
          [
            -98.190448,
            30.586635
          ],
          [
            -98.19003,
            30.58665
          ],
          [
            -98.188959,
            30.586713
          ],
          [
            -98.188716,
            30.58673
          ],
          [
            -98.187137,
            30.586868
          ],
          [
            -98.18628,
            30.586942
          ],
          [
            -98.185863,
            30.586977
          ],
          [
            -98.184401,
            30.5871
          ],
          [
            -98.183914,
            30.587141
          ],
          [
            -98.183886,
            30.587146
          ],
          [
            -98.183429,
            30.587218
          ],
          [
            -98.182945,
            30.587344
          ],
          [
            -98.182482,
            30.587542
          ],
          [
            -98.182008,
            30.5878
          ],
          [
            -98.181584,
            30.588094
          ],
          [
            -98.181199,
            30.588446
          ],
          [
            -98.180433,
            30.589207
          ],
          [
            -98.180204,
            30.589431
          ],
          [
            -98.179892,
            30.589709
          ],
          [
            -98.179426,
            30.58997
          ],
          [
            -98.179372,
            30.590001
          ],
          [
            -98.178903,
            30.590202
          ],
          [
            -98.17844,
            30.590327
          ],
          [
            -98.178129,
            30.590378
          ],
          [
            -98.177805,
            30.590407
          ],
          [
            -98.177507,
            30.590415
          ],
          [
            -98.177123,
            30.590407
          ],
          [
            -98.176767,
            30.59038
          ],
          [
            -98.176403,
            30.590297
          ],
          [
            -98.17608,
            30.590208
          ],
          [
            -98.175756,
            30.590074
          ],
          [
            -98.175534,
            30.589966
          ],
          [
            -98.175392,
            30.589881
          ],
          [
            -98.175081,
            30.589697
          ],
          [
            -98.17477,
            30.589465
          ],
          [
            -98.174588,
            30.589262
          ],
          [
            -98.174495,
            30.589159
          ],
          [
            -98.174233,
            30.588867
          ],
          [
            -98.173984,
            30.588454
          ],
          [
            -98.173774,
            30.588069
          ],
          [
            -98.173759,
            30.588011
          ],
          [
            -98.173651,
            30.587594
          ],
          [
            -98.17357,
            30.586505
          ],
          [
            -98.173541,
            30.586112
          ],
          [
            -98.173507,
            30.585635
          ],
          [
            -98.173493,
            30.585561
          ],
          [
            -98.173464,
            30.585399
          ],
          [
            -98.173396,
            30.585118
          ],
          [
            -98.172744,
            30.582811
          ],
          [
            -98.172721,
            30.582725
          ],
          [
            -98.172671,
            30.582545
          ],
          [
            -98.172652,
            30.582477
          ],
          [
            -98.172373,
            30.581469
          ],
          [
            -98.172356,
            30.581409
          ],
          [
            -98.171998,
            30.58012
          ],
          [
            -98.171843,
            30.579735
          ],
          [
            -98.171646,
            30.579352
          ],
          [
            -98.171132,
            30.578691
          ],
          [
            -98.170777,
            30.578249
          ],
          [
            -98.170664,
            30.578107
          ],
          [
            -98.170472,
            30.577867
          ],
          [
            -98.170373,
            30.577741
          ],
          [
            -98.170165,
            30.577477
          ],
          [
            -98.170007,
            30.577277
          ],
          [
            -98.169893,
            30.577094
          ],
          [
            -98.169752,
            30.576813
          ],
          [
            -98.169619,
            30.576454
          ],
          [
            -98.1695,
            30.576015
          ],
          [
            -98.169462,
            30.575736
          ],
          [
            -98.169418,
            30.575397
          ],
          [
            -98.169455,
            30.575183
          ],
          [
            -98.169521,
            30.574876
          ],
          [
            -98.169635,
            30.574537
          ],
          [
            -98.169826,
            30.574101
          ],
          [
            -98.17027,
            30.573396
          ],
          [
            -98.170326,
            30.573301
          ],
          [
            -98.17084,
            30.572506
          ],
          [
            -98.171521,
            30.571453
          ],
          [
            -98.171605,
            30.57132
          ],
          [
            -98.171888,
            30.570871
          ],
          [
            -98.171999,
            30.570623
          ],
          [
            -98.172134,
            30.570381
          ],
          [
            -98.172314,
            30.570032
          ],
          [
            -98.172459,
            30.569571
          ],
          [
            -98.172481,
            30.569463
          ],
          [
            -98.172547,
            30.569138
          ],
          [
            -98.172593,
            30.5687
          ],
          [
            -98.172582,
            30.568148
          ],
          [
            -98.172526,
            30.567654
          ],
          [
            -98.172431,
            30.567168
          ],
          [
            -98.172333,
            30.566733
          ],
          [
            -98.172327,
            30.566675
          ],
          [
            -98.172208,
            30.566114
          ],
          [
            -98.172138,
            30.565785
          ],
          [
            -98.171763,
            30.563724
          ],
          [
            -98.171554,
            30.562808
          ],
          [
            -98.171407,
            30.56227
          ],
          [
            -98.171254,
            30.561736
          ],
          [
            -98.171137,
            30.561475
          ],
          [
            -98.171004,
            30.561269
          ],
          [
            -98.170929,
            30.56113
          ],
          [
            -98.17067,
            30.560775
          ],
          [
            -98.170481,
            30.560578
          ],
          [
            -98.17018,
            30.560328
          ],
          [
            -98.169353,
            30.559679
          ],
          [
            -98.168659,
            30.559117
          ],
          [
            -98.168371,
            30.558911
          ],
          [
            -98.168297,
            30.558864
          ],
          [
            -98.168028,
            30.558692
          ],
          [
            -98.167784,
            30.558583
          ],
          [
            -98.167523,
            30.55848
          ],
          [
            -98.167247,
            30.558387
          ],
          [
            -98.166406,
            30.558139
          ],
          [
            -98.165063,
            30.557887
          ],
          [
            -98.164083,
            30.557677
          ],
          [
            -98.163783,
            30.557641
          ],
          [
            -98.163657,
            30.557642
          ],
          [
            -98.16349,
            30.557642
          ],
          [
            -98.163351,
            30.557643
          ],
          [
            -98.163052,
            30.557674
          ],
          [
            -98.16269,
            30.557719
          ],
          [
            -98.162501,
            30.557756
          ],
          [
            -98.162215,
            30.557829
          ],
          [
            -98.161982,
            30.557919
          ],
          [
            -98.161706,
            30.558038
          ],
          [
            -98.161493,
            30.558143
          ],
          [
            -98.159899,
            30.558844
          ],
          [
            -98.159677,
            30.558923
          ],
          [
            -98.15945,
            30.558985
          ],
          [
            -98.159217,
            30.559036
          ],
          [
            -98.158981,
            30.559071
          ],
          [
            -98.158745,
            30.559092
          ],
          [
            -98.156723,
            30.559124
          ],
          [
            -98.156251,
            30.559126
          ],
          [
            -98.155666,
            30.559127
          ],
          [
            -98.155116,
            30.559129
          ],
          [
            -98.154883,
            30.559129
          ],
          [
            -98.152544,
            30.559177
          ],
          [
            -98.150395,
            30.559221
          ],
          [
            -98.149781,
            30.559248
          ],
          [
            -98.149242,
            30.559315
          ],
          [
            -98.14845,
            30.559458
          ],
          [
            -98.14778,
            30.559681
          ],
          [
            -98.14763,
            30.559742
          ],
          [
            -98.146846,
            30.56006
          ],
          [
            -98.146387,
            30.560346
          ],
          [
            -98.145962,
            30.560598
          ],
          [
            -98.145039,
            30.561147
          ],
          [
            -98.144951,
            30.5612
          ],
          [
            -98.14475,
            30.561323
          ],
          [
            -98.144492,
            30.561474
          ],
          [
            -98.143212,
            30.562243
          ],
          [
            -98.14254,
            30.562649
          ],
          [
            -98.141961,
            30.562988
          ],
          [
            -98.140394,
            30.563925
          ],
          [
            -98.139358,
            30.564546
          ],
          [
            -98.139139,
            30.564677
          ],
          [
            -98.13875,
            30.564909
          ],
          [
            -98.13846,
            30.565084
          ],
          [
            -98.138158,
            30.565345
          ],
          [
            -98.137759,
            30.565682
          ],
          [
            -98.137451,
            30.565977
          ],
          [
            -98.137197,
            30.566269
          ],
          [
            -98.137152,
            30.566328
          ],
          [
            -98.136933,
            30.566611
          ],
          [
            -98.136607,
            30.567134
          ],
          [
            -98.136466,
            30.567401
          ],
          [
            -98.136355,
            30.567685
          ],
          [
            -98.136162,
            30.568311
          ],
          [
            -98.13611,
            30.568572
          ],
          [
            -98.135975,
            30.569597
          ],
          [
            -98.135925,
            30.570061
          ],
          [
            -98.135747,
            30.571689
          ],
          [
            -98.135711,
            30.572003
          ],
          [
            -98.135632,
            30.572831
          ],
          [
            -98.135468,
            30.574552
          ],
          [
            -98.135421,
            30.574978
          ],
          [
            -98.135368,
            30.575216
          ],
          [
            -98.135322,
            30.575389
          ],
          [
            -98.135302,
            30.575485
          ],
          [
            -98.135259,
            30.57559
          ],
          [
            -98.135245,
            30.575623
          ],
          [
            -98.135192,
            30.575752
          ],
          [
            -98.135023,
            30.576077
          ],
          [
            -98.134912,
            30.576256
          ],
          [
            -98.134743,
            30.576484
          ],
          [
            -98.134668,
            30.576564
          ],
          [
            -98.134195,
            30.577079
          ],
          [
            -98.133813,
            30.577387
          ],
          [
            -98.132868,
            30.577899
          ],
          [
            -98.132594,
            30.57801
          ],
          [
            -98.132408,
            30.578081
          ],
          [
            -98.132202,
            30.578138
          ],
          [
            -98.13187,
            30.578206
          ],
          [
            -98.131767,
            30.578217
          ],
          [
            -98.131704,
            30.578223
          ],
          [
            -98.1315,
            30.57824
          ],
          [
            -98.131353,
            30.578252
          ],
          [
            -98.131175,
            30.578255
          ],
          [
            -98.131066,
            30.578256
          ],
          [
            -98.130745,
            30.578236
          ],
          [
            -98.130594,
            30.578223
          ],
          [
            -98.130511,
            30.578208
          ],
          [
            -98.130458,
            30.578199
          ],
          [
            -98.130279,
            30.578168
          ],
          [
            -98.130122,
            30.578126
          ],
          [
            -98.129993,
            30.578092
          ],
          [
            -98.129738,
            30.578013
          ],
          [
            -98.129702,
            30.577997
          ],
          [
            -98.129647,
            30.577973
          ],
          [
            -98.129466,
            30.577893
          ],
          [
            -98.129355,
            30.577844
          ],
          [
            -98.129093,
            30.577705
          ],
          [
            -98.128835,
            30.57753
          ],
          [
            -98.12874,
            30.577457
          ],
          [
            -98.128248,
            30.57713
          ],
          [
            -98.1279,
            30.576844
          ],
          [
            -98.127081,
            30.576087
          ],
          [
            -98.126877,
            30.576264
          ],
          [
            -98.126443,
            30.576515
          ],
          [
            -98.126182,
            30.576635
          ],
          [
            -98.125599,
            30.576847
          ],
          [
            -98.125505,
            30.576879
          ],
          [
            -98.123855,
            30.577435
          ],
          [
            -98.123694,
            30.577489
          ],
          [
            -98.123577,
            30.577529
          ],
          [
            -98.122412,
            30.577922
          ],
          [
            -98.122185,
            30.577999
          ],
          [
            -98.12196,
            30.578082
          ],
          [
            -98.121864,
            30.578118
          ],
          [
            -98.121414,
            30.578284
          ],
          [
            -98.121017,
            30.57843
          ],
          [
            -98.120557,
            30.578639
          ],
          [
            -98.120225,
            30.578809
          ],
          [
            -98.120142,
            30.578852
          ],
          [
            -98.119857,
            30.579022
          ],
          [
            -98.11981,
            30.57905
          ],
          [
            -98.119194,
            30.579448
          ],
          [
            -98.118938,
            30.579613
          ],
          [
            -98.118928,
            30.579619
          ],
          [
            -98.118104,
            30.580151
          ],
          [
            -98.117414,
            30.58062
          ],
          [
            -98.11725,
            30.580732
          ],
          [
            -98.117017,
            30.580871
          ],
          [
            -98.115884,
            30.581494
          ],
          [
            -98.115766,
            30.581559
          ],
          [
            -98.115318,
            30.581805
          ],
          [
            -98.115111,
            30.581913
          ],
          [
            -98.11477,
            30.58209
          ],
          [
            -98.114254,
            30.582378
          ],
          [
            -98.113985,
            30.582548
          ],
          [
            -98.113891,
            30.582608
          ],
          [
            -98.113574,
            30.582875
          ],
          [
            -98.113228,
            30.583221
          ],
          [
            -98.113128,
            30.583351
          ],
          [
            -98.112913,
            30.583683
          ],
          [
            -98.11276,
            30.584019
          ],
          [
            -98.112722,
            30.584122
          ],
          [
            -98.112704,
            30.584172
          ],
          [
            -98.112643,
            30.584399
          ],
          [
            -98.112601,
            30.584552
          ],
          [
            -98.112534,
            30.585071
          ],
          [
            -98.11214,
            30.587441
          ],
          [
            -98.112073,
            30.587882
          ],
          [
            -98.112004,
            30.5882
          ],
          [
            -98.111922,
            30.588446
          ],
          [
            -98.111814,
            30.588656
          ],
          [
            -98.111795,
            30.588684
          ],
          [
            -98.111506,
            30.589118
          ],
          [
            -98.111373,
            30.589297
          ],
          [
            -98.111222,
            30.589462
          ],
          [
            -98.110889,
            30.589778
          ],
          [
            -98.108792,
            30.591337
          ],
          [
            -98.106548,
            30.593017
          ],
          [
            -98.106167,
            30.593302
          ],
          [
            -98.105907,
            30.593512
          ],
          [
            -98.105786,
            30.593615
          ],
          [
            -98.10534,
            30.594003
          ],
          [
            -98.103926,
            30.595172
          ],
          [
            -98.103519,
            30.595423
          ],
          [
            -98.10328,
            30.595532
          ],
          [
            -98.102879,
            30.595665
          ],
          [
            -98.102289,
            30.595749
          ],
          [
            -98.101762,
            30.595824
          ],
          [
            -98.101411,
            30.595923
          ],
          [
            -98.101121,
            30.596047
          ],
          [
            -98.10085,
            30.596229
          ],
          [
            -98.100357,
            30.596693
          ],
          [
            -98.099378,
            30.597614
          ],
          [
            -98.099314,
            30.597674
          ],
          [
            -98.098611,
            30.598314
          ],
          [
            -98.09817,
            30.598647
          ],
          [
            -98.098102,
            30.598691
          ],
          [
            -98.097677,
            30.598966
          ],
          [
            -98.097242,
            30.599208
          ],
          [
            -98.096963,
            30.599336
          ],
          [
            -98.096571,
            30.599477
          ],
          [
            -98.095886,
            30.599706
          ],
          [
            -98.095462,
            30.599848
          ],
          [
            -98.095256,
            30.599922
          ],
          [
            -98.094626,
            30.600147
          ],
          [
            -98.094374,
            30.60025
          ],
          [
            -98.094167,
            30.600365
          ],
          [
            -98.09397,
            30.600499
          ],
          [
            -98.093041,
            30.601036
          ],
          [
            -98.092482,
            30.60137
          ],
          [
            -98.091466,
            30.601979
          ],
          [
            -98.09122,
            30.602109
          ],
          [
            -98.090927,
            30.602228
          ],
          [
            -98.090803,
            30.602273
          ],
          [
            -98.090652,
            30.602328
          ],
          [
            -98.090289,
            30.60242
          ],
          [
            -98.089897,
            30.602469
          ],
          [
            -98.088957,
            30.602529
          ],
          [
            -98.088629,
            30.602581
          ],
          [
            -98.08835,
            30.602651
          ],
          [
            -98.08831,
            30.602663
          ],
          [
            -98.08766,
            30.602846
          ],
          [
            -98.087485,
            30.602895
          ],
          [
            -98.087049,
            30.603018
          ],
          [
            -98.08683,
            30.603109
          ],
          [
            -98.086694,
            30.603166
          ],
          [
            -98.086481,
            30.603281
          ],
          [
            -98.086353,
            30.603357
          ],
          [
            -98.08628,
            30.603401
          ],
          [
            -98.085816,
            30.603764
          ],
          [
            -98.085753,
            30.603829
          ],
          [
            -98.085492,
            30.604097
          ],
          [
            -98.085334,
            30.604285
          ],
          [
            -98.085107,
            30.604652
          ],
          [
            -98.085038,
            30.604826
          ],
          [
            -98.084566,
            30.606165
          ],
          [
            -98.084243,
            30.607099
          ],
          [
            -98.084137,
            30.607406
          ],
          [
            -98.084006,
            30.607784
          ],
          [
            -98.083815,
            30.608258
          ],
          [
            -98.083675,
            30.608524
          ],
          [
            -98.083624,
            30.608621
          ],
          [
            -98.083333,
            30.609097
          ],
          [
            -98.082801,
            30.609837
          ],
          [
            -98.082212,
            30.610654
          ],
          [
            -98.08154,
            30.611602
          ],
          [
            -98.081013,
            30.612354
          ],
          [
            -98.080845,
            30.612593
          ],
          [
            -98.080235,
            30.613438
          ],
          [
            -98.079818,
            30.614016
          ],
          [
            -98.079094,
            30.61504
          ],
          [
            -98.077769,
            30.616896
          ],
          [
            -98.077326,
            30.617517
          ],
          [
            -98.076866,
            30.618161
          ],
          [
            -98.076436,
            30.618763
          ],
          [
            -98.075874,
            30.619549
          ],
          [
            -98.07473,
            30.621118
          ],
          [
            -98.074499,
            30.621446
          ],
          [
            -98.073922,
            30.622284
          ],
          [
            -98.073734,
            30.622537
          ],
          [
            -98.073441,
            30.623019
          ],
          [
            -98.073228,
            30.623532
          ],
          [
            -98.072979,
            30.62441
          ],
          [
            -98.072667,
            30.625868
          ],
          [
            -98.072623,
            30.626086
          ],
          [
            -98.072393,
            30.627211
          ],
          [
            -98.072127,
            30.628361
          ],
          [
            -98.072082,
            30.628671
          ],
          [
            -98.072046,
            30.629152
          ],
          [
            -98.072046,
            30.629545
          ],
          [
            -98.072135,
            30.630187
          ],
          [
            -98.072458,
            30.6317
          ],
          [
            -98.072484,
            30.632038
          ],
          [
            -98.072489,
            30.632102
          ],
          [
            -98.072456,
            30.632379
          ],
          [
            -98.072436,
            30.632547
          ],
          [
            -98.072341,
            30.632848
          ],
          [
            -98.072278,
            30.633047
          ],
          [
            -98.072161,
            30.633265
          ],
          [
            -98.072068,
            30.633456
          ],
          [
            -98.071858,
            30.633785
          ],
          [
            -98.071823,
            30.633834
          ],
          [
            -98.070584,
            30.63557
          ],
          [
            -98.0705,
            30.635688
          ],
          [
            -98.07004,
            30.636333
          ],
          [
            -98.069847,
            30.636642
          ],
          [
            -98.069679,
            30.63691
          ],
          [
            -98.069423,
            30.637419
          ],
          [
            -98.069195,
            30.638059
          ],
          [
            -98.069055,
            30.638859
          ],
          [
            -98.068916,
            30.639872
          ],
          [
            -98.068799,
            30.640623
          ],
          [
            -98.06875,
            30.640936
          ],
          [
            -98.068536,
            30.642382
          ],
          [
            -98.068533,
            30.642407
          ],
          [
            -98.068463,
            30.64291
          ],
          [
            -98.068321,
            30.643934
          ],
          [
            -98.068219,
            30.644717
          ],
          [
            -98.068174,
            30.645066
          ],
          [
            -98.068152,
            30.645232
          ],
          [
            -98.068149,
            30.645264
          ],
          [
            -98.068114,
            30.645663
          ],
          [
            -98.068118,
            30.645759
          ],
          [
            -98.068136,
            30.646145
          ],
          [
            -98.068195,
            30.64655
          ],
          [
            -98.068222,
            30.646667
          ],
          [
            -98.068324,
            30.647108
          ],
          [
            -98.068884,
            30.648442
          ],
          [
            -98.06916,
            30.6491
          ],
          [
            -98.069223,
            30.649249
          ],
          [
            -98.069525,
            30.650007
          ],
          [
            -98.069937,
            30.650996
          ],
          [
            -98.07046,
            30.652213
          ],
          [
            -98.070461,
            30.652215
          ],
          [
            -98.071142,
            30.65386
          ],
          [
            -98.064611,
            30.655858
          ],
          [
            -98.062617,
            30.656463
          ],
          [
            -98.060533,
            30.657084
          ],
          [
            -98.059732,
            30.657322
          ],
          [
            -98.059365,
            30.657458
          ],
          [
            -98.058975,
            30.657624
          ],
          [
            -98.058364,
            30.65787
          ],
          [
            -98.055285,
            30.659108
          ],
          [
            -98.054313,
            30.659445
          ],
          [
            -98.053722,
            30.65965
          ],
          [
            -98.050047,
            30.660833
          ],
          [
            -98.049809,
            30.660909
          ],
          [
            -98.049146,
            30.661119
          ],
          [
            -98.043567,
            30.662805
          ],
          [
            -98.043199,
            30.662889
          ],
          [
            -98.042834,
            30.662954
          ],
          [
            -98.042538,
            30.662981
          ],
          [
            -98.039704,
            30.66309
          ],
          [
            -98.039568,
            30.663098
          ],
          [
            -98.035769,
            30.663255
          ],
          [
            -98.035397,
            30.663262
          ],
          [
            -98.035057,
            30.663247
          ],
          [
            -98.034754,
            30.66321
          ],
          [
            -98.03442,
            30.663159
          ],
          [
            -98.034163,
            30.6631
          ],
          [
            -98.033908,
            30.663021
          ],
          [
            -98.033602,
            30.662889
          ],
          [
            -98.033477,
            30.66282
          ],
          [
            -98.033281,
            30.662704
          ],
          [
            -98.032935,
            30.662453
          ],
          [
            -98.03274,
            30.662306
          ],
          [
            -98.030344,
            30.660451
          ],
          [
            -98.030186,
            30.66032
          ],
          [
            -98.028051,
            30.658109
          ],
          [
            -98.027865,
            30.657941
          ],
          [
            -98.027664,
            30.657794
          ],
          [
            -98.027354,
            30.657584
          ],
          [
            -98.02714,
            30.657466
          ],
          [
            -98.026804,
            30.657321
          ],
          [
            -98.026493,
            30.657219
          ],
          [
            -98.026108,
            30.657121
          ],
          [
            -98.023596,
            30.656612
          ],
          [
            -98.021861,
            30.656241
          ],
          [
            -98.020657,
            30.655991
          ],
          [
            -98.01977,
            30.65578
          ],
          [
            -98.019446,
            30.655681
          ],
          [
            -98.017541,
            30.655001
          ],
          [
            -98.016927,
            30.654784
          ],
          [
            -98.016624,
            30.654713
          ],
          [
            -98.016211,
            30.654657
          ],
          [
            -98.015948,
            30.654641
          ],
          [
            -98.015619,
            30.654641
          ],
          [
            -98.015345,
            30.654671
          ],
          [
            -98.014908,
            30.654734
          ],
          [
            -98.014612,
            30.654817
          ],
          [
            -98.014235,
            30.654925
          ],
          [
            -98.013381,
            30.655188
          ],
          [
            -98.012183,
            30.655559
          ],
          [
            -98.011302,
            30.655834
          ],
          [
            -98.010691,
            30.656023
          ],
          [
            -98.010547,
            30.656058
          ],
          [
            -98.010293,
            30.656123
          ],
          [
            -98.010028,
            30.656168
          ],
          [
            -98.00979,
            30.656191
          ],
          [
            -98.009493,
            30.656202
          ],
          [
            -98.009189,
            30.65619
          ],
          [
            -98.008921,
            30.656166
          ],
          [
            -98.00871,
            30.656133
          ],
          [
            -98.00849,
            30.656091
          ],
          [
            -98.008263,
            30.656028
          ],
          [
            -98.007389,
            30.655765
          ],
          [
            -98.006681,
            30.655557
          ],
          [
            -98.00603,
            30.655355
          ],
          [
            -98.005776,
            30.655276
          ],
          [
            -98.005092,
            30.655068
          ],
          [
            -98.003282,
            30.654525
          ],
          [
            -98.002923,
            30.654433
          ],
          [
            -98.002532,
            30.65437
          ],
          [
            -98.002284,
            30.654346
          ],
          [
            -98.001949,
            30.654327
          ],
          [
            -98.001643,
            30.654332
          ],
          [
            -98.001375,
            30.654354
          ],
          [
            -98.001162,
            30.654374
          ],
          [
            -98.000869,
            30.654427
          ],
          [
            -97.999198,
            30.654738
          ],
          [
            -97.99837,
            30.654895
          ],
          [
            -97.996685,
            30.655209
          ],
          [
            -97.996387,
            30.655244
          ],
          [
            -97.996147,
            30.655266
          ],
          [
            -97.995856,
            30.655263
          ],
          [
            -97.995608,
            30.655261
          ],
          [
            -97.995338,
            30.655224
          ],
          [
            -97.995003,
            30.655157
          ],
          [
            -97.994698,
            30.655081
          ],
          [
            -97.99433,
            30.654951
          ],
          [
            -97.992844,
            30.654387
          ],
          [
            -97.989383,
            30.65302
          ],
          [
            -97.988999,
            30.65286
          ],
          [
            -97.988448,
            30.652646
          ],
          [
            -97.987484,
            30.652271
          ],
          [
            -97.987403,
            30.652238
          ],
          [
            -97.985746,
            30.651592
          ],
          [
            -97.983751,
            30.650796
          ],
          [
            -97.983418,
            30.650687
          ],
          [
            -97.982921,
            30.650543
          ],
          [
            -97.982571,
            30.650471
          ],
          [
            -97.98217,
            30.650416
          ],
          [
            -97.981808,
            30.650403
          ],
          [
            -97.981393,
            30.650432
          ],
          [
            -97.98078,
            30.650515
          ],
          [
            -97.979496,
            30.650708
          ],
          [
            -97.970803,
            30.652001
          ],
          [
            -97.968178,
            30.65238
          ],
          [
            -97.967468,
            30.652496
          ],
          [
            -97.967264,
            30.652537
          ],
          [
            -97.967087,
            30.652584
          ],
          [
            -97.966639,
            30.652717
          ],
          [
            -97.966497,
            30.652769
          ],
          [
            -97.96626,
            30.652873
          ],
          [
            -97.96598,
            30.653019
          ],
          [
            -97.965697,
            30.653188
          ],
          [
            -97.9654,
            30.653392
          ],
          [
            -97.965069,
            30.653646
          ],
          [
            -97.964985,
            30.653704
          ],
          [
            -97.964167,
            30.654367
          ],
          [
            -97.963955,
            30.654512
          ],
          [
            -97.963669,
            30.654705
          ],
          [
            -97.960347,
            30.656555
          ],
          [
            -97.959888,
            30.656785
          ],
          [
            -97.959489,
            30.656955
          ],
          [
            -97.959108,
            30.657088
          ],
          [
            -97.958469,
            30.657286
          ],
          [
            -97.957096,
            30.657698
          ],
          [
            -97.956567,
            30.657859
          ],
          [
            -97.954103,
            30.658607
          ],
          [
            -97.950823,
            30.659581
          ],
          [
            -97.948737,
            30.660208
          ],
          [
            -97.948408,
            30.660299
          ],
          [
            -97.948088,
            30.660366
          ],
          [
            -97.947554,
            30.660453
          ],
          [
            -97.947397,
            30.660468
          ],
          [
            -97.947252,
            30.660475
          ],
          [
            -97.947175,
            30.660472
          ],
          [
            -97.946867,
            30.660468
          ],
          [
            -97.946188,
            30.660441
          ],
          [
            -97.945659,
            30.660408
          ],
          [
            -97.945179,
            30.660378
          ],
          [
            -97.944953,
            30.660364
          ],
          [
            -97.943819,
            30.6603
          ],
          [
            -97.943528,
            30.660299
          ],
          [
            -97.942797,
            30.660265
          ],
          [
            -97.94224,
            30.660234
          ],
          [
            -97.941868,
            30.660209
          ],
          [
            -97.941413,
            30.660185
          ],
          [
            -97.941186,
            30.660152
          ],
          [
            -97.939919,
            30.659965
          ],
          [
            -97.939637,
            30.659939
          ],
          [
            -97.939291,
            30.659933
          ],
          [
            -97.938883,
            30.659966
          ],
          [
            -97.93826,
            30.66005
          ],
          [
            -97.937536,
            30.660143
          ],
          [
            -97.936769,
            30.660236
          ],
          [
            -97.936359,
            30.660286
          ],
          [
            -97.935887,
            30.660375
          ],
          [
            -97.935112,
            30.660608
          ],
          [
            -97.934871,
            30.660687
          ],
          [
            -97.933781,
            30.661047
          ],
          [
            -97.933428,
            30.661182
          ],
          [
            -97.933283,
            30.661246
          ],
          [
            -97.933002,
            30.66137
          ],
          [
            -97.932647,
            30.661526
          ],
          [
            -97.932075,
            30.661793
          ],
          [
            -97.931894,
            30.661877
          ],
          [
            -97.93177,
            30.661927
          ],
          [
            -97.931675,
            30.661962
          ],
          [
            -97.931588,
            30.661996
          ],
          [
            -97.931156,
            30.662139
          ],
          [
            -97.930856,
            30.662222
          ],
          [
            -97.930603,
            30.662293
          ],
          [
            -97.930154,
            30.662415
          ],
          [
            -97.929587,
            30.662561
          ],
          [
            -97.928791,
            30.662753
          ],
          [
            -97.928097,
            30.662972
          ],
          [
            -97.927909,
            30.663051
          ],
          [
            -97.92785,
            30.663076
          ],
          [
            -97.926816,
            30.663531
          ],
          [
            -97.926442,
            30.663694
          ],
          [
            -97.926339,
            30.663731
          ],
          [
            -97.925934,
            30.663872
          ],
          [
            -97.925978,
            30.664
          ],
          [
            -97.926099,
            30.664314
          ],
          [
            -97.92606,
            30.664348
          ],
          [
            -97.925974,
            30.664565
          ],
          [
            -97.925927,
            30.664645
          ],
          [
            -97.925807,
            30.664689
          ],
          [
            -97.925708,
            30.664824
          ],
          [
            -97.925612,
            30.665081
          ],
          [
            -97.9256,
            30.6651
          ]
        ]
      }
    }
  ]
}