{
  "type": "FeatureCollection",
  "features": [
    {
      "type": "Feature",
      "properties": {
        "route": "Bertram, RM 1174 & RM 963 Loop",
        "category": "Savannah & Prairie Sweeps",
        "color": "#27ae60",
        "waypoints": [
          "183 / TX 29 Crossing",
          "Bertram",
          "RM 1174",
          "RM 963",
          "US 183"
        ],
        "via": "TX 29 West -> Bertram -> RM 1174 North -> RM 963 East -> US 183 South",
        "distance_mi": 54.6,
        "source": "road-snapped"
      },
      "geometry": {
        "coordinates": [
          [
            -97.877436,
            30.654021
          ],
          [
            -97.877518,
            30.654053
          ],
          [
            -97.87838,
            30.654371
          ],
          [
            -97.878941,
            30.654578
          ],
          [
            -97.879757,
            30.654888
          ],
          [
            -97.881379,
            30.655451
          ],
          [
            -97.882196,
            30.655734
          ],
          [
            -97.882707,
            30.655913
          ],
          [
            -97.88417,
            30.656426
          ],
          [
            -97.884947,
            30.656709
          ],
          [
            -97.886513,
            30.657242
          ],
          [
            -97.886897,
            30.657376
          ],
          [
            -97.887273,
            30.657506
          ],
          [
            -97.888065,
            30.657781
          ],
          [
            -97.888655,
            30.657986
          ],
          [
            -97.888734,
            30.658013
          ],
          [
            -97.889362,
            30.658252
          ],
          [
            -97.889497,
            30.658303
          ],
          [
            -97.889555,
            30.658326
          ],
          [
            -97.890042,
            30.658511
          ],
          [
            -97.890381,
            30.65864
          ],
          [
            -97.890859,
            30.658827
          ],
          [
            -97.890893,
            30.65884
          ],
          [
            -97.890943,
            30.65886
          ],
          [
            -97.891423,
            30.659053
          ],
          [
            -97.892972,
            30.659675
          ],
          [
            -97.893877,
            30.660039
          ],
          [
            -97.894327,
            30.660194
          ],
          [
            -97.894732,
            30.660343
          ],
          [
            -97.895221,
            30.66054
          ],
          [
            -97.895239,
            30.660547
          ],
          [
            -97.895332,
            30.660585
          ],
          [
            -97.895584,
            30.660692
          ],
          [
            -97.896179,
            30.660928
          ],
          [
            -97.896287,
            30.660969
          ],
          [
            -97.896803,
            30.661182
          ],
          [
            -97.896889,
            30.661217
          ],
          [
            -97.897143,
            30.661321
          ],
          [
            -97.897485,
            30.66146
          ],
          [
            -97.897801,
            30.661587
          ],
          [
            -97.898001,
            30.661674
          ],
          [
            -97.898526,
            30.661901
          ],
          [
            -97.898854,
            30.662038
          ],
          [
            -97.900047,
            30.662537
          ],
          [
            -97.900565,
            30.662759
          ],
          [
            -97.900887,
            30.662898
          ],
          [
            -97.901112,
            30.662994
          ],
          [
            -97.901462,
            30.663144
          ],
          [
            -97.902171,
            30.663477
          ],
          [
            -97.90272,
            30.663721
          ],
          [
            -97.904461,
            30.664523
          ],
          [
            -97.905123,
            30.664826
          ],
          [
            -97.905256,
            30.664894
          ],
          [
            -97.905668,
            30.665102
          ],
          [
            -97.906135,
            30.665337
          ],
          [
            -97.906341,
            30.665441
          ],
          [
            -97.906403,
            30.665473
          ],
          [
            -97.906598,
            30.665572
          ],
          [
            -97.906903,
            30.665727
          ],
          [
            -97.907651,
            30.666108
          ],
          [
            -97.907799,
            30.666184
          ],
          [
            -97.908608,
            30.666596
          ],
          [
            -97.908964,
            30.666777
          ],
          [
            -97.909155,
            30.666874
          ],
          [
            -97.909495,
            30.667047
          ],
          [
            -97.909928,
            30.667268
          ],
          [
            -97.910376,
            30.667496
          ],
          [
            -97.910778,
            30.667693
          ],
          [
            -97.911067,
            30.667835
          ],
          [
            -97.911108,
            30.667855
          ],
          [
            -97.911569,
            30.668097
          ],
          [
            -97.912013,
            30.668322
          ],
          [
            -97.912297,
            30.668466
          ],
          [
            -97.912373,
            30.668505
          ],
          [
            -97.912455,
            30.668547
          ],
          [
            -97.912647,
            30.668644
          ],
          [
            -97.912799,
            30.668721
          ],
          [
            -97.912921,
            30.668783
          ],
          [
            -97.913017,
            30.668832
          ],
          [
            -97.913162,
            30.668906
          ],
          [
            -97.913753,
            30.669206
          ],
          [
            -97.914332,
            30.6695
          ],
          [
            -97.914646,
            30.669658
          ],
          [
            -97.91481,
            30.669742
          ],
          [
            -97.914924,
            30.6698
          ],
          [
            -97.915094,
            30.669886
          ],
          [
            -97.91527,
            30.669975
          ],
          [
            -97.915592,
            30.670138
          ],
          [
            -97.915965,
            30.670328
          ],
          [
            -97.916044,
            30.670368
          ],
          [
            -97.916259,
            30.670477
          ],
          [
            -97.916891,
            30.670797
          ],
          [
            -97.917281,
            30.670995
          ],
          [
            -97.917387,
            30.671049
          ],
          [
            -97.91759,
            30.671152
          ],
          [
            -97.917923,
            30.671329
          ],
          [
            -97.918524,
            30.671648
          ],
          [
            -97.918581,
            30.671678
          ],
          [
            -97.919149,
            30.671953
          ],
          [
            -97.919735,
            30.672237
          ],
          [
            -97.920333,
            30.672527
          ],
          [
            -97.920385,
            30.672554
          ],
          [
            -97.920571,
            30.672651
          ],
          [
            -97.921031,
            30.672891
          ],
          [
            -97.921199,
            30.672979
          ],
          [
            -97.921628,
            30.673202
          ],
          [
            -97.922256,
            30.67352
          ],
          [
            -97.922856,
            30.673824
          ],
          [
            -97.923004,
            30.673898
          ],
          [
            -97.923324,
            30.674057
          ],
          [
            -97.923382,
            30.674086
          ],
          [
            -97.923706,
            30.674264
          ],
          [
            -97.923744,
            30.674283
          ],
          [
            -97.924258,
            30.674531
          ],
          [
            -97.924596,
            30.674666
          ],
          [
            -97.92488,
            30.674779
          ],
          [
            -97.925111,
            30.674841
          ],
          [
            -97.925188,
            30.674862
          ],
          [
            -97.925541,
            30.674958
          ],
          [
            -97.925645,
            30.674984
          ],
          [
            -97.925843,
            30.675033
          ],
          [
            -97.925919,
            30.675049
          ],
          [
            -97.925969,
            30.675059
          ],
          [
            -97.926234,
            30.675114
          ],
          [
            -97.926292,
            30.675126
          ],
          [
            -97.926443,
            30.675146
          ],
          [
            -97.926867,
            30.675201
          ],
          [
            -97.927469,
            30.675217
          ],
          [
            -97.927614,
            30.675219
          ],
          [
            -97.92777,
            30.67522
          ],
          [
            -97.927788,
            30.67522
          ],
          [
            -97.927851,
            30.675221
          ],
          [
            -97.927962,
            30.675214
          ],
          [
            -97.928409,
            30.675183
          ],
          [
            -97.928742,
            30.675146
          ],
          [
            -97.92894,
            30.675123
          ],
          [
            -97.928969,
            30.67512
          ],
          [
            -97.929038,
            30.67511
          ],
          [
            -97.93014,
            30.674948
          ],
          [
            -97.931076,
            30.674811
          ],
          [
            -97.931116,
            30.674806
          ],
          [
            -97.931948,
            30.674691
          ],
          [
            -97.932138,
            30.674676
          ],
          [
            -97.93244,
            30.674653
          ],
          [
            -97.932586,
            30.674642
          ],
          [
            -97.932912,
            30.674637
          ],
          [
            -97.933269,
            30.674627
          ],
          [
            -97.933535,
            30.674628
          ],
          [
            -97.933914,
            30.674654
          ],
          [
            -97.934109,
            30.674676
          ],
          [
            -97.934148,
            30.674681
          ],
          [
            -97.934507,
            30.674725
          ],
          [
            -97.934551,
            30.67473
          ],
          [
            -97.934966,
            30.674796
          ],
          [
            -97.935598,
            30.674896
          ],
          [
            -97.936171,
            30.675015
          ],
          [
            -97.937068,
            30.675202
          ],
          [
            -97.937381,
            30.675268
          ],
          [
            -97.937963,
            30.675389
          ],
          [
            -97.938188,
            30.675447
          ],
          [
            -97.93826,
            30.675466
          ],
          [
            -97.938739,
            30.675596
          ],
          [
            -97.938984,
            30.675667
          ],
          [
            -97.939138,
            30.675711
          ],
          [
            -97.939714,
            30.675889
          ],
          [
            -97.939911,
            30.675961
          ],
          [
            -97.940342,
            30.67612
          ],
          [
            -97.940416,
            30.67615
          ],
          [
            -97.940568,
            30.676212
          ],
          [
            -97.941148,
            30.676448
          ],
          [
            -97.941364,
            30.676537
          ],
          [
            -97.94166,
            30.676664
          ],
          [
            -97.941852,
            30.676746
          ],
          [
            -97.942229,
            30.676908
          ],
          [
            -97.942452,
            30.677003
          ],
          [
            -97.94285,
            30.677174
          ],
          [
            -97.943781,
            30.677573
          ],
          [
            -97.944766,
            30.677995
          ],
          [
            -97.945485,
            30.678303
          ],
          [
            -97.946134,
            30.678572
          ],
          [
            -97.946444,
            30.678691
          ],
          [
            -97.946745,
            30.678802
          ],
          [
            -97.947012,
            30.678891
          ],
          [
            -97.947353,
            30.679006
          ],
          [
            -97.947736,
            30.679105
          ],
          [
            -97.948181,
            30.679225
          ],
          [
            -97.948469,
            30.679291
          ],
          [
            -97.948937,
            30.679386
          ],
          [
            -97.94967,
            30.679533
          ],
          [
            -97.949921,
            30.679582
          ],
          [
            -97.949968,
            30.679591
          ],
          [
            -97.950622,
            30.679703
          ],
          [
            -97.951001,
            30.679772
          ],
          [
            -97.951292,
            30.679826
          ],
          [
            -97.9522,
            30.679996
          ],
          [
            -97.95246,
            30.680045
          ],
          [
            -97.953284,
            30.680205
          ],
          [
            -97.953685,
            30.680291
          ],
          [
            -97.954079,
            30.680388
          ],
          [
            -97.954151,
            30.680407
          ],
          [
            -97.95442,
            30.68048
          ],
          [
            -97.955225,
            30.680739
          ],
          [
            -97.955749,
            30.680933
          ],
          [
            -97.956238,
            30.681129
          ],
          [
            -97.95652,
            30.681248
          ],
          [
            -97.957015,
            30.681486
          ],
          [
            -97.95758,
            30.681777
          ],
          [
            -97.957841,
            30.681916
          ],
          [
            -97.95794,
            30.681969
          ],
          [
            -97.958472,
            30.682296
          ],
          [
            -97.958646,
            30.682408
          ],
          [
            -97.959467,
            30.682932
          ],
          [
            -97.960246,
            30.683431
          ],
          [
            -97.960529,
            30.683633
          ],
          [
            -97.961261,
            30.684097
          ],
          [
            -97.962141,
            30.684653
          ],
          [
            -97.962169,
            30.684671
          ],
          [
            -97.96291,
            30.685151
          ],
          [
            -97.963177,
            30.685324
          ],
          [
            -97.96322,
            30.685351
          ],
          [
            -97.964087,
            30.685916
          ],
          [
            -97.964575,
            30.686224
          ],
          [
            -97.965375,
            30.686744
          ],
          [
            -97.967361,
            30.688017
          ],
          [
            -97.9685,
            30.688763
          ],
          [
            -97.969009,
            30.689073
          ],
          [
            -97.969277,
            30.689236
          ],
          [
            -97.969587,
            30.689417
          ],
          [
            -97.969738,
            30.689507
          ],
          [
            -97.970221,
            30.689767
          ],
          [
            -97.970811,
            30.690059
          ],
          [
            -97.971413,
            30.690332
          ],
          [
            -97.971817,
            30.690514
          ],
          [
            -97.975817,
            30.692237
          ],
          [
            -97.976405,
            30.692495
          ],
          [
            -97.976427,
            30.692504
          ],
          [
            -97.977081,
            30.692814
          ],
          [
            -97.979127,
            30.693822
          ],
          [
            -97.979182,
            30.693848
          ],
          [
            -97.979261,
            30.693887
          ],
          [
            -97.980749,
            30.694611
          ],
          [
            -97.981581,
            30.694992
          ],
          [
            -97.98214,
            30.695233
          ],
          [
            -97.982391,
            30.695335
          ],
          [
            -97.98246,
            30.695363
          ],
          [
            -97.983264,
            30.69569
          ],
          [
            -97.983694,
            30.695865
          ],
          [
            -97.985321,
            30.696521
          ],
          [
            -97.987016,
            30.697204
          ],
          [
            -97.987146,
            30.697256
          ],
          [
            -97.987246,
            30.6973
          ],
          [
            -97.987802,
            30.697548
          ],
          [
            -97.988175,
            30.697737
          ],
          [
            -97.988436,
            30.697885
          ],
          [
            -97.988537,
            30.697942
          ],
          [
            -97.988885,
            30.698163
          ],
          [
            -97.98903,
            30.698262
          ],
          [
            -97.990072,
            30.699055
          ],
          [
            -97.990193,
            30.699151
          ],
          [
            -97.991058,
            30.699838
          ],
          [
            -97.991922,
            30.700526
          ],
          [
            -97.99333,
            30.701646
          ],
          [
            -97.994419,
            30.702457
          ],
          [
            -97.994538,
            30.702542
          ],
          [
            -97.995787,
            30.703455
          ],
          [
            -97.997238,
            30.704497
          ],
          [
            -97.998443,
            30.705345
          ],
          [
            -97.999399,
            30.706006
          ],
          [
            -98.000151,
            30.706544
          ],
          [
            -98.000769,
            30.707055
          ],
          [
            -98.001158,
            30.707392
          ],
          [
            -98.001527,
            30.707744
          ],
          [
            -98.002065,
            30.708294
          ],
          [
            -98.002212,
            30.708444
          ],
          [
            -98.003741,
            30.7103
          ],
          [
            -98.004273,
            30.710883
          ],
          [
            -98.004714,
            30.711367
          ],
          [
            -98.005032,
            30.711746
          ],
          [
            -98.005119,
            30.71185
          ],
          [
            -98.005705,
            30.712548
          ],
          [
            -98.006068,
            30.712981
          ],
          [
            -98.006483,
            30.713475
          ],
          [
            -98.006981,
            30.71407
          ],
          [
            -98.007375,
            30.714539
          ],
          [
            -98.007566,
            30.714767
          ],
          [
            -98.007615,
            30.714825
          ],
          [
            -98.007698,
            30.714924
          ],
          [
            -98.007723,
            30.714954
          ],
          [
            -98.008041,
            30.71533
          ],
          [
            -98.008606,
            30.715999
          ],
          [
            -98.008638,
            30.716036
          ],
          [
            -98.008685,
            30.716093
          ],
          [
            -98.009093,
            30.716582
          ],
          [
            -98.00936,
            30.716902
          ],
          [
            -98.00989,
            30.717536
          ],
          [
            -98.010718,
            30.718521
          ],
          [
            -98.011512,
            30.719453
          ],
          [
            -98.011587,
            30.719541
          ],
          [
            -98.011926,
            30.71991
          ],
          [
            -98.012026,
            30.720019
          ],
          [
            -98.012448,
            30.720422
          ],
          [
            -98.012672,
            30.720635
          ],
          [
            -98.012725,
            30.720686
          ],
          [
            -98.012936,
            30.720882
          ],
          [
            -98.013475,
            30.721362
          ],
          [
            -98.013567,
            30.72143
          ],
          [
            -98.015037,
            30.722519
          ],
          [
            -98.015658,
            30.722978
          ],
          [
            -98.016195,
            30.723367
          ],
          [
            -98.016865,
            30.723852
          ],
          [
            -98.017161,
            30.724068
          ],
          [
            -98.019047,
            30.725448
          ],
          [
            -98.019157,
            30.725524
          ],
          [
            -98.019302,
            30.725631
          ],
          [
            -98.019458,
            30.725753
          ],
          [
            -98.019566,
            30.725837
          ],
          [
            -98.02112,
            30.726949
          ],
          [
            -98.021981,
            30.727565
          ],
          [
            -98.024237,
            30.729179
          ],
          [
            -98.024384,
            30.729288
          ],
          [
            -98.02482,
            30.729612
          ],
          [
            -98.025259,
            30.729938
          ],
          [
            -98.025862,
            30.730382
          ],
          [
            -98.026478,
            30.730836
          ],
          [
            -98.027455,
            30.731555
          ],
          [
            -98.028304,
            30.73218
          ],
          [
            -98.028452,
            30.73229
          ],
          [
            -98.028743,
            30.7325
          ],
          [
            -98.028969,
            30.732669
          ],
          [
            -98.029635,
            30.733154
          ],
          [
            -98.030533,
            30.733794
          ],
          [
            -98.030829,
            30.733997
          ],
          [
            -98.031031,
            30.734119
          ],
          [
            -98.031365,
            30.734296
          ],
          [
            -98.031606,
            30.734402
          ],
          [
            -98.031892,
            30.734512
          ],
          [
            -98.032224,
            30.734616
          ],
          [
            -98.032523,
            30.734699
          ],
          [
            -98.032842,
            30.734771
          ],
          [
            -98.033098,
            30.734811
          ],
          [
            -98.033329,
            30.73484
          ],
          [
            -98.033604,
            30.734861
          ],
          [
            -98.033863,
            30.734866
          ],
          [
            -98.033909,
            30.734865
          ],
          [
            -98.034195,
            30.734858
          ],
          [
            -98.034286,
            30.734849
          ],
          [
            -98.035258,
            30.734789
          ],
          [
            -98.035838,
            30.734772
          ],
          [
            -98.036141,
            30.734781
          ],
          [
            -98.036283,
            30.734785
          ],
          [
            -98.036783,
            30.734822
          ],
          [
            -98.037075,
            30.734857
          ],
          [
            -98.03743,
            30.734924
          ],
          [
            -98.037826,
            30.735027
          ],
          [
            -98.038008,
            30.735083
          ],
          [
            -98.038128,
            30.735126
          ],
          [
            -98.038461,
            30.735245
          ],
          [
            -98.038985,
            30.735471
          ],
          [
            -98.039692,
            30.735792
          ],
          [
            -98.04007,
            30.735961
          ],
          [
            -98.040242,
            30.736044
          ],
          [
            -98.041196,
            30.736473
          ],
          [
            -98.041683,
            30.736695
          ],
          [
            -98.042279,
            30.736968
          ],
          [
            -98.042459,
            30.73705
          ],
          [
            -98.042951,
            30.737275
          ],
          [
            -98.043005,
            30.737301
          ],
          [
            -98.043343,
            30.737463
          ],
          [
            -98.043637,
            30.737594
          ],
          [
            -98.044222,
            30.737859
          ],
          [
            -98.044981,
            30.738185
          ],
          [
            -98.045505,
            30.738427
          ],
          [
            -98.047008,
            30.739122
          ],
          [
            -98.047467,
            30.73933
          ],
          [
            -98.048016,
            30.73958
          ],
          [
            -98.04819,
            30.739659
          ],
          [
            -98.048301,
            30.739709
          ],
          [
            -98.048899,
            30.739975
          ],
          [
            -98.049043,
            30.740047
          ],
          [
            -98.049235,
            30.740134
          ],
          [
            -98.049461,
            30.740237
          ],
          [
            -98.049714,
            30.740352
          ],
          [
            -98.05002,
            30.740491
          ],
          [
            -98.050193,
            30.74057
          ],
          [
            -98.050333,
            30.740636
          ],
          [
            -98.050516,
            30.740717
          ],
          [
            -98.050649,
            30.740785
          ],
          [
            -98.050754,
            30.740837
          ],
          [
            -98.050829,
            30.740879
          ],
          [
            -98.05118,
            30.741078
          ],
          [
            -98.051321,
            30.741168
          ],
          [
            -98.051616,
            30.741338
          ],
          [
            -98.051972,
            30.741587
          ],
          [
            -98.052241,
            30.741796
          ],
          [
            -98.052667,
            30.742134
          ],
          [
            -98.052883,
            30.742306
          ],
          [
            -98.053132,
            30.742512
          ],
          [
            -98.053192,
            30.742562
          ],
          [
            -98.053291,
            30.742643
          ],
          [
            -98.053838,
            30.743097
          ],
          [
            -98.054231,
            30.743421
          ],
          [
            -98.054567,
            30.743628
          ],
          [
            -98.054702,
            30.743707
          ],
          [
            -98.055282,
            30.74398
          ],
          [
            -98.05536,
            30.744014
          ],
          [
            -98.055211,
            30.74427
          ],
          [
            -98.055148,
            30.744359
          ],
          [
            -98.055057,
            30.744518
          ],
          [
            -98.054965,
            30.744658
          ],
          [
            -98.054873,
            30.744785
          ],
          [
            -98.054785,
            30.744925
          ],
          [
            -98.054533,
            30.745341
          ],
          [
            -98.054286,
            30.745726
          ],
          [
            -98.054089,
            30.746077
          ],
          [
            -98.054056,
            30.746115
          ],
          [
            -98.053955,
            30.746215
          ],
          [
            -98.053955,
            30.746215
          ],
          [
            -98.053802,
            30.746287
          ],
          [
            -98.053604,
            30.746373
          ],
          [
            -98.053382,
            30.746456
          ],
          [
            -98.052007,
            30.746967
          ],
          [
            -98.0504,
            30.747563
          ],
          [
            -98.050121,
            30.747714
          ],
          [
            -98.050229,
            30.747973
          ],
          [
            -98.05054,
            30.748705
          ],
          [
            -98.050624,
            30.748915
          ],
          [
            -98.050649,
            30.748976
          ],
          [
            -98.050983,
            30.749771
          ],
          [
            -98.051132,
            30.750124
          ],
          [
            -98.051582,
            30.751187
          ],
          [
            -98.051884,
            30.751874
          ],
          [
            -98.052181,
            30.752609
          ],
          [
            -98.052249,
            30.752777
          ],
          [
            -98.052426,
            30.753202
          ],
          [
            -98.052575,
            30.753561
          ],
          [
            -98.052755,
            30.753961
          ],
          [
            -98.053348,
            30.755398
          ],
          [
            -98.053495,
            30.755684
          ],
          [
            -98.053714,
            30.756266
          ],
          [
            -98.05397,
            30.756877
          ],
          [
            -98.054879,
            30.759046
          ],
          [
            -98.054888,
            30.759067
          ],
          [
            -98.05495,
            30.759192
          ],
          [
            -98.05515,
            30.759688
          ],
          [
            -98.056506,
            30.762841
          ],
          [
            -98.057197,
            30.764493
          ],
          [
            -98.057508,
            30.765206
          ],
          [
            -98.057529,
            30.765253
          ],
          [
            -98.057585,
            30.765382
          ],
          [
            -98.057957,
            30.766283
          ],
          [
            -98.057973,
            30.76632
          ],
          [
            -98.058156,
            30.766748
          ],
          [
            -98.058525,
            30.767606
          ],
          [
            -98.058846,
            30.768354
          ],
          [
            -98.058925,
            30.768538
          ],
          [
            -98.059717,
            30.770381
          ],
          [
            -98.060287,
            30.771709
          ],
          [
            -98.061423,
            30.774388
          ],
          [
            -98.061519,
            30.774613
          ],
          [
            -98.063893,
            30.780162
          ],
          [
            -98.064378,
            30.781295
          ],
          [
            -98.064453,
            30.78147
          ],
          [
            -98.064752,
            30.782169
          ],
          [
            -98.06518,
            30.783117
          ],
          [
            -98.065327,
            30.783442
          ],
          [
            -98.06591,
            30.784733
          ],
          [
            -98.06628,
            30.785551
          ],
          [
            -98.066938,
            30.787006
          ],
          [
            -98.066987,
            30.787114
          ],
          [
            -98.067233,
            30.787658
          ],
          [
            -98.067516,
            30.788285
          ],
          [
            -98.068327,
            30.790371
          ],
          [
            -98.068696,
            30.791329
          ],
          [
            -98.068708,
            30.791361
          ],
          [
            -98.068899,
            30.791845
          ],
          [
            -98.069088,
            30.792294
          ],
          [
            -98.069103,
            30.792333
          ],
          [
            -98.06952,
            30.79342
          ],
          [
            -98.069535,
            30.79346
          ],
          [
            -98.070021,
            30.794726
          ],
          [
            -98.070127,
            30.795016
          ],
          [
            -98.070216,
            30.795504
          ],
          [
            -98.070211,
            30.795856
          ],
          [
            -98.0702,
            30.795996
          ],
          [
            -98.070177,
            30.796285
          ],
          [
            -98.069995,
            30.796906
          ],
          [
            -98.06974,
            30.797339
          ],
          [
            -98.069041,
            30.798336
          ],
          [
            -98.06888,
            30.798562
          ],
          [
            -98.068175,
            30.799554
          ],
          [
            -98.066839,
            30.801433
          ],
          [
            -98.066417,
            30.802027
          ],
          [
            -98.066257,
            30.802308
          ],
          [
            -98.066063,
            30.802846
          ],
          [
            -98.066021,
            30.803249
          ],
          [
            -98.066047,
            30.803833
          ],
          [
            -98.066262,
            30.804351
          ],
          [
            -98.066804,
            30.80521
          ],
          [
            -98.067158,
            30.805733
          ],
          [
            -98.067495,
            30.806117
          ],
          [
            -98.067827,
            30.806504
          ],
          [
            -98.068408,
            30.807197
          ],
          [
            -98.068648,
            30.807558
          ],
          [
            -98.068895,
            30.807967
          ],
          [
            -98.069579,
            30.809296
          ],
          [
            -98.069855,
            30.809777
          ],
          [
            -98.069996,
            30.810021
          ],
          [
            -98.07059,
            30.810809
          ],
          [
            -98.071035,
            30.811398
          ],
          [
            -98.072593,
            30.813469
          ],
          [
            -98.072947,
            30.813822
          ],
          [
            -98.073259,
            30.814061
          ],
          [
            -98.073743,
            30.814361
          ],
          [
            -98.074362,
            30.814581
          ],
          [
            -98.077357,
            30.815406
          ],
          [
            -98.07823,
            30.815641
          ],
          [
            -98.078711,
            30.815864
          ],
          [
            -98.078765,
            30.815889
          ],
          [
            -98.078927,
            30.815964
          ],
          [
            -98.07948,
            30.816411
          ],
          [
            -98.080054,
            30.817285
          ],
          [
            -98.080415,
            30.818245
          ],
          [
            -98.081985,
            30.821903
          ],
          [
            -98.082357,
            30.822798
          ],
          [
            -98.082457,
            30.823025
          ],
          [
            -98.082591,
            30.823258
          ],
          [
            -98.08271,
            30.823436
          ],
          [
            -98.082881,
            30.823651
          ],
          [
            -98.08311,
            30.823903
          ],
          [
            -98.083151,
            30.823942
          ],
          [
            -98.083273,
            30.824057
          ],
          [
            -98.083314,
            30.82409
          ],
          [
            -98.083455,
            30.824203
          ],
          [
            -98.083644,
            30.824333
          ],
          [
            -98.083848,
            30.824452
          ],
          [
            -98.084172,
            30.824612
          ],
          [
            -98.085715,
            30.825326
          ],
          [
            -98.085832,
            30.825378
          ],
          [
            -98.086739,
            30.825785
          ],
          [
            -98.08758,
            30.82614
          ],
          [
            -98.088432,
            30.82655
          ],
          [
            -98.088744,
            30.826729
          ],
          [
            -98.089038,
            30.826921
          ],
          [
            -98.089322,
            30.82713
          ],
          [
            -98.089491,
            30.827273
          ],
          [
            -98.089665,
            30.827452
          ],
          [
            -98.089812,
            30.827625
          ],
          [
            -98.089935,
            30.827795
          ],
          [
            -98.089948,
            30.827812
          ],
          [
            -98.090069,
            30.828006
          ],
          [
            -98.090147,
            30.828153
          ],
          [
            -98.090261,
            30.828408
          ],
          [
            -98.09028,
            30.828463
          ],
          [
            -98.090334,
            30.828619
          ],
          [
            -98.090427,
            30.828962
          ],
          [
            -98.090701,
            30.829975
          ],
          [
            -98.090723,
            30.830061
          ],
          [
            -98.090813,
            30.830419
          ],
          [
            -98.09109,
            30.83144
          ],
          [
            -98.091284,
            30.831935
          ],
          [
            -98.091424,
            30.832232
          ],
          [
            -98.091759,
            30.832843
          ],
          [
            -98.093168,
            30.834869
          ],
          [
            -98.093324,
            30.835108
          ],
          [
            -98.094391,
            30.836743
          ],
          [
            -98.094461,
            30.83685
          ],
          [
            -98.094722,
            30.83724
          ],
          [
            -98.094926,
            30.837587
          ],
          [
            -98.09499,
            30.837715
          ],
          [
            -98.095251,
            30.838244
          ],
          [
            -98.095423,
            30.838674
          ],
          [
            -98.095912,
            30.840118
          ],
          [
            -98.096235,
            30.841058
          ],
          [
            -98.096506,
            30.841596
          ],
          [
            -98.096765,
            30.841942
          ],
          [
            -98.096909,
            30.842106
          ],
          [
            -98.097255,
            30.8425
          ],
          [
            -98.09779,
            30.843085
          ],
          [
            -98.098096,
            30.84345
          ],
          [
            -98.09814,
            30.843503
          ],
          [
            -98.098166,
            30.84354
          ],
          [
            -98.09827,
            30.84369
          ],
          [
            -98.098412,
            30.843929
          ],
          [
            -98.098752,
            30.844608
          ],
          [
            -98.09921,
            30.845494
          ],
          [
            -98.099422,
            30.845855
          ],
          [
            -98.099594,
            30.846129
          ],
          [
            -98.099663,
            30.846214
          ],
          [
            -98.100424,
            30.84709
          ],
          [
            -98.10124,
            30.847847
          ],
          [
            -98.102011,
            30.848579
          ],
          [
            -98.103364,
            30.849849
          ],
          [
            -98.106249,
            30.85259
          ],
          [
            -98.106622,
            30.852933
          ],
          [
            -98.107027,
            30.853304
          ],
          [
            -98.10783,
            30.854041
          ],
          [
            -98.107868,
            30.854072
          ],
          [
            -98.107938,
            30.854129
          ],
          [
            -98.108159,
            30.854297
          ],
          [
            -98.108463,
            30.854503
          ],
          [
            -98.108707,
            30.854649
          ],
          [
            -98.108752,
            30.854676
          ],
          [
            -98.10915,
            30.854936
          ],
          [
            -98.109455,
            30.855172
          ],
          [
            -98.109729,
            30.855408
          ],
          [
            -98.109795,
            30.855471
          ],
          [
            -98.109892,
            30.855562
          ],
          [
            -98.10992,
            30.855592
          ],
          [
            -98.110105,
            30.855794
          ],
          [
            -98.11031,
            30.856031
          ],
          [
            -98.110551,
            30.856363
          ],
          [
            -98.110938,
            30.856896
          ],
          [
            -98.110992,
            30.85697
          ],
          [
            -98.111475,
            30.857635
          ],
          [
            -98.112095,
            30.858541
          ],
          [
            -98.112091,
            30.858542
          ],
          [
            -98.110694,
            30.859004
          ],
          [
            -98.110597,
            30.859034
          ],
          [
            -98.108709,
            30.859588
          ],
          [
            -98.107988,
            30.859855
          ],
          [
            -98.10774,
            30.859926
          ],
          [
            -98.107394,
            30.860024
          ],
          [
            -98.106879,
            30.860143
          ],
          [
            -98.106776,
            30.860167
          ],
          [
            -98.106289,
            30.860269
          ],
          [
            -98.106139,
            30.860295
          ],
          [
            -98.105806,
            30.860354
          ],
          [
            -98.105446,
            30.860406
          ],
          [
            -98.10493,
            30.860483
          ],
          [
            -98.104702,
            30.860516
          ],
          [
            -98.104067,
            30.860582
          ],
          [
            -98.103443,
            30.860629
          ],
          [
            -98.101141,
            30.860732
          ],
          [
            -98.099191,
            30.860803
          ],
          [
            -98.098083,
            30.86085
          ],
          [
            -98.09684,
            30.860903
          ],
          [
            -98.095698,
            30.860952
          ],
          [
            -98.095656,
            30.860954
          ],
          [
            -98.092954,
            30.861055
          ],
          [
            -98.092399,
            30.86108
          ],
          [
            -98.087357,
            30.861301
          ],
          [
            -98.082673,
            30.861483
          ],
          [
            -98.082117,
            30.861504
          ],
          [
            -98.076552,
            30.861733
          ],
          [
            -98.076419,
            30.861738
          ],
          [
            -98.07417,
            30.861849
          ],
          [
            -98.070974,
            30.861969
          ],
          [
            -98.069671,
            30.862026
          ],
          [
            -98.068327,
            30.862121
          ],
          [
            -98.067388,
            30.862253
          ],
          [
            -98.066363,
            30.862436
          ],
          [
            -98.065747,
            30.862535
          ],
          [
            -98.065074,
            30.86271
          ],
          [
            -98.063891,
            30.863071
          ],
          [
            -98.062437,
            30.863533
          ],
          [
            -98.061557,
            30.863814
          ],
          [
            -98.059723,
            30.864381
          ],
          [
            -98.05895,
            30.864624
          ],
          [
            -98.055012,
            30.865915
          ],
          [
            -98.052739,
            30.866664
          ],
          [
            -98.050234,
            30.867517
          ],
          [
            -98.049197,
            30.867815
          ],
          [
            -98.048922,
            30.867928
          ],
          [
            -98.048699,
            30.868034
          ],
          [
            -98.048486,
            30.868154
          ],
          [
            -98.048287,
            30.868288
          ],
          [
            -98.048102,
            30.868425
          ],
          [
            -98.04792,
            30.868584
          ],
          [
            -98.04775,
            30.868757
          ],
          [
            -98.047609,
            30.868917
          ],
          [
            -98.047464,
            30.869109
          ],
          [
            -98.047351,
            30.869286
          ],
          [
            -98.047238,
            30.869488
          ],
          [
            -98.047146,
            30.869695
          ],
          [
            -98.047075,
            30.8699
          ],
          [
            -98.047017,
            30.870113
          ],
          [
            -98.046984,
            30.87027
          ],
          [
            -98.046943,
            30.870643
          ],
          [
            -98.046948,
            30.870778
          ],
          [
            -98.046972,
            30.871155
          ],
          [
            -98.047035,
            30.871438
          ],
          [
            -98.04711,
            30.871666
          ],
          [
            -98.047225,
            30.871943
          ],
          [
            -98.04731,
            30.872104
          ],
          [
            -98.048776,
            30.87549
          ],
          [
            -98.049833,
            30.877908
          ],
          [
            -98.05072,
            30.879939
          ],
          [
            -98.050857,
            30.880236
          ],
          [
            -98.051029,
            30.880875
          ],
          [
            -98.05141,
            30.881719
          ],
          [
            -98.051584,
            30.882129
          ],
          [
            -98.051756,
            30.882533
          ],
          [
            -98.051928,
            30.882976
          ],
          [
            -98.052058,
            30.883367
          ],
          [
            -98.052191,
            30.883892
          ],
          [
            -98.052201,
            30.883953
          ],
          [
            -98.052225,
            30.884096
          ],
          [
            -98.052356,
            30.884553
          ],
          [
            -98.05238,
            30.88485
          ],
          [
            -98.052389,
            30.885084
          ],
          [
            -98.052387,
            30.885461
          ],
          [
            -98.052385,
            30.885496
          ],
          [
            -98.052372,
            30.885738
          ],
          [
            -98.05233,
            30.886098
          ],
          [
            -98.052279,
            30.886363
          ],
          [
            -98.052249,
            30.88652
          ],
          [
            -98.052167,
            30.886882
          ],
          [
            -98.05206,
            30.887245
          ],
          [
            -98.051968,
            30.88753
          ],
          [
            -98.051773,
            30.888019
          ],
          [
            -98.051727,
            30.888117
          ],
          [
            -98.051605,
            30.888376
          ],
          [
            -98.051419,
            30.888719
          ],
          [
            -98.051144,
            30.889157
          ],
          [
            -98.050997,
            30.889372
          ],
          [
            -98.050761,
            30.889687
          ],
          [
            -98.05074,
            30.889712
          ],
          [
            -98.050606,
            30.889872
          ],
          [
            -98.050485,
            30.890017
          ],
          [
            -98.050224,
            30.890304
          ],
          [
            -98.050099,
            30.890426
          ],
          [
            -98.050065,
            30.890466
          ],
          [
            -98.04967,
            30.890931
          ],
          [
            -98.049376,
            30.891276
          ],
          [
            -98.049002,
            30.891734
          ],
          [
            -98.048769,
            30.892052
          ],
          [
            -98.048567,
            30.892379
          ],
          [
            -98.048379,
            30.892719
          ],
          [
            -98.048183,
            30.893128
          ],
          [
            -98.048111,
            30.893301
          ],
          [
            -98.048033,
            30.893491
          ],
          [
            -98.0477,
            30.894462
          ],
          [
            -98.047172,
            30.896045
          ],
          [
            -98.047024,
            30.896424
          ],
          [
            -98.046847,
            30.896828
          ],
          [
            -98.046726,
            30.897068
          ],
          [
            -98.046295,
            30.89777
          ],
          [
            -98.04619,
            30.897929
          ],
          [
            -98.046089,
            30.898082
          ],
          [
            -98.045032,
            30.89959
          ],
          [
            -98.044884,
            30.89982
          ],
          [
            -98.044575,
            30.9003
          ],
          [
            -98.04432,
            30.900696
          ],
          [
            -98.043959,
            30.901257
          ],
          [
            -98.042904,
            30.902885
          ],
          [
            -98.042676,
            30.903279
          ],
          [
            -98.042652,
            30.903321
          ],
          [
            -98.04261,
            30.903401
          ],
          [
            -98.042251,
            30.904092
          ],
          [
            -98.042156,
            30.904304
          ],
          [
            -98.041566,
            30.905615
          ],
          [
            -98.041422,
            30.905934
          ],
          [
            -98.041069,
            30.906549
          ],
          [
            -98.040618,
            30.907311
          ],
          [
            -98.040315,
            30.907823
          ],
          [
            -98.039813,
            30.908548
          ],
          [
            -98.039528,
            30.908952
          ],
          [
            -98.03942,
            30.909105
          ],
          [
            -98.038715,
            30.909838
          ],
          [
            -98.038515,
            30.910034
          ],
          [
            -98.036976,
            30.911476
          ],
          [
            -98.036615,
            30.911822
          ],
          [
            -98.03641,
            30.91203
          ],
          [
            -98.036038,
            30.912441
          ],
          [
            -98.036002,
            30.912483
          ],
          [
            -98.035901,
            30.912599
          ],
          [
            -98.035798,
            30.912717
          ],
          [
            -98.035579,
            30.912997
          ],
          [
            -98.03484,
            30.914026
          ],
          [
            -98.033406,
            30.915961
          ],
          [
            -98.031493,
            30.918571
          ],
          [
            -98.031115,
            30.919086
          ],
          [
            -98.031069,
            30.919144
          ],
          [
            -98.030301,
            30.920111
          ],
          [
            -98.029881,
            30.92058
          ],
          [
            -98.029513,
            30.921051
          ],
          [
            -98.027856,
            30.922996
          ],
          [
            -98.027499,
            30.923406
          ],
          [
            -98.026936,
            30.924052
          ],
          [
            -98.026358,
            30.924724
          ],
          [
            -98.025814,
            30.925357
          ],
          [
            -98.02523,
            30.926045
          ],
          [
            -98.024596,
            30.926804
          ],
          [
            -98.024501,
            30.926945
          ],
          [
            -98.024416,
            30.927048
          ],
          [
            -98.024281,
            30.927192
          ],
          [
            -98.024169,
            30.927286
          ],
          [
            -98.024019,
            30.927388
          ],
          [
            -98.023879,
            30.927468
          ],
          [
            -98.023766,
            30.927525
          ],
          [
            -98.023734,
            30.927542
          ],
          [
            -98.023499,
            30.9277
          ],
          [
            -98.023135,
            30.927917
          ],
          [
            -98.022136,
            30.928531
          ],
          [
            -98.022014,
            30.928602
          ],
          [
            -98.021747,
            30.928758
          ],
          [
            -98.021225,
            30.929081
          ],
          [
            -98.018897,
            30.930521
          ],
          [
            -98.018299,
            30.930891
          ],
          [
            -98.01636,
            30.932072
          ],
          [
            -98.016158,
            30.932211
          ],
          [
            -98.015946,
            30.932372
          ],
          [
            -98.015619,
            30.932661
          ],
          [
            -98.015404,
            30.932871
          ],
          [
            -98.015326,
            30.932961
          ],
          [
            -98.015219,
            30.933082
          ],
          [
            -98.015032,
            30.933326
          ],
          [
            -98.014493,
            30.934321
          ],
          [
            -98.01449,
            30.934326
          ],
          [
            -98.013676,
            30.93399
          ],
          [
            -98.006946,
            30.930337
          ],
          [
            -98.006276,
            30.929973
          ],
          [
            -98.005846,
            30.92974
          ],
          [
            -98.005024,
            30.929318
          ],
          [
            -98.00417,
            30.928995
          ],
          [
            -98.003669,
            30.928826
          ],
          [
            -98.003155,
            30.928679
          ],
          [
            -98.002441,
            30.928499
          ],
          [
            -98.002037,
            30.928402
          ],
          [
            -98.001557,
            30.928287
          ],
          [
            -98.000924,
            30.928152
          ],
          [
            -97.999849,
            30.92799
          ],
          [
            -97.99903,
            30.927895
          ],
          [
            -97.998947,
            30.927885
          ],
          [
            -97.996452,
            30.92758
          ],
          [
            -97.996383,
            30.927572
          ],
          [
            -97.995285,
            30.927427
          ],
          [
            -97.995127,
            30.92741
          ],
          [
            -97.993665,
            30.927232
          ],
          [
            -97.993466,
            30.92721
          ],
          [
            -97.99201,
            30.927036
          ],
          [
            -97.991063,
            30.92692
          ],
          [
            -97.990909,
            30.926904
          ],
          [
            -97.990094,
            30.926771
          ],
          [
            -97.989772,
            30.926702
          ],
          [
            -97.989548,
            30.92664
          ],
          [
            -97.989419,
            30.926598
          ],
          [
            -97.989206,
            30.926529
          ],
          [
            -97.988922,
            30.926414
          ],
          [
            -97.988665,
            30.926294
          ],
          [
            -97.988379,
            30.926137
          ],
          [
            -97.988128,
            30.925979
          ],
          [
            -97.987869,
            30.925792
          ],
          [
            -97.987662,
            30.925621
          ],
          [
            -97.98744,
            30.925416
          ],
          [
            -97.987101,
            30.925055
          ],
          [
            -97.986459,
            30.924372
          ],
          [
            -97.9856,
            30.92343
          ],
          [
            -97.984762,
            30.922519
          ],
          [
            -97.984603,
            30.922361
          ],
          [
            -97.983872,
            30.921569
          ],
          [
            -97.982189,
            30.919745
          ],
          [
            -97.981627,
            30.919136
          ],
          [
            -97.981539,
            30.919041
          ],
          [
            -97.980119,
            30.917469
          ],
          [
            -97.978961,
            30.916233
          ],
          [
            -97.977958,
            30.915151
          ],
          [
            -97.976298,
            30.913358
          ],
          [
            -97.976025,
            30.913063
          ],
          [
            -97.97579,
            30.912809
          ],
          [
            -97.975709,
            30.912715
          ],
          [
            -97.975446,
            30.912407
          ],
          [
            -97.97524,
            30.912147
          ],
          [
            -97.974957,
            30.911743
          ],
          [
            -97.972359,
            30.907512
          ],
          [
            -97.971558,
            30.906208
          ],
          [
            -97.970926,
            30.905105
          ],
          [
            -97.970141,
            30.90396
          ],
          [
            -97.96965,
            30.903324
          ],
          [
            -97.968898,
            30.902477
          ],
          [
            -97.962698,
            30.895949
          ],
          [
            -97.961412,
            30.894595
          ],
          [
            -97.961054,
            30.89426
          ],
          [
            -97.960665,
            30.893896
          ],
          [
            -97.960295,
            30.893573
          ],
          [
            -97.959711,
            30.893153
          ],
          [
            -97.958816,
            30.892655
          ],
          [
            -97.958669,
            30.892573
          ],
          [
            -97.958415,
            30.892465
          ],
          [
            -97.956555,
            30.891678
          ],
          [
            -97.954064,
            30.890719
          ],
          [
            -97.953609,
            30.890582
          ],
          [
            -97.952995,
            30.89043
          ],
          [
            -97.952472,
            30.890339
          ],
          [
            -97.952305,
            30.89031
          ],
          [
            -97.951776,
            30.890237
          ],
          [
            -97.951658,
            30.890221
          ],
          [
            -97.950956,
            30.890194
          ],
          [
            -97.948969,
            30.890144
          ],
          [
            -97.945825,
            30.890077
          ],
          [
            -97.942349,
            30.889991
          ],
          [
            -97.940473,
            30.88995
          ],
          [
            -97.939831,
            30.889936
          ],
          [
            -97.935402,
            30.889933
          ],
          [
            -97.935303,
            30.889933
          ],
          [
            -97.935128,
            30.889931
          ],
          [
            -97.934541,
            30.889927
          ],
          [
            -97.934307,
            30.889923
          ],
          [
            -97.933898,
            30.889897
          ],
          [
            -97.933581,
            30.889865
          ],
          [
            -97.933295,
            30.889824
          ],
          [
            -97.933023,
            30.889773
          ],
          [
            -97.932717,
            30.889701
          ],
          [
            -97.932387,
            30.889607
          ],
          [
            -97.932045,
            30.889488
          ],
          [
            -97.931908,
            30.889436
          ],
          [
            -97.931709,
            30.88936
          ],
          [
            -97.931339,
            30.889205
          ],
          [
            -97.931163,
            30.889131
          ],
          [
            -97.930072,
            30.888659
          ],
          [
            -97.929688,
            30.888493
          ],
          [
            -97.92933,
            30.888326
          ],
          [
            -97.929019,
            30.888171
          ],
          [
            -97.928634,
            30.887973
          ],
          [
            -97.928393,
            30.887844
          ],
          [
            -97.927691,
            30.88745
          ],
          [
            -97.92739,
            30.887282
          ],
          [
            -97.926448,
            30.886739
          ],
          [
            -97.925935,
            30.886457
          ],
          [
            -97.924932,
            30.885907
          ],
          [
            -97.924447,
            30.885637
          ],
          [
            -97.923391,
            30.885041
          ],
          [
            -97.923177,
            30.884916
          ],
          [
            -97.923121,
            30.88488
          ],
          [
            -97.92298,
            30.884791
          ],
          [
            -97.922753,
            30.884636
          ],
          [
            -97.922571,
            30.884507
          ],
          [
            -97.922388,
            30.884361
          ],
          [
            -97.922196,
            30.884194
          ],
          [
            -97.92202,
            30.884029
          ],
          [
            -97.92183,
            30.883836
          ],
          [
            -97.921685,
            30.88368
          ],
          [
            -97.921549,
            30.883512
          ],
          [
            -97.921418,
            30.883351
          ],
          [
            -97.921304,
            30.88318
          ],
          [
            -97.921134,
            30.882898
          ],
          [
            -97.921069,
            30.882778
          ],
          [
            -97.921004,
            30.882657
          ],
          [
            -97.920925,
            30.882499
          ],
          [
            -97.920779,
            30.882176
          ],
          [
            -97.920382,
            30.881248
          ],
          [
            -97.920087,
            30.880551
          ],
          [
            -97.919949,
            30.880226
          ],
          [
            -97.918283,
            30.876273
          ],
          [
            -97.915151,
            30.868494
          ],
          [
            -97.914392,
            30.866731
          ],
          [
            -97.914273,
            30.866454
          ],
          [
            -97.911771,
            30.86075
          ],
          [
            -97.911638,
            30.860459
          ],
          [
            -97.910354,
            30.857428
          ],
          [
            -97.908503,
            30.852872
          ],
          [
            -97.907887,
            30.851546
          ],
          [
            -97.907201,
            30.84986
          ],
          [
            -97.906604,
            30.848391
          ],
          [
            -97.906477,
            30.848087
          ],
          [
            -97.906047,
            30.847001
          ],
          [
            -97.905153,
            30.844174
          ],
          [
            -97.905115,
            30.844009
          ],
          [
            -97.904881,
            30.843215
          ],
          [
            -97.904424,
            30.841719
          ],
          [
            -97.90432,
            30.84141
          ],
          [
            -97.903664,
            30.839911
          ],
          [
            -97.903188,
            30.838788
          ],
          [
            -97.903174,
            30.838757
          ],
          [
            -97.90297,
            30.838243
          ],
          [
            -97.902229,
            30.836445
          ],
          [
            -97.901956,
            30.835809
          ],
          [
            -97.901652,
            30.835125
          ],
          [
            -97.900753,
            30.832898
          ],
          [
            -97.899837,
            30.830648
          ],
          [
            -97.898746,
            30.828066
          ],
          [
            -97.898597,
            30.827671
          ],
          [
            -97.898417,
            30.827237
          ],
          [
            -97.898401,
            30.827197
          ],
          [
            -97.898259,
            30.826853
          ],
          [
            -97.897674,
            30.82544
          ],
          [
            -97.897625,
            30.82532
          ],
          [
            -97.897558,
            30.825159
          ],
          [
            -97.897429,
            30.824848
          ],
          [
            -97.897377,
            30.82472
          ],
          [
            -97.897349,
            30.824653
          ],
          [
            -97.897338,
            30.824627
          ],
          [
            -97.897325,
            30.824595
          ],
          [
            -97.897118,
            30.824108
          ],
          [
            -97.897017,
            30.823862
          ],
          [
            -97.896622,
            30.822903
          ],
          [
            -97.896577,
            30.822794
          ],
          [
            -97.896341,
            30.822228
          ],
          [
            -97.89585,
            30.821048
          ],
          [
            -97.895826,
            30.820991
          ],
          [
            -97.895692,
            30.820663
          ],
          [
            -97.895451,
            30.820073
          ],
          [
            -97.895317,
            30.819754
          ],
          [
            -97.894852,
            30.818649
          ],
          [
            -97.89474,
            30.818382
          ],
          [
            -97.894559,
            30.817945
          ],
          [
            -97.89445,
            30.817684
          ],
          [
            -97.894412,
            30.817593
          ],
          [
            -97.894322,
            30.817377
          ],
          [
            -97.894082,
            30.816797
          ],
          [
            -97.891667,
            30.810977
          ],
          [
            -97.891644,
            30.810924
          ],
          [
            -97.891553,
            30.810704
          ],
          [
            -97.891155,
            30.809703
          ],
          [
            -97.889321,
            30.805291
          ],
          [
            -97.887195,
            30.800168
          ],
          [
            -97.886289,
            30.797982
          ],
          [
            -97.885689,
            30.79655
          ],
          [
            -97.885434,
            30.795933
          ],
          [
            -97.885219,
            30.795411
          ],
          [
            -97.883497,
            30.791242
          ],
          [
            -97.882641,
            30.78917
          ],
          [
            -97.882279,
            30.788293
          ],
          [
            -97.882196,
            30.788094
          ],
          [
            -97.880215,
            30.783319
          ],
          [
            -97.880186,
            30.78325
          ],
          [
            -97.878768,
            30.779836
          ],
          [
            -97.878366,
            30.778857
          ],
          [
            -97.878181,
            30.778405
          ],
          [
            -97.87803,
            30.778023
          ],
          [
            -97.877607,
            30.776955
          ],
          [
            -97.877449,
            30.776478
          ],
          [
            -97.877297,
            30.775953
          ],
          [
            -97.877168,
            30.775423
          ],
          [
            -97.877077,
            30.774898
          ],
          [
            -97.87692,
            30.773845
          ],
          [
            -97.876887,
            30.773465
          ],
          [
            -97.876863,
            30.773091
          ],
          [
            -97.876825,
            30.771286
          ],
          [
            -97.876717,
            30.762107
          ],
          [
            -97.876711,
            30.761593
          ],
          [
            -97.876708,
            30.761391
          ],
          [
            -97.876696,
            30.760484
          ],
          [
            -97.876652,
            30.75714
          ],
          [
            -97.876647,
            30.756658
          ],
          [
            -97.876642,
            30.756185
          ],
          [
            -97.87662,
            30.754208
          ],
          [
            -97.876581,
            30.75114
          ],
          [
            -97.876578,
            30.750904
          ],
          [
            -97.876518,
            30.745822
          ],
          [
            -97.87646,
            30.741696
          ],
          [
            -97.876458,
            30.741436
          ],
          [
            -97.876452,
            30.740717
          ],
          [
            -97.876445,
            30.739896
          ],
          [
            -97.876421,
            30.738322
          ],
          [
            -97.876418,
            30.738078
          ],
          [
            -97.876409,
            30.737283
          ],
          [
            -97.876408,
            30.737174
          ],
          [
            -97.876387,
            30.736071
          ],
          [
            -97.876373,
            30.73514
          ],
          [
            -97.876365,
            30.734071
          ],
          [
            -97.876355,
            30.732675
          ],
          [
            -97.876354,
            30.732643
          ],
          [
            -97.876339,
            30.731769
          ],
          [
            -97.876294,
            30.729152
          ],
          [
            -97.876273,
            30.725945
          ],
          [
            -97.876283,
            30.725243
          ],
          [
            -97.876401,
            30.7228
          ],
          [
            -97.876418,
            30.722454
          ],
          [
            -97.87646,
            30.721721
          ],
          [
            -97.876488,
            30.721236
          ],
          [
            -97.876508,
            30.720851
          ],
          [
            -97.876541,
            30.720326
          ],
          [
            -97.876602,
            30.71936
          ],
          [
            -97.876736,
            30.71725
          ],
          [
            -97.876815,
            30.715822
          ],
          [
            -97.876865,
            30.714923
          ],
          [
            -97.876907,
            30.714277
          ],
          [
            -97.876917,
            30.714127
          ],
          [
            -97.877033,
            30.712197
          ],
          [
            -97.877086,
            30.711315
          ],
          [
            -97.877168,
            30.709984
          ],
          [
            -97.877231,
            30.708984
          ],
          [
            -97.877278,
            30.708236
          ],
          [
            -97.877352,
            30.707051
          ],
          [
            -97.877415,
            30.705744
          ],
          [
            -97.877423,
            30.705589
          ],
          [
            -97.877459,
            30.705231
          ],
          [
            -97.877479,
            30.705037
          ],
          [
            -97.877514,
            30.704513
          ],
          [
            -97.877566,
            30.703559
          ],
          [
            -97.877625,
            30.702511
          ],
          [
            -97.877673,
            30.701572
          ],
          [
            -97.877758,
            30.700192
          ],
          [
            -97.877778,
            30.699841
          ],
          [
            -97.877799,
            30.699465
          ],
          [
            -97.877835,
            30.698833
          ],
          [
            -97.87791,
            30.697649
          ],
          [
            -97.877916,
            30.697559
          ],
          [
            -97.877945,
            30.697187
          ],
          [
            -97.877959,
            30.697075
          ],
          [
            -97.878022,
            30.696559
          ],
          [
            -97.878112,
            30.696003
          ],
          [
            -97.878232,
            30.695263
          ],
          [
            -97.878301,
            30.69484
          ],
          [
            -97.878488,
            30.693689
          ],
          [
            -97.878726,
            30.692218
          ],
          [
            -97.87873,
            30.692195
          ],
          [
            -97.878802,
            30.69175
          ],
          [
            -97.878854,
            30.691341
          ],
          [
            -97.878914,
            30.690869
          ],
          [
            -97.878944,
            30.690542
          ],
          [
            -97.878967,
            30.690015
          ],
          [
            -97.878969,
            30.68957
          ],
          [
            -97.87897,
            30.689329
          ],
          [
            -97.878973,
            30.688846
          ],
          [
            -97.878986,
            30.687903
          ],
          [
            -97.878998,
            30.68707
          ],
          [
            -97.879012,
            30.686087
          ],
          [
            -97.879009,
            30.683509
          ],
          [
            -97.879007,
            30.68143
          ],
          [
            -97.879008,
            30.68117
          ],
          [
            -97.879009,
            30.681094
          ],
          [
            -97.879024,
            30.679828
          ],
          [
            -97.879034,
            30.679048
          ],
          [
            -97.879045,
            30.678659
          ],
          [
            -97.879053,
            30.678364
          ],
          [
            -97.879075,
            30.677999
          ],
          [
            -97.879104,
            30.677575
          ],
          [
            -97.879109,
            30.677497
          ],
          [
            -97.879114,
            30.677461
          ],
          [
            -97.879177,
            30.676959
          ],
          [
            -97.879327,
            30.675772
          ],
          [
            -97.879528,
            30.674103
          ],
          [
            -97.87969,
            30.672702
          ],
          [
            -97.879694,
            30.672663
          ],
          [
            -97.879748,
            30.672223
          ],
          [
            -97.879979,
            30.670327
          ],
          [
            -97.88,
            30.670158
          ],
          [
            -97.880123,
            30.669164
          ],
          [
            -97.880219,
            30.668364
          ],
          [
            -97.880382,
            30.667076
          ],
          [
            -97.880386,
            30.666803
          ],
          [
            -97.88039,
            30.66662
          ],
          [
            -97.880356,
            30.666108
          ],
          [
            -97.880251,
            30.66545
          ],
          [
            -97.880062,
            30.66464
          ],
          [
            -97.880007,
            30.664303
          ],
          [
            -97.879915,
            30.663872
          ],
          [
            -97.879825,
            30.663486
          ],
          [
            -97.879772,
            30.663255
          ],
          [
            -97.879696,
            30.662924
          ],
          [
            -97.879598,
            30.662351
          ],
          [
            -97.879322,
            30.660601
          ],
          [
            -97.879194,
            30.660144
          ],
          [
            -97.879041,
            30.659635
          ],
          [
            -97.878677,
            30.658562
          ],
          [
            -97.878141,
            30.657295
          ],
          [
            -97.878083,
            30.657152
          ],
          [
            -97.877723,
            30.656262
          ],
          [
            -97.877565,
            30.655889
          ],
          [
            -97.877411,
            30.655524
          ],
          [
            -97.877117,
            30.654866
          ],
          [
            -97.877012,
            30.654578
          ],
          [
            -97.876967,
            30.654499
          ],
          [
            -97.876652,
            30.653725
          ],
          [
            -97.877366,
            30.653993
          ],
          [
            -97.877436,
            30.654021
          ]
        ],
        "type": "LineString"
      }
    }
  ]
}