{
  "type": "FeatureCollection",
  "features": [
    {
      "type": "Feature",
      "properties": {
        "route": "Briggs, Oakalla & RM 963 Loop",
        "category": "Savannah & Prairie Sweeps",
        "color": "#27ae60",
        "waypoints": [
          "US 183 / CR 218",
          "Briggs",
          "FM 2657",
          "Oakalla",
          "RM 963",
          "Watson",
          "US 183"
        ],
        "via": "US 183 -> Briggs -> FM 2657 North -> Oakalla -> RM 963 West -> Watson -> US 183 South",
        "distance_mi": 23.1,
        "source": "road-snapped"
      },
      "geometry": {
        "coordinates": [
          [
            -97.924583,
            30.885713
          ],
          [
            -97.924932,
            30.885907
          ],
          [
            -97.925935,
            30.886457
          ],
          [
            -97.926448,
            30.886739
          ],
          [
            -97.92739,
            30.887282
          ],
          [
            -97.9274,
            30.88745
          ],
          [
            -97.927398,
            30.887544
          ],
          [
            -97.92744,
            30.887628
          ],
          [
            -97.927986,
            30.889015
          ],
          [
            -97.927438,
            30.889192
          ],
          [
            -97.926739,
            30.889407
          ],
          [
            -97.925558,
            30.889796
          ],
          [
            -97.925431,
            30.889838
          ],
          [
            -97.925276,
            30.889877
          ],
          [
            -97.925155,
            30.889924
          ],
          [
            -97.925076,
            30.889955
          ],
          [
            -97.924816,
            30.890034
          ],
          [
            -97.922888,
            30.890645
          ],
          [
            -97.921794,
            30.890971
          ],
          [
            -97.921015,
            30.891222
          ],
          [
            -97.920449,
            30.891401
          ],
          [
            -97.919847,
            30.891591
          ],
          [
            -97.919534,
            30.891687
          ],
          [
            -97.918267,
            30.892075
          ],
          [
            -97.916905,
            30.892495
          ],
          [
            -97.915334,
            30.892983
          ],
          [
            -97.914029,
            30.893393
          ],
          [
            -97.912935,
            30.893734
          ],
          [
            -97.912645,
            30.893824
          ],
          [
            -97.912449,
            30.893885
          ],
          [
            -97.911752,
            30.894101
          ],
          [
            -97.911079,
            30.894311
          ],
          [
            -97.910723,
            30.894419
          ],
          [
            -97.910295,
            30.894552
          ],
          [
            -97.910133,
            30.894602
          ],
          [
            -97.908995,
            30.89495
          ],
          [
            -97.907831,
            30.895312
          ],
          [
            -97.907333,
            30.895464
          ],
          [
            -97.906478,
            30.895724
          ],
          [
            -97.905895,
            30.895902
          ],
          [
            -97.905005,
            30.896188
          ],
          [
            -97.904136,
            30.896444
          ],
          [
            -97.903872,
            30.896544
          ],
          [
            -97.903591,
            30.89667
          ],
          [
            -97.903338,
            30.896806
          ],
          [
            -97.903096,
            30.896967
          ],
          [
            -97.902863,
            30.897132
          ],
          [
            -97.902694,
            30.897304
          ],
          [
            -97.902509,
            30.897484
          ],
          [
            -97.902441,
            30.897611
          ],
          [
            -97.902328,
            30.89776
          ],
          [
            -97.902176,
            30.897986
          ],
          [
            -97.902015,
            30.898321
          ],
          [
            -97.901858,
            30.898717
          ],
          [
            -97.901726,
            30.899083
          ],
          [
            -97.901449,
            30.89985
          ],
          [
            -97.900652,
            30.902022
          ],
          [
            -97.900518,
            30.902424
          ],
          [
            -97.900411,
            30.902786
          ],
          [
            -97.900336,
            30.903187
          ],
          [
            -97.900284,
            30.903566
          ],
          [
            -97.900273,
            30.903757
          ],
          [
            -97.900214,
            30.904761
          ],
          [
            -97.900208,
            30.904871
          ],
          [
            -97.900119,
            30.906772
          ],
          [
            -97.900037,
            30.907888
          ],
          [
            -97.899987,
            30.90897
          ],
          [
            -97.899971,
            30.909297
          ],
          [
            -97.899931,
            30.909547
          ],
          [
            -97.899882,
            30.909793
          ],
          [
            -97.899811,
            30.910017
          ],
          [
            -97.899718,
            30.910239
          ],
          [
            -97.899563,
            30.910539
          ],
          [
            -97.899366,
            30.910824
          ],
          [
            -97.899178,
            30.91104
          ],
          [
            -97.899006,
            30.911203
          ],
          [
            -97.898714,
            30.911451
          ],
          [
            -97.897801,
            30.912135
          ],
          [
            -97.897297,
            30.912522
          ],
          [
            -97.897097,
            30.912674
          ],
          [
            -97.896799,
            30.912911
          ],
          [
            -97.896592,
            30.91308
          ],
          [
            -97.896393,
            30.913278
          ],
          [
            -97.896243,
            30.913433
          ],
          [
            -97.896136,
            30.913583
          ],
          [
            -97.896021,
            30.913755
          ],
          [
            -97.89592,
            30.913932
          ],
          [
            -97.895833,
            30.914112
          ],
          [
            -97.895745,
            30.914337
          ],
          [
            -97.895672,
            30.914611
          ],
          [
            -97.895625,
            30.91488
          ],
          [
            -97.895608,
            30.915064
          ],
          [
            -97.895595,
            30.915312
          ],
          [
            -97.895606,
            30.915518
          ],
          [
            -97.895643,
            30.915748
          ],
          [
            -97.895674,
            30.915891
          ],
          [
            -97.895751,
            30.916107
          ],
          [
            -97.895813,
            30.916297
          ],
          [
            -97.895848,
            30.916369
          ],
          [
            -97.896608,
            30.918157
          ],
          [
            -97.896666,
            30.918298
          ],
          [
            -97.897494,
            30.920127
          ],
          [
            -97.897657,
            30.920487
          ],
          [
            -97.898573,
            30.922608
          ],
          [
            -97.899798,
            30.925432
          ],
          [
            -97.900306,
            30.92661
          ],
          [
            -97.900336,
            30.926679
          ],
          [
            -97.901119,
            30.928492
          ],
          [
            -97.901397,
            30.929138
          ],
          [
            -97.901453,
            30.929267
          ],
          [
            -97.901667,
            30.929764
          ],
          [
            -97.902197,
            30.931042
          ],
          [
            -97.902578,
            30.931887
          ],
          [
            -97.902858,
            30.932558
          ],
          [
            -97.905443,
            30.938869
          ],
          [
            -97.905813,
            30.939703
          ],
          [
            -97.905915,
            30.940003
          ],
          [
            -97.905966,
            30.94024
          ],
          [
            -97.906,
            30.940586
          ],
          [
            -97.906008,
            30.940781
          ],
          [
            -97.906013,
            30.940884
          ],
          [
            -97.906011,
            30.940911
          ],
          [
            -97.905985,
            30.941243
          ],
          [
            -97.905907,
            30.941631
          ],
          [
            -97.905736,
            30.942003
          ],
          [
            -97.905539,
            30.942347
          ],
          [
            -97.905294,
            30.942646
          ],
          [
            -97.904939,
            30.943007
          ],
          [
            -97.904463,
            30.943386
          ],
          [
            -97.904266,
            30.943483
          ],
          [
            -97.904,
            30.943613
          ],
          [
            -97.902737,
            30.944047
          ],
          [
            -97.902667,
            30.944071
          ],
          [
            -97.902425,
            30.944155
          ],
          [
            -97.901606,
            30.944399
          ],
          [
            -97.901573,
            30.944409
          ],
          [
            -97.900116,
            30.944862
          ],
          [
            -97.899316,
            30.945127
          ],
          [
            -97.898883,
            30.94527
          ],
          [
            -97.898126,
            30.945521
          ],
          [
            -97.897884,
            30.945607
          ],
          [
            -97.897711,
            30.945681
          ],
          [
            -97.897503,
            30.945796
          ],
          [
            -97.897188,
            30.945996
          ],
          [
            -97.897173,
            30.946005
          ],
          [
            -97.896957,
            30.94619
          ],
          [
            -97.896886,
            30.946252
          ],
          [
            -97.89671,
            30.946404
          ],
          [
            -97.896445,
            30.946718
          ],
          [
            -97.896263,
            30.947015
          ],
          [
            -97.896027,
            30.947503
          ],
          [
            -97.895906,
            30.947953
          ],
          [
            -97.895869,
            30.948297
          ],
          [
            -97.895869,
            30.948641
          ],
          [
            -97.895891,
            30.948927
          ],
          [
            -97.895965,
            30.949245
          ],
          [
            -97.896078,
            30.949549
          ],
          [
            -97.896294,
            30.950081
          ],
          [
            -97.897814,
            30.95362
          ],
          [
            -97.898738,
            30.955829
          ],
          [
            -97.899158,
            30.956832
          ],
          [
            -97.899219,
            30.956946
          ],
          [
            -97.899358,
            30.957229
          ],
          [
            -97.89955,
            30.957548
          ],
          [
            -97.899861,
            30.957935
          ],
          [
            -97.900315,
            30.958403
          ],
          [
            -97.900817,
            30.958817
          ],
          [
            -97.901251,
            30.959102
          ],
          [
            -97.901319,
            30.959147
          ],
          [
            -97.901363,
            30.959175
          ],
          [
            -97.903085,
            30.960149
          ],
          [
            -97.903412,
            30.960342
          ],
          [
            -97.903708,
            30.960525
          ],
          [
            -97.903994,
            30.960719
          ],
          [
            -97.90428,
            30.960937
          ],
          [
            -97.904488,
            30.961119
          ],
          [
            -97.904729,
            30.96136
          ],
          [
            -97.904986,
            30.96163
          ],
          [
            -97.905217,
            30.961936
          ],
          [
            -97.905398,
            30.962197
          ],
          [
            -97.90563,
            30.962562
          ],
          [
            -97.906052,
            30.963271
          ],
          [
            -97.90689,
            30.964629
          ],
          [
            -97.907426,
            30.965541
          ],
          [
            -97.907553,
            30.965758
          ],
          [
            -97.907905,
            30.966342
          ],
          [
            -97.908144,
            30.966732
          ],
          [
            -97.908675,
            30.967633
          ],
          [
            -97.909187,
            30.968503
          ],
          [
            -97.909746,
            30.969296
          ],
          [
            -97.910563,
            30.970322
          ],
          [
            -97.911052,
            30.970829
          ],
          [
            -97.912137,
            30.971915
          ],
          [
            -97.913454,
            30.973206
          ],
          [
            -97.913779,
            30.973525
          ],
          [
            -97.914403,
            30.974139
          ],
          [
            -97.915689,
            30.975404
          ],
          [
            -97.915749,
            30.975464
          ],
          [
            -97.915792,
            30.975505
          ],
          [
            -97.915876,
            30.975588
          ],
          [
            -97.91765,
            30.977333
          ],
          [
            -97.918148,
            30.977887
          ],
          [
            -97.91844,
            30.978346
          ],
          [
            -97.918795,
            30.978936
          ],
          [
            -97.919222,
            30.979726
          ],
          [
            -97.919452,
            30.980152
          ],
          [
            -97.919456,
            30.98016
          ],
          [
            -97.919691,
            30.980656
          ],
          [
            -97.919697,
            30.980676
          ],
          [
            -97.919894,
            30.981277
          ],
          [
            -97.919997,
            30.981256
          ],
          [
            -97.920109,
            30.981246
          ],
          [
            -97.920199,
            30.981256
          ],
          [
            -97.920279,
            30.981288
          ],
          [
            -97.920401,
            30.981403
          ],
          [
            -97.920466,
            30.981528
          ],
          [
            -97.920578,
            30.981725
          ],
          [
            -97.920589,
            30.981751
          ],
          [
            -97.920892,
            30.982428
          ],
          [
            -97.92099,
            30.982646
          ],
          [
            -97.921077,
            30.98285
          ],
          [
            -97.92122,
            30.983186
          ],
          [
            -97.921333,
            30.98337
          ],
          [
            -97.921492,
            30.983549
          ],
          [
            -97.9216,
            30.983644
          ],
          [
            -97.92181,
            30.983797
          ],
          [
            -97.922029,
            30.983982
          ],
          [
            -97.922219,
            30.984198
          ],
          [
            -97.922329,
            30.984348
          ],
          [
            -97.922495,
            30.984624
          ],
          [
            -97.922834,
            30.985147
          ],
          [
            -97.923042,
            30.985442
          ],
          [
            -97.923344,
            30.985816
          ],
          [
            -97.923427,
            30.98592
          ],
          [
            -97.923636,
            30.986136
          ],
          [
            -97.923696,
            30.986199
          ],
          [
            -97.923783,
            30.986267
          ],
          [
            -97.923909,
            30.986357
          ],
          [
            -97.924084,
            30.986426
          ],
          [
            -97.92415,
            30.986448
          ],
          [
            -97.924296,
            30.986466
          ],
          [
            -97.92446,
            30.986471
          ],
          [
            -97.924586,
            30.98647
          ],
          [
            -97.924703,
            30.986456
          ],
          [
            -97.924871,
            30.986431
          ],
          [
            -97.925021,
            30.986399
          ],
          [
            -97.925162,
            30.986358
          ],
          [
            -97.925236,
            30.986336
          ],
          [
            -97.925305,
            30.98631
          ],
          [
            -97.925379,
            30.986282
          ],
          [
            -97.925517,
            30.986226
          ],
          [
            -97.92564,
            30.986167
          ],
          [
            -97.926165,
            30.98583
          ],
          [
            -97.926437,
            30.985636
          ],
          [
            -97.927168,
            30.985143
          ],
          [
            -97.92742,
            30.984977
          ],
          [
            -97.929302,
            30.983708
          ],
          [
            -97.929521,
            30.983547
          ],
          [
            -97.929752,
            30.983331
          ],
          [
            -97.929867,
            30.983219
          ],
          [
            -97.930602,
            30.982429
          ],
          [
            -97.930837,
            30.982212
          ],
          [
            -97.931276,
            30.981859
          ],
          [
            -97.932332,
            30.981121
          ],
          [
            -97.932653,
            30.980856
          ],
          [
            -97.932801,
            30.980729
          ],
          [
            -97.932936,
            30.980595
          ],
          [
            -97.9331,
            30.980396
          ],
          [
            -97.933196,
            30.98025
          ],
          [
            -97.933331,
            30.979998
          ],
          [
            -97.933397,
            30.979844
          ],
          [
            -97.93382,
            30.978664
          ],
          [
            -97.934177,
            30.977693
          ],
          [
            -97.934301,
            30.977424
          ],
          [
            -97.934375,
            30.97728
          ],
          [
            -97.93454,
            30.977016
          ],
          [
            -97.934703,
            30.976785
          ],
          [
            -97.93493,
            30.976523
          ],
          [
            -97.935429,
            30.976012
          ],
          [
            -97.935572,
            30.975875
          ],
          [
            -97.936086,
            30.97538
          ],
          [
            -97.936225,
            30.975246
          ],
          [
            -97.93641,
            30.975095
          ],
          [
            -97.936688,
            30.974927
          ],
          [
            -97.936975,
            30.974781
          ],
          [
            -97.93724,
            30.974673
          ],
          [
            -97.937497,
            30.974593
          ],
          [
            -97.937809,
            30.974524
          ],
          [
            -97.938415,
            30.974428
          ],
          [
            -97.939836,
            30.974204
          ],
          [
            -97.940153,
            30.974153
          ],
          [
            -97.941966,
            30.973859
          ],
          [
            -97.943997,
            30.973542
          ],
          [
            -97.945998,
            30.973224
          ],
          [
            -97.946344,
            30.973109
          ],
          [
            -97.94653,
            30.973047
          ],
          [
            -97.946827,
            30.972923
          ],
          [
            -97.947064,
            30.972784
          ],
          [
            -97.947119,
            30.972749
          ],
          [
            -97.947262,
            30.972659
          ],
          [
            -97.948025,
            30.972123
          ],
          [
            -97.948576,
            30.971742
          ],
          [
            -97.948873,
            30.971517
          ],
          [
            -97.949383,
            30.971119
          ],
          [
            -97.949655,
            30.970871
          ],
          [
            -97.949899,
            30.970597
          ],
          [
            -97.950089,
            30.970384
          ],
          [
            -97.950273,
            30.970126
          ],
          [
            -97.950643,
            30.969634
          ],
          [
            -97.951925,
            30.967929
          ],
          [
            -97.952257,
            30.967494
          ],
          [
            -97.952985,
            30.966541
          ],
          [
            -97.953637,
            30.965686
          ],
          [
            -97.954349,
            30.964738
          ],
          [
            -97.95439,
            30.964683
          ],
          [
            -97.955267,
            30.963533
          ],
          [
            -97.956129,
            30.96238
          ],
          [
            -97.956154,
            30.96235
          ],
          [
            -97.956258,
            30.962226
          ],
          [
            -97.956277,
            30.962204
          ],
          [
            -97.956444,
            30.962025
          ],
          [
            -97.956513,
            30.961977
          ],
          [
            -97.956592,
            30.961921
          ],
          [
            -97.956727,
            30.96183
          ],
          [
            -97.956902,
            30.961729
          ],
          [
            -97.957103,
            30.961636
          ],
          [
            -97.958024,
            30.961158
          ],
          [
            -97.958325,
            30.961026
          ],
          [
            -97.958426,
            30.960967
          ],
          [
            -97.958523,
            30.9609
          ],
          [
            -97.958661,
            30.960771
          ],
          [
            -97.95869,
            30.96074
          ],
          [
            -97.958794,
            30.960628
          ],
          [
            -97.958906,
            30.960404
          ],
          [
            -97.958998,
            30.960095
          ],
          [
            -97.959023,
            30.959837
          ],
          [
            -97.959031,
            30.959661
          ],
          [
            -97.959012,
            30.959232
          ],
          [
            -97.958996,
            30.958481
          ],
          [
            -97.959048,
            30.958165
          ],
          [
            -97.959078,
            30.958053
          ],
          [
            -97.959173,
            30.957857
          ],
          [
            -97.959306,
            30.957664
          ],
          [
            -97.959478,
            30.957486
          ],
          [
            -97.959635,
            30.957362
          ],
          [
            -97.960544,
            30.956873
          ],
          [
            -97.960969,
            30.956622
          ],
          [
            -97.961805,
            30.956049
          ],
          [
            -97.962295,
            30.955725
          ],
          [
            -97.962432,
            30.955643
          ],
          [
            -97.962564,
            30.955549
          ],
          [
            -97.962717,
            30.955414
          ],
          [
            -97.962861,
            30.955221
          ],
          [
            -97.962977,
            30.954961
          ],
          [
            -97.963004,
            30.954902
          ],
          [
            -97.963051,
            30.954683
          ],
          [
            -97.963056,
            30.954419
          ],
          [
            -97.962946,
            30.953928
          ],
          [
            -97.962673,
            30.952831
          ],
          [
            -97.962652,
            30.95261
          ],
          [
            -97.962667,
            30.952393
          ],
          [
            -97.962754,
            30.95216
          ],
          [
            -97.962777,
            30.952098
          ],
          [
            -97.962832,
            30.952009
          ],
          [
            -97.962924,
            30.951862
          ],
          [
            -97.963149,
            30.951632
          ],
          [
            -97.963353,
            30.951507
          ],
          [
            -97.963569,
            30.951411
          ],
          [
            -97.963628,
            30.951385
          ],
          [
            -97.964132,
            30.951224
          ],
          [
            -97.965051,
            30.950977
          ],
          [
            -97.967404,
            30.950327
          ],
          [
            -97.968556,
            30.950011
          ],
          [
            -97.969325,
            30.949796
          ],
          [
            -97.971623,
            30.949142
          ],
          [
            -97.972625,
            30.948852
          ],
          [
            -97.972847,
            30.948766
          ],
          [
            -97.973059,
            30.94867
          ],
          [
            -97.973352,
            30.948511
          ],
          [
            -97.973651,
            30.948299
          ],
          [
            -97.97461,
            30.947571
          ],
          [
            -97.974867,
            30.947422
          ],
          [
            -97.975078,
            30.947316
          ],
          [
            -97.975374,
            30.947192
          ],
          [
            -97.975784,
            30.947062
          ],
          [
            -97.976456,
            30.946912
          ],
          [
            -97.976686,
            30.946869
          ],
          [
            -97.976975,
            30.946814
          ],
          [
            -97.977204,
            30.946755
          ],
          [
            -97.977879,
            30.946644
          ],
          [
            -97.978486,
            30.946517
          ],
          [
            -97.980095,
            30.946181
          ],
          [
            -97.980331,
            30.946111
          ],
          [
            -97.980633,
            30.945971
          ],
          [
            -97.980848,
            30.945834
          ],
          [
            -97.981559,
            30.945308
          ],
          [
            -97.982573,
            30.944606
          ],
          [
            -97.982755,
            30.944516
          ],
          [
            -97.983,
            30.944435
          ],
          [
            -97.983212,
            30.9444
          ],
          [
            -97.9834,
            30.944379
          ],
          [
            -97.983644,
            30.944392
          ],
          [
            -97.983882,
            30.944418
          ],
          [
            -97.984062,
            30.944461
          ],
          [
            -97.984113,
            30.944477
          ],
          [
            -97.984206,
            30.944507
          ],
          [
            -97.984401,
            30.944598
          ],
          [
            -97.984498,
            30.944658
          ],
          [
            -97.984688,
            30.944821
          ],
          [
            -97.98547,
            30.945671
          ],
          [
            -97.986474,
            30.946597
          ],
          [
            -97.986583,
            30.946687
          ],
          [
            -97.986766,
            30.946814
          ],
          [
            -97.98694,
            30.946908
          ],
          [
            -97.98711,
            30.946991
          ],
          [
            -97.98739,
            30.947103
          ],
          [
            -97.987582,
            30.947148
          ],
          [
            -97.987853,
            30.94718
          ],
          [
            -97.988315,
            30.947199
          ],
          [
            -97.988735,
            30.947127
          ],
          [
            -97.989104,
            30.947024
          ],
          [
            -97.989244,
            30.946977
          ],
          [
            -97.989831,
            30.946754
          ],
          [
            -97.990845,
            30.946368
          ],
          [
            -97.99109,
            30.946246
          ],
          [
            -97.991309,
            30.946074
          ],
          [
            -97.991462,
            30.945923
          ],
          [
            -97.991582,
            30.945735
          ],
          [
            -97.991654,
            30.94556
          ],
          [
            -97.991676,
            30.945463
          ],
          [
            -97.991716,
            30.945289
          ],
          [
            -97.991728,
            30.944995
          ],
          [
            -97.991741,
            30.944501
          ],
          [
            -97.991816,
            30.944274
          ],
          [
            -97.991926,
            30.944064
          ],
          [
            -97.992053,
            30.943909
          ],
          [
            -97.992176,
            30.943785
          ],
          [
            -97.992326,
            30.94367
          ],
          [
            -97.992553,
            30.943544
          ],
          [
            -97.994207,
            30.942953
          ],
          [
            -97.994298,
            30.942923
          ],
          [
            -97.994905,
            30.942715
          ],
          [
            -97.995262,
            30.942605
          ],
          [
            -97.995908,
            30.942413
          ],
          [
            -97.996541,
            30.942258
          ],
          [
            -97.99735,
            30.942017
          ],
          [
            -97.998402,
            30.941651
          ],
          [
            -97.998841,
            30.94148
          ],
          [
            -97.999043,
            30.941377
          ],
          [
            -97.999236,
            30.941273
          ],
          [
            -97.999423,
            30.941133
          ],
          [
            -97.999573,
            30.941009
          ],
          [
            -97.999675,
            30.94091
          ],
          [
            -97.999765,
            30.940793
          ],
          [
            -97.99995,
            30.940502
          ],
          [
            -97.999989,
            30.940399
          ],
          [
            -98.00001,
            30.940341
          ],
          [
            -98.000305,
            30.939758
          ],
          [
            -98.000415,
            30.939633
          ],
          [
            -98.000532,
            30.9395
          ],
          [
            -98.000831,
            30.939256
          ],
          [
            -98.0009,
            30.939211
          ],
          [
            -98.001019,
            30.939133
          ],
          [
            -98.001203,
            30.939045
          ],
          [
            -98.001543,
            30.938903
          ],
          [
            -98.001687,
            30.938857
          ],
          [
            -98.001715,
            30.938848
          ],
          [
            -98.001915,
            30.938794
          ],
          [
            -98.004819,
            30.937887
          ],
          [
            -98.005028,
            30.937822
          ],
          [
            -98.005128,
            30.937791
          ],
          [
            -98.007318,
            30.937113
          ],
          [
            -98.007841,
            30.936951
          ],
          [
            -98.008729,
            30.936651
          ],
          [
            -98.010313,
            30.936174
          ],
          [
            -98.010366,
            30.936158
          ],
          [
            -98.012195,
            30.93558
          ],
          [
            -98.013127,
            30.935316
          ],
          [
            -98.013561,
            30.935154
          ],
          [
            -98.013985,
            30.93492
          ],
          [
            -98.014185,
            30.934752
          ],
          [
            -98.014306,
            30.934596
          ],
          [
            -98.01449,
            30.934326
          ],
          [
            -98.01449,
            30.934326
          ],
          [
            -98.013676,
            30.93399
          ],
          [
            -98.006946,
            30.930337
          ],
          [
            -98.006276,
            30.929973
          ],
          [
            -98.005846,
            30.92974
          ],
          [
            -98.005024,
            30.929318
          ],
          [
            -98.00417,
            30.928995
          ],
          [
            -98.003669,
            30.928826
          ],
          [
            -98.003155,
            30.928679
          ],
          [
            -98.002441,
            30.928499
          ],
          [
            -98.002037,
            30.928402
          ],
          [
            -98.001557,
            30.928287
          ],
          [
            -98.000924,
            30.928152
          ],
          [
            -97.999849,
            30.92799
          ],
          [
            -97.99903,
            30.927895
          ],
          [
            -97.998947,
            30.927885
          ],
          [
            -97.996452,
            30.92758
          ],
          [
            -97.996383,
            30.927572
          ],
          [
            -97.995285,
            30.927427
          ],
          [
            -97.995127,
            30.92741
          ],
          [
            -97.993665,
            30.927232
          ],
          [
            -97.993466,
            30.92721
          ],
          [
            -97.99201,
            30.927036
          ],
          [
            -97.991063,
            30.92692
          ],
          [
            -97.990909,
            30.926904
          ],
          [
            -97.990094,
            30.926771
          ],
          [
            -97.989772,
            30.926702
          ],
          [
            -97.989548,
            30.92664
          ],
          [
            -97.989419,
            30.926598
          ],
          [
            -97.989206,
            30.926529
          ],
          [
            -97.988922,
            30.926414
          ],
          [
            -97.988665,
            30.926294
          ],
          [
            -97.988379,
            30.926137
          ],
          [
            -97.988128,
            30.925979
          ],
          [
            -97.987869,
            30.925792
          ],
          [
            -97.987662,
            30.925621
          ],
          [
            -97.98744,
            30.925416
          ],
          [
            -97.987101,
            30.925055
          ],
          [
            -97.986459,
            30.924372
          ],
          [
            -97.9856,
            30.92343
          ],
          [
            -97.984762,
            30.922519
          ],
          [
            -97.984603,
            30.922361
          ],
          [
            -97.983872,
            30.921569
          ],
          [
            -97.982189,
            30.919745
          ],
          [
            -97.981627,
            30.919136
          ],
          [
            -97.981539,
            30.919041
          ],
          [
            -97.980119,
            30.917469
          ],
          [
            -97.978961,
            30.916233
          ],
          [
            -97.977958,
            30.915151
          ],
          [
            -97.976298,
            30.913358
          ],
          [
            -97.976025,
            30.913063
          ],
          [
            -97.97579,
            30.912809
          ],
          [
            -97.975709,
            30.912715
          ],
          [
            -97.975446,
            30.912407
          ],
          [
            -97.97524,
            30.912147
          ],
          [
            -97.974957,
            30.911743
          ],
          [
            -97.972359,
            30.907512
          ],
          [
            -97.971558,
            30.906208
          ],
          [
            -97.970926,
            30.905105
          ],
          [
            -97.970141,
            30.90396
          ],
          [
            -97.96965,
            30.903324
          ],
          [
            -97.968898,
            30.902477
          ],
          [
            -97.962698,
            30.895949
          ],
          [
            -97.961412,
            30.894595
          ],
          [
            -97.961054,
            30.89426
          ],
          [
            -97.960665,
            30.893896
          ],
          [
            -97.960295,
            30.893573
          ],
          [
            -97.959711,
            30.893153
          ],
          [
            -97.958816,
            30.892655
          ],
          [
            -97.958669,
            30.892573
          ],
          [
            -97.958415,
            30.892465
          ],
          [
            -97.956555,
            30.891678
          ],
          [
            -97.954064,
            30.890719
          ],
          [
            -97.953609,
            30.890582
          ],
          [
            -97.952995,
            30.89043
          ],
          [
            -97.952472,
            30.890339
          ],
          [
            -97.952305,
            30.89031
          ],
          [
            -97.951776,
            30.890237
          ],
          [
            -97.951658,
            30.890221
          ],
          [
            -97.950956,
            30.890194
          ],
          [
            -97.948969,
            30.890144
          ],
          [
            -97.945825,
            30.890077
          ],
          [
            -97.942349,
            30.889991
          ],
          [
            -97.940473,
            30.88995
          ],
          [
            -97.939831,
            30.889936
          ],
          [
            -97.935402,
            30.889933
          ],
          [
            -97.935303,
            30.889933
          ],
          [
            -97.935128,
            30.889931
          ],
          [
            -97.934541,
            30.889927
          ],
          [
            -97.934307,
            30.889923
          ],
          [
            -97.933898,
            30.889897
          ],
          [
            -97.933581,
            30.889865
          ],
          [
            -97.933295,
            30.889824
          ],
          [
            -97.933023,
            30.889773
          ],
          [
            -97.932717,
            30.889701
          ],
          [
            -97.932387,
            30.889607
          ],
          [
            -97.932045,
            30.889488
          ],
          [
            -97.931908,
            30.889436
          ],
          [
            -97.931709,
            30.88936
          ],
          [
            -97.931339,
            30.889205
          ],
          [
            -97.931163,
            30.889131
          ],
          [
            -97.930072,
            30.888659
          ],
          [
            -97.929688,
            30.888493
          ],
          [
            -97.92933,
            30.888326
          ],
          [
            -97.929019,
            30.888171
          ],
          [
            -97.928634,
            30.887973
          ],
          [
            -97.928393,
            30.887844
          ],
          [
            -97.927691,
            30.88745
          ],
          [
            -97.92739,
            30.887282
          ],
          [
            -97.926448,
            30.886739
          ],
          [
            -97.925935,
            30.886457
          ],
          [
            -97.924932,
            30.885907
          ],
          [
            -97.924583,
            30.885713
          ]
        ],
        "type": "LineString"
      }
    }
  ]
}