{
  "type": "FeatureCollection",
  "features": [
    {
      "type": "Feature",
      "properties": {
        "route": "Devil's Backbone Scenic Ridge",
        "category": "Twisties & Canyons",
        "color": "#e74c3c",
        "waypoints": [
          "Wimberley",
          "Fischer",
          "Blanco"
        ],
        "via": "RM 12 -> RM 32 -> US 281",
        "distance_mi": 34.3,
        "source": "road-snapped"
      },
      "geometry": {
        "type": "LineString",
        "coordinates": [
          [
            -98.098636,
            29.997456
          ],
          [
            -98.098475,
            29.997356
          ],
          [
            -98.098286,
            29.997239
          ],
          [
            -98.098,
            29.997062
          ],
          [
            -98.097771,
            29.996934
          ],
          [
            -98.097242,
            29.996649
          ],
          [
            -98.097123,
            29.99658
          ],
          [
            -98.097064,
            29.996546
          ],
          [
            -98.096925,
            29.996438
          ],
          [
            -98.096757,
            29.996309
          ],
          [
            -98.096677,
            29.996279
          ],
          [
            -98.096602,
            29.996274
          ],
          [
            -98.096586,
            29.996276
          ],
          [
            -98.096509,
            29.996286
          ],
          [
            -98.096351,
            29.996328
          ],
          [
            -98.096205,
            29.996379
          ],
          [
            -98.095998,
            29.99635
          ],
          [
            -98.09542,
            29.996165
          ],
          [
            -98.095293,
            29.996124
          ],
          [
            -98.095098,
            29.996062
          ],
          [
            -98.094906,
            29.996
          ],
          [
            -98.094517,
            29.995877
          ],
          [
            -98.094476,
            29.995864
          ],
          [
            -98.094185,
            29.995771
          ],
          [
            -98.094167,
            29.995765
          ],
          [
            -98.094031,
            29.995719
          ],
          [
            -98.093625,
            29.99558
          ],
          [
            -98.093107,
            29.995417
          ],
          [
            -98.09287,
            29.995336
          ],
          [
            -98.09232,
            29.995161
          ],
          [
            -98.09214,
            29.995105
          ],
          [
            -98.091813,
            29.995014
          ],
          [
            -98.091282,
            29.994843
          ],
          [
            -98.090901,
            29.994721
          ],
          [
            -98.090814,
            29.994694
          ],
          [
            -98.090498,
            29.994594
          ],
          [
            -98.090459,
            29.994582
          ],
          [
            -98.090256,
            29.994516
          ],
          [
            -98.090172,
            29.994489
          ],
          [
            -98.090064,
            29.994454
          ],
          [
            -98.090009,
            29.994436
          ],
          [
            -98.089924,
            29.994405
          ],
          [
            -98.089892,
            29.994392
          ],
          [
            -98.089577,
            29.99426
          ],
          [
            -98.089392,
            29.994164
          ],
          [
            -98.089217,
            29.99405
          ],
          [
            -98.089047,
            29.993921
          ],
          [
            -98.088901,
            29.993796
          ],
          [
            -98.088656,
            29.993588
          ],
          [
            -98.08844,
            29.993353
          ],
          [
            -98.088174,
            29.992972
          ],
          [
            -98.088048,
            29.992781
          ],
          [
            -98.087895,
            29.992366
          ],
          [
            -98.087841,
            29.992175
          ],
          [
            -98.0878,
            29.991901
          ],
          [
            -98.087784,
            29.991568
          ],
          [
            -98.087825,
            29.991116
          ],
          [
            -98.087854,
            29.990776
          ],
          [
            -98.08788,
            29.990665
          ],
          [
            -98.088099,
            29.989881
          ],
          [
            -98.088312,
            29.989134
          ],
          [
            -98.088528,
            29.988319
          ],
          [
            -98.088879,
            29.98713
          ],
          [
            -98.089047,
            29.986675
          ],
          [
            -98.089268,
            29.986242
          ],
          [
            -98.089474,
            29.985927
          ],
          [
            -98.089565,
            29.985824
          ],
          [
            -98.089654,
            29.985724
          ],
          [
            -98.089909,
            29.985438
          ],
          [
            -98.089985,
            29.985371
          ],
          [
            -98.09081,
            29.984644
          ],
          [
            -98.091011,
            29.984458
          ],
          [
            -98.091277,
            29.984225
          ],
          [
            -98.091951,
            29.983634
          ],
          [
            -98.092299,
            29.98333
          ],
          [
            -98.092633,
            29.983012
          ],
          [
            -98.092984,
            29.982643
          ],
          [
            -98.093259,
            29.982265
          ],
          [
            -98.093384,
            29.982041
          ],
          [
            -98.093533,
            29.981772
          ],
          [
            -98.093724,
            29.981342
          ],
          [
            -98.093854,
            29.980875
          ],
          [
            -98.093908,
            29.980433
          ],
          [
            -98.093923,
            29.979985
          ],
          [
            -98.093854,
            29.979382
          ],
          [
            -98.093822,
            29.979304
          ],
          [
            -98.093783,
            29.979091
          ],
          [
            -98.093724,
            29.978847
          ],
          [
            -98.093688,
            29.978702
          ],
          [
            -98.093586,
            29.978296
          ],
          [
            -98.093543,
            29.978123
          ],
          [
            -98.093455,
            29.977773
          ],
          [
            -98.093312,
            29.977173
          ],
          [
            -98.092971,
            29.975785
          ],
          [
            -98.092892,
            29.975429
          ],
          [
            -98.092771,
            29.974568
          ],
          [
            -98.092755,
            29.974312
          ],
          [
            -98.092749,
            29.973822
          ],
          [
            -98.092747,
            29.973652
          ],
          [
            -98.092788,
            29.972394
          ],
          [
            -98.092801,
            29.972002
          ],
          [
            -98.092773,
            29.971316
          ],
          [
            -98.092732,
            29.970448
          ],
          [
            -98.0927,
            29.970283
          ],
          [
            -98.092633,
            29.969947
          ],
          [
            -98.092504,
            29.96944
          ],
          [
            -98.092389,
            29.968966
          ],
          [
            -98.091741,
            29.966406
          ],
          [
            -98.091725,
            29.966343
          ],
          [
            -98.091715,
            29.966303
          ],
          [
            -98.091679,
            29.966162
          ],
          [
            -98.091588,
            29.965702
          ],
          [
            -98.091586,
            29.965639
          ],
          [
            -98.09158,
            29.965416
          ],
          [
            -98.091628,
            29.965012
          ],
          [
            -98.091692,
            29.964707
          ],
          [
            -98.09197,
            29.964036
          ],
          [
            -98.092329,
            29.963568
          ],
          [
            -98.092506,
            29.963355
          ],
          [
            -98.09266,
            29.963169
          ],
          [
            -98.093045,
            29.962723
          ],
          [
            -98.093382,
            29.962277
          ],
          [
            -98.093903,
            29.961709
          ],
          [
            -98.09394,
            29.961668
          ],
          [
            -98.09435,
            29.96117
          ],
          [
            -98.094525,
            29.960941
          ],
          [
            -98.094647,
            29.960781
          ],
          [
            -98.0948,
            29.960562
          ],
          [
            -98.094934,
            29.960318
          ],
          [
            -98.095,
            29.960198
          ],
          [
            -98.095171,
            29.959892
          ],
          [
            -98.095231,
            29.95968
          ],
          [
            -98.095288,
            29.95933
          ],
          [
            -98.095296,
            29.95899
          ],
          [
            -98.095269,
            29.958734
          ],
          [
            -98.095151,
            29.958205
          ],
          [
            -98.095143,
            29.958106
          ],
          [
            -98.095006,
            29.957778
          ],
          [
            -98.094937,
            29.957625
          ],
          [
            -98.094777,
            29.957273
          ],
          [
            -98.094563,
            29.956692
          ],
          [
            -98.094487,
            29.956408
          ],
          [
            -98.094418,
            29.955849
          ],
          [
            -98.09443,
            29.955548
          ],
          [
            -98.094441,
            29.955266
          ],
          [
            -98.094487,
            29.95495
          ],
          [
            -98.094548,
            29.95436
          ],
          [
            -98.094555,
            29.953961
          ],
          [
            -98.094517,
            29.953657
          ],
          [
            -98.094479,
            29.953347
          ],
          [
            -98.094418,
            29.953099
          ],
          [
            -98.094324,
            29.952826
          ],
          [
            -98.094281,
            29.952702
          ],
          [
            -98.09406,
            29.952116
          ],
          [
            -98.093663,
            29.951062
          ],
          [
            -98.093548,
            29.950712
          ],
          [
            -98.093519,
            29.95047
          ],
          [
            -98.093487,
            29.950214
          ],
          [
            -98.093464,
            29.949878
          ],
          [
            -98.093539,
            29.949435
          ],
          [
            -98.09357,
            29.949032
          ],
          [
            -98.093618,
            29.948789
          ],
          [
            -98.093623,
            29.948299
          ],
          [
            -98.093606,
            29.947801
          ],
          [
            -98.093577,
            29.947555
          ],
          [
            -98.093473,
            29.947069
          ],
          [
            -98.093329,
            29.946596
          ],
          [
            -98.093307,
            29.946515
          ],
          [
            -98.093281,
            29.946415
          ],
          [
            -98.092887,
            29.944886
          ],
          [
            -98.09268,
            29.944081
          ],
          [
            -98.092552,
            29.943597
          ],
          [
            -98.092345,
            29.943067
          ],
          [
            -98.092273,
            29.942942
          ],
          [
            -98.092189,
            29.942797
          ],
          [
            -98.091964,
            29.94247
          ],
          [
            -98.09224,
            29.942307
          ],
          [
            -98.092383,
            29.942219
          ],
          [
            -98.0925,
            29.942148
          ],
          [
            -98.09272,
            29.942016
          ],
          [
            -98.092977,
            29.941878
          ],
          [
            -98.09337,
            29.941726
          ],
          [
            -98.093543,
            29.941666
          ],
          [
            -98.093701,
            29.941611
          ],
          [
            -98.093957,
            29.941577
          ],
          [
            -98.094387,
            29.941574
          ],
          [
            -98.094648,
            29.94162
          ],
          [
            -98.094951,
            29.941674
          ],
          [
            -98.095417,
            29.941702
          ],
          [
            -98.095982,
            29.941742
          ],
          [
            -98.096531,
            29.941759
          ],
          [
            -98.096885,
            29.941755
          ],
          [
            -98.097112,
            29.941749
          ],
          [
            -98.097729,
            29.941701
          ],
          [
            -98.09808,
            29.941657
          ],
          [
            -98.098813,
            29.941508
          ],
          [
            -98.098896,
            29.941487
          ],
          [
            -98.099354,
            29.941374
          ],
          [
            -98.09995,
            29.941196
          ],
          [
            -98.100093,
            29.941157
          ],
          [
            -98.101226,
            29.940844
          ],
          [
            -98.101604,
            29.94074
          ],
          [
            -98.101682,
            29.940718
          ],
          [
            -98.10179,
            29.940692
          ],
          [
            -98.102592,
            29.94045
          ],
          [
            -98.10265,
            29.940433
          ],
          [
            -98.103803,
            29.940106
          ],
          [
            -98.104032,
            29.940044
          ],
          [
            -98.104085,
            29.94003
          ],
          [
            -98.104406,
            29.939942
          ],
          [
            -98.104636,
            29.939876
          ],
          [
            -98.105455,
            29.939641
          ],
          [
            -98.105878,
            29.93952
          ],
          [
            -98.106302,
            29.939403
          ],
          [
            -98.106748,
            29.93928
          ],
          [
            -98.107102,
            29.939182
          ],
          [
            -98.107196,
            29.939156
          ],
          [
            -98.108708,
            29.938738
          ],
          [
            -98.10925,
            29.938588
          ],
          [
            -98.110894,
            29.938132
          ],
          [
            -98.111537,
            29.937954
          ],
          [
            -98.111875,
            29.93786
          ],
          [
            -98.11206,
            29.93781
          ],
          [
            -98.112477,
            29.937696
          ],
          [
            -98.112805,
            29.937597
          ],
          [
            -98.1133,
            29.937455
          ],
          [
            -98.113416,
            29.937422
          ],
          [
            -98.113609,
            29.93737
          ],
          [
            -98.114072,
            29.937245
          ],
          [
            -98.114148,
            29.937222
          ],
          [
            -98.114415,
            29.93714
          ],
          [
            -98.115695,
            29.936786
          ],
          [
            -98.116976,
            29.936432
          ],
          [
            -98.118085,
            29.936125
          ],
          [
            -98.118505,
            29.936045
          ],
          [
            -98.119214,
            29.935808
          ],
          [
            -98.119943,
            29.935603
          ],
          [
            -98.120122,
            29.935552
          ],
          [
            -98.121343,
            29.935219
          ],
          [
            -98.121938,
            29.935053
          ],
          [
            -98.123663,
            29.934561
          ],
          [
            -98.123684,
            29.934555
          ],
          [
            -98.124005,
            29.934458
          ],
          [
            -98.124608,
            29.934286
          ],
          [
            -98.124774,
            29.934241
          ],
          [
            -98.125226,
            29.934117
          ],
          [
            -98.125669,
            29.934007
          ],
          [
            -98.126009,
            29.933936
          ],
          [
            -98.126302,
            29.933874
          ],
          [
            -98.126816,
            29.933771
          ],
          [
            -98.126928,
            29.933749
          ],
          [
            -98.127057,
            29.933726
          ],
          [
            -98.127576,
            29.933632
          ],
          [
            -98.127759,
            29.933611
          ],
          [
            -98.128538,
            29.933523
          ],
          [
            -98.129255,
            29.933472
          ],
          [
            -98.129926,
            29.933446
          ],
          [
            -98.130117,
            29.933437
          ],
          [
            -98.130834,
            29.933436
          ],
          [
            -98.131022,
            29.93344
          ],
          [
            -98.132261,
            29.933464
          ],
          [
            -98.132471,
            29.93347
          ],
          [
            -98.133664,
            29.933504
          ],
          [
            -98.133819,
            29.9335
          ],
          [
            -98.134001,
            29.933506
          ],
          [
            -98.134453,
            29.93352
          ],
          [
            -98.134588,
            29.933524
          ],
          [
            -98.134979,
            29.933536
          ],
          [
            -98.135351,
            29.933548
          ],
          [
            -98.136144,
            29.933568
          ],
          [
            -98.137075,
            29.933592
          ],
          [
            -98.137934,
            29.933617
          ],
          [
            -98.138283,
            29.933628
          ],
          [
            -98.138731,
            29.933641
          ],
          [
            -98.139333,
            29.933654
          ],
          [
            -98.139982,
            29.933668
          ],
          [
            -98.140778,
            29.933693
          ],
          [
            -98.141058,
            29.933702
          ],
          [
            -98.141995,
            29.933722
          ],
          [
            -98.142187,
            29.933726
          ],
          [
            -98.143189,
            29.933766
          ],
          [
            -98.143339,
            29.933772
          ],
          [
            -98.143957,
            29.933814
          ],
          [
            -98.144163,
            29.933837
          ],
          [
            -98.144263,
            29.933848
          ],
          [
            -98.144301,
            29.933852
          ],
          [
            -98.145256,
            29.933967
          ],
          [
            -98.145557,
            29.934003
          ],
          [
            -98.145605,
            29.934009
          ],
          [
            -98.145947,
            29.934057
          ],
          [
            -98.14656,
            29.934144
          ],
          [
            -98.146665,
            29.934159
          ],
          [
            -98.147238,
            29.934234
          ],
          [
            -98.147535,
            29.934266
          ],
          [
            -98.147732,
            29.934292
          ],
          [
            -98.148029,
            29.934331
          ],
          [
            -98.148107,
            29.934341
          ],
          [
            -98.148764,
            29.934409
          ],
          [
            -98.148848,
            29.934416
          ],
          [
            -98.149137,
            29.934441
          ],
          [
            -98.149718,
            29.934462
          ],
          [
            -98.150236,
            29.93444
          ],
          [
            -98.150671,
            29.934407
          ],
          [
            -98.150946,
            29.934378
          ],
          [
            -98.151007,
            29.934371
          ],
          [
            -98.151281,
            29.934348
          ],
          [
            -98.151587,
            29.934318
          ],
          [
            -98.152182,
            29.934267
          ],
          [
            -98.152719,
            29.93422
          ],
          [
            -98.153587,
            29.934117
          ],
          [
            -98.153681,
            29.934106
          ],
          [
            -98.154766,
            29.933895
          ],
          [
            -98.155882,
            29.93366
          ],
          [
            -98.15638,
            29.933566
          ],
          [
            -98.157055,
            29.933503
          ],
          [
            -98.157413,
            29.933497
          ],
          [
            -98.158094,
            29.933546
          ],
          [
            -98.158427,
            29.933588
          ],
          [
            -98.158792,
            29.93365
          ],
          [
            -98.158876,
            29.933668
          ],
          [
            -98.159549,
            29.93381
          ],
          [
            -98.15985,
            29.933849
          ],
          [
            -98.160169,
            29.933857
          ],
          [
            -98.160458,
            29.933839
          ],
          [
            -98.160731,
            29.933795
          ],
          [
            -98.160957,
            29.933746
          ],
          [
            -98.161245,
            29.933647
          ],
          [
            -98.161688,
            29.933504
          ],
          [
            -98.161851,
            29.933451
          ],
          [
            -98.162157,
            29.933364
          ],
          [
            -98.162352,
            29.933335
          ],
          [
            -98.162577,
            29.933318
          ],
          [
            -98.162896,
            29.933303
          ],
          [
            -98.163404,
            29.933289
          ],
          [
            -98.163629,
            29.933275
          ],
          [
            -98.163909,
            29.933232
          ],
          [
            -98.164142,
            29.933173
          ],
          [
            -98.164366,
            29.933098
          ],
          [
            -98.164751,
            29.932932
          ],
          [
            -98.164958,
            29.93286
          ],
          [
            -98.165194,
            29.932777
          ],
          [
            -98.165519,
            29.932699
          ],
          [
            -98.165808,
            29.932666
          ],
          [
            -98.166014,
            29.932651
          ],
          [
            -98.166419,
            29.932682
          ],
          [
            -98.166635,
            29.932712
          ],
          [
            -98.166946,
            29.932768
          ],
          [
            -98.167137,
            29.932802
          ],
          [
            -98.167421,
            29.932841
          ],
          [
            -98.167682,
            29.93285
          ],
          [
            -98.16792,
            29.93283
          ],
          [
            -98.168163,
            29.932787
          ],
          [
            -98.168312,
            29.93275
          ],
          [
            -98.168529,
            29.932669
          ],
          [
            -98.168669,
            29.932594
          ],
          [
            -98.169252,
            29.932204
          ],
          [
            -98.169662,
            29.931937
          ],
          [
            -98.170125,
            29.931775
          ],
          [
            -98.170384,
            29.93172
          ],
          [
            -98.170663,
            29.931676
          ],
          [
            -98.170978,
            29.931643
          ],
          [
            -98.171207,
            29.931619
          ],
          [
            -98.171479,
            29.931585
          ],
          [
            -98.171753,
            29.93154
          ],
          [
            -98.171891,
            29.931509
          ],
          [
            -98.171984,
            29.931488
          ],
          [
            -98.172212,
            29.931414
          ],
          [
            -98.174115,
            29.930665
          ],
          [
            -98.174383,
            29.930592
          ],
          [
            -98.174554,
            29.930558
          ],
          [
            -98.17479,
            29.930526
          ],
          [
            -98.175004,
            29.930521
          ],
          [
            -98.175238,
            29.930526
          ],
          [
            -98.17545,
            29.930552
          ],
          [
            -98.175783,
            29.930608
          ],
          [
            -98.176087,
            29.930683
          ],
          [
            -98.176878,
            29.930936
          ],
          [
            -98.177728,
            29.931115
          ],
          [
            -98.177944,
            29.931155
          ],
          [
            -98.178417,
            29.931213
          ],
          [
            -98.178844,
            29.931246
          ],
          [
            -98.179379,
            29.931266
          ],
          [
            -98.179757,
            29.931262
          ],
          [
            -98.180227,
            29.931239
          ],
          [
            -98.180821,
            29.931182
          ],
          [
            -98.181267,
            29.931119
          ],
          [
            -98.18227,
            29.930928
          ],
          [
            -98.183876,
            29.93062
          ],
          [
            -98.184143,
            29.930577
          ],
          [
            -98.184635,
            29.930518
          ],
          [
            -98.184971,
            29.930494
          ],
          [
            -98.185576,
            29.930475
          ],
          [
            -98.18597,
            29.930485
          ],
          [
            -98.186084,
            29.930492
          ],
          [
            -98.186509,
            29.930519
          ],
          [
            -98.187003,
            29.930576
          ],
          [
            -98.18744,
            29.930644
          ],
          [
            -98.187762,
            29.930711
          ],
          [
            -98.187908,
            29.930741
          ],
          [
            -98.188242,
            29.930827
          ],
          [
            -98.188627,
            29.930939
          ],
          [
            -98.189062,
            29.931084
          ],
          [
            -98.189113,
            29.931108
          ],
          [
            -98.189344,
            29.931194
          ],
          [
            -98.189697,
            29.931347
          ],
          [
            -98.189899,
            29.931439
          ],
          [
            -98.190074,
            29.931519
          ],
          [
            -98.190137,
            29.931551
          ],
          [
            -98.190361,
            29.931667
          ],
          [
            -98.190649,
            29.93184
          ],
          [
            -98.191042,
            29.932065
          ],
          [
            -98.191416,
            29.932299
          ],
          [
            -98.191682,
            29.932466
          ],
          [
            -98.192161,
            29.932756
          ],
          [
            -98.192509,
            29.933017
          ],
          [
            -98.19385,
            29.933781
          ],
          [
            -98.194782,
            29.934278
          ],
          [
            -98.195927,
            29.934732
          ],
          [
            -98.197279,
            29.93513
          ],
          [
            -98.197714,
            29.93526
          ],
          [
            -98.200503,
            29.936123
          ],
          [
            -98.200525,
            29.93613
          ],
          [
            -98.201084,
            29.936315
          ],
          [
            -98.201515,
            29.936492
          ],
          [
            -98.201818,
            29.936631
          ],
          [
            -98.202054,
            29.93674
          ],
          [
            -98.202488,
            29.936972
          ],
          [
            -98.202846,
            29.937184
          ],
          [
            -98.203217,
            29.93743
          ],
          [
            -98.20364,
            29.937746
          ],
          [
            -98.203858,
            29.937914
          ],
          [
            -98.204354,
            29.938297
          ],
          [
            -98.2049,
            29.938713
          ],
          [
            -98.206111,
            29.939635
          ],
          [
            -98.20618,
            29.939688
          ],
          [
            -98.206655,
            29.94005
          ],
          [
            -98.207878,
            29.940981
          ],
          [
            -98.207985,
            29.941063
          ],
          [
            -98.208148,
            29.941187
          ],
          [
            -98.208475,
            29.941421
          ],
          [
            -98.208744,
            29.941613
          ],
          [
            -98.210037,
            29.942599
          ],
          [
            -98.211721,
            29.943883
          ],
          [
            -98.211788,
            29.943934
          ],
          [
            -98.212614,
            29.944564
          ],
          [
            -98.213159,
            29.944979
          ],
          [
            -98.21342,
            29.945183
          ],
          [
            -98.213847,
            29.945491
          ],
          [
            -98.213931,
            29.945551
          ],
          [
            -98.214133,
            29.94568
          ],
          [
            -98.214308,
            29.945803
          ],
          [
            -98.215079,
            29.946292
          ],
          [
            -98.215934,
            29.946756
          ],
          [
            -98.216104,
            29.946843
          ],
          [
            -98.21791,
            29.947768
          ],
          [
            -98.218408,
            29.948042
          ],
          [
            -98.218741,
            29.948222
          ],
          [
            -98.219284,
            29.948515
          ],
          [
            -98.220282,
            29.949047
          ],
          [
            -98.223406,
            29.950699
          ],
          [
            -98.223957,
            29.950986
          ],
          [
            -98.224192,
            29.951108
          ],
          [
            -98.225191,
            29.951648
          ],
          [
            -98.225612,
            29.951879
          ],
          [
            -98.226041,
            29.952158
          ],
          [
            -98.22635,
            29.952389
          ],
          [
            -98.226473,
            29.952488
          ],
          [
            -98.226781,
            29.952767
          ],
          [
            -98.227019,
            29.953001
          ],
          [
            -98.227144,
            29.95314
          ],
          [
            -98.227364,
            29.953394
          ],
          [
            -98.227481,
            29.953537
          ],
          [
            -98.227723,
            29.953886
          ],
          [
            -98.227838,
            29.954063
          ],
          [
            -98.228064,
            29.954466
          ],
          [
            -98.22825,
            29.954878
          ],
          [
            -98.228343,
            29.955108
          ],
          [
            -98.228898,
            29.956555
          ],
          [
            -98.228937,
            29.956657
          ],
          [
            -98.228976,
            29.956763
          ],
          [
            -98.22913,
            29.957177
          ],
          [
            -98.229587,
            29.958377
          ],
          [
            -98.230152,
            29.95986
          ],
          [
            -98.230207,
            29.96001
          ],
          [
            -98.230226,
            29.960062
          ],
          [
            -98.230294,
            29.960249
          ],
          [
            -98.23108,
            29.962288
          ],
          [
            -98.231512,
            29.963411
          ],
          [
            -98.231934,
            29.964506
          ],
          [
            -98.232131,
            29.964934
          ],
          [
            -98.232171,
            29.965003
          ],
          [
            -98.232383,
            29.965372
          ],
          [
            -98.232627,
            29.965763
          ],
          [
            -98.23302,
            29.966391
          ],
          [
            -98.233259,
            29.966774
          ],
          [
            -98.233461,
            29.967082
          ],
          [
            -98.233853,
            29.967679
          ],
          [
            -98.234206,
            29.968147
          ],
          [
            -98.234466,
            29.968414
          ],
          [
            -98.234574,
            29.968513
          ],
          [
            -98.235005,
            29.968883
          ],
          [
            -98.235249,
            29.969068
          ],
          [
            -98.235679,
            29.969325
          ],
          [
            -98.236236,
            29.969601
          ],
          [
            -98.236523,
            29.969743
          ],
          [
            -98.236664,
            29.969799
          ],
          [
            -98.23708,
            29.96993
          ],
          [
            -98.237314,
            29.969993
          ],
          [
            -98.237671,
            29.970071
          ],
          [
            -98.237916,
            29.970132
          ],
          [
            -98.23825,
            29.970161
          ],
          [
            -98.238288,
            29.970165
          ],
          [
            -98.238526,
            29.970188
          ],
          [
            -98.238803,
            29.970201
          ],
          [
            -98.239023,
            29.970204
          ],
          [
            -98.239223,
            29.970201
          ],
          [
            -98.239558,
            29.970182
          ],
          [
            -98.239908,
            29.970138
          ],
          [
            -98.240103,
            29.970112
          ],
          [
            -98.240381,
            29.970074
          ],
          [
            -98.241078,
            29.96998
          ],
          [
            -98.241174,
            29.969967
          ],
          [
            -98.241574,
            29.969907
          ],
          [
            -98.241889,
            29.969876
          ],
          [
            -98.24214,
            29.969851
          ],
          [
            -98.242673,
            29.969826
          ],
          [
            -98.243422,
            29.96983
          ],
          [
            -98.243578,
            29.96984
          ],
          [
            -98.243669,
            29.969848
          ],
          [
            -98.243886,
            29.969867
          ],
          [
            -98.244565,
            29.969956
          ],
          [
            -98.244988,
            29.970034
          ],
          [
            -98.245277,
            29.970095
          ],
          [
            -98.24534,
            29.970112
          ],
          [
            -98.245732,
            29.970217
          ],
          [
            -98.245953,
            29.970287
          ],
          [
            -98.246239,
            29.970362
          ],
          [
            -98.246594,
            29.970479
          ],
          [
            -98.248584,
            29.971096
          ],
          [
            -98.248723,
            29.971139
          ],
          [
            -98.249479,
            29.971368
          ],
          [
            -98.25227,
            29.972234
          ],
          [
            -98.253284,
            29.972547
          ],
          [
            -98.253759,
            29.972633
          ],
          [
            -98.253998,
            29.972677
          ],
          [
            -98.254503,
            29.972799
          ],
          [
            -98.255856,
            29.973099
          ],
          [
            -98.256969,
            29.973363
          ],
          [
            -98.257012,
            29.973373
          ],
          [
            -98.257134,
            29.9734
          ],
          [
            -98.257313,
            29.97344
          ],
          [
            -98.258333,
            29.973667
          ],
          [
            -98.261411,
            29.974352
          ],
          [
            -98.262265,
            29.974558
          ],
          [
            -98.262438,
            29.974595
          ],
          [
            -98.26291,
            29.974696
          ],
          [
            -98.263131,
            29.974744
          ],
          [
            -98.263608,
            29.974846
          ],
          [
            -98.264257,
            29.974998
          ],
          [
            -98.264557,
            29.975068
          ],
          [
            -98.265397,
            29.97526
          ],
          [
            -98.266639,
            29.975543
          ],
          [
            -98.267417,
            29.975715
          ],
          [
            -98.268614,
            29.97598
          ],
          [
            -98.26939,
            29.976175
          ],
          [
            -98.271274,
            29.976596
          ],
          [
            -98.272353,
            29.976844
          ],
          [
            -98.27258,
            29.976896
          ],
          [
            -98.273352,
            29.977066
          ],
          [
            -98.273687,
            29.977142
          ],
          [
            -98.274718,
            29.977378
          ],
          [
            -98.275437,
            29.977589
          ],
          [
            -98.275854,
            29.977737
          ],
          [
            -98.275883,
            29.977747
          ],
          [
            -98.276088,
            29.977833
          ],
          [
            -98.276473,
            29.978005
          ],
          [
            -98.276787,
            29.978147
          ],
          [
            -98.27684,
            29.978179
          ],
          [
            -98.277148,
            29.978347
          ],
          [
            -98.277484,
            29.978549
          ],
          [
            -98.27758,
            29.978613
          ],
          [
            -98.277835,
            29.978782
          ],
          [
            -98.278157,
            29.979009
          ],
          [
            -98.278249,
            29.979075
          ],
          [
            -98.278329,
            29.979133
          ],
          [
            -98.278995,
            29.979614
          ],
          [
            -98.279574,
            29.980019
          ],
          [
            -98.27972,
            29.980117
          ],
          [
            -98.279743,
            29.980132
          ],
          [
            -98.279914,
            29.980235
          ],
          [
            -98.28016,
            29.980392
          ],
          [
            -98.280885,
            29.980811
          ],
          [
            -98.281397,
            29.981087
          ],
          [
            -98.281614,
            29.981207
          ],
          [
            -98.282127,
            29.981465
          ],
          [
            -98.283804,
            29.982315
          ],
          [
            -98.284841,
            29.98284
          ],
          [
            -98.285064,
            29.982953
          ],
          [
            -98.285107,
            29.982975
          ],
          [
            -98.286014,
            29.98343
          ],
          [
            -98.287058,
            29.983966
          ],
          [
            -98.287456,
            29.984164
          ],
          [
            -98.287744,
            29.984307
          ],
          [
            -98.292692,
            29.986822
          ],
          [
            -98.293738,
            29.987355
          ],
          [
            -98.296522,
            29.988774
          ],
          [
            -98.296798,
            29.988911
          ],
          [
            -98.297275,
            29.989149
          ],
          [
            -98.300208,
            29.990648
          ],
          [
            -98.300412,
            29.990751
          ],
          [
            -98.301167,
            29.991132
          ],
          [
            -98.301283,
            29.991194
          ],
          [
            -98.301678,
            29.991406
          ],
          [
            -98.302168,
            29.991696
          ],
          [
            -98.302509,
            29.991925
          ],
          [
            -98.30271,
            29.99207
          ],
          [
            -98.302845,
            29.992167
          ],
          [
            -98.303021,
            29.992308
          ],
          [
            -98.303141,
            29.992405
          ],
          [
            -98.30335,
            29.992592
          ],
          [
            -98.303502,
            29.992719
          ],
          [
            -98.304004,
            29.993257
          ],
          [
            -98.304492,
            29.993844
          ],
          [
            -98.304561,
            29.993969
          ],
          [
            -98.304784,
            29.994308
          ],
          [
            -98.305137,
            29.994841
          ],
          [
            -98.305166,
            29.994886
          ],
          [
            -98.305407,
            29.99525
          ],
          [
            -98.305529,
            29.995435
          ],
          [
            -98.305767,
            29.995796
          ],
          [
            -98.306287,
            29.996587
          ],
          [
            -98.30701,
            29.997684
          ],
          [
            -98.307115,
            29.997843
          ],
          [
            -98.307169,
            29.997925
          ],
          [
            -98.308098,
            29.999318
          ],
          [
            -98.308452,
            29.999869
          ],
          [
            -98.308597,
            30.000117
          ],
          [
            -98.308992,
            30.000726
          ],
          [
            -98.309056,
            30.000807
          ],
          [
            -98.309159,
            30.000938
          ],
          [
            -98.309251,
            30.001063
          ],
          [
            -98.309424,
            30.00127
          ],
          [
            -98.309559,
            30.001422
          ],
          [
            -98.309981,
            30.001844
          ],
          [
            -98.310334,
            30.002158
          ],
          [
            -98.310586,
            30.002364
          ],
          [
            -98.310864,
            30.002575
          ],
          [
            -98.311119,
            30.002777
          ],
          [
            -98.311201,
            30.002847
          ],
          [
            -98.311866,
            30.003339
          ],
          [
            -98.311887,
            30.003354
          ],
          [
            -98.312157,
            30.003569
          ],
          [
            -98.312958,
            30.004166
          ],
          [
            -98.313084,
            30.004257
          ],
          [
            -98.313196,
            30.004338
          ],
          [
            -98.313594,
            30.004625
          ],
          [
            -98.31574,
            30.006262
          ],
          [
            -98.316344,
            30.006727
          ],
          [
            -98.316517,
            30.006859
          ],
          [
            -98.319229,
            30.008933
          ],
          [
            -98.319748,
            30.00933
          ],
          [
            -98.320197,
            30.009673
          ],
          [
            -98.320732,
            30.010096
          ],
          [
            -98.320771,
            30.010127
          ],
          [
            -98.321133,
            30.010431
          ],
          [
            -98.321473,
            30.010728
          ],
          [
            -98.321554,
            30.010805
          ],
          [
            -98.321876,
            30.011111
          ],
          [
            -98.322542,
            30.011775
          ],
          [
            -98.322936,
            30.012177
          ],
          [
            -98.323401,
            30.01264
          ],
          [
            -98.323497,
            30.012735
          ],
          [
            -98.324188,
            30.01344
          ],
          [
            -98.324817,
            30.014073
          ],
          [
            -98.324933,
            30.014194
          ],
          [
            -98.326315,
            30.015571
          ],
          [
            -98.326901,
            30.016137
          ],
          [
            -98.327375,
            30.016609
          ],
          [
            -98.32773,
            30.016978
          ],
          [
            -98.32841,
            30.017688
          ],
          [
            -98.328698,
            30.018019
          ],
          [
            -98.328966,
            30.018361
          ],
          [
            -98.329153,
            30.018625
          ],
          [
            -98.330419,
            30.020513
          ],
          [
            -98.330539,
            30.02069
          ],
          [
            -98.330561,
            30.020722
          ],
          [
            -98.330585,
            30.020758
          ],
          [
            -98.330704,
            30.020939
          ],
          [
            -98.331073,
            30.021501
          ],
          [
            -98.331101,
            30.021542
          ],
          [
            -98.33117,
            30.021647
          ],
          [
            -98.332187,
            30.023221
          ],
          [
            -98.332264,
            30.023145
          ],
          [
            -98.333334,
            30.022086
          ],
          [
            -98.333508,
            30.021931
          ],
          [
            -98.333694,
            30.021788
          ],
          [
            -98.333892,
            30.021656
          ],
          [
            -98.334098,
            30.021537
          ],
          [
            -98.334314,
            30.02143
          ],
          [
            -98.334539,
            30.021336
          ],
          [
            -98.334769,
            30.021256
          ],
          [
            -98.335006,
            30.021189
          ],
          [
            -98.335247,
            30.021138
          ],
          [
            -98.335374,
            30.021119
          ],
          [
            -98.335633,
            30.021081
          ],
          [
            -98.336264,
            30.020987
          ],
          [
            -98.336823,
            30.020903
          ],
          [
            -98.337269,
            30.020837
          ],
          [
            -98.337641,
            30.020798
          ],
          [
            -98.337876,
            30.020783
          ],
          [
            -98.338963,
            30.020755
          ],
          [
            -98.339821,
            30.020709
          ],
          [
            -98.340317,
            30.020664
          ],
          [
            -98.340811,
            30.020599
          ],
          [
            -98.341168,
            30.020538
          ],
          [
            -98.3413,
            30.020515
          ],
          [
            -98.341785,
            30.020413
          ],
          [
            -98.342264,
            30.020292
          ],
          [
            -98.342794,
            30.020138
          ],
          [
            -98.343256,
            30.019984
          ],
          [
            -98.34342,
            30.019922
          ],
          [
            -98.343711,
            30.019813
          ],
          [
            -98.344158,
            30.019626
          ],
          [
            -98.345084,
            30.019194
          ],
          [
            -98.345241,
            30.019121
          ],
          [
            -98.345743,
            30.018887
          ],
          [
            -98.349557,
            30.017126
          ],
          [
            -98.351226,
            30.016342
          ],
          [
            -98.351836,
            30.016074
          ],
          [
            -98.351947,
            30.016025
          ],
          [
            -98.352522,
            30.015759
          ],
          [
            -98.353386,
            30.015353
          ],
          [
            -98.35376,
            30.015156
          ],
          [
            -98.354125,
            30.014943
          ],
          [
            -98.354478,
            30.014716
          ],
          [
            -98.354926,
            30.014393
          ],
          [
            -98.355095,
            30.014271
          ],
          [
            -98.357197,
            30.012705
          ],
          [
            -98.357998,
            30.012108
          ],
          [
            -98.358974,
            30.011398
          ],
          [
            -98.359171,
            30.011273
          ],
          [
            -98.359378,
            30.01116
          ],
          [
            -98.359594,
            30.01106
          ],
          [
            -98.359817,
            30.010975
          ],
          [
            -98.359929,
            30.010942
          ],
          [
            -98.360211,
            30.010871
          ],
          [
            -98.360382,
            30.010835
          ],
          [
            -98.360669,
            30.010789
          ],
          [
            -98.36096,
            30.010759
          ],
          [
            -98.361776,
            30.010741
          ],
          [
            -98.366408,
            30.010641
          ],
          [
            -98.367145,
            30.010632
          ],
          [
            -98.367444,
            30.010613
          ],
          [
            -98.36774,
            30.010573
          ],
          [
            -98.367977,
            30.010525
          ],
          [
            -98.368272,
            30.010446
          ],
          [
            -98.368377,
            30.010413
          ],
          [
            -98.368683,
            30.010302
          ],
          [
            -98.368949,
            30.010169
          ],
          [
            -98.369205,
            30.010021
          ],
          [
            -98.369448,
            30.009859
          ],
          [
            -98.369673,
            30.009673
          ],
          [
            -98.369881,
            30.00947
          ],
          [
            -98.370068,
            30.009254
          ],
          [
            -98.370228,
            30.009033
          ],
          [
            -98.370367,
            30.008801
          ],
          [
            -98.370484,
            30.008559
          ],
          [
            -98.370578,
            30.008314
          ],
          [
            -98.370635,
            30.008117
          ],
          [
            -98.370675,
            30.007916
          ],
          [
            -98.370689,
            30.007808
          ],
          [
            -98.370702,
            30.007592
          ],
          [
            -98.370652,
            30.006089
          ],
          [
            -98.37065,
            30.005891
          ],
          [
            -98.370641,
            30.005167
          ],
          [
            -98.370608,
            30.00426
          ],
          [
            -98.370546,
            30.001881
          ],
          [
            -98.370533,
            30.001412
          ],
          [
            -98.37051,
            30.000756
          ],
          [
            -98.370506,
            30.000422
          ],
          [
            -98.370538,
            30.000102
          ],
          [
            -98.370582,
            29.999868
          ],
          [
            -98.370632,
            29.999696
          ],
          [
            -98.370754,
            29.999387
          ],
          [
            -98.37088,
            29.999139
          ],
          [
            -98.370997,
            29.998948
          ],
          [
            -98.371165,
            29.99872
          ],
          [
            -98.371354,
            29.998504
          ],
          [
            -98.371519,
            29.998343
          ],
          [
            -98.371742,
            29.998157
          ],
          [
            -98.371982,
            29.997988
          ],
          [
            -98.372237,
            29.997837
          ],
          [
            -98.372447,
            29.997734
          ],
          [
            -98.372663,
            29.997645
          ],
          [
            -98.372886,
            29.997569
          ],
          [
            -98.373292,
            29.997462
          ],
          [
            -98.373532,
            29.997416
          ],
          [
            -98.373776,
            29.997385
          ],
          [
            -98.374021,
            29.99737
          ],
          [
            -98.374267,
            29.997371
          ],
          [
            -98.375012,
            29.997404
          ],
          [
            -98.37641,
            29.997445
          ],
          [
            -98.377393,
            29.997469
          ],
          [
            -98.377578,
            29.997463
          ],
          [
            -98.377824,
            29.997443
          ],
          [
            -98.378068,
            29.997407
          ],
          [
            -98.378309,
            29.997356
          ],
          [
            -98.378544,
            29.997291
          ],
          [
            -98.378774,
            29.997211
          ],
          [
            -98.378996,
            29.997117
          ],
          [
            -98.379212,
            29.997011
          ],
          [
            -98.379539,
            29.996836
          ],
          [
            -98.379663,
            29.99677
          ],
          [
            -98.381857,
            29.995418
          ],
          [
            -98.38392,
            29.994172
          ],
          [
            -98.384125,
            29.994054
          ],
          [
            -98.384338,
            29.993951
          ],
          [
            -98.38456,
            29.993862
          ],
          [
            -98.384787,
            29.993787
          ],
          [
            -98.385021,
            29.993725
          ],
          [
            -98.385258,
            29.993678
          ],
          [
            -98.385557,
            29.993636
          ],
          [
            -98.385858,
            29.993614
          ],
          [
            -98.38616,
            29.993612
          ],
          [
            -98.386462,
            29.993631
          ],
          [
            -98.390847,
            29.993867
          ],
          [
            -98.392195,
            29.993937
          ],
          [
            -98.392484,
            29.99397
          ],
          [
            -98.392713,
            29.994011
          ],
          [
            -98.392926,
            29.994054
          ],
          [
            -98.393006,
            29.994087
          ],
          [
            -98.393229,
            29.994152
          ],
          [
            -98.393511,
            29.994268
          ],
          [
            -98.393661,
            29.994341
          ],
          [
            -98.393783,
            29.9944
          ],
          [
            -98.393853,
            29.99444
          ],
          [
            -98.394043,
            29.994548
          ],
          [
            -98.394915,
            29.995093
          ],
          [
            -98.395424,
            29.995438
          ],
          [
            -98.395738,
            29.99568
          ],
          [
            -98.39598,
            29.995887
          ],
          [
            -98.396045,
            29.995941
          ],
          [
            -98.396337,
            29.996215
          ],
          [
            -98.396572,
            29.996461
          ],
          [
            -98.398507,
            29.998591
          ],
          [
            -98.398715,
            29.998787
          ],
          [
            -98.39894,
            29.998969
          ],
          [
            -98.39918,
            29.999136
          ],
          [
            -98.404006,
            30.001963
          ],
          [
            -98.404166,
            30.002038
          ],
          [
            -98.404331,
            30.002104
          ],
          [
            -98.404501,
            30.002159
          ],
          [
            -98.404675,
            30.002203
          ],
          [
            -98.404854,
            30.002235
          ],
          [
            -98.405033,
            30.002257
          ],
          [
            -98.405093,
            30.002261
          ],
          [
            -98.405374,
            30.002265
          ],
          [
            -98.405527,
            30.002267
          ],
          [
            -98.405527,
            30.002689
          ],
          [
            -98.405542,
            30.004691
          ],
          [
            -98.405539,
            30.005423
          ],
          [
            -98.405543,
            30.006351
          ],
          [
            -98.405555,
            30.007479
          ],
          [
            -98.405559,
            30.007842
          ],
          [
            -98.405573,
            30.009801
          ],
          [
            -98.405591,
            30.010846
          ],
          [
            -98.405623,
            30.012703
          ],
          [
            -98.405628,
            30.012996
          ],
          [
            -98.40566,
            30.013433
          ],
          [
            -98.405712,
            30.013868
          ],
          [
            -98.405785,
            30.014301
          ],
          [
            -98.405831,
            30.014516
          ],
          [
            -98.406075,
            30.015455
          ],
          [
            -98.406203,
            30.015918
          ],
          [
            -98.406432,
            30.016767
          ],
          [
            -98.407082,
            30.019173
          ],
          [
            -98.407361,
            30.020183
          ],
          [
            -98.408435,
            30.024133
          ],
          [
            -98.408751,
            30.025321
          ],
          [
            -98.409666,
            30.028687
          ],
          [
            -98.409742,
            30.028964
          ],
          [
            -98.409983,
            30.029852
          ],
          [
            -98.41021,
            30.030676
          ],
          [
            -98.410503,
            30.031768
          ],
          [
            -98.41066,
            30.032341
          ],
          [
            -98.410901,
            30.033222
          ],
          [
            -98.410964,
            30.033453
          ],
          [
            -98.411285,
            30.03468
          ],
          [
            -98.411454,
            30.035367
          ],
          [
            -98.411536,
            30.035797
          ],
          [
            -98.411564,
            30.036005
          ],
          [
            -98.411594,
            30.03623
          ],
          [
            -98.411629,
            30.036687
          ],
          [
            -98.411636,
            30.036774
          ],
          [
            -98.411652,
            30.037261
          ],
          [
            -98.411651,
            30.037587
          ],
          [
            -98.41165,
            30.037621
          ],
          [
            -98.411641,
            30.037946
          ],
          [
            -98.411624,
            30.038575
          ],
          [
            -98.411599,
            30.039465
          ],
          [
            -98.411593,
            30.040312
          ],
          [
            -98.411582,
            30.040733
          ],
          [
            -98.411572,
            30.041189
          ],
          [
            -98.411559,
            30.041806
          ],
          [
            -98.411537,
            30.044141
          ],
          [
            -98.411528,
            30.044937
          ],
          [
            -98.4115,
            30.045851
          ],
          [
            -98.411483,
            30.04697
          ],
          [
            -98.411478,
            30.047281
          ],
          [
            -98.411464,
            30.047846
          ],
          [
            -98.411463,
            30.047901
          ],
          [
            -98.411421,
            30.049711
          ],
          [
            -98.411405,
            30.050289
          ],
          [
            -98.411395,
            30.050664
          ],
          [
            -98.411389,
            30.051083
          ],
          [
            -98.411386,
            30.051266
          ],
          [
            -98.411331,
            30.053479
          ],
          [
            -98.411324,
            30.053911
          ],
          [
            -98.411306,
            30.054931
          ],
          [
            -98.411297,
            30.055447
          ],
          [
            -98.411293,
            30.055706
          ],
          [
            -98.411274,
            30.056525
          ],
          [
            -98.411234,
            30.056867
          ],
          [
            -98.411232,
            30.058175
          ],
          [
            -98.41121,
            30.059497
          ],
          [
            -98.411202,
            30.059953
          ],
          [
            -98.411185,
            30.060561
          ],
          [
            -98.411139,
            30.06226
          ],
          [
            -98.411102,
            30.063232
          ],
          [
            -98.411079,
            30.063819
          ],
          [
            -98.411069,
            30.064063
          ],
          [
            -98.411066,
            30.064134
          ],
          [
            -98.411065,
            30.064151
          ],
          [
            -98.411063,
            30.064201
          ],
          [
            -98.411051,
            30.064498
          ],
          [
            -98.41103,
            30.065144
          ],
          [
            -98.411025,
            30.065291
          ],
          [
            -98.411011,
            30.065731
          ],
          [
            -98.410982,
            30.066599
          ],
          [
            -98.410967,
            30.067076
          ],
          [
            -98.410957,
            30.067374
          ],
          [
            -98.410798,
            30.068974
          ],
          [
            -98.410765,
            30.069522
          ],
          [
            -98.410741,
            30.070164
          ],
          [
            -98.410715,
            30.070866
          ],
          [
            -98.410693,
            30.071577
          ],
          [
            -98.410686,
            30.071814
          ],
          [
            -98.41067,
            30.072083
          ],
          [
            -98.410674,
            30.072352
          ],
          [
            -98.410696,
            30.072621
          ],
          [
            -98.410736,
            30.072888
          ],
          [
            -98.410794,
            30.073153
          ],
          [
            -98.410822,
            30.073257
          ],
          [
            -98.410939,
            30.073555
          ],
          [
            -98.411061,
            30.073862
          ],
          [
            -98.411106,
            30.073973
          ],
          [
            -98.411283,
            30.074416
          ],
          [
            -98.411447,
            30.074738
          ],
          [
            -98.411589,
            30.075013
          ],
          [
            -98.411769,
            30.075301
          ],
          [
            -98.411944,
            30.075548
          ],
          [
            -98.412124,
            30.075793
          ],
          [
            -98.412676,
            30.076446
          ],
          [
            -98.412732,
            30.076512
          ],
          [
            -98.413078,
            30.076921
          ],
          [
            -98.413287,
            30.077169
          ],
          [
            -98.413375,
            30.077273
          ],
          [
            -98.413458,
            30.077371
          ],
          [
            -98.4139,
            30.077894
          ],
          [
            -98.414592,
            30.078682
          ],
          [
            -98.415075,
            30.07924
          ],
          [
            -98.415173,
            30.079354
          ],
          [
            -98.415455,
            30.079682
          ],
          [
            -98.417478,
            30.082038
          ],
          [
            -98.417816,
            30.082452
          ],
          [
            -98.417865,
            30.082513
          ],
          [
            -98.41814,
            30.082885
          ],
          [
            -98.418361,
            30.083185
          ],
          [
            -98.41844,
            30.083304
          ],
          [
            -98.418643,
            30.083608
          ],
          [
            -98.418887,
            30.083995
          ],
          [
            -98.418986,
            30.084174
          ],
          [
            -98.419158,
            30.084463
          ],
          [
            -98.419925,
            30.08599
          ],
          [
            -98.420375,
            30.086904
          ],
          [
            -98.420444,
            30.087045
          ],
          [
            -98.42084,
            30.087856
          ],
          [
            -98.420847,
            30.08787
          ],
          [
            -98.421133,
            30.088457
          ],
          [
            -98.421944,
            30.09012
          ],
          [
            -98.422637,
            30.091483
          ],
          [
            -98.423262,
            30.092721
          ],
          [
            -98.423355,
            30.092954
          ],
          [
            -98.423428,
            30.093161
          ],
          [
            -98.423485,
            30.093371
          ],
          [
            -98.423525,
            30.093584
          ],
          [
            -98.423552,
            30.093852
          ],
          [
            -98.423554,
            30.094043
          ],
          [
            -98.42354,
            30.09431
          ],
          [
            -98.423508,
            30.094528
          ],
          [
            -98.423485,
            30.094636
          ],
          [
            -98.423474,
            30.094676
          ],
          [
            -98.423429,
            30.094844
          ],
          [
            -98.423356,
            30.095049
          ],
          [
            -98.42329,
            30.095198
          ],
          [
            -98.422918,
            30.096093
          ],
          [
            -98.422869,
            30.096217
          ],
          [
            -98.422802,
            30.096387
          ],
          [
            -98.422547,
            30.097014
          ],
          [
            -98.422186,
            30.097937
          ],
          [
            -98.421805,
            30.098829
          ],
          [
            -98.421289,
            30.098672
          ]
        ]
      }
    }
  ]
}