{
  "type": "FeatureCollection",
  "features": [
    {
      "type": "Feature",
      "properties": {
        "route": "Fitzhugh & Hamilton Pool Craft Beverage Run",
        "category": "German Towns & Culture",
        "color": "#8e44ad",
        "waypoints": [
          "Bee Cave",
          "Hamilton Pool",
          "Fitzhugh Rd",
          "Dripping Springs"
        ],
        "via": "Hamilton Pool Rd -> Fitzhugh Rd -> Dripping Springs",
        "distance_mi": 15.9,
        "source": "road-snapped"
      },
      "geometry": {
        "type": "LineString",
        "coordinates": [
          [
            -97.939957,
            30.306081
          ],
          [
            -97.940733,
            30.306391
          ],
          [
            -97.941055,
            30.305816
          ],
          [
            -97.94124,
            30.3059
          ],
          [
            -97.941108,
            30.306037
          ],
          [
            -97.940711,
            30.306796
          ],
          [
            -97.940609,
            30.306972
          ],
          [
            -97.940712,
            30.307009
          ],
          [
            -97.943378,
            30.308015
          ],
          [
            -97.943638,
            30.308113
          ],
          [
            -97.944063,
            30.308254
          ],
          [
            -97.944156,
            30.308284
          ],
          [
            -97.944519,
            30.308378
          ],
          [
            -97.944605,
            30.308396
          ],
          [
            -97.94489,
            30.308454
          ],
          [
            -97.945395,
            30.308502
          ],
          [
            -97.945678,
            30.308528
          ],
          [
            -97.945935,
            30.308542
          ],
          [
            -97.945972,
            30.308541
          ],
          [
            -97.94606,
            30.308539
          ],
          [
            -97.946328,
            30.308534
          ],
          [
            -97.947843,
            30.30846
          ],
          [
            -97.948607,
            30.3084
          ],
          [
            -97.949029,
            30.308314
          ],
          [
            -97.949448,
            30.308286
          ],
          [
            -97.949826,
            30.308263
          ],
          [
            -97.950302,
            30.308233
          ],
          [
            -97.950781,
            30.308205
          ],
          [
            -97.951137,
            30.308184
          ],
          [
            -97.952255,
            30.308118
          ],
          [
            -97.95281,
            30.308079
          ],
          [
            -97.9541,
            30.308
          ],
          [
            -97.954623,
            30.307996
          ],
          [
            -97.955105,
            30.308003
          ],
          [
            -97.955562,
            30.308026
          ],
          [
            -97.956194,
            30.308093
          ],
          [
            -97.956616,
            30.308157
          ],
          [
            -97.957347,
            30.308295
          ],
          [
            -97.959462,
            30.308751
          ],
          [
            -97.959839,
            30.308833
          ],
          [
            -97.960211,
            30.308913
          ],
          [
            -97.960567,
            30.30899
          ],
          [
            -97.961058,
            30.309094
          ],
          [
            -97.961222,
            30.309129
          ],
          [
            -97.961512,
            30.30919
          ],
          [
            -97.961562,
            30.309201
          ],
          [
            -97.962032,
            30.3093
          ],
          [
            -97.962482,
            30.309395
          ],
          [
            -97.962968,
            30.309498
          ],
          [
            -97.963023,
            30.30951
          ],
          [
            -97.96319,
            30.309543
          ],
          [
            -97.963377,
            30.30958
          ],
          [
            -97.963693,
            30.309642
          ],
          [
            -97.963875,
            30.309681
          ],
          [
            -97.963904,
            30.309687
          ],
          [
            -97.964731,
            30.30986
          ],
          [
            -97.965311,
            30.309987
          ],
          [
            -97.965452,
            30.310014
          ],
          [
            -97.965679,
            30.30976
          ],
          [
            -97.965836,
            30.309585
          ],
          [
            -97.965943,
            30.309433
          ],
          [
            -97.965976,
            30.309386
          ],
          [
            -97.96613,
            30.309257
          ],
          [
            -97.966408,
            30.309069
          ],
          [
            -97.966621,
            30.308951
          ],
          [
            -97.96681,
            30.308859
          ],
          [
            -97.969143,
            30.307722
          ],
          [
            -97.969778,
            30.307405
          ],
          [
            -97.970052,
            30.307299
          ],
          [
            -97.970237,
            30.307239
          ],
          [
            -97.970265,
            30.30723
          ],
          [
            -97.970608,
            30.307155
          ],
          [
            -97.970923,
            30.307091
          ],
          [
            -97.971183,
            30.307064
          ],
          [
            -97.971464,
            30.307048
          ],
          [
            -97.971581,
            30.307042
          ],
          [
            -97.971919,
            30.307071
          ],
          [
            -97.972097,
            30.307087
          ],
          [
            -97.972331,
            30.307119
          ],
          [
            -97.972813,
            30.307184
          ],
          [
            -97.97316,
            30.307232
          ],
          [
            -97.973626,
            30.307295
          ],
          [
            -97.974168,
            30.307328
          ],
          [
            -97.974773,
            30.307326
          ],
          [
            -97.974905,
            30.307315
          ],
          [
            -97.975359,
            30.307276
          ],
          [
            -97.975912,
            30.307189
          ],
          [
            -97.97639,
            30.30706
          ],
          [
            -97.976761,
            30.306938
          ],
          [
            -97.976877,
            30.3069
          ],
          [
            -97.97744,
            30.30665
          ],
          [
            -97.977771,
            30.30651
          ],
          [
            -97.978199,
            30.306366
          ],
          [
            -97.978716,
            30.306271
          ],
          [
            -97.979245,
            30.306227
          ],
          [
            -97.979349,
            30.306229
          ],
          [
            -97.979795,
            30.306238
          ],
          [
            -97.980304,
            30.306307
          ],
          [
            -97.980793,
            30.306405
          ],
          [
            -97.981271,
            30.306567
          ],
          [
            -97.981281,
            30.306573
          ],
          [
            -97.981731,
            30.306822
          ],
          [
            -97.98212,
            30.307088
          ],
          [
            -97.982601,
            30.307373
          ],
          [
            -97.982896,
            30.307515
          ],
          [
            -97.983184,
            30.307616
          ],
          [
            -97.983242,
            30.307636
          ],
          [
            -97.983319,
            30.307659
          ],
          [
            -97.983536,
            30.307723
          ],
          [
            -97.983946,
            30.307787
          ],
          [
            -97.984465,
            30.307815
          ],
          [
            -97.984688,
            30.30782
          ],
          [
            -97.985111,
            30.307834
          ],
          [
            -97.985675,
            30.307852
          ],
          [
            -97.985986,
            30.307863
          ],
          [
            -97.986131,
            30.307858
          ],
          [
            -97.986451,
            30.30786
          ],
          [
            -97.986608,
            30.307853
          ],
          [
            -97.986789,
            30.30787
          ],
          [
            -97.986989,
            30.307854
          ],
          [
            -97.987155,
            30.307864
          ],
          [
            -97.987956,
            30.307889
          ],
          [
            -97.988034,
            30.307892
          ],
          [
            -97.988402,
            30.307904
          ],
          [
            -97.989183,
            30.307933
          ],
          [
            -97.989415,
            30.307944
          ],
          [
            -97.989622,
            30.307953
          ],
          [
            -97.989925,
            30.307967
          ],
          [
            -97.990421,
            30.30799
          ],
          [
            -97.990999,
            30.307991
          ],
          [
            -97.991358,
            30.307942
          ],
          [
            -97.99172,
            30.307861
          ],
          [
            -97.992166,
            30.307714
          ],
          [
            -97.992371,
            30.307623
          ],
          [
            -97.992533,
            30.307551
          ],
          [
            -97.992696,
            30.307468
          ],
          [
            -97.993026,
            30.3073
          ],
          [
            -97.99337,
            30.307125
          ],
          [
            -97.993407,
            30.307107
          ],
          [
            -97.993869,
            30.30688
          ],
          [
            -97.994793,
            30.306425
          ],
          [
            -97.995091,
            30.30628
          ],
          [
            -97.995453,
            30.306103
          ],
          [
            -97.995567,
            30.306064
          ],
          [
            -97.995912,
            30.30588
          ],
          [
            -97.996109,
            30.305784
          ],
          [
            -97.996407,
            30.305631
          ],
          [
            -97.996584,
            30.305523
          ],
          [
            -97.99676,
            30.305415
          ],
          [
            -97.996932,
            30.305268
          ],
          [
            -97.997126,
            30.305102
          ],
          [
            -97.997267,
            30.304931
          ],
          [
            -97.997427,
            30.304737
          ],
          [
            -97.997613,
            30.304461
          ],
          [
            -97.997811,
            30.304053
          ],
          [
            -97.998054,
            30.303555
          ],
          [
            -97.998463,
            30.302647
          ],
          [
            -97.998522,
            30.302518
          ],
          [
            -97.998769,
            30.30197
          ],
          [
            -97.998846,
            30.30183
          ],
          [
            -97.998949,
            30.301641
          ],
          [
            -97.999125,
            30.301386
          ],
          [
            -97.999209,
            30.301265
          ],
          [
            -97.999424,
            30.301024
          ],
          [
            -97.999739,
            30.300716
          ],
          [
            -97.999983,
            30.300494
          ],
          [
            -98.000092,
            30.300414
          ],
          [
            -98.000224,
            30.300311
          ],
          [
            -98.000407,
            30.300188
          ],
          [
            -98.000595,
            30.300068
          ],
          [
            -98.000772,
            30.299966
          ],
          [
            -98.00094,
            30.299876
          ],
          [
            -98.001166,
            30.299778
          ],
          [
            -98.001392,
            30.299685
          ],
          [
            -98.00162,
            30.299603
          ],
          [
            -98.001814,
            30.299543
          ],
          [
            -98.00199,
            30.299492
          ],
          [
            -98.002162,
            30.299451
          ],
          [
            -98.002325,
            30.299412
          ],
          [
            -98.004154,
            30.299023
          ],
          [
            -98.005327,
            30.298769
          ],
          [
            -98.005535,
            30.298722
          ],
          [
            -98.005739,
            30.298656
          ],
          [
            -98.005929,
            30.298593
          ],
          [
            -98.006136,
            30.298505
          ],
          [
            -98.006346,
            30.298405
          ],
          [
            -98.006525,
            30.2983
          ],
          [
            -98.006683,
            30.298192
          ],
          [
            -98.006858,
            30.298074
          ],
          [
            -98.006994,
            30.297961
          ],
          [
            -98.007121,
            30.29784
          ],
          [
            -98.007345,
            30.297611
          ],
          [
            -98.007507,
            30.297415
          ],
          [
            -98.007659,
            30.29724
          ],
          [
            -98.007813,
            30.297085
          ],
          [
            -98.008022,
            30.296908
          ],
          [
            -98.008192,
            30.296779
          ],
          [
            -98.008375,
            30.296663
          ],
          [
            -98.00852,
            30.296579
          ],
          [
            -98.008708,
            30.29648
          ],
          [
            -98.008914,
            30.296383
          ],
          [
            -98.009129,
            30.296307
          ],
          [
            -98.009355,
            30.296236
          ],
          [
            -98.009594,
            30.296176
          ],
          [
            -98.009853,
            30.296125
          ],
          [
            -98.010178,
            30.296088
          ],
          [
            -98.010709,
            30.296044
          ],
          [
            -98.01321,
            30.295857
          ],
          [
            -98.013746,
            30.295814
          ],
          [
            -98.013872,
            30.295797
          ],
          [
            -98.014022,
            30.295776
          ],
          [
            -98.01421,
            30.295739
          ],
          [
            -98.01436,
            30.295701
          ],
          [
            -98.014478,
            30.295667
          ],
          [
            -98.014633,
            30.295618
          ],
          [
            -98.014833,
            30.295535
          ],
          [
            -98.014987,
            30.295467
          ],
          [
            -98.015126,
            30.295402
          ],
          [
            -98.015294,
            30.295311
          ],
          [
            -98.015455,
            30.295215
          ],
          [
            -98.015576,
            30.295136
          ],
          [
            -98.015707,
            30.295034
          ],
          [
            -98.015845,
            30.294919
          ],
          [
            -98.015985,
            30.294788
          ],
          [
            -98.016116,
            30.294657
          ],
          [
            -98.016236,
            30.294516
          ],
          [
            -98.016383,
            30.294309
          ],
          [
            -98.016467,
            30.294182
          ],
          [
            -98.016544,
            30.294056
          ],
          [
            -98.016618,
            30.293916
          ],
          [
            -98.016831,
            30.293449
          ],
          [
            -98.017126,
            30.292764
          ],
          [
            -98.017202,
            30.292608
          ],
          [
            -98.017292,
            30.292439
          ],
          [
            -98.017394,
            30.292272
          ],
          [
            -98.01751,
            30.292121
          ],
          [
            -98.017632,
            30.291981
          ],
          [
            -98.017749,
            30.291857
          ],
          [
            -98.01788,
            30.291736
          ],
          [
            -98.018018,
            30.291614
          ],
          [
            -98.018171,
            30.291494
          ],
          [
            -98.018352,
            30.291372
          ],
          [
            -98.018513,
            30.291275
          ],
          [
            -98.018706,
            30.291175
          ],
          [
            -98.018894,
            30.291085
          ],
          [
            -98.019075,
            30.291009
          ],
          [
            -98.019219,
            30.290961
          ],
          [
            -98.019374,
            30.290913
          ],
          [
            -98.01955,
            30.290866
          ],
          [
            -98.019738,
            30.290828
          ],
          [
            -98.019946,
            30.290789
          ],
          [
            -98.02018,
            30.290758
          ],
          [
            -98.020405,
            30.290739
          ],
          [
            -98.020605,
            30.290727
          ],
          [
            -98.020805,
            30.29072
          ],
          [
            -98.021031,
            30.290722
          ],
          [
            -98.021306,
            30.290732
          ],
          [
            -98.021617,
            30.290748
          ],
          [
            -98.021976,
            30.290787
          ],
          [
            -98.022341,
            30.290847
          ],
          [
            -98.022722,
            30.290916
          ],
          [
            -98.023264,
            30.291023
          ],
          [
            -98.023547,
            30.291079
          ],
          [
            -98.024822,
            30.291329
          ],
          [
            -98.02825,
            30.292004
          ],
          [
            -98.02868,
            30.292088
          ],
          [
            -98.029173,
            30.292195
          ],
          [
            -98.029618,
            30.292247
          ],
          [
            -98.029986,
            30.292262
          ],
          [
            -98.030639,
            30.292213
          ],
          [
            -98.031857,
            30.29208
          ],
          [
            -98.032452,
            30.291998
          ],
          [
            -98.034494,
            30.291716
          ],
          [
            -98.034615,
            30.291694
          ],
          [
            -98.035434,
            30.291595
          ],
          [
            -98.036309,
            30.29149
          ],
          [
            -98.037132,
            30.291365
          ],
          [
            -98.038004,
            30.291283
          ],
          [
            -98.038377,
            30.291263
          ],
          [
            -98.038435,
            30.291259
          ],
          [
            -98.038559,
            30.291266
          ],
          [
            -98.038879,
            30.291283
          ],
          [
            -98.038937,
            30.291285
          ],
          [
            -98.039083,
            30.29129
          ],
          [
            -98.039426,
            30.291339
          ],
          [
            -98.040364,
            30.291473
          ],
          [
            -98.040965,
            30.291514
          ],
          [
            -98.041118,
            30.291517
          ],
          [
            -98.041424,
            30.291521
          ],
          [
            -98.041906,
            30.291488
          ],
          [
            -98.042349,
            30.291428
          ],
          [
            -98.04289,
            30.291328
          ],
          [
            -98.043604,
            30.291195
          ],
          [
            -98.04474,
            30.290984
          ],
          [
            -98.045292,
            30.290855
          ],
          [
            -98.045739,
            30.290734
          ],
          [
            -98.046784,
            30.290287
          ],
          [
            -98.048359,
            30.289423
          ],
          [
            -98.049103,
            30.289015
          ],
          [
            -98.049198,
            30.288963
          ],
          [
            -98.049707,
            30.288684
          ],
          [
            -98.049798,
            30.288634
          ],
          [
            -98.050045,
            30.288499
          ],
          [
            -98.050202,
            30.288412
          ],
          [
            -98.051202,
            30.287885
          ],
          [
            -98.05127,
            30.287856
          ],
          [
            -98.051768,
            30.287644
          ],
          [
            -98.052277,
            30.287494
          ],
          [
            -98.052514,
            30.28745
          ],
          [
            -98.052847,
            30.287388
          ],
          [
            -98.053508,
            30.287353
          ],
          [
            -98.055131,
            30.287244
          ],
          [
            -98.056137,
            30.287114
          ],
          [
            -98.056464,
            30.287053
          ],
          [
            -98.057208,
            30.286915
          ],
          [
            -98.057511,
            30.286843
          ],
          [
            -98.058003,
            30.286726
          ],
          [
            -98.058843,
            30.286526
          ],
          [
            -98.058977,
            30.286494
          ],
          [
            -98.059998,
            30.286255
          ],
          [
            -98.061307,
            30.285968
          ],
          [
            -98.061869,
            30.285867
          ],
          [
            -98.062424,
            30.285842
          ],
          [
            -98.062608,
            30.285857
          ],
          [
            -98.062919,
            30.285882
          ],
          [
            -98.063452,
            30.285974
          ],
          [
            -98.063478,
            30.285978
          ],
          [
            -98.063837,
            30.286078
          ],
          [
            -98.064724,
            30.286484
          ],
          [
            -98.06488,
            30.286556
          ],
          [
            -98.065043,
            30.285599
          ],
          [
            -98.065104,
            30.285238
          ],
          [
            -98.065222,
            30.284546
          ],
          [
            -98.065654,
            30.282071
          ],
          [
            -98.065845,
            30.281034
          ],
          [
            -98.066033,
            30.280021
          ],
          [
            -98.066441,
            30.278524
          ],
          [
            -98.066554,
            30.278087
          ],
          [
            -98.06678,
            30.277446
          ],
          [
            -98.067029,
            30.276821
          ],
          [
            -98.067269,
            30.276218
          ],
          [
            -98.067464,
            30.275707
          ],
          [
            -98.067501,
            30.275625
          ],
          [
            -98.067927,
            30.274537
          ],
          [
            -98.068259,
            30.273689
          ],
          [
            -98.068374,
            30.273415
          ],
          [
            -98.0684,
            30.273343
          ],
          [
            -98.068427,
            30.273267
          ],
          [
            -98.068436,
            30.273242
          ],
          [
            -98.068504,
            30.272978
          ],
          [
            -98.068544,
            30.272803
          ],
          [
            -98.068554,
            30.272737
          ],
          [
            -98.068604,
            30.272399
          ],
          [
            -98.068623,
            30.27218
          ],
          [
            -98.068627,
            30.272135
          ],
          [
            -98.068618,
            30.271819
          ],
          [
            -98.068568,
            30.271461
          ],
          [
            -98.068555,
            30.27137
          ],
          [
            -98.068535,
            30.271224
          ],
          [
            -98.068459,
            30.270902
          ],
          [
            -98.068242,
            30.270323
          ],
          [
            -98.068004,
            30.269917
          ],
          [
            -98.067422,
            30.269154
          ],
          [
            -98.065219,
            30.266739
          ],
          [
            -98.064951,
            30.266445
          ],
          [
            -98.064755,
            30.26623
          ],
          [
            -98.064477,
            30.265925
          ],
          [
            -98.06398,
            30.26538
          ],
          [
            -98.063194,
            30.264536
          ],
          [
            -98.06266,
            30.264009
          ],
          [
            -98.062006,
            30.263499
          ],
          [
            -98.061088,
            30.262764
          ],
          [
            -98.060352,
            30.262149
          ],
          [
            -98.060035,
            30.26185
          ],
          [
            -98.059732,
            30.261484
          ],
          [
            -98.059509,
            30.261095
          ],
          [
            -98.059336,
            30.260716
          ],
          [
            -98.059328,
            30.260699
          ],
          [
            -98.059194,
            30.260318
          ],
          [
            -98.059112,
            30.259861
          ],
          [
            -98.0591,
            30.259729
          ],
          [
            -98.059088,
            30.259593
          ],
          [
            -98.059082,
            30.259519
          ],
          [
            -98.059101,
            30.259085
          ],
          [
            -98.059105,
            30.259006
          ],
          [
            -98.059169,
            30.257738
          ],
          [
            -98.059156,
            30.25733
          ],
          [
            -98.059089,
            30.256927
          ],
          [
            -98.059078,
            30.256888
          ],
          [
            -98.058842,
            30.256078
          ],
          [
            -98.058728,
            30.255687
          ],
          [
            -98.058624,
            30.25535
          ],
          [
            -98.058362,
            30.254497
          ],
          [
            -98.058199,
            30.25397
          ],
          [
            -98.057788,
            30.252633
          ],
          [
            -98.057678,
            30.252279
          ],
          [
            -98.057651,
            30.25219
          ],
          [
            -98.05755,
            30.251846
          ],
          [
            -98.057502,
            30.25148
          ],
          [
            -98.057502,
            30.25144
          ],
          [
            -98.057502,
            30.251262
          ],
          [
            -98.057517,
            30.251045
          ],
          [
            -98.05752,
            30.251026
          ],
          [
            -98.057548,
            30.250831
          ],
          [
            -98.057609,
            30.250565
          ],
          [
            -98.057685,
            30.250312
          ],
          [
            -98.058128,
            30.249504
          ],
          [
            -98.058747,
            30.248553
          ],
          [
            -98.058853,
            30.248391
          ],
          [
            -98.058913,
            30.248299
          ],
          [
            -98.059025,
            30.248127
          ],
          [
            -98.059382,
            30.247579
          ],
          [
            -98.059446,
            30.24748
          ],
          [
            -98.060237,
            30.246266
          ],
          [
            -98.060685,
            30.245578
          ],
          [
            -98.061011,
            30.245078
          ],
          [
            -98.061527,
            30.244268
          ],
          [
            -98.061874,
            30.243738
          ],
          [
            -98.062747,
            30.242393
          ],
          [
            -98.063468,
            30.241282
          ],
          [
            -98.063617,
            30.241048
          ],
          [
            -98.063824,
            30.240723
          ],
          [
            -98.064255,
            30.240083
          ],
          [
            -98.06462,
            30.239541
          ],
          [
            -98.064961,
            30.239141
          ],
          [
            -98.065534,
            30.238624
          ],
          [
            -98.065965,
            30.238314
          ],
          [
            -98.066311,
            30.238114
          ],
          [
            -98.066609,
            30.237953
          ],
          [
            -98.066899,
            30.237815
          ],
          [
            -98.06746,
            30.237602
          ],
          [
            -98.067943,
            30.237475
          ],
          [
            -98.069651,
            30.237052
          ],
          [
            -98.07002,
            30.236925
          ],
          [
            -98.070393,
            30.236723
          ],
          [
            -98.070752,
            30.236469
          ],
          [
            -98.071121,
            30.236182
          ],
          [
            -98.07141,
            30.235851
          ],
          [
            -98.071599,
            30.235575
          ],
          [
            -98.072015,
            30.234967
          ],
          [
            -98.072163,
            30.234742
          ],
          [
            -98.07246,
            30.23429
          ],
          [
            -98.072788,
            30.23379
          ],
          [
            -98.073231,
            30.233136
          ],
          [
            -98.073309,
            30.233021
          ],
          [
            -98.073359,
            30.232948
          ],
          [
            -98.074667,
            30.23104
          ],
          [
            -98.0755,
            30.229915
          ],
          [
            -98.076034,
            30.22945
          ],
          [
            -98.076293,
            30.229225
          ],
          [
            -98.077044,
            30.228727
          ],
          [
            -98.077483,
            30.228436
          ],
          [
            -98.078171,
            30.227891
          ],
          [
            -98.078834,
            30.227134
          ],
          [
            -98.078948,
            30.226975
          ],
          [
            -98.079581,
            30.225995
          ],
          [
            -98.079832,
            30.225614
          ],
          [
            -98.080998,
            30.22384
          ],
          [
            -98.08144,
            30.223156
          ],
          [
            -98.082082,
            30.221808
          ],
          [
            -98.082382,
            30.220894
          ],
          [
            -98.082488,
            30.220555
          ],
          [
            -98.0828,
            30.219561
          ],
          [
            -98.082948,
            30.219084
          ],
          [
            -98.083527,
            30.217215
          ],
          [
            -98.083617,
            30.216927
          ],
          [
            -98.083715,
            30.216614
          ],
          [
            -98.083913,
            30.216031
          ],
          [
            -98.083939,
            30.215953
          ],
          [
            -98.083978,
            30.215837
          ],
          [
            -98.08399,
            30.215802
          ],
          [
            -98.084083,
            30.215527
          ],
          [
            -98.084167,
            30.215345
          ],
          [
            -98.084324,
            30.215004
          ],
          [
            -98.084381,
            30.21488
          ],
          [
            -98.084534,
            30.214629
          ],
          [
            -98.085065,
            30.21376
          ],
          [
            -98.085223,
            30.213555
          ],
          [
            -98.085718,
            30.21291
          ],
          [
            -98.086685,
            30.21183
          ],
          [
            -98.086777,
            30.211729
          ],
          [
            -98.087081,
            30.211379
          ],
          [
            -98.087145,
            30.211304
          ],
          [
            -98.08731,
            30.211114
          ],
          [
            -98.087646,
            30.210641
          ],
          [
            -98.087776,
            30.210375
          ],
          [
            -98.087875,
            30.210128
          ],
          [
            -98.087951,
            30.20987
          ],
          [
            -98.087965,
            30.209794
          ],
          [
            -98.087997,
            30.209612
          ],
          [
            -98.088027,
            30.209348
          ],
          [
            -98.087997,
            30.208512
          ],
          [
            -98.087949,
            30.207893
          ],
          [
            -98.087921,
            30.20746
          ],
          [
            -98.087914,
            30.207357
          ],
          [
            -98.087884,
            30.206899
          ],
          [
            -98.087872,
            30.206716
          ],
          [
            -98.087831,
            30.205951
          ],
          [
            -98.087825,
            30.205838
          ],
          [
            -98.087817,
            30.2057
          ],
          [
            -98.0878,
            30.205376
          ],
          [
            -98.087797,
            30.205295
          ],
          [
            -98.087789,
            30.205079
          ],
          [
            -98.087788,
            30.205063
          ],
          [
            -98.087768,
            30.20455
          ],
          [
            -98.087745,
            30.203976
          ],
          [
            -98.087707,
            30.203105
          ],
          [
            -98.0877,
            30.202679
          ],
          [
            -98.087695,
            30.202624
          ],
          [
            -98.087682,
            30.202477
          ],
          [
            -98.087652,
            30.202262
          ],
          [
            -98.0876,
            30.202063
          ],
          [
            -98.087463,
            30.201694
          ],
          [
            -98.087361,
            30.201437
          ],
          [
            -98.087265,
            30.201179
          ],
          [
            -98.08724,
            30.201113
          ],
          [
            -98.087197,
            30.200997
          ],
          [
            -98.087055,
            30.200621
          ],
          [
            -98.086982,
            30.200215
          ],
          [
            -98.086964,
            30.200028
          ],
          [
            -98.086982,
            30.199629
          ],
          [
            -98.086993,
            30.199477
          ],
          [
            -98.087022,
            30.199073
          ],
          [
            -98.087043,
            30.198785
          ],
          [
            -98.087071,
            30.198384
          ],
          [
            -98.087097,
            30.198005
          ],
          [
            -98.087123,
            30.197628
          ],
          [
            -98.08715,
            30.197042
          ],
          [
            -98.087212,
            30.196382
          ],
          [
            -98.087227,
            30.196171
          ],
          [
            -98.087287,
            30.195353
          ],
          [
            -98.087334,
            30.194706
          ],
          [
            -98.087402,
            30.193764
          ],
          [
            -98.087428,
            30.193329
          ],
          [
            -98.08746,
            30.192811
          ],
          [
            -98.08747,
            30.192646
          ],
          [
            -98.087474,
            30.192511
          ],
          [
            -98.087483,
            30.192188
          ],
          [
            -98.087486,
            30.192093
          ],
          [
            -98.087492,
            30.191695
          ],
          [
            -98.087495,
            30.19154
          ],
          [
            -98.087497,
            30.191389
          ],
          [
            -98.087505,
            30.190887
          ],
          [
            -98.087479,
            30.190036
          ]
        ]
      }
    }
  ]
}