{
  "type": "FeatureCollection",
  "features": [
    {
      "type": "Feature",
      "properties": {
        "route": "Highland Lakes Circuit",
        "category": "Lakes & Rivers",
        "color": "#2980b9",
        "waypoints": [
          "Burnet",
          "Lake Buchanan",
          "Inks Lake",
          "Marble Falls"
        ],
        "via": "TX 29 -> RM 2341 -> RM 690 -> Park Road 4 -> Longhorn Cavern",
        "distance_mi": 43.2,
        "source": "road-snapped"
      },
      "geometry": {
        "type": "LineString",
        "coordinates": [
          [
            -98.228704,
            30.758116
          ],
          [
            -98.228741,
            30.758109
          ],
          [
            -98.229208,
            30.758021
          ],
          [
            -98.229596,
            30.757953
          ],
          [
            -98.229891,
            30.7579
          ],
          [
            -98.230884,
            30.757708
          ],
          [
            -98.231601,
            30.75757
          ],
          [
            -98.231784,
            30.757538
          ],
          [
            -98.231863,
            30.757524
          ],
          [
            -98.232168,
            30.757478
          ],
          [
            -98.232532,
            30.757435
          ],
          [
            -98.232774,
            30.757427
          ],
          [
            -98.232977,
            30.757427
          ],
          [
            -98.233172,
            30.757428
          ],
          [
            -98.233415,
            30.757438
          ],
          [
            -98.233545,
            30.757448
          ],
          [
            -98.233652,
            30.757456
          ],
          [
            -98.233916,
            30.757484
          ],
          [
            -98.233983,
            30.757491
          ],
          [
            -98.234195,
            30.757523
          ],
          [
            -98.234246,
            30.75753
          ],
          [
            -98.234823,
            30.757656
          ],
          [
            -98.234949,
            30.757686
          ],
          [
            -98.235293,
            30.757768
          ],
          [
            -98.235625,
            30.757844
          ],
          [
            -98.236949,
            30.758146
          ],
          [
            -98.237268,
            30.758221
          ],
          [
            -98.238645,
            30.758535
          ],
          [
            -98.238844,
            30.758587
          ],
          [
            -98.239443,
            30.758727
          ],
          [
            -98.240169,
            30.758898
          ],
          [
            -98.24042,
            30.758955
          ],
          [
            -98.240661,
            30.75901
          ],
          [
            -98.240885,
            30.759058
          ],
          [
            -98.241018,
            30.759087
          ],
          [
            -98.24148,
            30.759182
          ],
          [
            -98.241646,
            30.759216
          ],
          [
            -98.241941,
            30.759271
          ],
          [
            -98.242028,
            30.759284
          ],
          [
            -98.242202,
            30.759312
          ],
          [
            -98.242536,
            30.759365
          ],
          [
            -98.242869,
            30.759404
          ],
          [
            -98.2432,
            30.759448
          ],
          [
            -98.244254,
            30.759539
          ],
          [
            -98.244685,
            30.759571
          ],
          [
            -98.245113,
            30.759605
          ],
          [
            -98.245394,
            30.759633
          ],
          [
            -98.245907,
            30.759675
          ],
          [
            -98.246125,
            30.759693
          ],
          [
            -98.246354,
            30.759714
          ],
          [
            -98.246434,
            30.759722
          ],
          [
            -98.247037,
            30.759771
          ],
          [
            -98.247933,
            30.759848
          ],
          [
            -98.248085,
            30.759858
          ],
          [
            -98.248782,
            30.75992
          ],
          [
            -98.249668,
            30.76
          ],
          [
            -98.249893,
            30.760016
          ],
          [
            -98.250167,
            30.760035
          ],
          [
            -98.250852,
            30.760096
          ],
          [
            -98.251133,
            30.760119
          ],
          [
            -98.252737,
            30.760253
          ],
          [
            -98.253875,
            30.76035
          ],
          [
            -98.253999,
            30.760361
          ],
          [
            -98.254537,
            30.760407
          ],
          [
            -98.25548,
            30.760446
          ],
          [
            -98.25658,
            30.760469
          ],
          [
            -98.257344,
            30.76049
          ],
          [
            -98.257519,
            30.760496
          ],
          [
            -98.257975,
            30.760507
          ],
          [
            -98.258687,
            30.760518
          ],
          [
            -98.261802,
            30.760585
          ],
          [
            -98.262089,
            30.760592
          ],
          [
            -98.262597,
            30.760603
          ],
          [
            -98.263963,
            30.760641
          ],
          [
            -98.265313,
            30.760677
          ],
          [
            -98.267183,
            30.760715
          ],
          [
            -98.269534,
            30.760773
          ],
          [
            -98.270545,
            30.760796
          ],
          [
            -98.271689,
            30.760822
          ],
          [
            -98.272995,
            30.760871
          ],
          [
            -98.273262,
            30.760876
          ],
          [
            -98.27367,
            30.760886
          ],
          [
            -98.273762,
            30.760888
          ],
          [
            -98.274427,
            30.760932
          ],
          [
            -98.275489,
            30.761072
          ],
          [
            -98.27651,
            30.761206
          ],
          [
            -98.278102,
            30.761417
          ],
          [
            -98.279007,
            30.761531
          ],
          [
            -98.279381,
            30.761577
          ],
          [
            -98.279969,
            30.761651
          ],
          [
            -98.280304,
            30.761693
          ],
          [
            -98.280508,
            30.761719
          ],
          [
            -98.284254,
            30.762197
          ],
          [
            -98.284469,
            30.762284
          ],
          [
            -98.284571,
            30.762347
          ],
          [
            -98.284639,
            30.762418
          ],
          [
            -98.284684,
            30.762486
          ],
          [
            -98.284716,
            30.762563
          ],
          [
            -98.285635,
            30.765177
          ],
          [
            -98.286094,
            30.766739
          ],
          [
            -98.286823,
            30.769501
          ],
          [
            -98.287034,
            30.770225
          ],
          [
            -98.287121,
            30.770507
          ],
          [
            -98.287238,
            30.770811
          ],
          [
            -98.287358,
            30.771074
          ],
          [
            -98.287928,
            30.772128
          ],
          [
            -98.288238,
            30.77272
          ],
          [
            -98.288386,
            30.773003
          ],
          [
            -98.288681,
            30.773561
          ],
          [
            -98.288918,
            30.774033
          ],
          [
            -98.289101,
            30.774443
          ],
          [
            -98.28926,
            30.774855
          ],
          [
            -98.289407,
            30.775322
          ],
          [
            -98.289477,
            30.775585
          ],
          [
            -98.289894,
            30.776826
          ],
          [
            -98.289954,
            30.777088
          ],
          [
            -98.290037,
            30.777345
          ],
          [
            -98.29015,
            30.777617
          ],
          [
            -98.290217,
            30.777748
          ],
          [
            -98.290275,
            30.777863
          ],
          [
            -98.290418,
            30.778105
          ],
          [
            -98.290567,
            30.778316
          ],
          [
            -98.29068,
            30.77846
          ],
          [
            -98.290727,
            30.77852
          ],
          [
            -98.291045,
            30.778833
          ],
          [
            -98.291747,
            30.779523
          ],
          [
            -98.291877,
            30.779635
          ],
          [
            -98.292809,
            30.780474
          ],
          [
            -98.293383,
            30.780993
          ],
          [
            -98.294522,
            30.78205
          ],
          [
            -98.295025,
            30.782501
          ],
          [
            -98.295931,
            30.78342
          ],
          [
            -98.296465,
            30.783951
          ],
          [
            -98.2973,
            30.78479
          ],
          [
            -98.297513,
            30.785004
          ],
          [
            -98.297656,
            30.785152
          ],
          [
            -98.297815,
            30.785312
          ],
          [
            -98.299601,
            30.78711
          ],
          [
            -98.299608,
            30.787117
          ],
          [
            -98.300468,
            30.788062
          ],
          [
            -98.300552,
            30.788187
          ],
          [
            -98.300717,
            30.788477
          ],
          [
            -98.3008,
            30.788587
          ],
          [
            -98.301402,
            30.789713
          ],
          [
            -98.302162,
            30.791381
          ],
          [
            -98.302752,
            30.792559
          ],
          [
            -98.30373,
            30.794026
          ],
          [
            -98.303844,
            30.794198
          ],
          [
            -98.304082,
            30.794554
          ],
          [
            -98.304818,
            30.795317
          ],
          [
            -98.305614,
            30.795819
          ],
          [
            -98.306319,
            30.796211
          ],
          [
            -98.306361,
            30.796235
          ],
          [
            -98.306565,
            30.796307
          ],
          [
            -98.307045,
            30.796477
          ],
          [
            -98.307264,
            30.796517
          ],
          [
            -98.307808,
            30.79661
          ],
          [
            -98.309031,
            30.796796
          ],
          [
            -98.309119,
            30.796809
          ],
          [
            -98.309947,
            30.797009
          ],
          [
            -98.310961,
            30.797355
          ],
          [
            -98.312641,
            30.797944
          ],
          [
            -98.3128,
            30.798
          ],
          [
            -98.31383,
            30.798376
          ],
          [
            -98.314579,
            30.798762
          ],
          [
            -98.314826,
            30.798932
          ],
          [
            -98.315142,
            30.79915
          ],
          [
            -98.315436,
            30.799383
          ],
          [
            -98.31586,
            30.79972
          ],
          [
            -98.31597,
            30.799807
          ],
          [
            -98.316746,
            30.800383
          ],
          [
            -98.31715,
            30.800683
          ],
          [
            -98.317363,
            30.80084
          ],
          [
            -98.317748,
            30.801124
          ],
          [
            -98.318237,
            30.801514
          ],
          [
            -98.319019,
            30.802071
          ],
          [
            -98.319258,
            30.802226
          ],
          [
            -98.319431,
            30.802326
          ],
          [
            -98.319517,
            30.802376
          ],
          [
            -98.320265,
            30.802742
          ],
          [
            -98.320349,
            30.802779
          ],
          [
            -98.320704,
            30.802933
          ],
          [
            -98.322979,
            30.80383
          ],
          [
            -98.324261,
            30.804336
          ],
          [
            -98.328336,
            30.805942
          ],
          [
            -98.330877,
            30.806944
          ],
          [
            -98.331284,
            30.807105
          ],
          [
            -98.332628,
            30.807656
          ],
          [
            -98.333826,
            30.807791
          ],
          [
            -98.334378,
            30.807901
          ],
          [
            -98.335147,
            30.808097
          ],
          [
            -98.33545,
            30.808154
          ],
          [
            -98.335755,
            30.808197
          ],
          [
            -98.336065,
            30.808221
          ],
          [
            -98.336439,
            30.808227
          ],
          [
            -98.336805,
            30.808216
          ],
          [
            -98.337047,
            30.808195
          ],
          [
            -98.338559,
            30.808088
          ],
          [
            -98.339077,
            30.808051
          ],
          [
            -98.34032,
            30.807875
          ],
          [
            -98.340881,
            30.807771
          ],
          [
            -98.342348,
            30.807557
          ],
          [
            -98.342536,
            30.807546
          ],
          [
            -98.34289,
            30.807549
          ],
          [
            -98.343256,
            30.80756
          ],
          [
            -98.343961,
            30.807617
          ],
          [
            -98.344139,
            30.807645
          ],
          [
            -98.344304,
            30.807686
          ],
          [
            -98.344474,
            30.807744
          ],
          [
            -98.344864,
            30.807939
          ],
          [
            -98.345701,
            30.808365
          ],
          [
            -98.346126,
            30.808586
          ],
          [
            -98.346739,
            30.808914
          ],
          [
            -98.347739,
            30.80951
          ],
          [
            -98.349318,
            30.810464
          ],
          [
            -98.349956,
            30.810886
          ],
          [
            -98.350198,
            30.81104
          ],
          [
            -98.350257,
            30.811076
          ],
          [
            -98.350475,
            30.81121
          ],
          [
            -98.351313,
            30.811674
          ],
          [
            -98.352536,
            30.812259
          ],
          [
            -98.352746,
            30.812341
          ],
          [
            -98.352993,
            30.812437
          ],
          [
            -98.353654,
            30.812626
          ],
          [
            -98.354966,
            30.812976
          ],
          [
            -98.356977,
            30.813551
          ],
          [
            -98.358283,
            30.81394
          ],
          [
            -98.358823,
            30.814097
          ],
          [
            -98.358881,
            30.814116
          ],
          [
            -98.359605,
            30.814351
          ],
          [
            -98.359703,
            30.814391
          ],
          [
            -98.35985,
            30.814434
          ],
          [
            -98.359945,
            30.814451
          ],
          [
            -98.360062,
            30.814465
          ],
          [
            -98.360233,
            30.814473
          ],
          [
            -98.360355,
            30.814467
          ],
          [
            -98.360495,
            30.814444
          ],
          [
            -98.360603,
            30.814418
          ],
          [
            -98.361249,
            30.814189
          ],
          [
            -98.3623,
            30.813821
          ],
          [
            -98.363635,
            30.813353
          ],
          [
            -98.364324,
            30.813111
          ],
          [
            -98.364558,
            30.813054
          ],
          [
            -98.36484,
            30.813034
          ],
          [
            -98.365306,
            30.813082
          ],
          [
            -98.365537,
            30.813109
          ],
          [
            -98.366099,
            30.813175
          ],
          [
            -98.366154,
            30.81318
          ],
          [
            -98.366585,
            30.813209
          ],
          [
            -98.367034,
            30.813213
          ],
          [
            -98.367341,
            30.813204
          ],
          [
            -98.367424,
            30.813202
          ],
          [
            -98.367671,
            30.813165
          ],
          [
            -98.367915,
            30.813111
          ],
          [
            -98.36816,
            30.813038
          ],
          [
            -98.368464,
            30.812908
          ],
          [
            -98.368669,
            30.812803
          ],
          [
            -98.368854,
            30.812688
          ],
          [
            -98.36905,
            30.812559
          ],
          [
            -98.369296,
            30.812343
          ],
          [
            -98.369408,
            30.812237
          ],
          [
            -98.36955,
            30.812072
          ],
          [
            -98.369686,
            30.811889
          ],
          [
            -98.369803,
            30.811696
          ],
          [
            -98.369854,
            30.811585
          ],
          [
            -98.369919,
            30.811442
          ],
          [
            -98.369978,
            30.811278
          ],
          [
            -98.37017,
            30.810497
          ],
          [
            -98.370368,
            30.809722
          ],
          [
            -98.370387,
            30.809648
          ],
          [
            -98.370459,
            30.809337
          ],
          [
            -98.370553,
            30.80899
          ],
          [
            -98.370677,
            30.808767
          ],
          [
            -98.370803,
            30.808554
          ],
          [
            -98.371012,
            30.808291
          ],
          [
            -98.371084,
            30.808201
          ],
          [
            -98.371205,
            30.808033
          ],
          [
            -98.371342,
            30.807923
          ],
          [
            -98.371463,
            30.807826
          ],
          [
            -98.371664,
            30.807684
          ],
          [
            -98.371837,
            30.807596
          ],
          [
            -98.372033,
            30.807501
          ],
          [
            -98.372322,
            30.807414
          ],
          [
            -98.372833,
            30.807202
          ],
          [
            -98.37296,
            30.807147
          ],
          [
            -98.373112,
            30.807082
          ],
          [
            -98.373337,
            30.806973
          ],
          [
            -98.373533,
            30.80685
          ],
          [
            -98.373733,
            30.806707
          ],
          [
            -98.373912,
            30.806556
          ],
          [
            -98.374082,
            30.806385
          ],
          [
            -98.374265,
            30.806162
          ],
          [
            -98.374466,
            30.805898
          ],
          [
            -98.374545,
            30.805784
          ],
          [
            -98.375445,
            30.80425
          ],
          [
            -98.375585,
            30.804037
          ],
          [
            -98.375711,
            30.803866
          ],
          [
            -98.376139,
            30.803286
          ],
          [
            -98.376568,
            30.802786
          ],
          [
            -98.376642,
            30.802736
          ],
          [
            -98.376723,
            30.80266
          ],
          [
            -98.376903,
            30.802523
          ],
          [
            -98.377002,
            30.802464
          ],
          [
            -98.377106,
            30.802413
          ],
          [
            -98.37733,
            30.802315
          ],
          [
            -98.377508,
            30.802254
          ],
          [
            -98.377691,
            30.80221
          ],
          [
            -98.37788,
            30.802183
          ],
          [
            -98.378014,
            30.802174
          ],
          [
            -98.378192,
            30.802174
          ],
          [
            -98.378379,
            30.802176
          ],
          [
            -98.378543,
            30.802207
          ],
          [
            -98.378715,
            30.802245
          ],
          [
            -98.379372,
            30.802439
          ],
          [
            -98.379771,
            30.802561
          ],
          [
            -98.37994,
            30.802596
          ],
          [
            -98.380057,
            30.802612
          ],
          [
            -98.380206,
            30.802622
          ],
          [
            -98.380353,
            30.802627
          ],
          [
            -98.380536,
            30.802622
          ],
          [
            -98.380722,
            30.8026
          ],
          [
            -98.380905,
            30.802567
          ],
          [
            -98.381074,
            30.802523
          ],
          [
            -98.381257,
            30.802457
          ],
          [
            -98.381415,
            30.802379
          ],
          [
            -98.381563,
            30.802288
          ],
          [
            -98.381706,
            30.802189
          ],
          [
            -98.381837,
            30.802081
          ],
          [
            -98.38196,
            30.801961
          ],
          [
            -98.38207,
            30.801839
          ],
          [
            -98.382157,
            30.801706
          ],
          [
            -98.382268,
            30.801447
          ],
          [
            -98.382317,
            30.801321
          ],
          [
            -98.382368,
            30.801118
          ],
          [
            -98.382412,
            30.80097
          ],
          [
            -98.382424,
            30.800761
          ],
          [
            -98.382568,
            30.799662
          ],
          [
            -98.382779,
            30.798045
          ],
          [
            -98.382799,
            30.797896
          ],
          [
            -98.382814,
            30.797582
          ],
          [
            -98.38282,
            30.797442
          ],
          [
            -98.382721,
            30.796036
          ],
          [
            -98.382704,
            30.795675
          ],
          [
            -98.382711,
            30.795416
          ],
          [
            -98.382713,
            30.795334
          ],
          [
            -98.382715,
            30.795314
          ],
          [
            -98.382738,
            30.795101
          ],
          [
            -98.382843,
            30.794588
          ],
          [
            -98.382927,
            30.794169
          ],
          [
            -98.382977,
            30.793981
          ],
          [
            -98.382985,
            30.793952
          ],
          [
            -98.383069,
            30.793728
          ],
          [
            -98.383097,
            30.793667
          ],
          [
            -98.383156,
            30.793537
          ],
          [
            -98.383265,
            30.793343
          ],
          [
            -98.383404,
            30.793134
          ],
          [
            -98.383721,
            30.792656
          ],
          [
            -98.383871,
            30.792429
          ],
          [
            -98.384308,
            30.791775
          ],
          [
            -98.384754,
            30.7911
          ],
          [
            -98.385192,
            30.790433
          ],
          [
            -98.386239,
            30.788892
          ],
          [
            -98.386358,
            30.788704
          ],
          [
            -98.386394,
            30.788651
          ],
          [
            -98.387329,
            30.787278
          ],
          [
            -98.387599,
            30.786878
          ],
          [
            -98.387779,
            30.786652
          ],
          [
            -98.387908,
            30.786521
          ],
          [
            -98.387783,
            30.7862
          ],
          [
            -98.387887,
            30.785352
          ],
          [
            -98.38751,
            30.785027
          ],
          [
            -98.387768,
            30.784859
          ],
          [
            -98.388103,
            30.784804
          ],
          [
            -98.388439,
            30.784439
          ],
          [
            -98.388604,
            30.784689
          ],
          [
            -98.388728,
            30.784927
          ],
          [
            -98.388889,
            30.785082
          ],
          [
            -98.389035,
            30.785281
          ],
          [
            -98.389038,
            30.785286
          ],
          [
            -98.389307,
            30.785405
          ],
          [
            -98.389406,
            30.785536
          ],
          [
            -98.389491,
            30.785491
          ],
          [
            -98.389802,
            30.78533
          ],
          [
            -98.390131,
            30.785172
          ],
          [
            -98.390564,
            30.784948
          ],
          [
            -98.391041,
            30.78468
          ],
          [
            -98.391305,
            30.784514
          ],
          [
            -98.391541,
            30.784341
          ],
          [
            -98.391774,
            30.784147
          ],
          [
            -98.391946,
            30.783986
          ],
          [
            -98.393488,
            30.782536
          ],
          [
            -98.393701,
            30.782333
          ],
          [
            -98.393921,
            30.782152
          ],
          [
            -98.394153,
            30.781991
          ],
          [
            -98.394307,
            30.781897
          ],
          [
            -98.394578,
            30.781761
          ],
          [
            -98.394863,
            30.781641
          ],
          [
            -98.395161,
            30.781544
          ],
          [
            -98.39546,
            30.781466
          ],
          [
            -98.398345,
            30.780922
          ],
          [
            -98.398998,
            30.780799
          ],
          [
            -98.399907,
            30.780598
          ],
          [
            -98.402207,
            30.780046
          ],
          [
            -98.402694,
            30.779919
          ],
          [
            -98.403328,
            30.779695
          ],
          [
            -98.40348,
            30.77961
          ],
          [
            -98.403599,
            30.779555
          ],
          [
            -98.403791,
            30.779457
          ],
          [
            -98.404013,
            30.779309
          ],
          [
            -98.404362,
            30.779021
          ],
          [
            -98.40464,
            30.778733
          ],
          [
            -98.40485,
            30.778458
          ],
          [
            -98.405029,
            30.778196
          ],
          [
            -98.405621,
            30.776986
          ],
          [
            -98.405733,
            30.776727
          ],
          [
            -98.405875,
            30.776229
          ],
          [
            -98.40593,
            30.775917
          ],
          [
            -98.405934,
            30.775572
          ],
          [
            -98.405925,
            30.775225
          ],
          [
            -98.405888,
            30.774935
          ],
          [
            -98.405833,
            30.774729
          ],
          [
            -98.405658,
            30.774226
          ],
          [
            -98.405568,
            30.774022
          ],
          [
            -98.405442,
            30.773809
          ],
          [
            -98.405271,
            30.773576
          ],
          [
            -98.404712,
            30.772918
          ],
          [
            -98.403992,
            30.772214
          ],
          [
            -98.403843,
            30.772036
          ],
          [
            -98.403715,
            30.771852
          ],
          [
            -98.403603,
            30.771655
          ],
          [
            -98.403562,
            30.771556
          ],
          [
            -98.403511,
            30.771401
          ],
          [
            -98.403474,
            30.771241
          ],
          [
            -98.403452,
            30.771075
          ],
          [
            -98.403445,
            30.770916
          ],
          [
            -98.403455,
            30.770762
          ],
          [
            -98.403481,
            30.770592
          ],
          [
            -98.403523,
            30.77043
          ],
          [
            -98.403579,
            30.770274
          ],
          [
            -98.40364,
            30.770135
          ],
          [
            -98.40372,
            30.76999
          ],
          [
            -98.403807,
            30.76986
          ],
          [
            -98.403914,
            30.769727
          ],
          [
            -98.404167,
            30.769458
          ],
          [
            -98.404278,
            30.769331
          ],
          [
            -98.404377,
            30.769195
          ],
          [
            -98.404463,
            30.769058
          ],
          [
            -98.404538,
            30.768911
          ],
          [
            -98.404596,
            30.768755
          ],
          [
            -98.404636,
            30.768604
          ],
          [
            -98.40466,
            30.768451
          ],
          [
            -98.404672,
            30.768294
          ],
          [
            -98.404659,
            30.768077
          ],
          [
            -98.404632,
            30.767917
          ],
          [
            -98.404624,
            30.767887
          ],
          [
            -98.404584,
            30.767742
          ],
          [
            -98.404555,
            30.767638
          ],
          [
            -98.404473,
            30.767342
          ],
          [
            -98.404428,
            30.767133
          ],
          [
            -98.404352,
            30.766873
          ],
          [
            -98.404252,
            30.766616
          ],
          [
            -98.404131,
            30.766369
          ],
          [
            -98.404076,
            30.766283
          ],
          [
            -98.403981,
            30.766155
          ],
          [
            -98.403878,
            30.766036
          ],
          [
            -98.403761,
            30.765924
          ],
          [
            -98.403627,
            30.765812
          ],
          [
            -98.403567,
            30.765771
          ],
          [
            -98.403485,
            30.765716
          ],
          [
            -98.40333,
            30.765626
          ],
          [
            -98.40317,
            30.765552
          ],
          [
            -98.403007,
            30.765489
          ],
          [
            -98.40221,
            30.765249
          ],
          [
            -98.401985,
            30.765166
          ],
          [
            -98.401773,
            30.765069
          ],
          [
            -98.401565,
            30.764956
          ],
          [
            -98.401426,
            30.764852
          ],
          [
            -98.401293,
            30.76474
          ],
          [
            -98.401175,
            30.764617
          ],
          [
            -98.401074,
            30.764496
          ],
          [
            -98.401055,
            30.76447
          ],
          [
            -98.400944,
            30.764311
          ],
          [
            -98.400576,
            30.763838
          ],
          [
            -98.400294,
            30.763491
          ],
          [
            -98.399881,
            30.762975
          ],
          [
            -98.39962,
            30.762578
          ],
          [
            -98.399454,
            30.762325
          ],
          [
            -98.399063,
            30.761797
          ],
          [
            -98.398923,
            30.761627
          ],
          [
            -98.39872,
            30.761415
          ],
          [
            -98.398541,
            30.761268
          ],
          [
            -98.398243,
            30.761058
          ],
          [
            -98.397949,
            30.760889
          ],
          [
            -98.397666,
            30.760775
          ],
          [
            -98.397401,
            30.760697
          ],
          [
            -98.397141,
            30.760641
          ],
          [
            -98.395975,
            30.760469
          ],
          [
            -98.395695,
            30.760418
          ],
          [
            -98.395442,
            30.760358
          ],
          [
            -98.395149,
            30.760265
          ],
          [
            -98.394864,
            30.760146
          ],
          [
            -98.394188,
            30.75981
          ],
          [
            -98.39388,
            30.759685
          ],
          [
            -98.39353,
            30.759569
          ],
          [
            -98.392731,
            30.759367
          ],
          [
            -98.391864,
            30.759164
          ],
          [
            -98.391556,
            30.759085
          ],
          [
            -98.391272,
            30.758996
          ],
          [
            -98.390914,
            30.758858
          ],
          [
            -98.390749,
            30.758787
          ],
          [
            -98.390505,
            30.758662
          ],
          [
            -98.390306,
            30.758533
          ],
          [
            -98.390121,
            30.758395
          ],
          [
            -98.389132,
            30.75755
          ],
          [
            -98.388364,
            30.756832
          ],
          [
            -98.388241,
            30.756687
          ],
          [
            -98.388142,
            30.756553
          ],
          [
            -98.388071,
            30.756439
          ],
          [
            -98.388054,
            30.756412
          ],
          [
            -98.388046,
            30.7564
          ],
          [
            -98.387965,
            30.756289
          ],
          [
            -98.387887,
            30.756322
          ],
          [
            -98.387361,
            30.756533
          ],
          [
            -98.38712,
            30.756623
          ],
          [
            -98.386503,
            30.756841
          ],
          [
            -98.385822,
            30.757022
          ],
          [
            -98.384922,
            30.757203
          ],
          [
            -98.384209,
            30.757287
          ],
          [
            -98.380904,
            30.757543
          ],
          [
            -98.380735,
            30.757547
          ],
          [
            -98.380346,
            30.757544
          ],
          [
            -98.380015,
            30.757528
          ],
          [
            -98.379716,
            30.757482
          ],
          [
            -98.379421,
            30.757417
          ],
          [
            -98.379132,
            30.757338
          ],
          [
            -98.378849,
            30.757243
          ],
          [
            -98.378586,
            30.757137
          ],
          [
            -98.37841,
            30.757074
          ],
          [
            -98.377708,
            30.756855
          ],
          [
            -98.377574,
            30.756826
          ],
          [
            -98.377472,
            30.756804
          ],
          [
            -98.37738,
            30.756791
          ],
          [
            -98.377232,
            30.75677
          ],
          [
            -98.376989,
            30.756753
          ],
          [
            -98.376711,
            30.756742
          ],
          [
            -98.374455,
            30.756823
          ],
          [
            -98.37379,
            30.756897
          ],
          [
            -98.373044,
            30.757035
          ],
          [
            -98.373041,
            30.756901
          ],
          [
            -98.373068,
            30.756757
          ],
          [
            -98.373188,
            30.75657
          ],
          [
            -98.373431,
            30.75635
          ],
          [
            -98.373863,
            30.755922
          ],
          [
            -98.374704,
            30.755118
          ],
          [
            -98.375004,
            30.754823
          ],
          [
            -98.375275,
            30.754556
          ],
          [
            -98.375517,
            30.754319
          ],
          [
            -98.375942,
            30.753918
          ],
          [
            -98.376322,
            30.753536
          ],
          [
            -98.376364,
            30.753501
          ],
          [
            -98.376412,
            30.753461
          ],
          [
            -98.376541,
            30.753339
          ],
          [
            -98.376656,
            30.753209
          ],
          [
            -98.37676,
            30.75307
          ],
          [
            -98.376849,
            30.752926
          ],
          [
            -98.376924,
            30.752781
          ],
          [
            -98.376984,
            30.752628
          ],
          [
            -98.377028,
            30.752474
          ],
          [
            -98.377057,
            30.752321
          ],
          [
            -98.37707,
            30.752159
          ],
          [
            -98.377063,
            30.751947
          ],
          [
            -98.377019,
            30.75179
          ],
          [
            -98.376961,
            30.751632
          ],
          [
            -98.376886,
            30.75148
          ],
          [
            -98.3768,
            30.751338
          ],
          [
            -98.376666,
            30.751154
          ],
          [
            -98.376591,
            30.751068
          ],
          [
            -98.376507,
            30.750982
          ],
          [
            -98.376414,
            30.750911
          ],
          [
            -98.376318,
            30.750847
          ],
          [
            -98.376107,
            30.750742
          ],
          [
            -98.375993,
            30.750699
          ],
          [
            -98.375351,
            30.750516
          ],
          [
            -98.375139,
            30.750455
          ],
          [
            -98.374162,
            30.750297
          ],
          [
            -98.373242,
            30.750148
          ],
          [
            -98.372146,
            30.749965
          ],
          [
            -98.370997,
            30.749773
          ],
          [
            -98.370432,
            30.749638
          ],
          [
            -98.37034,
            30.749599
          ],
          [
            -98.370058,
            30.749478
          ],
          [
            -98.369869,
            30.749346
          ],
          [
            -98.369791,
            30.749264
          ],
          [
            -98.369265,
            30.748713
          ],
          [
            -98.369026,
            30.748409
          ],
          [
            -98.368743,
            30.748157
          ],
          [
            -98.368547,
            30.748006
          ],
          [
            -98.368527,
            30.747996
          ],
          [
            -98.36821,
            30.747841
          ],
          [
            -98.367937,
            30.74776
          ],
          [
            -98.367615,
            30.747708
          ],
          [
            -98.366829,
            30.747672
          ],
          [
            -98.366674,
            30.747667
          ],
          [
            -98.36661,
            30.747665
          ],
          [
            -98.363386,
            30.747554
          ],
          [
            -98.362922,
            30.747538
          ],
          [
            -98.362309,
            30.747539
          ],
          [
            -98.362016,
            30.747587
          ],
          [
            -98.361716,
            30.747674
          ],
          [
            -98.361501,
            30.747789
          ],
          [
            -98.36134,
            30.747901
          ],
          [
            -98.361043,
            30.748129
          ],
          [
            -98.360432,
            30.748833
          ],
          [
            -98.360217,
            30.749006
          ],
          [
            -98.359974,
            30.749148
          ],
          [
            -98.359603,
            30.749299
          ],
          [
            -98.359401,
            30.749344
          ],
          [
            -98.359129,
            30.749369
          ],
          [
            -98.358389,
            30.749344
          ],
          [
            -98.357515,
            30.749308
          ],
          [
            -98.357174,
            30.7493
          ],
          [
            -98.356915,
            30.749325
          ],
          [
            -98.356671,
            30.74937
          ],
          [
            -98.355423,
            30.749851
          ],
          [
            -98.355069,
            30.749917
          ],
          [
            -98.35481,
            30.749932
          ],
          [
            -98.35458,
            30.749918
          ],
          [
            -98.354301,
            30.749891
          ],
          [
            -98.354044,
            30.749827
          ],
          [
            -98.353836,
            30.749746
          ],
          [
            -98.353634,
            30.749607
          ],
          [
            -98.353518,
            30.749527
          ],
          [
            -98.353316,
            30.7494
          ],
          [
            -98.353135,
            30.749236
          ],
          [
            -98.352943,
            30.748983
          ],
          [
            -98.35282,
            30.748706
          ],
          [
            -98.352784,
            30.748515
          ],
          [
            -98.352795,
            30.748282
          ],
          [
            -98.35283,
            30.748169
          ],
          [
            -98.352915,
            30.747994
          ],
          [
            -98.353014,
            30.747876
          ],
          [
            -98.353253,
            30.747708
          ],
          [
            -98.353353,
            30.747666
          ],
          [
            -98.353519,
            30.747612
          ],
          [
            -98.353689,
            30.747576
          ],
          [
            -98.356627,
            30.747152
          ],
          [
            -98.356997,
            30.747073
          ],
          [
            -98.357358,
            30.746967
          ],
          [
            -98.357886,
            30.746781
          ],
          [
            -98.358272,
            30.746597
          ],
          [
            -98.358736,
            30.746346
          ],
          [
            -98.359391,
            30.745894
          ],
          [
            -98.359747,
            30.745582
          ],
          [
            -98.360262,
            30.745051
          ],
          [
            -98.36056,
            30.744719
          ],
          [
            -98.360848,
            30.744324
          ],
          [
            -98.361086,
            30.743866
          ],
          [
            -98.361171,
            30.743594
          ],
          [
            -98.361405,
            30.742589
          ],
          [
            -98.361574,
            30.742115
          ],
          [
            -98.361785,
            30.741764
          ],
          [
            -98.362043,
            30.741451
          ],
          [
            -98.362283,
            30.741219
          ],
          [
            -98.362909,
            30.740763
          ],
          [
            -98.363813,
            30.740137
          ],
          [
            -98.363941,
            30.740052
          ],
          [
            -98.365302,
            30.739094
          ],
          [
            -98.365379,
            30.739039
          ],
          [
            -98.365393,
            30.739028
          ],
          [
            -98.366192,
            30.738469
          ],
          [
            -98.367101,
            30.737902
          ],
          [
            -98.368067,
            30.737359
          ],
          [
            -98.368401,
            30.737165
          ],
          [
            -98.368663,
            30.737013
          ],
          [
            -98.369084,
            30.736769
          ],
          [
            -98.369402,
            30.736512
          ],
          [
            -98.36951,
            30.736347
          ],
          [
            -98.369552,
            30.736201
          ],
          [
            -98.369562,
            30.736033
          ],
          [
            -98.369537,
            30.735869
          ],
          [
            -98.369462,
            30.735695
          ],
          [
            -98.369326,
            30.735537
          ],
          [
            -98.369158,
            30.735411
          ],
          [
            -98.368848,
            30.735229
          ],
          [
            -98.366641,
            30.734064
          ],
          [
            -98.366307,
            30.733842
          ],
          [
            -98.366267,
            30.733794
          ],
          [
            -98.366161,
            30.733666
          ],
          [
            -98.366106,
            30.733554
          ],
          [
            -98.366061,
            30.733399
          ],
          [
            -98.366053,
            30.733168
          ],
          [
            -98.366107,
            30.73302
          ],
          [
            -98.366182,
            30.732884
          ],
          [
            -98.366305,
            30.732756
          ],
          [
            -98.366584,
            30.732552
          ],
          [
            -98.367759,
            30.731898
          ],
          [
            -98.367899,
            30.731803
          ],
          [
            -98.368032,
            30.731689
          ],
          [
            -98.368144,
            30.731561
          ],
          [
            -98.368267,
            30.731329
          ],
          [
            -98.3683,
            30.731224
          ],
          [
            -98.368313,
            30.731096
          ],
          [
            -98.368308,
            30.730824
          ],
          [
            -98.368161,
            30.729769
          ],
          [
            -98.368144,
            30.729454
          ],
          [
            -98.368211,
            30.72918
          ],
          [
            -98.368325,
            30.728952
          ],
          [
            -98.368378,
            30.72888
          ],
          [
            -98.368482,
            30.728769
          ],
          [
            -98.368609,
            30.728665
          ],
          [
            -98.368782,
            30.728557
          ],
          [
            -98.369087,
            30.728442
          ],
          [
            -98.369398,
            30.728373
          ],
          [
            -98.370697,
            30.728176
          ],
          [
            -98.370709,
            30.728174
          ],
          [
            -98.371623,
            30.728037
          ],
          [
            -98.371995,
            30.728005
          ],
          [
            -98.372344,
            30.728028
          ],
          [
            -98.372554,
            30.728072
          ],
          [
            -98.372872,
            30.728184
          ],
          [
            -98.373046,
            30.72827
          ],
          [
            -98.374162,
            30.728898
          ],
          [
            -98.374465,
            30.729049
          ],
          [
            -98.374885,
            30.729221
          ],
          [
            -98.375151,
            30.729305
          ],
          [
            -98.375763,
            30.729446
          ],
          [
            -98.37705,
            30.729683
          ],
          [
            -98.377378,
            30.729798
          ],
          [
            -98.377827,
            30.730011
          ],
          [
            -98.378158,
            30.730101
          ],
          [
            -98.37832,
            30.730118
          ],
          [
            -98.378533,
            30.730113
          ],
          [
            -98.378756,
            30.730083
          ],
          [
            -98.379428,
            30.729981
          ],
          [
            -98.380908,
            30.729697
          ],
          [
            -98.381245,
            30.729628
          ],
          [
            -98.381402,
            30.729585
          ],
          [
            -98.381628,
            30.729461
          ],
          [
            -98.381803,
            30.729285
          ],
          [
            -98.381855,
            30.729204
          ],
          [
            -98.381899,
            30.729109
          ],
          [
            -98.381935,
            30.729
          ],
          [
            -98.381957,
            30.728859
          ],
          [
            -98.382028,
            30.728412
          ],
          [
            -98.382057,
            30.728241
          ],
          [
            -98.382142,
            30.72799
          ],
          [
            -98.382209,
            30.727843
          ],
          [
            -98.382273,
            30.727711
          ],
          [
            -98.382473,
            30.727316
          ],
          [
            -98.382613,
            30.727001
          ],
          [
            -98.382644,
            30.726905
          ],
          [
            -98.382653,
            30.726825
          ],
          [
            -98.382648,
            30.726703
          ],
          [
            -98.382629,
            30.726602
          ],
          [
            -98.382593,
            30.726507
          ],
          [
            -98.38255,
            30.726414
          ],
          [
            -98.382493,
            30.726328
          ],
          [
            -98.382432,
            30.726258
          ],
          [
            -98.382357,
            30.726184
          ],
          [
            -98.382267,
            30.726115
          ],
          [
            -98.381929,
            30.725941
          ],
          [
            -98.38156,
            30.725788
          ],
          [
            -98.381369,
            30.725691
          ],
          [
            -98.381255,
            30.72561
          ],
          [
            -98.381126,
            30.725485
          ],
          [
            -98.381043,
            30.725375
          ],
          [
            -98.380976,
            30.725268
          ],
          [
            -98.380916,
            30.725147
          ],
          [
            -98.38082,
            30.724852
          ],
          [
            -98.380604,
            30.724209
          ],
          [
            -98.380492,
            30.723937
          ],
          [
            -98.380378,
            30.723678
          ],
          [
            -98.380325,
            30.723558
          ],
          [
            -98.380195,
            30.723186
          ],
          [
            -98.380171,
            30.722994
          ],
          [
            -98.380175,
            30.722873
          ],
          [
            -98.380206,
            30.722719
          ],
          [
            -98.380267,
            30.722554
          ],
          [
            -98.380344,
            30.722413
          ],
          [
            -98.38046,
            30.722259
          ],
          [
            -98.380623,
            30.722113
          ],
          [
            -98.380753,
            30.722026
          ],
          [
            -98.380968,
            30.721927
          ],
          [
            -98.381144,
            30.721872
          ],
          [
            -98.381394,
            30.721814
          ],
          [
            -98.381738,
            30.721739
          ],
          [
            -98.382376,
            30.721599
          ],
          [
            -98.382561,
            30.721558
          ],
          [
            -98.382764,
            30.721492
          ],
          [
            -98.382924,
            30.721414
          ],
          [
            -98.383061,
            30.721339
          ],
          [
            -98.383168,
            30.721244
          ],
          [
            -98.383244,
            30.721155
          ],
          [
            -98.383327,
            30.721033
          ],
          [
            -98.3834,
            30.720764
          ],
          [
            -98.383396,
            30.720626
          ],
          [
            -98.383344,
            30.720396
          ],
          [
            -98.38325,
            30.720214
          ],
          [
            -98.383085,
            30.719987
          ],
          [
            -98.382933,
            30.719845
          ],
          [
            -98.382327,
            30.719248
          ],
          [
            -98.38202,
            30.718931
          ],
          [
            -98.381661,
            30.718571
          ],
          [
            -98.381491,
            30.718373
          ],
          [
            -98.381362,
            30.718193
          ],
          [
            -98.381258,
            30.717989
          ],
          [
            -98.381203,
            30.717881
          ],
          [
            -98.381162,
            30.717735
          ],
          [
            -98.381139,
            30.717575
          ],
          [
            -98.381129,
            30.717421
          ],
          [
            -98.381129,
            30.717377
          ],
          [
            -98.38113,
            30.717177
          ],
          [
            -98.381132,
            30.716645
          ],
          [
            -98.381134,
            30.716306
          ],
          [
            -98.381124,
            30.715849
          ],
          [
            -98.381117,
            30.715511
          ],
          [
            -98.381091,
            30.715018
          ],
          [
            -98.381088,
            30.714955
          ],
          [
            -98.381075,
            30.714722
          ],
          [
            -98.381067,
            30.714596
          ],
          [
            -98.381029,
            30.713994
          ],
          [
            -98.380986,
            30.71335
          ],
          [
            -98.380933,
            30.712793
          ],
          [
            -98.380915,
            30.712358
          ],
          [
            -98.380904,
            30.711891
          ],
          [
            -98.380903,
            30.711443
          ],
          [
            -98.380903,
            30.711172
          ],
          [
            -98.380903,
            30.711058
          ],
          [
            -98.380908,
            30.710706
          ],
          [
            -98.380923,
            30.709665
          ],
          [
            -98.380929,
            30.708143
          ],
          [
            -98.380929,
            30.708014
          ],
          [
            -98.380927,
            30.706786
          ],
          [
            -98.380926,
            30.706397
          ],
          [
            -98.380899,
            30.704866
          ],
          [
            -98.380904,
            30.704129
          ],
          [
            -98.38091,
            30.702814
          ],
          [
            -98.380913,
            30.702003
          ],
          [
            -98.380903,
            30.701019
          ],
          [
            -98.380903,
            30.70084
          ],
          [
            -98.380875,
            30.700687
          ],
          [
            -98.380837,
            30.700564
          ],
          [
            -98.380792,
            30.700436
          ],
          [
            -98.380765,
            30.700361
          ],
          [
            -98.380555,
            30.699885
          ],
          [
            -98.380536,
            30.69982
          ],
          [
            -98.38051,
            30.699658
          ],
          [
            -98.380487,
            30.69946
          ],
          [
            -98.380502,
            30.699191
          ],
          [
            -98.380582,
            30.6989
          ],
          [
            -98.380619,
            30.69853
          ],
          [
            -98.380578,
            30.698229
          ],
          [
            -98.380499,
            30.697893
          ],
          [
            -98.380408,
            30.697608
          ],
          [
            -98.380269,
            30.697364
          ],
          [
            -98.380064,
            30.697102
          ],
          [
            -98.379791,
            30.696873
          ],
          [
            -98.379523,
            30.696703
          ],
          [
            -98.3792,
            30.696564
          ],
          [
            -98.378872,
            30.696463
          ],
          [
            -98.378544,
            30.696414
          ],
          [
            -98.377572,
            30.696245
          ],
          [
            -98.377184,
            30.696195
          ],
          [
            -98.376765,
            30.696186
          ],
          [
            -98.376321,
            30.696231
          ],
          [
            -98.375843,
            30.696298
          ],
          [
            -98.375447,
            30.696402
          ],
          [
            -98.375194,
            30.696492
          ],
          [
            -98.374811,
            30.696714
          ],
          [
            -98.374788,
            30.696728
          ],
          [
            -98.374597,
            30.696813
          ],
          [
            -98.374354,
            30.696878
          ],
          [
            -98.374039,
            30.696914
          ],
          [
            -98.373726,
            30.696937
          ],
          [
            -98.373425,
            30.696933
          ],
          [
            -98.37322,
            30.69691
          ],
          [
            -98.373194,
            30.696907
          ],
          [
            -98.372914,
            30.696837
          ],
          [
            -98.372573,
            30.696702
          ],
          [
            -98.372323,
            30.696569
          ],
          [
            -98.372104,
            30.696503
          ],
          [
            -98.371957,
            30.696459
          ],
          [
            -98.371738,
            30.696406
          ],
          [
            -98.371508,
            30.696378
          ],
          [
            -98.370642,
            30.696315
          ],
          [
            -98.369937,
            30.696283
          ],
          [
            -98.369556,
            30.69626
          ],
          [
            -98.369057,
            30.696253
          ],
          [
            -98.368495,
            30.696261
          ],
          [
            -98.367838,
            30.696306
          ],
          [
            -98.36658,
            30.696413
          ],
          [
            -98.364035,
            30.696607
          ],
          [
            -98.363141,
            30.696645
          ],
          [
            -98.36214,
            30.696672
          ],
          [
            -98.362108,
            30.696673
          ],
          [
            -98.361011,
            30.696713
          ],
          [
            -98.360466,
            30.69672
          ],
          [
            -98.360353,
            30.696722
          ],
          [
            -98.359706,
            30.696712
          ],
          [
            -98.359346,
            30.69669
          ],
          [
            -98.359077,
            30.696655
          ],
          [
            -98.358834,
            30.696611
          ],
          [
            -98.358771,
            30.696601
          ],
          [
            -98.358494,
            30.696531
          ],
          [
            -98.35828,
            30.696462
          ],
          [
            -98.358041,
            30.696373
          ],
          [
            -98.35782,
            30.696268
          ],
          [
            -98.357548,
            30.696112
          ],
          [
            -98.357322,
            30.695969
          ],
          [
            -98.357102,
            30.695803
          ],
          [
            -98.356832,
            30.695565
          ],
          [
            -98.356671,
            30.695392
          ],
          [
            -98.356575,
            30.695281
          ],
          [
            -98.356462,
            30.695141
          ],
          [
            -98.356261,
            30.694857
          ],
          [
            -98.356169,
            30.694727
          ],
          [
            -98.355996,
            30.694438
          ],
          [
            -98.355424,
            30.693402
          ],
          [
            -98.355182,
            30.692923
          ],
          [
            -98.354658,
            30.691712
          ],
          [
            -98.354158,
            30.690634
          ],
          [
            -98.353628,
            30.689688
          ],
          [
            -98.353286,
            30.68913
          ],
          [
            -98.352717,
            30.688353
          ],
          [
            -98.351542,
            30.686835
          ],
          [
            -98.351327,
            30.686521
          ],
          [
            -98.351179,
            30.686231
          ],
          [
            -98.351077,
            30.685993
          ],
          [
            -98.350995,
            30.685798
          ],
          [
            -98.350861,
            30.685603
          ],
          [
            -98.350721,
            30.685491
          ],
          [
            -98.35057,
            30.685392
          ],
          [
            -98.350406,
            30.685294
          ],
          [
            -98.349577,
            30.684755
          ],
          [
            -98.349376,
            30.684629
          ],
          [
            -98.34923,
            30.684541
          ],
          [
            -98.349092,
            30.684462
          ],
          [
            -98.348942,
            30.684399
          ],
          [
            -98.348762,
            30.684337
          ],
          [
            -98.348597,
            30.684298
          ],
          [
            -98.348109,
            30.684199
          ],
          [
            -98.347707,
            30.6841
          ],
          [
            -98.347548,
            30.684061
          ],
          [
            -98.347022,
            30.68385
          ],
          [
            -98.346427,
            30.683584
          ],
          [
            -98.346048,
            30.683481
          ],
          [
            -98.345754,
            30.683426
          ],
          [
            -98.345505,
            30.683396
          ],
          [
            -98.345329,
            30.683384
          ],
          [
            -98.345104,
            30.683389
          ],
          [
            -98.344879,
            30.6834
          ],
          [
            -98.3426,
            30.683604
          ],
          [
            -98.341988,
            30.683659
          ],
          [
            -98.341755,
            30.683683
          ],
          [
            -98.341537,
            30.683718
          ],
          [
            -98.341322,
            30.683763
          ],
          [
            -98.341059,
            30.683859
          ],
          [
            -98.340867,
            30.683954
          ],
          [
            -98.34063,
            30.684105
          ],
          [
            -98.34046,
            30.684258
          ],
          [
            -98.340134,
            30.684587
          ],
          [
            -98.340002,
            30.684693
          ],
          [
            -98.339904,
            30.684752
          ],
          [
            -98.339787,
            30.684827
          ],
          [
            -98.339573,
            30.684913
          ],
          [
            -98.339381,
            30.684961
          ],
          [
            -98.339223,
            30.684982
          ],
          [
            -98.339044,
            30.684993
          ],
          [
            -98.33886,
            30.684981
          ],
          [
            -98.338663,
            30.684947
          ],
          [
            -98.338461,
            30.684891
          ],
          [
            -98.338077,
            30.684719
          ],
          [
            -98.337579,
            30.684485
          ],
          [
            -98.33741,
            30.684414
          ],
          [
            -98.337238,
            30.684366
          ],
          [
            -98.336924,
            30.684309
          ],
          [
            -98.336754,
            30.684289
          ],
          [
            -98.336401,
            30.684259
          ],
          [
            -98.335386,
            30.684191
          ],
          [
            -98.335131,
            30.68416
          ],
          [
            -98.334872,
            30.684116
          ],
          [
            -98.334718,
            30.684083
          ],
          [
            -98.334646,
            30.684063
          ],
          [
            -98.333834,
            30.68383
          ],
          [
            -98.332994,
            30.683591
          ],
          [
            -98.332326,
            30.683394
          ],
          [
            -98.331472,
            30.683181
          ],
          [
            -98.331318,
            30.683142
          ],
          [
            -98.330526,
            30.682965
          ],
          [
            -98.330334,
            30.682937
          ],
          [
            -98.330172,
            30.68289
          ],
          [
            -98.329957,
            30.682838
          ],
          [
            -98.329796,
            30.682777
          ],
          [
            -98.329392,
            30.682563
          ],
          [
            -98.329196,
            30.68246
          ],
          [
            -98.328808,
            30.682231
          ],
          [
            -98.328703,
            30.682169
          ],
          [
            -98.328534,
            30.682056
          ],
          [
            -98.328257,
            30.681912
          ],
          [
            -98.328099,
            30.681833
          ],
          [
            -98.327926,
            30.681747
          ],
          [
            -98.327744,
            30.681664
          ],
          [
            -98.327489,
            30.681548
          ],
          [
            -98.32708,
            30.681396
          ],
          [
            -98.326489,
            30.681186
          ],
          [
            -98.326165,
            30.681071
          ],
          [
            -98.325401,
            30.680803
          ],
          [
            -98.325237,
            30.680746
          ],
          [
            -98.325149,
            30.680715
          ],
          [
            -98.325111,
            30.680702
          ],
          [
            -98.324673,
            30.680555
          ],
          [
            -98.323988,
            30.680338
          ],
          [
            -98.323823,
            30.680296
          ],
          [
            -98.323488,
            30.680212
          ],
          [
            -98.322915,
            30.680085
          ],
          [
            -98.32252,
            30.679997
          ],
          [
            -98.322071,
            30.679898
          ],
          [
            -98.321807,
            30.679839
          ],
          [
            -98.320518,
            30.679646
          ],
          [
            -98.320484,
            30.679642
          ],
          [
            -98.320219,
            30.679609
          ],
          [
            -98.319987,
            30.67958
          ],
          [
            -98.319703,
            30.679562
          ],
          [
            -98.319504,
            30.679552
          ],
          [
            -98.31904,
            30.679529
          ],
          [
            -98.318445,
            30.679517
          ],
          [
            -98.317823,
            30.679513
          ],
          [
            -98.317782,
            30.679514
          ],
          [
            -98.316802,
            30.67953
          ],
          [
            -98.316669,
            30.679528
          ],
          [
            -98.316429,
            30.67956
          ],
          [
            -98.316148,
            30.679613
          ],
          [
            -98.315912,
            30.679678
          ],
          [
            -98.315664,
            30.67976
          ],
          [
            -98.315541,
            30.679813
          ],
          [
            -98.315339,
            30.6799
          ],
          [
            -98.31508,
            30.680031
          ],
          [
            -98.314728,
            30.68024
          ],
          [
            -98.314626,
            30.68031
          ],
          [
            -98.314288,
            30.680604
          ],
          [
            -98.313384,
            30.681434
          ],
          [
            -98.313265,
            30.681529
          ],
          [
            -98.313115,
            30.681606
          ],
          [
            -98.313013,
            30.681646
          ],
          [
            -98.312961,
            30.681667
          ],
          [
            -98.312796,
            30.681714
          ],
          [
            -98.312649,
            30.681741
          ],
          [
            -98.312567,
            30.681752
          ],
          [
            -98.31239,
            30.681749
          ],
          [
            -98.311746,
            30.681742
          ],
          [
            -98.311452,
            30.681767
          ],
          [
            -98.311371,
            30.681778
          ],
          [
            -98.311185,
            30.681804
          ],
          [
            -98.30622,
            30.682762
          ],
          [
            -98.304105,
            30.683162
          ],
          [
            -98.296899,
            30.684551
          ],
          [
            -98.29122,
            30.685646
          ],
          [
            -98.283954,
            30.687111
          ],
          [
            -98.283417,
            30.687224
          ],
          [
            -98.281751,
            30.687515
          ],
          [
            -98.280937,
            30.687657
          ],
          [
            -98.280045,
            30.687813
          ],
          [
            -98.278422,
            30.688096
          ],
          [
            -98.277337,
            30.688285
          ],
          [
            -98.27621,
            30.688453
          ],
          [
            -98.27502,
            30.688627
          ],
          [
            -98.274326,
            30.688729
          ],
          [
            -98.27287,
            30.688943
          ],
          [
            -98.272782,
            30.688956
          ],
          [
            -98.272259,
            30.689033
          ],
          [
            -98.270282,
            30.68932
          ],
          [
            -98.268778,
            30.689604
          ],
          [
            -98.266801,
            30.689979
          ],
          [
            -98.265372,
            30.690251
          ],
          [
            -98.263223,
            30.690659
          ],
          [
            -98.261537,
            30.690979
          ],
          [
            -98.261245,
            30.691035
          ],
          [
            -98.261089,
            30.691064
          ],
          [
            -98.260503,
            30.691173
          ],
          [
            -98.260018,
            30.691264
          ],
          [
            -98.259881,
            30.691287
          ],
          [
            -98.258364,
            30.691538
          ],
          [
            -98.258291,
            30.69155
          ],
          [
            -98.257955,
            30.691605
          ],
          [
            -98.257594,
            30.691665
          ],
          [
            -98.257347,
            30.691694
          ],
          [
            -98.257158,
            30.69171
          ],
          [
            -98.256973,
            30.691716
          ],
          [
            -98.256737,
            30.691701
          ],
          [
            -98.256455,
            30.691674
          ],
          [
            -98.256006,
            30.69159
          ],
          [
            -98.255978,
            30.691584
          ],
          [
            -98.255018,
            30.69142
          ],
          [
            -98.255062,
            30.691155
          ],
          [
            -98.255118,
            30.690773
          ],
          [
            -98.255214,
            30.689799
          ],
          [
            -98.255238,
            30.688747
          ],
          [
            -98.254984,
            30.684256
          ],
          [
            -98.254949,
            30.683677
          ],
          [
            -98.25476,
            30.680212
          ],
          [
            -98.254785,
            30.679315
          ],
          [
            -98.254892,
            30.677686
          ],
          [
            -98.255229,
            30.673132
          ],
          [
            -98.255339,
            30.671488
          ],
          [
            -98.255859,
            30.664362
          ],
          [
            -98.256138,
            30.660503
          ],
          [
            -98.256277,
            30.658633
          ],
          [
            -98.256281,
            30.658578
          ],
          [
            -98.256451,
            30.656014
          ],
          [
            -98.256484,
            30.655547
          ],
          [
            -98.256594,
            30.654076
          ],
          [
            -98.256645,
            30.653418
          ],
          [
            -98.256705,
            30.652596
          ],
          [
            -98.256791,
            30.651883
          ],
          [
            -98.256907,
            30.651182
          ],
          [
            -98.256981,
            30.650895
          ],
          [
            -98.25719,
            30.650056
          ],
          [
            -98.257284,
            30.649738
          ],
          [
            -98.258705,
            30.645519
          ],
          [
            -98.259262,
            30.643939
          ],
          [
            -98.260192,
            30.641271
          ],
          [
            -98.260366,
            30.640805
          ],
          [
            -98.26075,
            30.639627
          ],
          [
            -98.261231,
            30.638218
          ],
          [
            -98.261243,
            30.638181
          ],
          [
            -98.261568,
            30.637242
          ],
          [
            -98.261589,
            30.637184
          ],
          [
            -98.261682,
            30.63689
          ],
          [
            -98.261702,
            30.63683
          ],
          [
            -98.261765,
            30.636646
          ],
          [
            -98.261789,
            30.636576
          ],
          [
            -98.261799,
            30.636544
          ],
          [
            -98.261896,
            30.636278
          ],
          [
            -98.262013,
            30.635908
          ],
          [
            -98.262095,
            30.635646
          ],
          [
            -98.262313,
            30.634988
          ],
          [
            -98.262461,
            30.634358
          ],
          [
            -98.262586,
            30.63381
          ],
          [
            -98.262795,
            30.632592
          ],
          [
            -98.262842,
            30.632255
          ],
          [
            -98.26293,
            30.631614
          ],
          [
            -98.263129,
            30.629934
          ],
          [
            -98.263263,
            30.628758
          ],
          [
            -98.263335,
            30.628251
          ],
          [
            -98.263458,
            30.627572
          ],
          [
            -98.263587,
            30.626999
          ],
          [
            -98.26382,
            30.626164
          ],
          [
            -98.264717,
            30.623499
          ],
          [
            -98.265812,
            30.620395
          ],
          [
            -98.265883,
            30.62019
          ],
          [
            -98.266144,
            30.619425
          ],
          [
            -98.266313,
            30.618965
          ],
          [
            -98.266484,
            30.618463
          ],
          [
            -98.26665,
            30.617983
          ],
          [
            -98.266795,
            30.617555
          ],
          [
            -98.266847,
            30.617392
          ],
          [
            -98.267127,
            30.616516
          ],
          [
            -98.267371,
            30.615444
          ],
          [
            -98.267452,
            30.614983
          ],
          [
            -98.267471,
            30.614877
          ],
          [
            -98.267593,
            30.613929
          ],
          [
            -98.267647,
            30.61318
          ],
          [
            -98.267662,
            30.612897
          ],
          [
            -98.267668,
            30.612443
          ],
          [
            -98.26766,
            30.611786
          ],
          [
            -98.267564,
            30.610464
          ],
          [
            -98.267434,
            30.60939
          ],
          [
            -98.267385,
            30.608995
          ],
          [
            -98.2673,
            30.608302
          ],
          [
            -98.267268,
            30.608042
          ],
          [
            -98.267231,
            30.607743
          ],
          [
            -98.267213,
            30.607597
          ],
          [
            -98.267206,
            30.607541
          ],
          [
            -98.267152,
            30.607001
          ],
          [
            -98.2671,
            30.606491
          ],
          [
            -98.267085,
            30.606348
          ],
          [
            -98.267054,
            30.605802
          ],
          [
            -98.26709,
            30.605171
          ],
          [
            -98.267111,
            30.604987
          ],
          [
            -98.267148,
            30.604658
          ],
          [
            -98.267184,
            30.604463
          ],
          [
            -98.267283,
            30.604034
          ],
          [
            -98.267469,
            30.603429
          ],
          [
            -98.267557,
            30.603207
          ],
          [
            -98.267934,
            30.602362
          ],
          [
            -98.268245,
            30.601698
          ],
          [
            -98.268579,
            30.600971
          ],
          [
            -98.268592,
            30.600943
          ],
          [
            -98.268974,
            30.600161
          ],
          [
            -98.269176,
            30.599722
          ],
          [
            -98.26925,
            30.599581
          ],
          [
            -98.269374,
            30.599337
          ],
          [
            -98.269573,
            30.598922
          ],
          [
            -98.27018,
            30.597658
          ],
          [
            -98.270216,
            30.597584
          ],
          [
            -98.270238,
            30.597538
          ],
          [
            -98.27035,
            30.597308
          ],
          [
            -98.270457,
            30.597089
          ],
          [
            -98.270606,
            30.596784
          ],
          [
            -98.270631,
            30.596733
          ],
          [
            -98.270656,
            30.596684
          ],
          [
            -98.270751,
            30.596488
          ],
          [
            -98.270921,
            30.59613
          ],
          [
            -98.271018,
            30.595924
          ],
          [
            -98.271174,
            30.595599
          ],
          [
            -98.271208,
            30.59553
          ],
          [
            -98.271257,
            30.595427
          ],
          [
            -98.271447,
            30.595025
          ],
          [
            -98.27148,
            30.594955
          ],
          [
            -98.271513,
            30.594886
          ],
          [
            -98.271577,
            30.594753
          ],
          [
            -98.271777,
            30.594323
          ],
          [
            -98.271976,
            30.593935
          ],
          [
            -98.272012,
            30.593864
          ],
          [
            -98.272192,
            30.593488
          ],
          [
            -98.272292,
            30.593287
          ],
          [
            -98.272315,
            30.593241
          ],
          [
            -98.272612,
            30.592607
          ],
          [
            -98.272749,
            30.592306
          ],
          [
            -98.27287,
            30.591983
          ],
          [
            -98.272917,
            30.591855
          ],
          [
            -98.27305,
            30.591449
          ],
          [
            -98.273121,
            30.591189
          ],
          [
            -98.273167,
            30.591015
          ],
          [
            -98.273216,
            30.590828
          ],
          [
            -98.273277,
            30.590577
          ],
          [
            -98.273349,
            30.590156
          ],
          [
            -98.273367,
            30.59005
          ],
          [
            -98.273378,
            30.589961
          ],
          [
            -98.27342,
            30.589605
          ],
          [
            -98.273432,
            30.589504
          ],
          [
            -98.27344,
            30.589341
          ],
          [
            -98.273452,
            30.589075
          ],
          [
            -98.273448,
            30.588943
          ],
          [
            -98.27344,
            30.588744
          ],
          [
            -98.273435,
            30.588551
          ],
          [
            -98.273427,
            30.588096
          ],
          [
            -98.27342,
            30.587967
          ],
          [
            -98.273409,
            30.587703
          ],
          [
            -98.273368,
            30.586922
          ],
          [
            -98.27333,
            30.586215
          ],
          [
            -98.273309,
            30.585776
          ],
          [
            -98.273304,
            30.585721
          ],
          [
            -98.273286,
            30.585365
          ],
          [
            -98.273247,
            30.584461
          ],
          [
            -98.273211,
            30.583745
          ],
          [
            -98.273181,
            30.583227
          ],
          [
            -98.273176,
            30.583116
          ],
          [
            -98.27317,
            30.583011
          ],
          [
            -98.273157,
            30.582743
          ],
          [
            -98.273141,
            30.582417
          ],
          [
            -98.273138,
            30.582328
          ],
          [
            -98.273113,
            30.581846
          ],
          [
            -98.273087,
            30.581388
          ],
          [
            -98.273075,
            30.581175
          ],
          [
            -98.273071,
            30.581113
          ],
          [
            -98.273061,
            30.580865
          ],
          [
            -98.273059,
            30.580816
          ],
          [
            -98.273053,
            30.580712
          ],
          [
            -98.273049,
            30.580618
          ],
          [
            -98.273044,
            30.580268
          ],
          [
            -98.273017,
            30.580039
          ],
          [
            -98.273002,
            30.579601
          ],
          [
            -98.27297,
            30.579005
          ],
          [
            -98.272955,
            30.578757
          ],
          [
            -98.272941,
            30.578336
          ],
          [
            -98.272936,
            30.578047
          ],
          [
            -98.272939,
            30.577795
          ],
          [
            -98.272945,
            30.577714
          ],
          [
            -98.272966,
            30.577504
          ],
          [
            -98.273015,
            30.577134
          ],
          [
            -98.273058,
            30.576911
          ],
          [
            -98.27314,
            30.576572
          ],
          [
            -98.273301,
            30.576095
          ],
          [
            -98.273513,
            30.575629
          ],
          [
            -98.273639,
            30.575397
          ],
          [
            -98.273814,
            30.575094
          ],
          [
            -98.274038,
            30.574758
          ],
          [
            -98.274222,
            30.574473
          ],
          [
            -98.27442,
            30.574185
          ],
          [
            -98.2746,
            30.573899
          ],
          [
            -98.274695,
            30.573749
          ],
          [
            -98.27479,
            30.573609
          ],
          [
            -98.27502,
            30.573259
          ],
          [
            -98.275358,
            30.572762
          ],
          [
            -98.275377,
            30.572726
          ],
          [
            -98.275613,
            30.572359
          ],
          [
            -98.275938,
            30.571833
          ],
          [
            -98.275974,
            30.571758
          ],
          [
            -98.276136,
            30.571374
          ],
          [
            -98.276182,
            30.571205
          ],
          [
            -98.276224,
            30.571034
          ],
          [
            -98.276271,
            30.570786
          ],
          [
            -98.276294,
            30.570614
          ],
          [
            -98.276298,
            30.570491
          ],
          [
            -98.276291,
            30.570264
          ],
          [
            -98.276267,
            30.569994
          ],
          [
            -98.276199,
            30.569756
          ],
          [
            -98.276165,
            30.569503
          ],
          [
            -98.27605,
            30.569195
          ],
          [
            -98.275957,
            30.568936
          ],
          [
            -98.27572,
            30.568289
          ],
          [
            -98.274769,
            30.565732
          ],
          [
            -98.274648,
            30.565404
          ],
          [
            -98.274601,
            30.565277
          ],
          [
            -98.274584,
            30.565183
          ],
          [
            -98.274566,
            30.565043
          ],
          [
            -98.27456,
            30.564832
          ],
          [
            -98.274556,
            30.564754
          ],
          [
            -98.274557,
            30.564579
          ],
          [
            -98.27457,
            30.564481
          ],
          [
            -98.274595,
            30.564323
          ],
          [
            -98.27458,
            30.564092
          ],
          [
            -98.274658,
            30.563863
          ],
          [
            -98.274725,
            30.563734
          ],
          [
            -98.274805,
            30.563578
          ],
          [
            -98.274958,
            30.563339
          ],
          [
            -98.275148,
            30.563055
          ],
          [
            -98.275198,
            30.562982
          ],
          [
            -98.275477,
            30.562619
          ],
          [
            -98.275815,
            30.562096
          ],
          [
            -98.275974,
            30.561765
          ],
          [
            -98.276081,
            30.561369
          ],
          [
            -98.276132,
            30.561089
          ],
          [
            -98.276155,
            30.560863
          ],
          [
            -98.276147,
            30.560595
          ],
          [
            -98.276096,
            30.56022
          ],
          [
            -98.275957,
            30.559758
          ],
          [
            -98.275697,
            30.559245
          ],
          [
            -98.275562,
            30.559063
          ],
          [
            -98.275385,
            30.558821
          ],
          [
            -98.274593,
            30.557834
          ],
          [
            -98.274438,
            30.557592
          ],
          [
            -98.274183,
            30.557101
          ],
          [
            -98.274111,
            30.55694
          ],
          [
            -98.273967,
            30.556511
          ],
          [
            -98.273914,
            30.556265
          ],
          [
            -98.27385,
            30.555899
          ],
          [
            -98.273828,
            30.555456
          ],
          [
            -98.273845,
            30.555199
          ],
          [
            -98.273871,
            30.554919
          ],
          [
            -98.273933,
            30.554605
          ],
          [
            -98.27402,
            30.554279
          ],
          [
            -98.274121,
            30.55399
          ],
          [
            -98.274549,
            30.55294
          ],
          [
            -98.274627,
            30.552758
          ],
          [
            -98.2747,
            30.552587
          ],
          [
            -98.274888,
            30.552156
          ],
          [
            -98.275622,
            30.550394
          ],
          [
            -98.275848,
            30.549785
          ],
          [
            -98.276062,
            30.549164
          ],
          [
            -98.276212,
            30.548657
          ],
          [
            -98.276308,
            30.548325
          ],
          [
            -98.27643,
            30.547833
          ],
          [
            -98.276512,
            30.547493
          ],
          [
            -98.276593,
            30.547162
          ],
          [
            -98.27671,
            30.546628
          ],
          [
            -98.276814,
            30.546127
          ],
          [
            -98.276947,
            30.545573
          ],
          [
            -98.276997,
            30.545337
          ],
          [
            -98.277169,
            30.544591
          ],
          [
            -98.277862,
            30.541793
          ]
        ]
      }
    }
  ]
}