{
  "type": "FeatureCollection",
  "features": [
    {
      "type": "Feature",
      "properties": {
        "route": "Kingsland & Lake LBJ Loop",
        "category": "Lakes & Rivers",
        "color": "#2980b9",
        "waypoints": [
          "Marble Falls",
          "Kingsland",
          "Packsaddle Mtn"
        ],
        "via": "US 281 -> Park Road 4 -> RM 2900 -> RM 2233 -> US 71 -> RM 2147",
        "distance_mi": 47.5,
        "source": "road-snapped"
      },
      "geometry": {
        "type": "LineString",
        "coordinates": [
          [
            -98.277862,
            30.541793
          ],
          [
            -98.277169,
            30.544591
          ],
          [
            -98.276997,
            30.545337
          ],
          [
            -98.276947,
            30.545573
          ],
          [
            -98.276814,
            30.546127
          ],
          [
            -98.27671,
            30.546628
          ],
          [
            -98.276593,
            30.547162
          ],
          [
            -98.276512,
            30.547493
          ],
          [
            -98.27643,
            30.547833
          ],
          [
            -98.276308,
            30.548325
          ],
          [
            -98.276212,
            30.548657
          ],
          [
            -98.276062,
            30.549164
          ],
          [
            -98.275848,
            30.549785
          ],
          [
            -98.275622,
            30.550394
          ],
          [
            -98.274888,
            30.552156
          ],
          [
            -98.2747,
            30.552587
          ],
          [
            -98.274627,
            30.552758
          ],
          [
            -98.274549,
            30.55294
          ],
          [
            -98.274121,
            30.55399
          ],
          [
            -98.27402,
            30.554279
          ],
          [
            -98.273933,
            30.554605
          ],
          [
            -98.273871,
            30.554919
          ],
          [
            -98.273845,
            30.555199
          ],
          [
            -98.273828,
            30.555456
          ],
          [
            -98.27385,
            30.555899
          ],
          [
            -98.273914,
            30.556265
          ],
          [
            -98.273967,
            30.556511
          ],
          [
            -98.274111,
            30.55694
          ],
          [
            -98.274183,
            30.557101
          ],
          [
            -98.274438,
            30.557592
          ],
          [
            -98.274593,
            30.557834
          ],
          [
            -98.275385,
            30.558821
          ],
          [
            -98.275562,
            30.559063
          ],
          [
            -98.275697,
            30.559245
          ],
          [
            -98.275957,
            30.559758
          ],
          [
            -98.276096,
            30.56022
          ],
          [
            -98.276147,
            30.560595
          ],
          [
            -98.276155,
            30.560863
          ],
          [
            -98.276132,
            30.561089
          ],
          [
            -98.276081,
            30.561369
          ],
          [
            -98.275974,
            30.561765
          ],
          [
            -98.275815,
            30.562096
          ],
          [
            -98.275477,
            30.562619
          ],
          [
            -98.275198,
            30.562982
          ],
          [
            -98.275148,
            30.563055
          ],
          [
            -98.274958,
            30.563339
          ],
          [
            -98.274805,
            30.563578
          ],
          [
            -98.274725,
            30.563734
          ],
          [
            -98.274658,
            30.563863
          ],
          [
            -98.27458,
            30.564092
          ],
          [
            -98.274462,
            30.564283
          ],
          [
            -98.274414,
            30.564538
          ],
          [
            -98.274414,
            30.56488
          ],
          [
            -98.274428,
            30.565067
          ],
          [
            -98.274459,
            30.565261
          ],
          [
            -98.274511,
            30.56549
          ],
          [
            -98.274605,
            30.565785
          ],
          [
            -98.275569,
            30.568332
          ],
          [
            -98.275759,
            30.568798
          ],
          [
            -98.275878,
            30.569124
          ],
          [
            -98.27592,
            30.569226
          ],
          [
            -98.276004,
            30.569467
          ],
          [
            -98.276051,
            30.569568
          ],
          [
            -98.276199,
            30.569756
          ],
          [
            -98.276267,
            30.569994
          ],
          [
            -98.276291,
            30.570264
          ],
          [
            -98.276298,
            30.570491
          ],
          [
            -98.276294,
            30.570614
          ],
          [
            -98.276271,
            30.570786
          ],
          [
            -98.276224,
            30.571034
          ],
          [
            -98.276182,
            30.571205
          ],
          [
            -98.276136,
            30.571374
          ],
          [
            -98.275974,
            30.571758
          ],
          [
            -98.275938,
            30.571833
          ],
          [
            -98.275613,
            30.572359
          ],
          [
            -98.275377,
            30.572726
          ],
          [
            -98.275358,
            30.572762
          ],
          [
            -98.27502,
            30.573259
          ],
          [
            -98.27479,
            30.573609
          ],
          [
            -98.274695,
            30.573749
          ],
          [
            -98.2746,
            30.573899
          ],
          [
            -98.27442,
            30.574185
          ],
          [
            -98.274222,
            30.574473
          ],
          [
            -98.274038,
            30.574758
          ],
          [
            -98.273814,
            30.575094
          ],
          [
            -98.273639,
            30.575397
          ],
          [
            -98.273513,
            30.575629
          ],
          [
            -98.273301,
            30.576095
          ],
          [
            -98.27314,
            30.576572
          ],
          [
            -98.273058,
            30.576911
          ],
          [
            -98.273015,
            30.577134
          ],
          [
            -98.272966,
            30.577504
          ],
          [
            -98.272945,
            30.577714
          ],
          [
            -98.272939,
            30.577795
          ],
          [
            -98.272936,
            30.578047
          ],
          [
            -98.272941,
            30.578336
          ],
          [
            -98.272955,
            30.578757
          ],
          [
            -98.27297,
            30.579005
          ],
          [
            -98.273002,
            30.579601
          ],
          [
            -98.273017,
            30.580039
          ],
          [
            -98.273044,
            30.580268
          ],
          [
            -98.273049,
            30.580618
          ],
          [
            -98.273053,
            30.580712
          ],
          [
            -98.273059,
            30.580816
          ],
          [
            -98.273061,
            30.580865
          ],
          [
            -98.273071,
            30.581113
          ],
          [
            -98.273075,
            30.581175
          ],
          [
            -98.273087,
            30.581388
          ],
          [
            -98.273113,
            30.581846
          ],
          [
            -98.273138,
            30.582328
          ],
          [
            -98.273141,
            30.582417
          ],
          [
            -98.273157,
            30.582743
          ],
          [
            -98.27317,
            30.583011
          ],
          [
            -98.273176,
            30.583116
          ],
          [
            -98.273181,
            30.583227
          ],
          [
            -98.273211,
            30.583745
          ],
          [
            -98.273247,
            30.584461
          ],
          [
            -98.273286,
            30.585365
          ],
          [
            -98.273304,
            30.585721
          ],
          [
            -98.273309,
            30.585776
          ],
          [
            -98.27333,
            30.586215
          ],
          [
            -98.273368,
            30.586922
          ],
          [
            -98.273409,
            30.587703
          ],
          [
            -98.27342,
            30.587967
          ],
          [
            -98.273427,
            30.588096
          ],
          [
            -98.273435,
            30.588551
          ],
          [
            -98.27344,
            30.588744
          ],
          [
            -98.273448,
            30.588943
          ],
          [
            -98.273452,
            30.589075
          ],
          [
            -98.27344,
            30.589341
          ],
          [
            -98.273432,
            30.589504
          ],
          [
            -98.27342,
            30.589605
          ],
          [
            -98.273378,
            30.589961
          ],
          [
            -98.273367,
            30.59005
          ],
          [
            -98.273349,
            30.590156
          ],
          [
            -98.273277,
            30.590577
          ],
          [
            -98.273216,
            30.590828
          ],
          [
            -98.273167,
            30.591015
          ],
          [
            -98.273121,
            30.591189
          ],
          [
            -98.27305,
            30.591449
          ],
          [
            -98.272917,
            30.591855
          ],
          [
            -98.27287,
            30.591983
          ],
          [
            -98.272749,
            30.592306
          ],
          [
            -98.272612,
            30.592607
          ],
          [
            -98.272315,
            30.593241
          ],
          [
            -98.272292,
            30.593287
          ],
          [
            -98.272192,
            30.593488
          ],
          [
            -98.272012,
            30.593864
          ],
          [
            -98.271976,
            30.593935
          ],
          [
            -98.271777,
            30.594323
          ],
          [
            -98.271577,
            30.594753
          ],
          [
            -98.271513,
            30.594886
          ],
          [
            -98.27148,
            30.594955
          ],
          [
            -98.271447,
            30.595025
          ],
          [
            -98.271257,
            30.595427
          ],
          [
            -98.271208,
            30.59553
          ],
          [
            -98.271174,
            30.595599
          ],
          [
            -98.271018,
            30.595924
          ],
          [
            -98.270921,
            30.59613
          ],
          [
            -98.270751,
            30.596488
          ],
          [
            -98.270656,
            30.596684
          ],
          [
            -98.270631,
            30.596733
          ],
          [
            -98.270606,
            30.596784
          ],
          [
            -98.270457,
            30.597089
          ],
          [
            -98.27035,
            30.597308
          ],
          [
            -98.270238,
            30.597538
          ],
          [
            -98.270216,
            30.597584
          ],
          [
            -98.27018,
            30.597658
          ],
          [
            -98.269573,
            30.598922
          ],
          [
            -98.269374,
            30.599337
          ],
          [
            -98.26925,
            30.599581
          ],
          [
            -98.269176,
            30.599722
          ],
          [
            -98.268974,
            30.600161
          ],
          [
            -98.268592,
            30.600943
          ],
          [
            -98.268579,
            30.600971
          ],
          [
            -98.268245,
            30.601698
          ],
          [
            -98.267934,
            30.602362
          ],
          [
            -98.267557,
            30.603207
          ],
          [
            -98.267469,
            30.603429
          ],
          [
            -98.267283,
            30.604034
          ],
          [
            -98.267184,
            30.604463
          ],
          [
            -98.267148,
            30.604658
          ],
          [
            -98.267111,
            30.604987
          ],
          [
            -98.26709,
            30.605171
          ],
          [
            -98.267054,
            30.605802
          ],
          [
            -98.267085,
            30.606348
          ],
          [
            -98.2671,
            30.606491
          ],
          [
            -98.267152,
            30.607001
          ],
          [
            -98.267206,
            30.607541
          ],
          [
            -98.267213,
            30.607597
          ],
          [
            -98.267231,
            30.607743
          ],
          [
            -98.267268,
            30.608042
          ],
          [
            -98.2673,
            30.608302
          ],
          [
            -98.267385,
            30.608995
          ],
          [
            -98.267434,
            30.60939
          ],
          [
            -98.267564,
            30.610464
          ],
          [
            -98.26766,
            30.611786
          ],
          [
            -98.267668,
            30.612443
          ],
          [
            -98.267662,
            30.612897
          ],
          [
            -98.267647,
            30.61318
          ],
          [
            -98.267593,
            30.613929
          ],
          [
            -98.267471,
            30.614877
          ],
          [
            -98.267452,
            30.614983
          ],
          [
            -98.267371,
            30.615444
          ],
          [
            -98.267127,
            30.616516
          ],
          [
            -98.266847,
            30.617392
          ],
          [
            -98.266795,
            30.617555
          ],
          [
            -98.26665,
            30.617983
          ],
          [
            -98.266484,
            30.618463
          ],
          [
            -98.266313,
            30.618965
          ],
          [
            -98.266144,
            30.619425
          ],
          [
            -98.265883,
            30.62019
          ],
          [
            -98.265812,
            30.620395
          ],
          [
            -98.264717,
            30.623499
          ],
          [
            -98.26382,
            30.626164
          ],
          [
            -98.263587,
            30.626999
          ],
          [
            -98.263458,
            30.627572
          ],
          [
            -98.263335,
            30.628251
          ],
          [
            -98.263263,
            30.628758
          ],
          [
            -98.263129,
            30.629934
          ],
          [
            -98.26293,
            30.631614
          ],
          [
            -98.262842,
            30.632255
          ],
          [
            -98.262795,
            30.632592
          ],
          [
            -98.262586,
            30.63381
          ],
          [
            -98.262461,
            30.634358
          ],
          [
            -98.262313,
            30.634988
          ],
          [
            -98.262095,
            30.635646
          ],
          [
            -98.262013,
            30.635908
          ],
          [
            -98.261896,
            30.636278
          ],
          [
            -98.261799,
            30.636544
          ],
          [
            -98.261789,
            30.636576
          ],
          [
            -98.261765,
            30.636646
          ],
          [
            -98.261702,
            30.63683
          ],
          [
            -98.261682,
            30.63689
          ],
          [
            -98.261589,
            30.637184
          ],
          [
            -98.261568,
            30.637242
          ],
          [
            -98.261243,
            30.638181
          ],
          [
            -98.261231,
            30.638218
          ],
          [
            -98.26075,
            30.639627
          ],
          [
            -98.260366,
            30.640805
          ],
          [
            -98.260192,
            30.641271
          ],
          [
            -98.259262,
            30.643939
          ],
          [
            -98.258705,
            30.645519
          ],
          [
            -98.257284,
            30.649738
          ],
          [
            -98.25719,
            30.650056
          ],
          [
            -98.256981,
            30.650895
          ],
          [
            -98.256907,
            30.651182
          ],
          [
            -98.256791,
            30.651883
          ],
          [
            -98.256705,
            30.652596
          ],
          [
            -98.256645,
            30.653418
          ],
          [
            -98.256594,
            30.654076
          ],
          [
            -98.256484,
            30.655547
          ],
          [
            -98.256451,
            30.656014
          ],
          [
            -98.256281,
            30.658578
          ],
          [
            -98.256277,
            30.658633
          ],
          [
            -98.256138,
            30.660503
          ],
          [
            -98.255859,
            30.664362
          ],
          [
            -98.255339,
            30.671488
          ],
          [
            -98.255229,
            30.673132
          ],
          [
            -98.254892,
            30.677686
          ],
          [
            -98.254785,
            30.679315
          ],
          [
            -98.25476,
            30.680212
          ],
          [
            -98.254949,
            30.683677
          ],
          [
            -98.254984,
            30.684256
          ],
          [
            -98.255238,
            30.688747
          ],
          [
            -98.255214,
            30.689799
          ],
          [
            -98.255118,
            30.690773
          ],
          [
            -98.255062,
            30.691155
          ],
          [
            -98.255018,
            30.69142
          ],
          [
            -98.255978,
            30.691584
          ],
          [
            -98.256006,
            30.69159
          ],
          [
            -98.256455,
            30.691674
          ],
          [
            -98.256737,
            30.691701
          ],
          [
            -98.256973,
            30.691716
          ],
          [
            -98.257158,
            30.69171
          ],
          [
            -98.257347,
            30.691694
          ],
          [
            -98.257594,
            30.691665
          ],
          [
            -98.257955,
            30.691605
          ],
          [
            -98.258291,
            30.69155
          ],
          [
            -98.258364,
            30.691538
          ],
          [
            -98.259881,
            30.691287
          ],
          [
            -98.260018,
            30.691264
          ],
          [
            -98.260503,
            30.691173
          ],
          [
            -98.261089,
            30.691064
          ],
          [
            -98.261245,
            30.691035
          ],
          [
            -98.261537,
            30.690979
          ],
          [
            -98.263223,
            30.690659
          ],
          [
            -98.265372,
            30.690251
          ],
          [
            -98.266801,
            30.689979
          ],
          [
            -98.268778,
            30.689604
          ],
          [
            -98.270282,
            30.68932
          ],
          [
            -98.272259,
            30.689033
          ],
          [
            -98.272782,
            30.688956
          ],
          [
            -98.27287,
            30.688943
          ],
          [
            -98.274326,
            30.688729
          ],
          [
            -98.27502,
            30.688627
          ],
          [
            -98.27621,
            30.688453
          ],
          [
            -98.277337,
            30.688285
          ],
          [
            -98.278422,
            30.688096
          ],
          [
            -98.280045,
            30.687813
          ],
          [
            -98.280937,
            30.687657
          ],
          [
            -98.281751,
            30.687515
          ],
          [
            -98.283417,
            30.687224
          ],
          [
            -98.283954,
            30.687111
          ],
          [
            -98.29122,
            30.685646
          ],
          [
            -98.296899,
            30.684551
          ],
          [
            -98.304105,
            30.683162
          ],
          [
            -98.30622,
            30.682762
          ],
          [
            -98.311185,
            30.681804
          ],
          [
            -98.311371,
            30.681778
          ],
          [
            -98.311452,
            30.681767
          ],
          [
            -98.311746,
            30.681742
          ],
          [
            -98.31239,
            30.681749
          ],
          [
            -98.312567,
            30.681752
          ],
          [
            -98.312649,
            30.681741
          ],
          [
            -98.312796,
            30.681714
          ],
          [
            -98.312961,
            30.681667
          ],
          [
            -98.313013,
            30.681646
          ],
          [
            -98.313115,
            30.681606
          ],
          [
            -98.313265,
            30.681529
          ],
          [
            -98.313384,
            30.681434
          ],
          [
            -98.314288,
            30.680604
          ],
          [
            -98.314626,
            30.68031
          ],
          [
            -98.314728,
            30.68024
          ],
          [
            -98.31508,
            30.680031
          ],
          [
            -98.315339,
            30.6799
          ],
          [
            -98.315541,
            30.679813
          ],
          [
            -98.315664,
            30.67976
          ],
          [
            -98.315912,
            30.679678
          ],
          [
            -98.316148,
            30.679613
          ],
          [
            -98.316429,
            30.67956
          ],
          [
            -98.316669,
            30.679528
          ],
          [
            -98.316802,
            30.67953
          ],
          [
            -98.317782,
            30.679514
          ],
          [
            -98.317823,
            30.679513
          ],
          [
            -98.318445,
            30.679517
          ],
          [
            -98.31904,
            30.679529
          ],
          [
            -98.319504,
            30.679552
          ],
          [
            -98.319703,
            30.679562
          ],
          [
            -98.319987,
            30.67958
          ],
          [
            -98.320219,
            30.679609
          ],
          [
            -98.320484,
            30.679642
          ],
          [
            -98.320518,
            30.679646
          ],
          [
            -98.321807,
            30.679839
          ],
          [
            -98.322071,
            30.679898
          ],
          [
            -98.32252,
            30.679997
          ],
          [
            -98.322915,
            30.680085
          ],
          [
            -98.323488,
            30.680212
          ],
          [
            -98.323823,
            30.680296
          ],
          [
            -98.323988,
            30.680338
          ],
          [
            -98.324673,
            30.680555
          ],
          [
            -98.325111,
            30.680702
          ],
          [
            -98.325149,
            30.680715
          ],
          [
            -98.325237,
            30.680746
          ],
          [
            -98.325401,
            30.680803
          ],
          [
            -98.326165,
            30.681071
          ],
          [
            -98.326489,
            30.681186
          ],
          [
            -98.32708,
            30.681396
          ],
          [
            -98.327489,
            30.681548
          ],
          [
            -98.327744,
            30.681664
          ],
          [
            -98.327926,
            30.681747
          ],
          [
            -98.328099,
            30.681833
          ],
          [
            -98.328257,
            30.681912
          ],
          [
            -98.328534,
            30.682056
          ],
          [
            -98.328703,
            30.682169
          ],
          [
            -98.328808,
            30.682231
          ],
          [
            -98.329196,
            30.68246
          ],
          [
            -98.329392,
            30.682563
          ],
          [
            -98.329796,
            30.682777
          ],
          [
            -98.329957,
            30.682838
          ],
          [
            -98.330172,
            30.68289
          ],
          [
            -98.330334,
            30.682937
          ],
          [
            -98.330526,
            30.682965
          ],
          [
            -98.331318,
            30.683142
          ],
          [
            -98.331472,
            30.683181
          ],
          [
            -98.332326,
            30.683394
          ],
          [
            -98.332994,
            30.683591
          ],
          [
            -98.333834,
            30.68383
          ],
          [
            -98.334646,
            30.684063
          ],
          [
            -98.334718,
            30.684083
          ],
          [
            -98.334872,
            30.684116
          ],
          [
            -98.335131,
            30.68416
          ],
          [
            -98.335386,
            30.684191
          ],
          [
            -98.336401,
            30.684259
          ],
          [
            -98.336405,
            30.684259
          ],
          [
            -98.336754,
            30.684289
          ],
          [
            -98.336924,
            30.684309
          ],
          [
            -98.337238,
            30.684366
          ],
          [
            -98.33741,
            30.684414
          ],
          [
            -98.337579,
            30.684485
          ],
          [
            -98.338077,
            30.684719
          ],
          [
            -98.338461,
            30.684891
          ],
          [
            -98.338663,
            30.684947
          ],
          [
            -98.33886,
            30.684981
          ],
          [
            -98.339044,
            30.684993
          ],
          [
            -98.339223,
            30.684982
          ],
          [
            -98.339381,
            30.684961
          ],
          [
            -98.339573,
            30.684913
          ],
          [
            -98.339787,
            30.684827
          ],
          [
            -98.339904,
            30.684752
          ],
          [
            -98.340002,
            30.684693
          ],
          [
            -98.340134,
            30.684587
          ],
          [
            -98.34046,
            30.684258
          ],
          [
            -98.34063,
            30.684105
          ],
          [
            -98.340867,
            30.683954
          ],
          [
            -98.341059,
            30.683859
          ],
          [
            -98.341322,
            30.683763
          ],
          [
            -98.341537,
            30.683718
          ],
          [
            -98.341755,
            30.683683
          ],
          [
            -98.341988,
            30.683659
          ],
          [
            -98.3426,
            30.683604
          ],
          [
            -98.344879,
            30.6834
          ],
          [
            -98.345104,
            30.683389
          ],
          [
            -98.345329,
            30.683384
          ],
          [
            -98.345505,
            30.683396
          ],
          [
            -98.345754,
            30.683426
          ],
          [
            -98.346048,
            30.683481
          ],
          [
            -98.346427,
            30.683584
          ],
          [
            -98.347022,
            30.68385
          ],
          [
            -98.347548,
            30.684061
          ],
          [
            -98.347707,
            30.6841
          ],
          [
            -98.348109,
            30.684199
          ],
          [
            -98.348597,
            30.684298
          ],
          [
            -98.348762,
            30.684337
          ],
          [
            -98.348942,
            30.684399
          ],
          [
            -98.349092,
            30.684462
          ],
          [
            -98.34923,
            30.684541
          ],
          [
            -98.349376,
            30.684629
          ],
          [
            -98.349577,
            30.684755
          ],
          [
            -98.350406,
            30.685294
          ],
          [
            -98.35057,
            30.685392
          ],
          [
            -98.350721,
            30.685491
          ],
          [
            -98.350861,
            30.685603
          ],
          [
            -98.350995,
            30.685798
          ],
          [
            -98.351077,
            30.685993
          ],
          [
            -98.351179,
            30.686231
          ],
          [
            -98.351327,
            30.686521
          ],
          [
            -98.351542,
            30.686835
          ],
          [
            -98.352717,
            30.688353
          ],
          [
            -98.353286,
            30.68913
          ],
          [
            -98.353628,
            30.689688
          ],
          [
            -98.354158,
            30.690634
          ],
          [
            -98.354658,
            30.691712
          ],
          [
            -98.355182,
            30.692923
          ],
          [
            -98.355424,
            30.693402
          ],
          [
            -98.355996,
            30.694438
          ],
          [
            -98.356169,
            30.694727
          ],
          [
            -98.356261,
            30.694857
          ],
          [
            -98.356462,
            30.695141
          ],
          [
            -98.356575,
            30.695281
          ],
          [
            -98.356671,
            30.695392
          ],
          [
            -98.356832,
            30.695565
          ],
          [
            -98.357102,
            30.695803
          ],
          [
            -98.357322,
            30.695969
          ],
          [
            -98.357548,
            30.696112
          ],
          [
            -98.35782,
            30.696268
          ],
          [
            -98.358041,
            30.696373
          ],
          [
            -98.35828,
            30.696462
          ],
          [
            -98.358494,
            30.696531
          ],
          [
            -98.358771,
            30.696601
          ],
          [
            -98.358834,
            30.696611
          ],
          [
            -98.359077,
            30.696655
          ],
          [
            -98.359346,
            30.69669
          ],
          [
            -98.359706,
            30.696712
          ],
          [
            -98.360353,
            30.696722
          ],
          [
            -98.360466,
            30.69672
          ],
          [
            -98.361011,
            30.696713
          ],
          [
            -98.362108,
            30.696673
          ],
          [
            -98.36214,
            30.696672
          ],
          [
            -98.363141,
            30.696645
          ],
          [
            -98.364035,
            30.696607
          ],
          [
            -98.36658,
            30.696413
          ],
          [
            -98.367838,
            30.696306
          ],
          [
            -98.368495,
            30.696261
          ],
          [
            -98.369057,
            30.696253
          ],
          [
            -98.369556,
            30.69626
          ],
          [
            -98.369937,
            30.696283
          ],
          [
            -98.370642,
            30.696315
          ],
          [
            -98.371508,
            30.696378
          ],
          [
            -98.371738,
            30.696406
          ],
          [
            -98.371957,
            30.696459
          ],
          [
            -98.372104,
            30.696503
          ],
          [
            -98.372323,
            30.696569
          ],
          [
            -98.372573,
            30.696702
          ],
          [
            -98.372914,
            30.696837
          ],
          [
            -98.373194,
            30.696907
          ],
          [
            -98.37322,
            30.69691
          ],
          [
            -98.373425,
            30.696933
          ],
          [
            -98.373726,
            30.696937
          ],
          [
            -98.374039,
            30.696914
          ],
          [
            -98.374354,
            30.696878
          ],
          [
            -98.374597,
            30.696813
          ],
          [
            -98.374788,
            30.696728
          ],
          [
            -98.375194,
            30.696492
          ],
          [
            -98.375447,
            30.696402
          ],
          [
            -98.375843,
            30.696298
          ],
          [
            -98.376321,
            30.696231
          ],
          [
            -98.376765,
            30.696186
          ],
          [
            -98.377184,
            30.696195
          ],
          [
            -98.377572,
            30.696245
          ],
          [
            -98.378544,
            30.696414
          ],
          [
            -98.378872,
            30.696463
          ],
          [
            -98.3792,
            30.696564
          ],
          [
            -98.379523,
            30.696703
          ],
          [
            -98.379791,
            30.696873
          ],
          [
            -98.380064,
            30.697102
          ],
          [
            -98.380269,
            30.697364
          ],
          [
            -98.380408,
            30.697608
          ],
          [
            -98.380499,
            30.697893
          ],
          [
            -98.381431,
            30.698431
          ],
          [
            -98.381791,
            30.696887
          ],
          [
            -98.381844,
            30.69667
          ],
          [
            -98.381899,
            30.696482
          ],
          [
            -98.382234,
            30.695544
          ],
          [
            -98.383269,
            30.693243
          ],
          [
            -98.383364,
            30.693057
          ],
          [
            -98.383469,
            30.692863
          ],
          [
            -98.383612,
            30.692627
          ],
          [
            -98.383771,
            30.692402
          ],
          [
            -98.383895,
            30.692245
          ],
          [
            -98.384039,
            30.692079
          ],
          [
            -98.384182,
            30.691927
          ],
          [
            -98.384239,
            30.691868
          ],
          [
            -98.385284,
            30.690866
          ],
          [
            -98.38572,
            30.690438
          ],
          [
            -98.38587,
            30.690291
          ],
          [
            -98.386345,
            30.689826
          ],
          [
            -98.386848,
            30.689332
          ],
          [
            -98.387469,
            30.688723
          ],
          [
            -98.388396,
            30.687815
          ],
          [
            -98.388819,
            30.687373
          ],
          [
            -98.389201,
            30.686898
          ],
          [
            -98.389459,
            30.68647
          ],
          [
            -98.389742,
            30.685861
          ],
          [
            -98.390106,
            30.685078
          ],
          [
            -98.390252,
            30.684763
          ],
          [
            -98.390919,
            30.683293
          ],
          [
            -98.391359,
            30.68232
          ],
          [
            -98.391396,
            30.682239
          ],
          [
            -98.391536,
            30.681829
          ],
          [
            -98.391659,
            30.681407
          ],
          [
            -98.392031,
            30.679784
          ],
          [
            -98.392282,
            30.678687
          ],
          [
            -98.392433,
            30.67803
          ],
          [
            -98.392593,
            30.677327
          ],
          [
            -98.393059,
            30.675282
          ],
          [
            -98.393186,
            30.674723
          ],
          [
            -98.393325,
            30.674175
          ],
          [
            -98.393429,
            30.673951
          ],
          [
            -98.393485,
            30.673813
          ],
          [
            -98.393667,
            30.673514
          ],
          [
            -98.393871,
            30.673218
          ],
          [
            -98.394037,
            30.673036
          ],
          [
            -98.394291,
            30.672806
          ],
          [
            -98.394627,
            30.672571
          ],
          [
            -98.395136,
            30.672309
          ],
          [
            -98.395491,
            30.672178
          ],
          [
            -98.395957,
            30.672035
          ],
          [
            -98.396182,
            30.671966
          ],
          [
            -98.397576,
            30.671585
          ],
          [
            -98.398954,
            30.671208
          ],
          [
            -98.399543,
            30.671046
          ],
          [
            -98.399573,
            30.671038
          ],
          [
            -98.399796,
            30.670978
          ],
          [
            -98.402243,
            30.67029
          ],
          [
            -98.403524,
            30.66995
          ],
          [
            -98.403791,
            30.669877
          ],
          [
            -98.40466,
            30.669629
          ],
          [
            -98.405409,
            30.669412
          ],
          [
            -98.406563,
            30.669121
          ],
          [
            -98.406814,
            30.669054
          ],
          [
            -98.407151,
            30.668962
          ],
          [
            -98.407739,
            30.668795
          ],
          [
            -98.408605,
            30.668549
          ],
          [
            -98.408998,
            30.668438
          ],
          [
            -98.410032,
            30.668145
          ],
          [
            -98.411612,
            30.667712
          ],
          [
            -98.412378,
            30.667496
          ],
          [
            -98.413859,
            30.667082
          ],
          [
            -98.414926,
            30.666783
          ],
          [
            -98.415034,
            30.666751
          ],
          [
            -98.415151,
            30.666712
          ],
          [
            -98.415423,
            30.666619
          ],
          [
            -98.415731,
            30.666473
          ],
          [
            -98.416483,
            30.666049
          ],
          [
            -98.417374,
            30.665246
          ],
          [
            -98.417711,
            30.664943
          ],
          [
            -98.418647,
            30.664085
          ],
          [
            -98.418711,
            30.664027
          ],
          [
            -98.419626,
            30.663201
          ],
          [
            -98.419857,
            30.662982
          ],
          [
            -98.42025,
            30.662593
          ],
          [
            -98.422451,
            30.660319
          ],
          [
            -98.424234,
            30.65848
          ],
          [
            -98.425795,
            30.65689
          ],
          [
            -98.426362,
            30.657189
          ],
          [
            -98.426646,
            30.657308
          ],
          [
            -98.426851,
            30.657393
          ],
          [
            -98.426903,
            30.657412
          ],
          [
            -98.427226,
            30.657527
          ],
          [
            -98.427617,
            30.657653
          ],
          [
            -98.429999,
            30.658313
          ],
          [
            -98.430529,
            30.658458
          ],
          [
            -98.430662,
            30.658501
          ],
          [
            -98.431466,
            30.658706
          ],
          [
            -98.431878,
            30.658828
          ],
          [
            -98.432284,
            30.658966
          ],
          [
            -98.432681,
            30.659122
          ],
          [
            -98.432809,
            30.659175
          ],
          [
            -98.433854,
            30.659617
          ],
          [
            -98.433896,
            30.659633
          ],
          [
            -98.434136,
            30.659703
          ],
          [
            -98.434319,
            30.659745
          ],
          [
            -98.434505,
            30.659773
          ],
          [
            -98.434671,
            30.659786
          ],
          [
            -98.43488,
            30.659789
          ],
          [
            -98.435119,
            30.659774
          ],
          [
            -98.435355,
            30.659741
          ],
          [
            -98.435413,
            30.65973
          ],
          [
            -98.435638,
            30.659675
          ],
          [
            -98.435857,
            30.659603
          ],
          [
            -98.435947,
            30.659569
          ],
          [
            -98.436573,
            30.659309
          ],
          [
            -98.436698,
            30.659271
          ],
          [
            -98.438006,
            30.658735
          ],
          [
            -98.438124,
            30.6587
          ],
          [
            -98.438205,
            30.658655
          ],
          [
            -98.438497,
            30.658536
          ],
          [
            -98.438786,
            30.658438
          ],
          [
            -98.439081,
            30.658358
          ],
          [
            -98.439382,
            30.658294
          ],
          [
            -98.439588,
            30.658262
          ],
          [
            -98.439772,
            30.658244
          ],
          [
            -98.440019,
            30.658233
          ],
          [
            -98.440226,
            30.658236
          ],
          [
            -98.440451,
            30.658252
          ],
          [
            -98.440574,
            30.658265
          ],
          [
            -98.440717,
            30.658287
          ],
          [
            -98.44099,
            30.658342
          ],
          [
            -98.441339,
            30.658432
          ],
          [
            -98.441751,
            30.658564
          ],
          [
            -98.441851,
            30.658596
          ],
          [
            -98.442411,
            30.658776
          ],
          [
            -98.442721,
            30.658877
          ],
          [
            -98.44289,
            30.658937
          ],
          [
            -98.444024,
            30.659454
          ],
          [
            -98.444445,
            30.658959
          ],
          [
            -98.44454,
            30.658848
          ],
          [
            -98.444569,
            30.658814
          ],
          [
            -98.444776,
            30.65857
          ],
          [
            -98.444791,
            30.658552
          ],
          [
            -98.445099,
            30.658195
          ],
          [
            -98.445765,
            30.657424
          ],
          [
            -98.445929,
            30.657235
          ],
          [
            -98.4462,
            30.656915
          ],
          [
            -98.44633,
            30.65674
          ],
          [
            -98.446352,
            30.65671
          ],
          [
            -98.446467,
            30.656528
          ],
          [
            -98.446593,
            30.656291
          ],
          [
            -98.446698,
            30.656047
          ],
          [
            -98.446712,
            30.656004
          ],
          [
            -98.446779,
            30.655801
          ],
          [
            -98.44684,
            30.655559
          ],
          [
            -98.446854,
            30.655504
          ],
          [
            -98.446907,
            30.655199
          ],
          [
            -98.446913,
            30.655141
          ],
          [
            -98.446936,
            30.654892
          ],
          [
            -98.446939,
            30.654842
          ],
          [
            -98.446953,
            30.654339
          ],
          [
            -98.446955,
            30.654271
          ],
          [
            -98.446956,
            30.653392
          ],
          [
            -98.446955,
            30.653268
          ],
          [
            -98.446955,
            30.653026
          ],
          [
            -98.446956,
            30.652495
          ],
          [
            -98.446957,
            30.652144
          ],
          [
            -98.446964,
            30.651754
          ],
          [
            -98.446972,
            30.651421
          ],
          [
            -98.446971,
            30.651064
          ],
          [
            -98.446971,
            30.651006
          ],
          [
            -98.446972,
            30.650778
          ],
          [
            -98.446974,
            30.650328
          ],
          [
            -98.446975,
            30.650241
          ],
          [
            -98.446986,
            30.649501
          ],
          [
            -98.446991,
            30.648748
          ],
          [
            -98.446984,
            30.648047
          ],
          [
            -98.446987,
            30.647942
          ],
          [
            -98.447004,
            30.647163
          ],
          [
            -98.447004,
            30.646645
          ],
          [
            -98.447004,
            30.646514
          ],
          [
            -98.447004,
            30.646358
          ],
          [
            -98.447003,
            30.645893
          ],
          [
            -98.446919,
            30.642259
          ],
          [
            -98.446907,
            30.641817
          ],
          [
            -98.446895,
            30.640738
          ],
          [
            -98.446882,
            30.640488
          ],
          [
            -98.446831,
            30.640105
          ],
          [
            -98.446762,
            30.639743
          ],
          [
            -98.4467,
            30.639517
          ],
          [
            -98.446662,
            30.63939
          ],
          [
            -98.446548,
            30.639077
          ],
          [
            -98.446413,
            30.638771
          ],
          [
            -98.446376,
            30.638701
          ],
          [
            -98.446256,
            30.638472
          ],
          [
            -98.445645,
            30.637489
          ],
          [
            -98.44548,
            30.637217
          ],
          [
            -98.445307,
            30.63693
          ],
          [
            -98.445157,
            30.636635
          ],
          [
            -98.445027,
            30.636333
          ],
          [
            -98.444916,
            30.636025
          ],
          [
            -98.444827,
            30.635712
          ],
          [
            -98.444757,
            30.63539
          ],
          [
            -98.444621,
            30.634133
          ],
          [
            -98.444408,
            30.632265
          ],
          [
            -98.444392,
            30.631959
          ],
          [
            -98.444397,
            30.631655
          ],
          [
            -98.444408,
            30.631527
          ],
          [
            -98.444424,
            30.631341
          ],
          [
            -98.444474,
            30.63103
          ],
          [
            -98.444546,
            30.630706
          ],
          [
            -98.444641,
            30.630387
          ],
          [
            -98.444758,
            30.630074
          ],
          [
            -98.444897,
            30.629767
          ],
          [
            -98.445183,
            30.629225
          ],
          [
            -98.446485,
            30.6268
          ],
          [
            -98.447333,
            30.62521
          ],
          [
            -98.448316,
            30.623371
          ],
          [
            -98.448533,
            30.622977
          ],
          [
            -98.448683,
            30.622677
          ],
          [
            -98.448813,
            30.62237
          ],
          [
            -98.448923,
            30.622057
          ],
          [
            -98.449008,
            30.621736
          ],
          [
            -98.449071,
            30.621411
          ],
          [
            -98.449113,
            30.621083
          ],
          [
            -98.449132,
            30.620753
          ],
          [
            -98.449132,
            30.620478
          ],
          [
            -98.449081,
            30.619612
          ],
          [
            -98.449077,
            30.619342
          ],
          [
            -98.449095,
            30.619073
          ],
          [
            -98.449132,
            30.618805
          ],
          [
            -98.44919,
            30.61854
          ],
          [
            -98.449268,
            30.618279
          ],
          [
            -98.449436,
            30.617855
          ],
          [
            -98.449597,
            30.617547
          ],
          [
            -98.44988,
            30.617172
          ],
          [
            -98.450407,
            30.61654
          ],
          [
            -98.45106,
            30.615783
          ],
          [
            -98.451743,
            30.61501
          ],
          [
            -98.452334,
            30.614324
          ],
          [
            -98.452909,
            30.613658
          ],
          [
            -98.453091,
            30.613434
          ],
          [
            -98.453254,
            30.613199
          ],
          [
            -98.453398,
            30.612956
          ],
          [
            -98.453522,
            30.612704
          ],
          [
            -98.453626,
            30.612445
          ],
          [
            -98.453707,
            30.612181
          ],
          [
            -98.453758,
            30.611956
          ],
          [
            -98.453767,
            30.611914
          ],
          [
            -98.453805,
            30.611648
          ],
          [
            -98.453822,
            30.61138
          ],
          [
            -98.453821,
            30.611166
          ],
          [
            -98.453645,
            30.608769
          ],
          [
            -98.453403,
            30.605458
          ],
          [
            -98.453329,
            30.604111
          ],
          [
            -98.453255,
            30.60127
          ],
          [
            -98.45321,
            30.599565
          ],
          [
            -98.453192,
            30.598889
          ],
          [
            -98.453185,
            30.598291
          ],
          [
            -98.453176,
            30.597498
          ],
          [
            -98.45311,
            30.59583
          ],
          [
            -98.453049,
            30.593919
          ],
          [
            -98.453033,
            30.593403
          ],
          [
            -98.453019,
            30.593287
          ],
          [
            -98.452938,
            30.592867
          ],
          [
            -98.452847,
            30.592502
          ],
          [
            -98.452736,
            30.592142
          ],
          [
            -98.45259,
            30.591727
          ],
          [
            -98.452441,
            30.59137
          ],
          [
            -98.452272,
            30.591019
          ],
          [
            -98.452057,
            30.590627
          ],
          [
            -98.451885,
            30.590339
          ],
          [
            -98.451697,
            30.590059
          ],
          [
            -98.451492,
            30.589788
          ],
          [
            -98.450804,
            30.58897
          ],
          [
            -98.4505,
            30.588642
          ],
          [
            -98.449976,
            30.588061
          ],
          [
            -98.449039,
            30.587002
          ],
          [
            -98.449589,
            30.586639
          ],
          [
            -98.450539,
            30.585988
          ],
          [
            -98.451204,
            30.585573
          ],
          [
            -98.451632,
            30.585287
          ],
          [
            -98.452929,
            30.584414
          ],
          [
            -98.453644,
            30.583964
          ],
          [
            -98.453824,
            30.58385
          ],
          [
            -98.455461,
            30.582781
          ],
          [
            -98.455943,
            30.582542
          ],
          [
            -98.456436,
            30.58232
          ],
          [
            -98.45694,
            30.582117
          ],
          [
            -98.457658,
            30.581797
          ],
          [
            -98.458871,
            30.581284
          ],
          [
            -98.460097,
            30.580777
          ],
          [
            -98.460556,
            30.580569
          ],
          [
            -98.461279,
            30.58024
          ],
          [
            -98.462418,
            30.579796
          ],
          [
            -98.463682,
            30.579248
          ],
          [
            -98.46511,
            30.578651
          ],
          [
            -98.465487,
            30.578475
          ],
          [
            -98.465853,
            30.578283
          ],
          [
            -98.466207,
            30.578075
          ],
          [
            -98.466444,
            30.5779
          ],
          [
            -98.466716,
            30.577677
          ],
          [
            -98.466974,
            30.577441
          ],
          [
            -98.467825,
            30.576565
          ],
          [
            -98.468008,
            30.576371
          ],
          [
            -98.46812,
            30.576244
          ],
          [
            -98.468668,
            30.575624
          ],
          [
            -98.469017,
            30.575261
          ],
          [
            -98.469427,
            30.574834
          ],
          [
            -98.469967,
            30.574258
          ],
          [
            -98.470263,
            30.573971
          ],
          [
            -98.470574,
            30.573696
          ],
          [
            -98.470704,
            30.573588
          ],
          [
            -98.471573,
            30.572912
          ],
          [
            -98.472247,
            30.572369
          ],
          [
            -98.47288,
            30.571885
          ],
          [
            -98.47351,
            30.571383
          ],
          [
            -98.474237,
            30.570846
          ],
          [
            -98.474485,
            30.570684
          ],
          [
            -98.474631,
            30.570604
          ],
          [
            -98.474748,
            30.57054
          ],
          [
            -98.475022,
            30.570413
          ],
          [
            -98.475307,
            30.570305
          ],
          [
            -98.47579,
            30.570156
          ],
          [
            -98.476086,
            30.570084
          ],
          [
            -98.476386,
            30.57003
          ],
          [
            -98.476691,
            30.569995
          ],
          [
            -98.476997,
            30.56998
          ],
          [
            -98.478318,
            30.569846
          ],
          [
            -98.484796,
            30.56915
          ],
          [
            -98.48491,
            30.569122
          ],
          [
            -98.485018,
            30.569079
          ],
          [
            -98.485117,
            30.569022
          ],
          [
            -98.485205,
            30.568953
          ],
          [
            -98.485335,
            30.568861
          ],
          [
            -98.473424,
            30.558581
          ],
          [
            -98.472219,
            30.55754
          ],
          [
            -98.471327,
            30.55677
          ],
          [
            -98.470831,
            30.556342
          ],
          [
            -98.47039,
            30.55596
          ],
          [
            -98.46972,
            30.555379
          ],
          [
            -98.458122,
            30.545357
          ],
          [
            -98.457679,
            30.545009
          ],
          [
            -98.457256,
            30.544707
          ],
          [
            -98.45678,
            30.544396
          ],
          [
            -98.456208,
            30.544062
          ],
          [
            -98.45571,
            30.543806
          ],
          [
            -98.455255,
            30.543594
          ],
          [
            -98.450088,
            30.541404
          ],
          [
            -98.449407,
            30.541092
          ],
          [
            -98.448743,
            30.540743
          ],
          [
            -98.448096,
            30.540357
          ],
          [
            -98.447543,
            30.539973
          ],
          [
            -98.445135,
            30.538206
          ],
          [
            -98.444635,
            30.537839
          ],
          [
            -98.443035,
            30.536664
          ],
          [
            -98.439579,
            30.53412
          ],
          [
            -98.439206,
            30.533871
          ],
          [
            -98.438841,
            30.533641
          ],
          [
            -98.438481,
            30.533426
          ],
          [
            -98.438107,
            30.533219
          ],
          [
            -98.437728,
            30.53303
          ],
          [
            -98.437301,
            30.532831
          ],
          [
            -98.436925,
            30.532678
          ],
          [
            -98.436485,
            30.532506
          ],
          [
            -98.42834,
            30.529887
          ],
          [
            -98.427718,
            30.52967
          ],
          [
            -98.427121,
            30.529435
          ],
          [
            -98.423968,
            30.52801
          ],
          [
            -98.42345,
            30.527777
          ],
          [
            -98.421042,
            30.526681
          ],
          [
            -98.420386,
            30.526367
          ],
          [
            -98.419793,
            30.526069
          ],
          [
            -98.419258,
            30.525761
          ],
          [
            -98.418626,
            30.525359
          ],
          [
            -98.415713,
            30.52322
          ],
          [
            -98.413547,
            30.52163
          ],
          [
            -98.413222,
            30.521402
          ],
          [
            -98.412844,
            30.521159
          ],
          [
            -98.412468,
            30.520936
          ],
          [
            -98.41206,
            30.520711
          ],
          [
            -98.409784,
            30.51962
          ],
          [
            -98.40964,
            30.519843
          ],
          [
            -98.409557,
            30.51992
          ],
          [
            -98.409466,
            30.519991
          ],
          [
            -98.409369,
            30.520055
          ],
          [
            -98.409265,
            30.520111
          ],
          [
            -98.408826,
            30.520282
          ],
          [
            -98.409156,
            30.520159
          ],
          [
            -98.409265,
            30.520111
          ],
          [
            -98.409369,
            30.520055
          ],
          [
            -98.409466,
            30.519991
          ],
          [
            -98.409557,
            30.51992
          ],
          [
            -98.40964,
            30.519843
          ],
          [
            -98.409784,
            30.51962
          ],
          [
            -98.406111,
            30.517832
          ],
          [
            -98.40562,
            30.517599
          ],
          [
            -98.405396,
            30.5175
          ],
          [
            -98.405289,
            30.517452
          ],
          [
            -98.404596,
            30.517181
          ],
          [
            -98.40414,
            30.517023
          ],
          [
            -98.403438,
            30.516839
          ],
          [
            -98.402503,
            30.516576
          ],
          [
            -98.400217,
            30.515952
          ],
          [
            -98.398003,
            30.515332
          ],
          [
            -98.397051,
            30.515057
          ],
          [
            -98.396345,
            30.514847
          ],
          [
            -98.39595,
            30.514753
          ],
          [
            -98.395503,
            30.514668
          ],
          [
            -98.394902,
            30.514572
          ],
          [
            -98.394519,
            30.514523
          ],
          [
            -98.394298,
            30.514495
          ],
          [
            -98.389454,
            30.514028
          ],
          [
            -98.382157,
            30.513349
          ],
          [
            -98.380087,
            30.513145
          ],
          [
            -98.379273,
            30.513065
          ],
          [
            -98.379079,
            30.513046
          ],
          [
            -98.377146,
            30.512871
          ],
          [
            -98.376665,
            30.512825
          ],
          [
            -98.375355,
            30.512696
          ],
          [
            -98.374987,
            30.512664
          ],
          [
            -98.374417,
            30.512636
          ],
          [
            -98.374258,
            30.512634
          ],
          [
            -98.373846,
            30.512628
          ],
          [
            -98.373276,
            30.512641
          ],
          [
            -98.372771,
            30.512672
          ],
          [
            -98.372269,
            30.512724
          ],
          [
            -98.371522,
            30.512833
          ],
          [
            -98.370353,
            30.513023
          ],
          [
            -98.367436,
            30.513519
          ],
          [
            -98.365168,
            30.513929
          ],
          [
            -98.363946,
            30.51417
          ],
          [
            -98.363338,
            30.5143
          ],
          [
            -98.360077,
            30.515098
          ],
          [
            -98.356619,
            30.515928
          ],
          [
            -98.353463,
            30.516693
          ],
          [
            -98.35155,
            30.517169
          ],
          [
            -98.351092,
            30.517288
          ],
          [
            -98.350097,
            30.517447
          ],
          [
            -98.349517,
            30.517505
          ],
          [
            -98.349011,
            30.517536
          ],
          [
            -98.348458,
            30.517547
          ],
          [
            -98.347883,
            30.517535
          ],
          [
            -98.347549,
            30.517515
          ],
          [
            -98.347319,
            30.517501
          ],
          [
            -98.346405,
            30.517406
          ],
          [
            -98.343131,
            30.517067
          ],
          [
            -98.341345,
            30.516881
          ],
          [
            -98.33714,
            30.516445
          ],
          [
            -98.326712,
            30.515353
          ],
          [
            -98.316637,
            30.514295
          ],
          [
            -98.315975,
            30.514213
          ],
          [
            -98.315357,
            30.514116
          ],
          [
            -98.314738,
            30.513999
          ],
          [
            -98.314085,
            30.513856
          ],
          [
            -98.31314,
            30.51362
          ],
          [
            -98.313021,
            30.513592
          ],
          [
            -98.306075,
            30.511808
          ],
          [
            -98.305958,
            30.511778
          ],
          [
            -98.304591,
            30.511429
          ],
          [
            -98.304494,
            30.511404
          ],
          [
            -98.30247,
            30.510883
          ],
          [
            -98.302347,
            30.510851
          ],
          [
            -98.301119,
            30.510523
          ],
          [
            -98.299876,
            30.510218
          ],
          [
            -98.299713,
            30.510172
          ],
          [
            -98.297436,
            30.50958
          ],
          [
            -98.296725,
            30.50939
          ],
          [
            -98.295914,
            30.509122
          ],
          [
            -98.295402,
            30.509772
          ],
          [
            -98.292799,
            30.51306
          ],
          [
            -98.292481,
            30.513493
          ],
          [
            -98.291637,
            30.515078
          ],
          [
            -98.291559,
            30.515203
          ],
          [
            -98.290923,
            30.516345
          ],
          [
            -98.290786,
            30.516661
          ],
          [
            -98.290701,
            30.516825
          ],
          [
            -98.286855,
            30.524261
          ],
          [
            -98.285123,
            30.527549
          ],
          [
            -98.284717,
            30.528319
          ],
          [
            -98.282492,
            30.532552
          ],
          [
            -98.282177,
            30.533114
          ],
          [
            -98.27899,
            30.539187
          ],
          [
            -98.278636,
            30.539868
          ],
          [
            -98.278368,
            30.540466
          ],
          [
            -98.278184,
            30.540873
          ],
          [
            -98.277883,
            30.541731
          ],
          [
            -98.277863,
            30.541787
          ],
          [
            -98.277862,
            30.541793
          ]
        ]
      }
    }
  ]
}