{
  "type": "FeatureCollection",
  "features": [
    {
      "type": "Feature",
      "properties": {
        "route": "Lake Victor & Burnet Backcountry Sweep",
        "category": "Savannah & Prairie Sweeps",
        "color": "#27ae60",
        "waypoints": [
          "Burnet",
          "RM 2340",
          "Lake Victor"
        ],
        "via": "RM 2340 -> Lake Victor -> Watson -> Burnet",
        "distance_mi": 25.0,
        "source": "road-snapped"
      },
      "geometry": {
        "type": "LineString",
        "coordinates": [
          [
            -98.228704,
            30.758116
          ],
          [
            -98.228741,
            30.758109
          ],
          [
            -98.228868,
            30.758592
          ],
          [
            -98.228936,
            30.758885
          ],
          [
            -98.228986,
            30.759096
          ],
          [
            -98.229086,
            30.759484
          ],
          [
            -98.229176,
            30.759836
          ],
          [
            -98.229226,
            30.760033
          ],
          [
            -98.229315,
            30.760412
          ],
          [
            -98.229377,
            30.760654
          ],
          [
            -98.22945,
            30.760945
          ],
          [
            -98.229521,
            30.761214
          ],
          [
            -98.229678,
            30.761869
          ],
          [
            -98.230088,
            30.763471
          ],
          [
            -98.230182,
            30.763851
          ],
          [
            -98.230689,
            30.765855
          ],
          [
            -98.231107,
            30.767521
          ],
          [
            -98.231183,
            30.767807
          ],
          [
            -98.231247,
            30.768088
          ],
          [
            -98.231279,
            30.76822
          ],
          [
            -98.231302,
            30.76831
          ],
          [
            -98.231459,
            30.768929
          ],
          [
            -98.231936,
            30.770822
          ],
          [
            -98.232059,
            30.771292
          ],
          [
            -98.232146,
            30.77167
          ],
          [
            -98.232352,
            30.772468
          ],
          [
            -98.232579,
            30.773394
          ],
          [
            -98.232832,
            30.774346
          ],
          [
            -98.233048,
            30.775256
          ],
          [
            -98.233291,
            30.776201
          ],
          [
            -98.233538,
            30.777149
          ],
          [
            -98.233549,
            30.777192
          ],
          [
            -98.233728,
            30.777898
          ],
          [
            -98.233972,
            30.778855
          ],
          [
            -98.234147,
            30.779487
          ],
          [
            -98.234194,
            30.779661
          ],
          [
            -98.234382,
            30.780387
          ],
          [
            -98.234655,
            30.781471
          ],
          [
            -98.234908,
            30.782443
          ],
          [
            -98.235597,
            30.784875
          ],
          [
            -98.235617,
            30.784947
          ],
          [
            -98.236168,
            30.786896
          ],
          [
            -98.236199,
            30.787019
          ],
          [
            -98.236351,
            30.787521
          ],
          [
            -98.23636,
            30.787548
          ],
          [
            -98.236612,
            30.788476
          ],
          [
            -98.236662,
            30.788662
          ],
          [
            -98.236785,
            30.789183
          ],
          [
            -98.236851,
            30.789427
          ],
          [
            -98.237087,
            30.790486
          ],
          [
            -98.237202,
            30.790979
          ],
          [
            -98.23729,
            30.791351
          ],
          [
            -98.237498,
            30.792256
          ],
          [
            -98.237637,
            30.79279
          ],
          [
            -98.237666,
            30.792931
          ],
          [
            -98.237854,
            30.793727
          ],
          [
            -98.237872,
            30.793804
          ],
          [
            -98.237943,
            30.794191
          ],
          [
            -98.23808,
            30.794705
          ],
          [
            -98.238201,
            30.795279
          ],
          [
            -98.238279,
            30.79559
          ],
          [
            -98.238299,
            30.795693
          ],
          [
            -98.238565,
            30.796792
          ],
          [
            -98.238807,
            30.797876
          ],
          [
            -98.238917,
            30.798328
          ],
          [
            -98.23898,
            30.798598
          ],
          [
            -98.239326,
            30.800104
          ],
          [
            -98.23934,
            30.800171
          ],
          [
            -98.239648,
            30.801495
          ],
          [
            -98.239781,
            30.802051
          ],
          [
            -98.239914,
            30.802686
          ],
          [
            -98.240003,
            30.803257
          ],
          [
            -98.24002,
            30.803476
          ],
          [
            -98.240039,
            30.803707
          ],
          [
            -98.240055,
            30.804197
          ],
          [
            -98.240051,
            30.804692
          ],
          [
            -98.239935,
            30.806202
          ],
          [
            -98.239929,
            30.806293
          ],
          [
            -98.239856,
            30.807093
          ],
          [
            -98.23977,
            30.808157
          ],
          [
            -98.239738,
            30.808698
          ],
          [
            -98.239723,
            30.808896
          ],
          [
            -98.239706,
            30.809092
          ],
          [
            -98.239683,
            30.80935
          ],
          [
            -98.239433,
            30.812766
          ],
          [
            -98.239324,
            30.813941
          ],
          [
            -98.239314,
            30.814066
          ],
          [
            -98.239224,
            30.815298
          ],
          [
            -98.239222,
            30.815344
          ],
          [
            -98.239135,
            30.816515
          ],
          [
            -98.239111,
            30.816798
          ],
          [
            -98.239063,
            30.817258
          ],
          [
            -98.23904,
            30.817535
          ],
          [
            -98.238777,
            30.820902
          ],
          [
            -98.238599,
            30.823211
          ],
          [
            -98.23847,
            30.82486
          ],
          [
            -98.238466,
            30.824977
          ],
          [
            -98.238428,
            30.825459
          ],
          [
            -98.238094,
            30.829613
          ],
          [
            -98.238078,
            30.829809
          ],
          [
            -98.237766,
            30.833753
          ],
          [
            -98.237763,
            30.833866
          ],
          [
            -98.237715,
            30.834469
          ],
          [
            -98.237518,
            30.837083
          ],
          [
            -98.237242,
            30.840499
          ],
          [
            -98.23719,
            30.84122
          ],
          [
            -98.236759,
            30.846779
          ],
          [
            -98.236368,
            30.851747
          ],
          [
            -98.235462,
            30.863172
          ],
          [
            -98.23539,
            30.864256
          ],
          [
            -98.234986,
            30.869365
          ],
          [
            -98.234921,
            30.870186
          ],
          [
            -98.234883,
            30.870998
          ],
          [
            -98.234926,
            30.872171
          ],
          [
            -98.234984,
            30.872651
          ],
          [
            -98.235165,
            30.874373
          ],
          [
            -98.235326,
            30.875683
          ],
          [
            -98.235383,
            30.876137
          ],
          [
            -98.235779,
            30.87969
          ],
          [
            -98.235958,
            30.881294
          ],
          [
            -98.236061,
            30.88229
          ],
          [
            -98.236537,
            30.886466
          ],
          [
            -98.236863,
            30.889373
          ],
          [
            -98.236877,
            30.889502
          ],
          [
            -98.237268,
            30.892883
          ],
          [
            -98.237543,
            30.895311
          ],
          [
            -98.236928,
            30.895884
          ],
          [
            -98.235535,
            30.896309
          ],
          [
            -98.234285,
            30.896697
          ],
          [
            -98.23403,
            30.896776
          ],
          [
            -98.233059,
            30.897165
          ],
          [
            -98.231636,
            30.897727
          ],
          [
            -98.23064,
            30.898121
          ],
          [
            -98.229203,
            30.898667
          ],
          [
            -98.229168,
            30.89868
          ],
          [
            -98.225397,
            30.900166
          ],
          [
            -98.225188,
            30.900248
          ],
          [
            -98.22351,
            30.900897
          ],
          [
            -98.223056,
            30.901072
          ],
          [
            -98.217748,
            30.903155
          ],
          [
            -98.215734,
            30.903945
          ],
          [
            -98.21565,
            30.903978
          ],
          [
            -98.215441,
            30.904058
          ],
          [
            -98.214765,
            30.904331
          ],
          [
            -98.213539,
            30.904823
          ],
          [
            -98.21264,
            30.905184
          ],
          [
            -98.211802,
            30.905519
          ],
          [
            -98.211646,
            30.905582
          ],
          [
            -98.21052,
            30.906066
          ],
          [
            -98.209047,
            30.906832
          ],
          [
            -98.205618,
            30.908615
          ],
          [
            -98.20516,
            30.90878
          ],
          [
            -98.204703,
            30.908874
          ],
          [
            -98.204457,
            30.908903
          ],
          [
            -98.204237,
            30.908916
          ],
          [
            -98.203117,
            30.908859
          ],
          [
            -98.202587,
            30.90882
          ],
          [
            -98.202225,
            30.908823
          ],
          [
            -98.201911,
            30.908842
          ],
          [
            -98.201563,
            30.908891
          ],
          [
            -98.201231,
            30.908966
          ],
          [
            -98.200973,
            30.909037
          ],
          [
            -98.20095,
            30.909043
          ],
          [
            -98.199691,
            30.909457
          ],
          [
            -98.199371,
            30.909578
          ],
          [
            -98.199049,
            30.909675
          ],
          [
            -98.198691,
            30.909738
          ],
          [
            -98.198259,
            30.90978
          ],
          [
            -98.197859,
            30.909762
          ],
          [
            -98.1975,
            30.909734
          ],
          [
            -98.196359,
            30.909528
          ],
          [
            -98.195159,
            30.909309
          ],
          [
            -98.193961,
            30.909095
          ],
          [
            -98.193336,
            30.908983
          ],
          [
            -98.193158,
            30.908939
          ],
          [
            -98.192997,
            30.908887
          ],
          [
            -98.192814,
            30.90881
          ],
          [
            -98.19252,
            30.908645
          ],
          [
            -98.191958,
            30.908175
          ],
          [
            -98.188702,
            30.905452
          ],
          [
            -98.188342,
            30.905158
          ],
          [
            -98.188121,
            30.904934
          ],
          [
            -98.187933,
            30.904719
          ],
          [
            -98.18776,
            30.904493
          ],
          [
            -98.18761,
            30.904296
          ],
          [
            -98.18744,
            30.904081
          ],
          [
            -98.187042,
            30.903601
          ],
          [
            -98.186506,
            30.902955
          ],
          [
            -98.185807,
            30.90208
          ],
          [
            -98.185056,
            30.90114
          ],
          [
            -98.184301,
            30.900203
          ],
          [
            -98.184299,
            30.900201
          ],
          [
            -98.183698,
            30.899446
          ],
          [
            -98.183511,
            30.899211
          ],
          [
            -98.182486,
            30.897903
          ],
          [
            -98.182321,
            30.897698
          ],
          [
            -98.181674,
            30.896934
          ],
          [
            -98.181414,
            30.896517
          ],
          [
            -98.181281,
            30.896262
          ],
          [
            -98.181084,
            30.895766
          ],
          [
            -98.181042,
            30.89554
          ],
          [
            -98.181003,
            30.895231
          ],
          [
            -98.181001,
            30.894923
          ],
          [
            -98.181005,
            30.894872
          ],
          [
            -98.181082,
            30.893973
          ],
          [
            -98.181094,
            30.893818
          ],
          [
            -98.181138,
            30.893254
          ],
          [
            -98.181392,
            30.890453
          ],
          [
            -98.181525,
            30.88899
          ],
          [
            -98.181575,
            30.888446
          ],
          [
            -98.181656,
            30.88755
          ],
          [
            -98.181695,
            30.887224
          ],
          [
            -98.181698,
            30.886644
          ],
          [
            -98.181677,
            30.886357
          ],
          [
            -98.181586,
            30.885932
          ],
          [
            -98.181488,
            30.885614
          ],
          [
            -98.181225,
            30.884946
          ],
          [
            -98.181082,
            30.884628
          ],
          [
            -98.181061,
            30.884578
          ],
          [
            -98.180907,
            30.884199
          ],
          [
            -98.179981,
            30.881949
          ],
          [
            -98.179814,
            30.881521
          ],
          [
            -98.179719,
            30.881286
          ],
          [
            -98.178562,
            30.878534
          ],
          [
            -98.17838,
            30.8781
          ],
          [
            -98.177473,
            30.875945
          ],
          [
            -98.177446,
            30.875882
          ],
          [
            -98.177002,
            30.874825
          ],
          [
            -98.176964,
            30.874716
          ],
          [
            -98.176855,
            30.874407
          ],
          [
            -98.176752,
            30.873927
          ],
          [
            -98.176786,
            30.873325
          ],
          [
            -98.17684,
            30.873018
          ],
          [
            -98.177003,
            30.872432
          ],
          [
            -98.177425,
            30.871206
          ],
          [
            -98.177789,
            30.870147
          ],
          [
            -98.177847,
            30.869964
          ],
          [
            -98.177881,
            30.869859
          ],
          [
            -98.178236,
            30.868754
          ],
          [
            -98.178304,
            30.868307
          ],
          [
            -98.178296,
            30.867837
          ],
          [
            -98.178143,
            30.867251
          ],
          [
            -98.176328,
            30.863066
          ],
          [
            -98.1752,
            30.860434
          ],
          [
            -98.1745,
            30.8588
          ],
          [
            -98.174224,
            30.858182
          ],
          [
            -98.173689,
            30.856949
          ],
          [
            -98.173543,
            30.85665
          ],
          [
            -98.173388,
            30.856375
          ],
          [
            -98.173203,
            30.856097
          ],
          [
            -98.172552,
            30.855275
          ],
          [
            -98.172114,
            30.854665
          ],
          [
            -98.171794,
            30.854134
          ],
          [
            -98.171388,
            30.853237
          ],
          [
            -98.171354,
            30.853162
          ],
          [
            -98.168977,
            30.847729
          ],
          [
            -98.168671,
            30.84702
          ],
          [
            -98.168659,
            30.846802
          ],
          [
            -98.1687,
            30.846802
          ],
          [
            -98.169511,
            30.846797
          ],
          [
            -98.1706,
            30.846738
          ],
          [
            -98.170968,
            30.84669
          ],
          [
            -98.171315,
            30.846616
          ],
          [
            -98.171682,
            30.846523
          ],
          [
            -98.172018,
            30.846411
          ],
          [
            -98.172082,
            30.846387
          ],
          [
            -98.172558,
            30.846197
          ],
          [
            -98.172724,
            30.846107
          ],
          [
            -98.172865,
            30.846037
          ],
          [
            -98.173033,
            30.845941
          ],
          [
            -98.173251,
            30.845802
          ],
          [
            -98.17331,
            30.845764
          ],
          [
            -98.173649,
            30.845536
          ],
          [
            -98.17371,
            30.845487
          ],
          [
            -98.174544,
            30.844815
          ],
          [
            -98.175366,
            30.844152
          ],
          [
            -98.175542,
            30.844011
          ],
          [
            -98.176291,
            30.843363
          ],
          [
            -98.177293,
            30.842475
          ],
          [
            -98.178046,
            30.841822
          ],
          [
            -98.178382,
            30.841531
          ],
          [
            -98.179126,
            30.840886
          ],
          [
            -98.180167,
            30.839968
          ],
          [
            -98.180324,
            30.839829
          ],
          [
            -98.181901,
            30.838456
          ],
          [
            -98.182684,
            30.837775
          ],
          [
            -98.183663,
            30.837046
          ],
          [
            -98.183958,
            30.836839
          ],
          [
            -98.184053,
            30.836777
          ],
          [
            -98.185581,
            30.835771
          ],
          [
            -98.186653,
            30.835062
          ],
          [
            -98.187116,
            30.834768
          ],
          [
            -98.187497,
            30.834514
          ],
          [
            -98.188325,
            30.834027
          ],
          [
            -98.188471,
            30.833941
          ],
          [
            -98.190358,
            30.833008
          ],
          [
            -98.190758,
            30.83281
          ],
          [
            -98.192111,
            30.832012
          ],
          [
            -98.192349,
            30.831872
          ],
          [
            -98.192799,
            30.831612
          ],
          [
            -98.193309,
            30.831266
          ],
          [
            -98.193546,
            30.831069
          ],
          [
            -98.193705,
            30.83091
          ],
          [
            -98.193944,
            30.830661
          ],
          [
            -98.194113,
            30.830438
          ],
          [
            -98.194281,
            30.830193
          ],
          [
            -98.194399,
            30.829923
          ],
          [
            -98.194501,
            30.829658
          ],
          [
            -98.194536,
            30.829538
          ],
          [
            -98.194575,
            30.829406
          ],
          [
            -98.194621,
            30.829137
          ],
          [
            -98.194625,
            30.829097
          ],
          [
            -98.194672,
            30.828566
          ],
          [
            -98.194806,
            30.8276
          ],
          [
            -98.194817,
            30.827572
          ],
          [
            -98.195352,
            30.826229
          ],
          [
            -98.195819,
            30.825541
          ],
          [
            -98.196001,
            30.825173
          ],
          [
            -98.196205,
            30.824684
          ],
          [
            -98.196363,
            30.824227
          ],
          [
            -98.196552,
            30.823503
          ],
          [
            -98.196794,
            30.822576
          ],
          [
            -98.197011,
            30.821641
          ],
          [
            -98.19704,
            30.821532
          ],
          [
            -98.197293,
            30.820513
          ],
          [
            -98.197593,
            30.819388
          ],
          [
            -98.197855,
            30.818312
          ],
          [
            -98.197924,
            30.818079
          ],
          [
            -98.197935,
            30.818043
          ],
          [
            -98.198159,
            30.817395
          ],
          [
            -98.198192,
            30.817312
          ],
          [
            -98.198262,
            30.817139
          ],
          [
            -98.198377,
            30.816912
          ],
          [
            -98.198501,
            30.8167
          ],
          [
            -98.19866,
            30.816463
          ],
          [
            -98.198931,
            30.816061
          ],
          [
            -98.199326,
            30.81536
          ],
          [
            -98.199648,
            30.814769
          ],
          [
            -98.199819,
            30.814436
          ],
          [
            -98.199855,
            30.814353
          ],
          [
            -98.199903,
            30.814242
          ],
          [
            -98.200654,
            30.81255
          ],
          [
            -98.200722,
            30.8124
          ],
          [
            -98.200806,
            30.812215
          ],
          [
            -98.201726,
            30.810194
          ],
          [
            -98.202066,
            30.809473
          ],
          [
            -98.202277,
            30.80908
          ],
          [
            -98.202975,
            30.807701
          ],
          [
            -98.203036,
            30.807581
          ],
          [
            -98.203285,
            30.80706
          ],
          [
            -98.20333,
            30.806965
          ],
          [
            -98.203776,
            30.80607
          ],
          [
            -98.203865,
            30.805851
          ],
          [
            -98.204286,
            30.80502
          ],
          [
            -98.20473,
            30.804132
          ],
          [
            -98.205149,
            30.803293
          ],
          [
            -98.205287,
            30.802999
          ],
          [
            -98.205569,
            30.802398
          ],
          [
            -98.205634,
            30.802242
          ],
          [
            -98.205744,
            30.801981
          ],
          [
            -98.205892,
            30.80163
          ],
          [
            -98.206058,
            30.801235
          ],
          [
            -98.206116,
            30.801096
          ],
          [
            -98.206432,
            30.800345
          ],
          [
            -98.206901,
            30.799197
          ],
          [
            -98.206992,
            30.799009
          ],
          [
            -98.207083,
            30.798845
          ],
          [
            -98.207209,
            30.79866
          ],
          [
            -98.207318,
            30.798525
          ],
          [
            -98.207354,
            30.798481
          ],
          [
            -98.207516,
            30.798313
          ],
          [
            -98.207699,
            30.798154
          ],
          [
            -98.207877,
            30.798022
          ],
          [
            -98.208087,
            30.797888
          ],
          [
            -98.208302,
            30.797776
          ],
          [
            -98.208523,
            30.797678
          ],
          [
            -98.20918,
            30.797444
          ],
          [
            -98.210035,
            30.797128
          ],
          [
            -98.210916,
            30.796802
          ],
          [
            -98.211338,
            30.796657
          ],
          [
            -98.211625,
            30.796527
          ],
          [
            -98.211898,
            30.796386
          ],
          [
            -98.212165,
            30.796226
          ],
          [
            -98.212298,
            30.796123
          ],
          [
            -98.21248,
            30.795967
          ],
          [
            -98.212591,
            30.795856
          ],
          [
            -98.212801,
            30.795623
          ],
          [
            -98.212965,
            30.795463
          ],
          [
            -98.213304,
            30.794655
          ],
          [
            -98.213461,
            30.794274
          ],
          [
            -98.214202,
            30.792523
          ],
          [
            -98.214337,
            30.792144
          ],
          [
            -98.214594,
            30.79152
          ],
          [
            -98.214754,
            30.791141
          ],
          [
            -98.215159,
            30.79019
          ],
          [
            -98.215308,
            30.789838
          ],
          [
            -98.215368,
            30.789697
          ],
          [
            -98.215489,
            30.789413
          ],
          [
            -98.215492,
            30.789405
          ],
          [
            -98.215757,
            30.788757
          ],
          [
            -98.216064,
            30.787986
          ],
          [
            -98.216195,
            30.787657
          ],
          [
            -98.216283,
            30.787374
          ],
          [
            -98.21629,
            30.78735
          ],
          [
            -98.216364,
            30.787041
          ],
          [
            -98.216425,
            30.78672
          ],
          [
            -98.216455,
            30.786418
          ],
          [
            -98.216451,
            30.785986
          ],
          [
            -98.216438,
            30.78573
          ],
          [
            -98.216416,
            30.785522
          ],
          [
            -98.216378,
            30.785168
          ],
          [
            -98.2163,
            30.784696
          ],
          [
            -98.216274,
            30.784516
          ],
          [
            -98.216168,
            30.783781
          ],
          [
            -98.216167,
            30.783767
          ],
          [
            -98.216149,
            30.783459
          ],
          [
            -98.216144,
            30.782934
          ],
          [
            -98.216147,
            30.782894
          ],
          [
            -98.216185,
            30.782379
          ],
          [
            -98.216239,
            30.781733
          ],
          [
            -98.216393,
            30.779883
          ],
          [
            -98.216407,
            30.779358
          ],
          [
            -98.216371,
            30.778092
          ],
          [
            -98.216369,
            30.777495
          ],
          [
            -98.216399,
            30.777072
          ],
          [
            -98.216411,
            30.776984
          ],
          [
            -98.21645,
            30.776704
          ],
          [
            -98.216518,
            30.776356
          ],
          [
            -98.216612,
            30.775984
          ],
          [
            -98.216794,
            30.775456
          ],
          [
            -98.216992,
            30.774945
          ],
          [
            -98.217,
            30.77493
          ],
          [
            -98.217137,
            30.774661
          ],
          [
            -98.217309,
            30.774336
          ],
          [
            -98.217569,
            30.773846
          ],
          [
            -98.217625,
            30.773742
          ],
          [
            -98.217688,
            30.773623
          ],
          [
            -98.218061,
            30.77298
          ],
          [
            -98.218414,
            30.772298
          ],
          [
            -98.218946,
            30.771437
          ],
          [
            -98.219154,
            30.771214
          ],
          [
            -98.219597,
            30.770818
          ],
          [
            -98.219833,
            30.770654
          ],
          [
            -98.220167,
            30.770444
          ],
          [
            -98.22085,
            30.770154
          ],
          [
            -98.222801,
            30.769524
          ],
          [
            -98.223938,
            30.769158
          ],
          [
            -98.22438,
            30.769048
          ],
          [
            -98.224662,
            30.768982
          ],
          [
            -98.225723,
            30.768774
          ],
          [
            -98.225877,
            30.768749
          ],
          [
            -98.226312,
            30.76867
          ],
          [
            -98.226814,
            30.768579
          ],
          [
            -98.227069,
            30.768536
          ],
          [
            -98.227576,
            30.768452
          ],
          [
            -98.228035,
            30.768368
          ],
          [
            -98.228566,
            30.768271
          ],
          [
            -98.228647,
            30.768256
          ],
          [
            -98.229125,
            30.768168
          ],
          [
            -98.230242,
            30.767963
          ],
          [
            -98.231183,
            30.767807
          ],
          [
            -98.231107,
            30.767521
          ],
          [
            -98.230689,
            30.765855
          ],
          [
            -98.230182,
            30.763851
          ],
          [
            -98.230088,
            30.763471
          ],
          [
            -98.229678,
            30.761869
          ],
          [
            -98.229521,
            30.761214
          ],
          [
            -98.22945,
            30.760945
          ],
          [
            -98.229377,
            30.760654
          ],
          [
            -98.229315,
            30.760412
          ],
          [
            -98.229226,
            30.760033
          ],
          [
            -98.229176,
            30.759836
          ],
          [
            -98.229086,
            30.759484
          ],
          [
            -98.228986,
            30.759096
          ],
          [
            -98.228936,
            30.758885
          ],
          [
            -98.228868,
            30.758592
          ],
          [
            -98.228741,
            30.758109
          ],
          [
            -98.228704,
            30.758116
          ]
        ]
      }
    }
  ]
}