{
  "type": "FeatureCollection",
  "features": [
    {
      "type": "Feature",
      "properties": {
        "route": "Lime Creek Road & Lake Travis Loop",
        "category": "Twisties & Canyons",
        "color": "#e74c3c",
        "waypoints": [
          "Cedar Park",
          "Lime Creek",
          "Volente"
        ],
        "via": "FM 2769 -> Lime Creek Rd -> Volente -> Bullick Hollow Rd",
        "distance_mi": 26.7,
        "source": "road-snapped"
      },
      "geometry": {
        "type": "LineString",
        "coordinates": [
          [
            -97.829963,
            30.504913
          ],
          [
            -97.830091,
            30.504873
          ],
          [
            -97.830118,
            30.504865
          ],
          [
            -97.830199,
            30.504839
          ],
          [
            -97.830223,
            30.504893
          ],
          [
            -97.830231,
            30.504911
          ],
          [
            -97.830344,
            30.505196
          ],
          [
            -97.830426,
            30.505386
          ],
          [
            -97.830475,
            30.505472
          ],
          [
            -97.830524,
            30.505552
          ],
          [
            -97.830784,
            30.505804
          ],
          [
            -97.831013,
            30.506068
          ],
          [
            -97.831152,
            30.506316
          ],
          [
            -97.831408,
            30.506892
          ],
          [
            -97.831427,
            30.506934
          ],
          [
            -97.831459,
            30.507007
          ],
          [
            -97.832161,
            30.506774
          ],
          [
            -97.832503,
            30.506664
          ],
          [
            -97.832801,
            30.506575
          ],
          [
            -97.83294,
            30.506523
          ],
          [
            -97.833667,
            30.506139
          ],
          [
            -97.833787,
            30.50607
          ],
          [
            -97.833926,
            30.505996
          ],
          [
            -97.834152,
            30.505868
          ],
          [
            -97.834313,
            30.505757
          ],
          [
            -97.834462,
            30.505688
          ],
          [
            -97.834551,
            30.505649
          ],
          [
            -97.834979,
            30.505508
          ],
          [
            -97.835376,
            30.505411
          ],
          [
            -97.835956,
            30.505274
          ],
          [
            -97.836403,
            30.505149
          ],
          [
            -97.836703,
            30.505082
          ],
          [
            -97.836838,
            30.505072
          ],
          [
            -97.837072,
            30.50508
          ],
          [
            -97.837436,
            30.505131
          ],
          [
            -97.837737,
            30.505179
          ],
          [
            -97.838118,
            30.505254
          ],
          [
            -97.838417,
            30.505275
          ],
          [
            -97.838553,
            30.505275
          ],
          [
            -97.838692,
            30.505262
          ],
          [
            -97.838805,
            30.505239
          ],
          [
            -97.839223,
            30.505121
          ],
          [
            -97.840037,
            30.504875
          ],
          [
            -97.840763,
            30.504653
          ],
          [
            -97.840831,
            30.504631
          ],
          [
            -97.841657,
            30.504365
          ],
          [
            -97.842701,
            30.504057
          ],
          [
            -97.842785,
            30.504033
          ],
          [
            -97.843145,
            30.503921
          ],
          [
            -97.843254,
            30.503887
          ],
          [
            -97.843433,
            30.503826
          ],
          [
            -97.843904,
            30.50368
          ],
          [
            -97.844019,
            30.503645
          ],
          [
            -97.844239,
            30.503579
          ],
          [
            -97.844757,
            30.503424
          ],
          [
            -97.845746,
            30.503122
          ],
          [
            -97.845878,
            30.503081
          ],
          [
            -97.846009,
            30.503042
          ],
          [
            -97.846976,
            30.502733
          ],
          [
            -97.84716,
            30.502677
          ],
          [
            -97.847311,
            30.502635
          ],
          [
            -97.847412,
            30.50261
          ],
          [
            -97.847553,
            30.502572
          ],
          [
            -97.847523,
            30.502443
          ],
          [
            -97.847467,
            30.502211
          ],
          [
            -97.847418,
            30.501751
          ],
          [
            -97.847407,
            30.501281
          ],
          [
            -97.847395,
            30.500874
          ],
          [
            -97.84737,
            30.500548
          ],
          [
            -97.847329,
            30.500288
          ],
          [
            -97.847235,
            30.499988
          ],
          [
            -97.847197,
            30.499897
          ],
          [
            -97.847021,
            30.499538
          ],
          [
            -97.846887,
            30.499311
          ],
          [
            -97.846961,
            30.499256
          ],
          [
            -97.847441,
            30.498902
          ],
          [
            -97.848058,
            30.498431
          ],
          [
            -97.848154,
            30.49832
          ],
          [
            -97.848245,
            30.498172
          ],
          [
            -97.848299,
            30.498001
          ],
          [
            -97.84832,
            30.497839
          ],
          [
            -97.848321,
            30.497818
          ],
          [
            -97.848326,
            30.497691
          ],
          [
            -97.848798,
            30.497663
          ],
          [
            -97.849237,
            30.497571
          ],
          [
            -97.849613,
            30.497423
          ],
          [
            -97.850117,
            30.497097
          ],
          [
            -97.850214,
            30.497035
          ],
          [
            -97.850309,
            30.49697
          ],
          [
            -97.850775,
            30.496654
          ],
          [
            -97.850829,
            30.496617
          ],
          [
            -97.851085,
            30.496443
          ],
          [
            -97.851834,
            30.495935
          ],
          [
            -97.851984,
            30.495811
          ],
          [
            -97.852156,
            30.49562
          ],
          [
            -97.852228,
            30.495509
          ],
          [
            -97.852288,
            30.495418
          ],
          [
            -97.852403,
            30.495461
          ],
          [
            -97.852433,
            30.495473
          ],
          [
            -97.853114,
            30.49573
          ],
          [
            -97.85315,
            30.495664
          ],
          [
            -97.853158,
            30.495651
          ],
          [
            -97.853161,
            30.495646
          ],
          [
            -97.853185,
            30.495608
          ],
          [
            -97.853247,
            30.495536
          ],
          [
            -97.853411,
            30.495412
          ],
          [
            -97.853648,
            30.495297
          ],
          [
            -97.853803,
            30.495252
          ],
          [
            -97.854024,
            30.49521
          ],
          [
            -97.854397,
            30.49514
          ],
          [
            -97.854844,
            30.495075
          ],
          [
            -97.855015,
            30.49504
          ],
          [
            -97.855397,
            30.494971
          ],
          [
            -97.855565,
            30.494926
          ],
          [
            -97.85568,
            30.494865
          ],
          [
            -97.855828,
            30.494767
          ],
          [
            -97.855996,
            30.494597
          ],
          [
            -97.856115,
            30.49445
          ],
          [
            -97.856132,
            30.494429
          ],
          [
            -97.85619,
            30.494357
          ],
          [
            -97.857339,
            30.495105
          ],
          [
            -97.857424,
            30.495162
          ],
          [
            -97.857556,
            30.495237
          ],
          [
            -97.857646,
            30.495285
          ],
          [
            -97.857808,
            30.495366
          ],
          [
            -97.85782,
            30.495372
          ],
          [
            -97.857905,
            30.495413
          ],
          [
            -97.858021,
            30.495471
          ],
          [
            -97.858096,
            30.49536
          ],
          [
            -97.859303,
            30.493506
          ],
          [
            -97.859556,
            30.493211
          ],
          [
            -97.859761,
            30.492962
          ],
          [
            -97.859887,
            30.492772
          ],
          [
            -97.860049,
            30.492542
          ],
          [
            -97.860182,
            30.492318
          ],
          [
            -97.860273,
            30.492135
          ],
          [
            -97.860379,
            30.491885
          ],
          [
            -97.860433,
            30.491707
          ],
          [
            -97.860478,
            30.491526
          ],
          [
            -97.860518,
            30.491311
          ],
          [
            -97.86054,
            30.491143
          ],
          [
            -97.860542,
            30.491124
          ],
          [
            -97.860548,
            30.490918
          ],
          [
            -97.860537,
            30.490756
          ],
          [
            -97.860534,
            30.490716
          ],
          [
            -97.860512,
            30.490538
          ],
          [
            -97.860467,
            30.490342
          ],
          [
            -97.860408,
            30.490153
          ],
          [
            -97.860543,
            30.490118
          ],
          [
            -97.860785,
            30.490056
          ],
          [
            -97.86096,
            30.490016
          ],
          [
            -97.861142,
            30.489963
          ],
          [
            -97.861181,
            30.489945
          ],
          [
            -97.861328,
            30.489879
          ],
          [
            -97.861505,
            30.489786
          ],
          [
            -97.861835,
            30.489591
          ],
          [
            -97.86232,
            30.489292
          ],
          [
            -97.862821,
            30.489012
          ],
          [
            -97.863119,
            30.488848
          ],
          [
            -97.863338,
            30.488736
          ],
          [
            -97.863535,
            30.48861
          ],
          [
            -97.863707,
            30.488484
          ],
          [
            -97.863873,
            30.488353
          ],
          [
            -97.864194,
            30.488087
          ],
          [
            -97.864835,
            30.487559
          ],
          [
            -97.866135,
            30.486488
          ],
          [
            -97.866798,
            30.485955
          ],
          [
            -97.867122,
            30.48569
          ],
          [
            -97.867459,
            30.485424
          ],
          [
            -97.868214,
            30.484802
          ],
          [
            -97.868585,
            30.484493
          ],
          [
            -97.868767,
            30.484341
          ],
          [
            -97.868863,
            30.484266
          ],
          [
            -97.868958,
            30.484196
          ],
          [
            -97.869064,
            30.484124
          ],
          [
            -97.869175,
            30.484051
          ],
          [
            -97.869283,
            30.483991
          ],
          [
            -97.869399,
            30.483932
          ],
          [
            -97.869578,
            30.483853
          ],
          [
            -97.86959,
            30.483848
          ],
          [
            -97.869757,
            30.48378
          ],
          [
            -97.870116,
            30.483632
          ],
          [
            -97.870477,
            30.483488
          ],
          [
            -97.870571,
            30.483452
          ],
          [
            -97.870847,
            30.483344
          ],
          [
            -97.871427,
            30.483111
          ],
          [
            -97.871708,
            30.482997
          ],
          [
            -97.87186,
            30.482948
          ],
          [
            -97.872013,
            30.482906
          ],
          [
            -97.872103,
            30.48289
          ],
          [
            -97.872192,
            30.48288
          ],
          [
            -97.872286,
            30.482883
          ],
          [
            -97.872373,
            30.48289
          ],
          [
            -97.872565,
            30.482923
          ],
          [
            -97.872757,
            30.482965
          ],
          [
            -97.873017,
            30.483024
          ],
          [
            -97.873145,
            30.483052
          ],
          [
            -97.873277,
            30.483074
          ],
          [
            -97.873384,
            30.483089
          ],
          [
            -97.873496,
            30.483095
          ],
          [
            -97.873713,
            30.483095
          ],
          [
            -97.876395,
            30.483008
          ],
          [
            -97.877069,
            30.482978
          ],
          [
            -97.877735,
            30.482944
          ],
          [
            -97.878405,
            30.482914
          ],
          [
            -97.878744,
            30.482902
          ],
          [
            -97.879079,
            30.482895
          ],
          [
            -97.879453,
            30.482903
          ],
          [
            -97.87964,
            30.482914
          ],
          [
            -97.879745,
            30.482928
          ],
          [
            -97.879824,
            30.482939
          ],
          [
            -97.88014,
            30.483003
          ],
          [
            -97.880453,
            30.483085
          ],
          [
            -97.88096,
            30.483233
          ],
          [
            -97.88122,
            30.483308
          ],
          [
            -97.881467,
            30.483399
          ],
          [
            -97.881827,
            30.483547
          ],
          [
            -97.882008,
            30.483621
          ],
          [
            -97.882552,
            30.483849
          ],
          [
            -97.882779,
            30.483918
          ],
          [
            -97.88295,
            30.483962
          ],
          [
            -97.883,
            30.483975
          ],
          [
            -97.883477,
            30.484056
          ],
          [
            -97.883908,
            30.484118
          ],
          [
            -97.883959,
            30.484125
          ],
          [
            -97.884201,
            30.484168
          ],
          [
            -97.884439,
            30.484222
          ],
          [
            -97.884587,
            30.484262
          ],
          [
            -97.884735,
            30.484311
          ],
          [
            -97.884804,
            30.484336
          ],
          [
            -97.884874,
            30.484361
          ],
          [
            -97.885007,
            30.48442
          ],
          [
            -97.885226,
            30.484535
          ],
          [
            -97.88525,
            30.484548
          ],
          [
            -97.885374,
            30.484633
          ],
          [
            -97.885427,
            30.484683
          ],
          [
            -97.885485,
            30.484738
          ],
          [
            -97.885574,
            30.484836
          ],
          [
            -97.885648,
            30.48494
          ],
          [
            -97.885784,
            30.48516
          ],
          [
            -97.885854,
            30.485269
          ],
          [
            -97.885928,
            30.485373
          ],
          [
            -97.886012,
            30.485474
          ],
          [
            -97.886099,
            30.485569
          ],
          [
            -97.886242,
            30.485699
          ],
          [
            -97.886399,
            30.48581
          ],
          [
            -97.886623,
            30.485937
          ],
          [
            -97.886852,
            30.486052
          ],
          [
            -97.887319,
            30.486279
          ],
          [
            -97.887689,
            30.486475
          ],
          [
            -97.887771,
            30.486519
          ],
          [
            -97.888137,
            30.486742
          ],
          [
            -97.888492,
            30.486985
          ],
          [
            -97.888739,
            30.487174
          ],
          [
            -97.888988,
            30.4873
          ],
          [
            -97.889374,
            30.487426
          ],
          [
            -97.889914,
            30.487493
          ],
          [
            -97.890515,
            30.487499
          ],
          [
            -97.890876,
            30.48744
          ],
          [
            -97.891306,
            30.487293
          ],
          [
            -97.892187,
            30.486881
          ],
          [
            -97.892395,
            30.486656
          ],
          [
            -97.89255,
            30.486338
          ],
          [
            -97.892678,
            30.485857
          ],
          [
            -97.892756,
            30.485554
          ],
          [
            -97.892876,
            30.485258
          ],
          [
            -97.893125,
            30.484999
          ],
          [
            -97.893525,
            30.484635
          ],
          [
            -97.893745,
            30.484303
          ],
          [
            -97.893923,
            30.483912
          ],
          [
            -97.894019,
            30.483609
          ],
          [
            -97.894107,
            30.483334
          ],
          [
            -97.894309,
            30.482751
          ],
          [
            -97.894361,
            30.482529
          ],
          [
            -97.894352,
            30.482344
          ],
          [
            -97.894232,
            30.482041
          ],
          [
            -97.894053,
            30.481721
          ],
          [
            -97.893983,
            30.48153
          ],
          [
            -97.893988,
            30.481437
          ],
          [
            -97.893991,
            30.48136
          ],
          [
            -97.894077,
            30.481227
          ],
          [
            -97.894263,
            30.481141
          ],
          [
            -97.894585,
            30.481085
          ],
          [
            -97.894715,
            30.481083
          ],
          [
            -97.89516,
            30.481078
          ],
          [
            -97.895571,
            30.481079
          ],
          [
            -97.895778,
            30.481048
          ],
          [
            -97.896,
            30.481005
          ],
          [
            -97.89619,
            30.480907
          ],
          [
            -97.896824,
            30.480524
          ],
          [
            -97.897202,
            30.480273
          ],
          [
            -97.897433,
            30.480169
          ],
          [
            -97.897674,
            30.480147
          ],
          [
            -97.897923,
            30.480214
          ],
          [
            -97.89824,
            30.480369
          ],
          [
            -97.898558,
            30.480487
          ],
          [
            -97.898875,
            30.480495
          ],
          [
            -97.899167,
            30.480458
          ],
          [
            -97.899442,
            30.480347
          ],
          [
            -97.899488,
            30.480306
          ],
          [
            -97.899595,
            30.480204
          ],
          [
            -97.899656,
            30.480147
          ],
          [
            -97.899981,
            30.479593
          ],
          [
            -97.90028,
            30.479093
          ],
          [
            -97.900412,
            30.478952
          ],
          [
            -97.900927,
            30.478579
          ],
          [
            -97.901304,
            30.478291
          ],
          [
            -97.901403,
            30.478173
          ],
          [
            -97.901467,
            30.478054
          ],
          [
            -97.901504,
            30.477841
          ],
          [
            -97.901477,
            30.477583
          ],
          [
            -97.901423,
            30.477277
          ],
          [
            -97.90135,
            30.476974
          ],
          [
            -97.901329,
            30.476832
          ],
          [
            -97.901347,
            30.476689
          ],
          [
            -97.901499,
            30.476371
          ],
          [
            -97.901664,
            30.476023
          ],
          [
            -97.901905,
            30.475317
          ],
          [
            -97.902006,
            30.475142
          ],
          [
            -97.902336,
            30.474572
          ],
          [
            -97.902353,
            30.474372
          ],
          [
            -97.902311,
            30.474216
          ],
          [
            -97.90225,
            30.474059
          ],
          [
            -97.902192,
            30.473966
          ],
          [
            -97.90191,
            30.473516
          ],
          [
            -97.901909,
            30.473514
          ],
          [
            -97.901723,
            30.47329
          ],
          [
            -97.901511,
            30.473059
          ],
          [
            -97.901134,
            30.47281
          ],
          [
            -97.900459,
            30.472442
          ],
          [
            -97.900143,
            30.47231
          ],
          [
            -97.899708,
            30.472203
          ],
          [
            -97.899525,
            30.472211
          ],
          [
            -97.89933,
            30.47224
          ],
          [
            -97.899047,
            30.472384
          ],
          [
            -97.898768,
            30.472589
          ],
          [
            -97.89847,
            30.472879
          ],
          [
            -97.898333,
            30.473003
          ],
          [
            -97.898174,
            30.473079
          ],
          [
            -97.898084,
            30.473091
          ],
          [
            -97.897987,
            30.47308
          ],
          [
            -97.897893,
            30.473037
          ],
          [
            -97.897813,
            30.472985
          ],
          [
            -97.897697,
            30.472855
          ],
          [
            -97.897632,
            30.47272
          ],
          [
            -97.897596,
            30.472574
          ],
          [
            -97.89751,
            30.472036
          ],
          [
            -97.89744,
            30.47182
          ],
          [
            -97.89735,
            30.47169
          ],
          [
            -97.897225,
            30.47157
          ],
          [
            -97.896796,
            30.471226
          ],
          [
            -97.896767,
            30.471202
          ],
          [
            -97.896292,
            30.47081
          ],
          [
            -97.896218,
            30.470737
          ],
          [
            -97.896152,
            30.470599
          ],
          [
            -97.896145,
            30.470504
          ],
          [
            -97.896182,
            30.470435
          ],
          [
            -97.896276,
            30.470359
          ],
          [
            -97.89639,
            30.470325
          ],
          [
            -97.896741,
            30.47028
          ],
          [
            -97.897067,
            30.470236
          ],
          [
            -97.897284,
            30.470175
          ],
          [
            -97.8975,
            30.470079
          ],
          [
            -97.897847,
            30.469874
          ],
          [
            -97.897927,
            30.469797
          ],
          [
            -97.897978,
            30.469713
          ],
          [
            -97.89801,
            30.469593
          ],
          [
            -97.898017,
            30.469471
          ],
          [
            -97.897972,
            30.469183
          ],
          [
            -97.89919,
            30.468829
          ],
          [
            -97.899318,
            30.469026
          ],
          [
            -97.899457,
            30.469198
          ],
          [
            -97.899643,
            30.469365
          ],
          [
            -97.899836,
            30.469477
          ],
          [
            -97.900021,
            30.469553
          ],
          [
            -97.900223,
            30.469613
          ],
          [
            -97.900472,
            30.469648
          ],
          [
            -97.900715,
            30.469667
          ],
          [
            -97.900957,
            30.469649
          ],
          [
            -97.90114,
            30.469608
          ],
          [
            -97.901302,
            30.469545
          ],
          [
            -97.901439,
            30.469466
          ],
          [
            -97.901555,
            30.469378
          ],
          [
            -97.901742,
            30.469199
          ],
          [
            -97.901953,
            30.469025
          ],
          [
            -97.902128,
            30.468955
          ],
          [
            -97.902264,
            30.468949
          ],
          [
            -97.902375,
            30.468964
          ],
          [
            -97.902557,
            30.46904
          ],
          [
            -97.902746,
            30.469184
          ],
          [
            -97.90299,
            30.469416
          ],
          [
            -97.903249,
            30.469609
          ],
          [
            -97.903514,
            30.46971
          ],
          [
            -97.903804,
            30.469784
          ],
          [
            -97.904162,
            30.469843
          ],
          [
            -97.90449,
            30.469841
          ],
          [
            -97.904892,
            30.469753
          ],
          [
            -97.905261,
            30.469576
          ],
          [
            -97.905428,
            30.46944
          ],
          [
            -97.905561,
            30.469295
          ],
          [
            -97.905714,
            30.4691
          ],
          [
            -97.90581,
            30.468888
          ],
          [
            -97.905939,
            30.468474
          ],
          [
            -97.905973,
            30.468023
          ],
          [
            -97.905956,
            30.467564
          ],
          [
            -97.905879,
            30.467246
          ],
          [
            -97.90569,
            30.466706
          ],
          [
            -97.905527,
            30.466314
          ],
          [
            -97.904816,
            30.465633
          ],
          [
            -97.904683,
            30.465506
          ],
          [
            -97.904437,
            30.46513
          ],
          [
            -97.904274,
            30.464746
          ],
          [
            -97.904034,
            30.464457
          ],
          [
            -97.903647,
            30.464169
          ],
          [
            -97.902918,
            30.463658
          ],
          [
            -97.902789,
            30.463458
          ],
          [
            -97.902746,
            30.463194
          ],
          [
            -97.9027,
            30.46302
          ],
          [
            -97.902622,
            30.462866
          ],
          [
            -97.902497,
            30.462698
          ],
          [
            -97.902356,
            30.462542
          ],
          [
            -97.902141,
            30.462338
          ],
          [
            -97.901931,
            30.462161
          ],
          [
            -97.9026,
            30.461172
          ],
          [
            -97.902897,
            30.46127
          ],
          [
            -97.903177,
            30.46134
          ],
          [
            -97.90349,
            30.461385
          ],
          [
            -97.903784,
            30.461392
          ],
          [
            -97.904015,
            30.461375
          ],
          [
            -97.904222,
            30.46132
          ],
          [
            -97.904414,
            30.461217
          ],
          [
            -97.904566,
            30.461098
          ],
          [
            -97.905373,
            30.460358
          ],
          [
            -97.905527,
            30.460307
          ],
          [
            -97.905725,
            30.460321
          ],
          [
            -97.905879,
            30.460381
          ],
          [
            -97.906128,
            30.460484
          ],
          [
            -97.906325,
            30.460617
          ],
          [
            -97.906385,
            30.460802
          ],
          [
            -97.906343,
            30.460972
          ],
          [
            -97.906023,
            30.461507
          ],
          [
            -97.905977,
            30.461642
          ],
          [
            -97.905953,
            30.461781
          ],
          [
            -97.905982,
            30.461934
          ],
          [
            -97.906078,
            30.462083
          ],
          [
            -97.906188,
            30.462201
          ],
          [
            -97.906729,
            30.462585
          ],
          [
            -97.907145,
            30.462841
          ],
          [
            -97.907418,
            30.46296
          ],
          [
            -97.907547,
            30.462984
          ],
          [
            -97.90769,
            30.46301
          ],
          [
            -97.908325,
            30.46299
          ],
          [
            -97.90912,
            30.463016
          ],
          [
            -97.909822,
            30.463038
          ],
          [
            -97.910148,
            30.463024
          ],
          [
            -97.910527,
            30.462985
          ],
          [
            -97.911079,
            30.462888
          ],
          [
            -97.911504,
            30.462841
          ],
          [
            -97.911797,
            30.462783
          ],
          [
            -97.912093,
            30.462574
          ],
          [
            -97.912652,
            30.462046
          ],
          [
            -97.912937,
            30.461724
          ],
          [
            -97.912969,
            30.461676
          ],
          [
            -97.913046,
            30.461561
          ],
          [
            -97.91312,
            30.461422
          ],
          [
            -97.913108,
            30.461273
          ],
          [
            -97.913053,
            30.461138
          ],
          [
            -97.912835,
            30.460825
          ],
          [
            -97.912764,
            30.460689
          ],
          [
            -97.912742,
            30.460521
          ],
          [
            -97.912809,
            30.460333
          ],
          [
            -97.913381,
            30.459712
          ],
          [
            -97.913524,
            30.45964
          ],
          [
            -97.913659,
            30.459624
          ],
          [
            -97.913827,
            30.459652
          ],
          [
            -97.913969,
            30.459725
          ],
          [
            -97.914161,
            30.459844
          ],
          [
            -97.914325,
            30.4599
          ],
          [
            -97.914665,
            30.459941
          ],
          [
            -97.914912,
            30.459942
          ],
          [
            -97.914994,
            30.459942
          ],
          [
            -97.915671,
            30.459656
          ],
          [
            -97.915761,
            30.459609
          ],
          [
            -97.915982,
            30.459496
          ],
          [
            -97.916163,
            30.459404
          ],
          [
            -97.916362,
            30.459302
          ],
          [
            -97.916593,
            30.459183
          ],
          [
            -97.916788,
            30.459074
          ],
          [
            -97.91694,
            30.458989
          ],
          [
            -97.9171,
            30.458861
          ],
          [
            -97.917118,
            30.458846
          ],
          [
            -97.917219,
            30.458688
          ],
          [
            -97.917264,
            30.458562
          ],
          [
            -97.917283,
            30.45844
          ],
          [
            -97.917277,
            30.458317
          ],
          [
            -97.917267,
            30.458288
          ],
          [
            -97.917234,
            30.458196
          ],
          [
            -97.917148,
            30.458058
          ],
          [
            -97.916995,
            30.457873
          ],
          [
            -97.916773,
            30.457717
          ],
          [
            -97.916644,
            30.457597
          ],
          [
            -97.916576,
            30.457533
          ],
          [
            -97.916353,
            30.457344
          ],
          [
            -97.916328,
            30.457311
          ],
          [
            -97.916204,
            30.457144
          ],
          [
            -97.916156,
            30.457053
          ],
          [
            -97.915904,
            30.456573
          ],
          [
            -97.91585,
            30.45648
          ],
          [
            -97.9157,
            30.456218
          ],
          [
            -97.915643,
            30.456118
          ],
          [
            -97.915599,
            30.456041
          ],
          [
            -97.915585,
            30.456017
          ],
          [
            -97.915389,
            30.455792
          ],
          [
            -97.915295,
            30.455727
          ],
          [
            -97.915223,
            30.455663
          ],
          [
            -97.915006,
            30.455513
          ],
          [
            -97.914916,
            30.455467
          ],
          [
            -97.914734,
            30.455356
          ],
          [
            -97.914723,
            30.455349
          ],
          [
            -97.91434,
            30.455211
          ],
          [
            -97.914205,
            30.455173
          ],
          [
            -97.914015,
            30.455119
          ],
          [
            -97.913811,
            30.455016
          ],
          [
            -97.913712,
            30.454949
          ],
          [
            -97.913675,
            30.454923
          ],
          [
            -97.91358,
            30.45482
          ],
          [
            -97.913488,
            30.454674
          ],
          [
            -97.913484,
            30.454662
          ],
          [
            -97.913435,
            30.454523
          ],
          [
            -97.913417,
            30.454104
          ],
          [
            -97.913413,
            30.453999
          ],
          [
            -97.91341,
            30.453976
          ],
          [
            -97.913346,
            30.453498
          ],
          [
            -97.913159,
            30.452734
          ],
          [
            -97.913018,
            30.452591
          ],
          [
            -97.912814,
            30.452469
          ],
          [
            -97.912503,
            30.452331
          ],
          [
            -97.912017,
            30.452131
          ],
          [
            -97.911703,
            30.452002
          ],
          [
            -97.910827,
            30.451547
          ],
          [
            -97.910377,
            30.451333
          ],
          [
            -97.910203,
            30.451272
          ],
          [
            -97.909992,
            30.451212
          ],
          [
            -97.90959,
            30.451082
          ],
          [
            -97.909233,
            30.450965
          ],
          [
            -97.9091,
            30.450913
          ],
          [
            -97.908998,
            30.450869
          ],
          [
            -97.908889,
            30.450813
          ],
          [
            -97.908817,
            30.450754
          ],
          [
            -97.90864,
            30.450613
          ],
          [
            -97.908438,
            30.450425
          ],
          [
            -97.908267,
            30.450288
          ],
          [
            -97.908226,
            30.450264
          ],
          [
            -97.908004,
            30.450135
          ],
          [
            -97.907952,
            30.450111
          ],
          [
            -97.907735,
            30.450011
          ],
          [
            -97.907434,
            30.449891
          ],
          [
            -97.907096,
            30.449771
          ],
          [
            -97.906943,
            30.449724
          ],
          [
            -97.906803,
            30.449695
          ],
          [
            -97.906618,
            30.449681
          ],
          [
            -97.906477,
            30.449678
          ],
          [
            -97.906465,
            30.449677
          ],
          [
            -97.905747,
            30.449697
          ],
          [
            -97.905127,
            30.449695
          ],
          [
            -97.904987,
            30.449679
          ],
          [
            -97.904816,
            30.449635
          ],
          [
            -97.904709,
            30.449567
          ],
          [
            -97.904645,
            30.449487
          ],
          [
            -97.904629,
            30.44939
          ],
          [
            -97.904652,
            30.449312
          ],
          [
            -97.904714,
            30.449234
          ],
          [
            -97.905089,
            30.448904
          ],
          [
            -97.905351,
            30.448678
          ],
          [
            -97.905484,
            30.448515
          ],
          [
            -97.905707,
            30.448089
          ],
          [
            -97.905793,
            30.447891
          ],
          [
            -97.905903,
            30.447694
          ],
          [
            -97.905959,
            30.447651
          ],
          [
            -97.906032,
            30.447593
          ],
          [
            -97.906191,
            30.447529
          ],
          [
            -97.906512,
            30.447507
          ],
          [
            -97.907173,
            30.447463
          ],
          [
            -97.907939,
            30.447342
          ],
          [
            -97.908347,
            30.447256
          ],
          [
            -97.908847,
            30.447076
          ],
          [
            -97.909095,
            30.446941
          ],
          [
            -97.909215,
            30.446845
          ],
          [
            -97.909339,
            30.446747
          ],
          [
            -97.909533,
            30.446502
          ],
          [
            -97.90981,
            30.446073
          ],
          [
            -97.909967,
            30.445914
          ],
          [
            -97.910164,
            30.445751
          ],
          [
            -97.910686,
            30.445473
          ],
          [
            -97.910859,
            30.445354
          ],
          [
            -97.911047,
            30.445174
          ],
          [
            -97.91118,
            30.444999
          ],
          [
            -97.911291,
            30.444812
          ],
          [
            -97.911359,
            30.444601
          ],
          [
            -97.911385,
            30.444108
          ],
          [
            -97.911331,
            30.443598
          ],
          [
            -97.911353,
            30.443471
          ],
          [
            -97.911372,
            30.443402
          ],
          [
            -97.911415,
            30.4433
          ],
          [
            -97.911522,
            30.443092
          ],
          [
            -97.911998,
            30.442471
          ],
          [
            -97.912139,
            30.442286
          ],
          [
            -97.912266,
            30.442113
          ],
          [
            -97.912427,
            30.441864
          ],
          [
            -97.912347,
            30.441738
          ],
          [
            -97.912046,
            30.441429
          ],
          [
            -97.911587,
            30.441134
          ],
          [
            -97.911031,
            30.440778
          ],
          [
            -97.910249,
            30.440265
          ],
          [
            -97.910101,
            30.440202
          ],
          [
            -97.909843,
            30.440102
          ],
          [
            -97.909775,
            30.440076
          ],
          [
            -97.909409,
            30.439951
          ],
          [
            -97.908964,
            30.439799
          ],
          [
            -97.908729,
            30.439715
          ],
          [
            -97.908574,
            30.439629
          ],
          [
            -97.908372,
            30.43949
          ],
          [
            -97.907927,
            30.439146
          ],
          [
            -97.90773,
            30.439031
          ],
          [
            -97.907466,
            30.43891
          ],
          [
            -97.907109,
            30.438806
          ],
          [
            -97.906902,
            30.438768
          ],
          [
            -97.906702,
            30.43874
          ],
          [
            -97.906533,
            30.438735
          ],
          [
            -97.906151,
            30.438764
          ],
          [
            -97.905936,
            30.438792
          ],
          [
            -97.905536,
            30.438843
          ],
          [
            -97.905307,
            30.438873
          ],
          [
            -97.905106,
            30.438925
          ],
          [
            -97.905036,
            30.438943
          ],
          [
            -97.904829,
            30.439034
          ],
          [
            -97.904439,
            30.439224
          ],
          [
            -97.904326,
            30.439253
          ],
          [
            -97.904283,
            30.439264
          ],
          [
            -97.904127,
            30.439283
          ],
          [
            -97.90396,
            30.439265
          ],
          [
            -97.903732,
            30.439181
          ],
          [
            -97.903446,
            30.439037
          ],
          [
            -97.903196,
            30.438868
          ],
          [
            -97.903113,
            30.438778
          ],
          [
            -97.903095,
            30.438687
          ],
          [
            -97.903096,
            30.438651
          ],
          [
            -97.903099,
            30.438554
          ],
          [
            -97.903264,
            30.437986
          ],
          [
            -97.90337,
            30.4378
          ],
          [
            -97.903894,
            30.437125
          ],
          [
            -97.904187,
            30.436582
          ],
          [
            -97.904283,
            30.436341
          ],
          [
            -97.904327,
            30.436165
          ],
          [
            -97.904328,
            30.435889
          ],
          [
            -97.904278,
            30.435141
          ],
          [
            -97.904223,
            30.434732
          ],
          [
            -97.90418,
            30.434566
          ],
          [
            -97.904057,
            30.434081
          ],
          [
            -97.904001,
            30.433906
          ],
          [
            -97.903917,
            30.433766
          ],
          [
            -97.903803,
            30.433661
          ],
          [
            -97.903629,
            30.433558
          ],
          [
            -97.903413,
            30.433476
          ],
          [
            -97.903099,
            30.433369
          ],
          [
            -97.902837,
            30.433316
          ],
          [
            -97.902602,
            30.433269
          ],
          [
            -97.902296,
            30.433246
          ],
          [
            -97.902103,
            30.433258
          ],
          [
            -97.901863,
            30.433285
          ],
          [
            -97.901667,
            30.433335
          ],
          [
            -97.901378,
            30.433451
          ],
          [
            -97.901278,
            30.433504
          ],
          [
            -97.901233,
            30.433527
          ],
          [
            -97.901075,
            30.433585
          ],
          [
            -97.900848,
            30.43368
          ],
          [
            -97.900424,
            30.433793
          ],
          [
            -97.900045,
            30.433841
          ],
          [
            -97.89983,
            30.43386
          ],
          [
            -97.899547,
            30.433885
          ],
          [
            -97.899273,
            30.433901
          ],
          [
            -97.899188,
            30.433906
          ],
          [
            -97.898739,
            30.433964
          ],
          [
            -97.898504,
            30.434003
          ],
          [
            -97.89847,
            30.434008
          ],
          [
            -97.897707,
            30.4342
          ],
          [
            -97.897378,
            30.43424
          ],
          [
            -97.897028,
            30.434228
          ],
          [
            -97.89668,
            30.434202
          ],
          [
            -97.895926,
            30.434144
          ],
          [
            -97.894218,
            30.433919
          ],
          [
            -97.89228,
            30.43362
          ],
          [
            -97.892126,
            30.433596
          ],
          [
            -97.891172,
            30.433474
          ],
          [
            -97.890793,
            30.433431
          ],
          [
            -97.890219,
            30.433367
          ],
          [
            -97.889405,
            30.433263
          ],
          [
            -97.889057,
            30.433197
          ],
          [
            -97.88884,
            30.433114
          ],
          [
            -97.888608,
            30.43299
          ],
          [
            -97.88806,
            30.432619
          ],
          [
            -97.887802,
            30.432468
          ],
          [
            -97.887616,
            30.432373
          ],
          [
            -97.887486,
            30.432326
          ],
          [
            -97.887304,
            30.432276
          ],
          [
            -97.88708,
            30.432235
          ],
          [
            -97.886667,
            30.43223
          ],
          [
            -97.886247,
            30.432261
          ],
          [
            -97.885962,
            30.432282
          ],
          [
            -97.885309,
            30.432352
          ],
          [
            -97.88492,
            30.432407
          ],
          [
            -97.884818,
            30.432422
          ],
          [
            -97.884495,
            30.432528
          ],
          [
            -97.884314,
            30.432626
          ],
          [
            -97.884267,
            30.432651
          ],
          [
            -97.884087,
            30.432768
          ],
          [
            -97.883997,
            30.43284
          ],
          [
            -97.883944,
            30.432883
          ],
          [
            -97.883864,
            30.432991
          ],
          [
            -97.883816,
            30.433056
          ],
          [
            -97.88364,
            30.43331
          ],
          [
            -97.883623,
            30.433335
          ],
          [
            -97.883538,
            30.433523
          ],
          [
            -97.883501,
            30.433605
          ],
          [
            -97.883448,
            30.433775
          ],
          [
            -97.883405,
            30.434011
          ],
          [
            -97.883401,
            30.434198
          ],
          [
            -97.883402,
            30.434387
          ],
          [
            -97.883403,
            30.434533
          ],
          [
            -97.883424,
            30.435438
          ],
          [
            -97.883431,
            30.435719
          ],
          [
            -97.883473,
            30.436007
          ],
          [
            -97.883518,
            30.436209
          ],
          [
            -97.883587,
            30.436375
          ],
          [
            -97.883713,
            30.436631
          ],
          [
            -97.883744,
            30.436692
          ],
          [
            -97.883767,
            30.43683
          ],
          [
            -97.88377,
            30.436959
          ],
          [
            -97.883772,
            30.437022
          ],
          [
            -97.883694,
            30.437298
          ],
          [
            -97.883565,
            30.437541
          ],
          [
            -97.883469,
            30.43769
          ],
          [
            -97.883363,
            30.437786
          ],
          [
            -97.883208,
            30.437915
          ],
          [
            -97.882913,
            30.438121
          ],
          [
            -97.882749,
            30.438275
          ],
          [
            -97.882527,
            30.438498
          ],
          [
            -97.882451,
            30.438575
          ],
          [
            -97.882027,
            30.439122
          ],
          [
            -97.881858,
            30.43929
          ],
          [
            -97.881757,
            30.439362
          ],
          [
            -97.881705,
            30.439398
          ],
          [
            -97.881518,
            30.439476
          ],
          [
            -97.881361,
            30.439485
          ],
          [
            -97.881101,
            30.439481
          ],
          [
            -97.880513,
            30.439383
          ],
          [
            -97.880354,
            30.439358
          ],
          [
            -97.880137,
            30.439319
          ],
          [
            -97.87986,
            30.439245
          ],
          [
            -97.879788,
            30.439201
          ],
          [
            -97.879742,
            30.439173
          ],
          [
            -97.879632,
            30.439046
          ],
          [
            -97.879616,
            30.43902
          ],
          [
            -97.879578,
            30.438957
          ],
          [
            -97.879557,
            30.438813
          ],
          [
            -97.879586,
            30.437825
          ],
          [
            -97.87962,
            30.437603
          ],
          [
            -97.879652,
            30.437452
          ],
          [
            -97.879697,
            30.437324
          ],
          [
            -97.879779,
            30.437092
          ],
          [
            -97.879849,
            30.436188
          ],
          [
            -97.879859,
            30.436457
          ],
          [
            -97.879842,
            30.436718
          ],
          [
            -97.879817,
            30.436929
          ],
          [
            -97.879779,
            30.437092
          ],
          [
            -97.879697,
            30.437324
          ],
          [
            -97.879652,
            30.437452
          ],
          [
            -97.87962,
            30.437603
          ],
          [
            -97.879586,
            30.437825
          ],
          [
            -97.879557,
            30.438813
          ],
          [
            -97.879578,
            30.438957
          ],
          [
            -97.879616,
            30.43902
          ],
          [
            -97.879632,
            30.439046
          ],
          [
            -97.879742,
            30.439173
          ],
          [
            -97.879788,
            30.439201
          ],
          [
            -97.87986,
            30.439245
          ],
          [
            -97.880137,
            30.439319
          ],
          [
            -97.880354,
            30.439358
          ],
          [
            -97.880513,
            30.439383
          ],
          [
            -97.881101,
            30.439481
          ],
          [
            -97.881361,
            30.439485
          ],
          [
            -97.881518,
            30.439476
          ],
          [
            -97.881705,
            30.439398
          ],
          [
            -97.881757,
            30.439362
          ],
          [
            -97.881858,
            30.43929
          ],
          [
            -97.882027,
            30.439122
          ],
          [
            -97.882451,
            30.438575
          ],
          [
            -97.882527,
            30.438498
          ],
          [
            -97.882749,
            30.438275
          ],
          [
            -97.882913,
            30.438121
          ],
          [
            -97.883208,
            30.437915
          ],
          [
            -97.883363,
            30.437786
          ],
          [
            -97.883469,
            30.43769
          ],
          [
            -97.883565,
            30.437541
          ],
          [
            -97.883694,
            30.437298
          ],
          [
            -97.883772,
            30.437022
          ],
          [
            -97.88377,
            30.436959
          ],
          [
            -97.883767,
            30.43683
          ],
          [
            -97.883744,
            30.436692
          ],
          [
            -97.883713,
            30.436631
          ],
          [
            -97.883587,
            30.436375
          ],
          [
            -97.883518,
            30.436209
          ],
          [
            -97.883473,
            30.436007
          ],
          [
            -97.883431,
            30.435719
          ],
          [
            -97.883424,
            30.435438
          ],
          [
            -97.883403,
            30.434533
          ],
          [
            -97.883402,
            30.434387
          ],
          [
            -97.883401,
            30.434198
          ],
          [
            -97.883405,
            30.434011
          ],
          [
            -97.883448,
            30.433775
          ],
          [
            -97.883501,
            30.433605
          ],
          [
            -97.883538,
            30.433523
          ],
          [
            -97.883623,
            30.433335
          ],
          [
            -97.88364,
            30.43331
          ],
          [
            -97.883816,
            30.433056
          ],
          [
            -97.883864,
            30.432991
          ],
          [
            -97.883944,
            30.432883
          ],
          [
            -97.883997,
            30.43284
          ],
          [
            -97.884087,
            30.432768
          ],
          [
            -97.884267,
            30.432651
          ],
          [
            -97.884314,
            30.432626
          ],
          [
            -97.884495,
            30.432528
          ],
          [
            -97.884818,
            30.432422
          ],
          [
            -97.88492,
            30.432407
          ],
          [
            -97.885309,
            30.432352
          ],
          [
            -97.885962,
            30.432282
          ],
          [
            -97.886247,
            30.432261
          ],
          [
            -97.886667,
            30.43223
          ],
          [
            -97.88708,
            30.432235
          ],
          [
            -97.887304,
            30.432276
          ],
          [
            -97.887486,
            30.432326
          ],
          [
            -97.887616,
            30.432373
          ],
          [
            -97.887802,
            30.432468
          ],
          [
            -97.88806,
            30.432619
          ],
          [
            -97.888608,
            30.43299
          ],
          [
            -97.88884,
            30.433114
          ],
          [
            -97.889057,
            30.433197
          ],
          [
            -97.889405,
            30.433263
          ],
          [
            -97.890219,
            30.433367
          ],
          [
            -97.890793,
            30.433431
          ],
          [
            -97.891172,
            30.433474
          ],
          [
            -97.892126,
            30.433596
          ],
          [
            -97.89228,
            30.43362
          ],
          [
            -97.894218,
            30.433919
          ],
          [
            -97.895926,
            30.434144
          ],
          [
            -97.89668,
            30.434202
          ],
          [
            -97.897028,
            30.434228
          ],
          [
            -97.897378,
            30.43424
          ],
          [
            -97.897707,
            30.4342
          ],
          [
            -97.89847,
            30.434008
          ],
          [
            -97.898504,
            30.434003
          ],
          [
            -97.898739,
            30.433964
          ],
          [
            -97.899188,
            30.433906
          ],
          [
            -97.899273,
            30.433901
          ],
          [
            -97.899547,
            30.433885
          ],
          [
            -97.89983,
            30.43386
          ],
          [
            -97.900045,
            30.433841
          ],
          [
            -97.900424,
            30.433793
          ],
          [
            -97.900848,
            30.43368
          ],
          [
            -97.901075,
            30.433585
          ],
          [
            -97.901233,
            30.433527
          ],
          [
            -97.901278,
            30.433504
          ],
          [
            -97.901378,
            30.433451
          ],
          [
            -97.901667,
            30.433335
          ],
          [
            -97.901863,
            30.433285
          ],
          [
            -97.902103,
            30.433258
          ],
          [
            -97.902296,
            30.433246
          ],
          [
            -97.902602,
            30.433269
          ],
          [
            -97.902837,
            30.433316
          ],
          [
            -97.903099,
            30.433369
          ],
          [
            -97.903413,
            30.433476
          ],
          [
            -97.903629,
            30.433558
          ],
          [
            -97.903803,
            30.433661
          ],
          [
            -97.903917,
            30.433766
          ],
          [
            -97.904001,
            30.433906
          ],
          [
            -97.904057,
            30.434081
          ],
          [
            -97.90418,
            30.434566
          ],
          [
            -97.904223,
            30.434732
          ],
          [
            -97.904278,
            30.435141
          ],
          [
            -97.904328,
            30.435889
          ],
          [
            -97.904327,
            30.436165
          ],
          [
            -97.904283,
            30.436341
          ],
          [
            -97.904187,
            30.436582
          ],
          [
            -97.903894,
            30.437125
          ],
          [
            -97.90337,
            30.4378
          ],
          [
            -97.903264,
            30.437986
          ],
          [
            -97.903099,
            30.438554
          ],
          [
            -97.903096,
            30.438651
          ],
          [
            -97.903095,
            30.438687
          ],
          [
            -97.903113,
            30.438778
          ],
          [
            -97.903196,
            30.438868
          ],
          [
            -97.903446,
            30.439037
          ],
          [
            -97.903732,
            30.439181
          ],
          [
            -97.90396,
            30.439265
          ],
          [
            -97.904127,
            30.439283
          ],
          [
            -97.904283,
            30.439264
          ],
          [
            -97.904326,
            30.439253
          ],
          [
            -97.904439,
            30.439224
          ],
          [
            -97.904829,
            30.439034
          ],
          [
            -97.905036,
            30.438943
          ],
          [
            -97.905106,
            30.438925
          ],
          [
            -97.905307,
            30.438873
          ],
          [
            -97.905536,
            30.438843
          ],
          [
            -97.905554,
            30.439268
          ],
          [
            -97.905536,
            30.438843
          ],
          [
            -97.905307,
            30.438873
          ],
          [
            -97.905307,
            30.438873
          ],
          [
            -97.905106,
            30.438925
          ],
          [
            -97.905036,
            30.438943
          ],
          [
            -97.904829,
            30.439034
          ],
          [
            -97.904439,
            30.439224
          ],
          [
            -97.904326,
            30.439253
          ],
          [
            -97.904283,
            30.439264
          ],
          [
            -97.904127,
            30.439283
          ],
          [
            -97.90396,
            30.439265
          ],
          [
            -97.903732,
            30.439181
          ],
          [
            -97.903446,
            30.439037
          ],
          [
            -97.903196,
            30.438868
          ],
          [
            -97.903113,
            30.438778
          ],
          [
            -97.903095,
            30.438687
          ],
          [
            -97.903096,
            30.438651
          ],
          [
            -97.903099,
            30.438554
          ],
          [
            -97.903264,
            30.437986
          ],
          [
            -97.90337,
            30.4378
          ],
          [
            -97.903894,
            30.437125
          ],
          [
            -97.904187,
            30.436582
          ],
          [
            -97.904283,
            30.436341
          ],
          [
            -97.904327,
            30.436165
          ],
          [
            -97.904328,
            30.435889
          ],
          [
            -97.904278,
            30.435141
          ],
          [
            -97.904223,
            30.434732
          ],
          [
            -97.90418,
            30.434566
          ],
          [
            -97.904057,
            30.434081
          ],
          [
            -97.904001,
            30.433906
          ],
          [
            -97.903917,
            30.433766
          ],
          [
            -97.903803,
            30.433661
          ],
          [
            -97.903629,
            30.433558
          ],
          [
            -97.903413,
            30.433476
          ],
          [
            -97.903099,
            30.433369
          ],
          [
            -97.902837,
            30.433316
          ],
          [
            -97.902602,
            30.433269
          ],
          [
            -97.902296,
            30.433246
          ],
          [
            -97.902103,
            30.433258
          ],
          [
            -97.901863,
            30.433285
          ],
          [
            -97.901667,
            30.433335
          ],
          [
            -97.901378,
            30.433451
          ],
          [
            -97.901278,
            30.433504
          ],
          [
            -97.901233,
            30.433527
          ],
          [
            -97.901075,
            30.433585
          ],
          [
            -97.900848,
            30.43368
          ],
          [
            -97.900424,
            30.433793
          ],
          [
            -97.900045,
            30.433841
          ],
          [
            -97.89983,
            30.43386
          ],
          [
            -97.899547,
            30.433885
          ],
          [
            -97.899273,
            30.433901
          ],
          [
            -97.899188,
            30.433906
          ],
          [
            -97.898739,
            30.433964
          ],
          [
            -97.898504,
            30.434003
          ],
          [
            -97.89847,
            30.434008
          ],
          [
            -97.897707,
            30.4342
          ],
          [
            -97.897378,
            30.43424
          ],
          [
            -97.897028,
            30.434228
          ],
          [
            -97.89668,
            30.434202
          ],
          [
            -97.895926,
            30.434144
          ],
          [
            -97.894218,
            30.433919
          ],
          [
            -97.89228,
            30.43362
          ],
          [
            -97.892126,
            30.433596
          ],
          [
            -97.891172,
            30.433474
          ],
          [
            -97.890793,
            30.433431
          ],
          [
            -97.890219,
            30.433367
          ],
          [
            -97.889405,
            30.433263
          ],
          [
            -97.889057,
            30.433197
          ],
          [
            -97.88884,
            30.433114
          ],
          [
            -97.888608,
            30.43299
          ],
          [
            -97.88806,
            30.432619
          ],
          [
            -97.887802,
            30.432468
          ],
          [
            -97.887616,
            30.432373
          ],
          [
            -97.887486,
            30.432326
          ],
          [
            -97.887304,
            30.432276
          ],
          [
            -97.88708,
            30.432235
          ],
          [
            -97.886667,
            30.43223
          ],
          [
            -97.886247,
            30.432261
          ],
          [
            -97.885962,
            30.432282
          ],
          [
            -97.885309,
            30.432352
          ],
          [
            -97.88492,
            30.432407
          ],
          [
            -97.884818,
            30.432422
          ],
          [
            -97.884495,
            30.432528
          ],
          [
            -97.884314,
            30.432626
          ],
          [
            -97.884267,
            30.432651
          ],
          [
            -97.884087,
            30.432768
          ],
          [
            -97.883997,
            30.43284
          ],
          [
            -97.883944,
            30.432883
          ],
          [
            -97.883864,
            30.432991
          ],
          [
            -97.883816,
            30.433056
          ],
          [
            -97.88364,
            30.43331
          ],
          [
            -97.883623,
            30.433335
          ],
          [
            -97.883538,
            30.433523
          ],
          [
            -97.883501,
            30.433605
          ],
          [
            -97.883448,
            30.433775
          ],
          [
            -97.883405,
            30.434011
          ],
          [
            -97.883401,
            30.434198
          ],
          [
            -97.883402,
            30.434387
          ],
          [
            -97.883403,
            30.434533
          ],
          [
            -97.883424,
            30.435438
          ],
          [
            -97.883431,
            30.435719
          ],
          [
            -97.883473,
            30.436007
          ],
          [
            -97.883518,
            30.436209
          ],
          [
            -97.883587,
            30.436375
          ],
          [
            -97.883713,
            30.436631
          ],
          [
            -97.883744,
            30.436692
          ],
          [
            -97.883767,
            30.43683
          ],
          [
            -97.88377,
            30.436959
          ],
          [
            -97.883772,
            30.437022
          ],
          [
            -97.883694,
            30.437298
          ],
          [
            -97.883565,
            30.437541
          ],
          [
            -97.883469,
            30.43769
          ],
          [
            -97.883363,
            30.437786
          ],
          [
            -97.883208,
            30.437915
          ],
          [
            -97.882913,
            30.438121
          ],
          [
            -97.882749,
            30.438275
          ],
          [
            -97.882527,
            30.438498
          ],
          [
            -97.882451,
            30.438575
          ],
          [
            -97.882027,
            30.439122
          ],
          [
            -97.881858,
            30.43929
          ],
          [
            -97.881757,
            30.439362
          ],
          [
            -97.881705,
            30.439398
          ],
          [
            -97.881518,
            30.439476
          ],
          [
            -97.881361,
            30.439485
          ],
          [
            -97.881101,
            30.439481
          ],
          [
            -97.880513,
            30.439383
          ],
          [
            -97.880354,
            30.439358
          ],
          [
            -97.880137,
            30.439319
          ],
          [
            -97.87986,
            30.439245
          ],
          [
            -97.879788,
            30.439201
          ],
          [
            -97.879742,
            30.439173
          ],
          [
            -97.879632,
            30.439046
          ],
          [
            -97.879616,
            30.43902
          ],
          [
            -97.879578,
            30.438957
          ],
          [
            -97.879557,
            30.438813
          ],
          [
            -97.879586,
            30.437825
          ],
          [
            -97.87962,
            30.437603
          ],
          [
            -97.879652,
            30.437452
          ],
          [
            -97.879697,
            30.437324
          ],
          [
            -97.879779,
            30.437092
          ],
          [
            -97.879817,
            30.436929
          ],
          [
            -97.879842,
            30.436718
          ],
          [
            -97.879859,
            30.436457
          ],
          [
            -97.879849,
            30.436188
          ],
          [
            -97.879803,
            30.435932
          ],
          [
            -97.879742,
            30.435747
          ],
          [
            -97.879617,
            30.435533
          ],
          [
            -97.879287,
            30.435144
          ],
          [
            -97.879192,
            30.434955
          ],
          [
            -97.879011,
            30.434528
          ],
          [
            -97.878951,
            30.43444
          ],
          [
            -97.878891,
            30.434351
          ],
          [
            -97.878728,
            30.434238
          ],
          [
            -97.878449,
            30.434127
          ],
          [
            -97.878211,
            30.434094
          ],
          [
            -97.877951,
            30.434113
          ],
          [
            -97.877766,
            30.434146
          ],
          [
            -97.877401,
            30.434275
          ],
          [
            -97.877118,
            30.43444
          ],
          [
            -97.876935,
            30.434619
          ],
          [
            -97.876811,
            30.43477
          ],
          [
            -97.876528,
            30.435114
          ],
          [
            -97.876471,
            30.435209
          ],
          [
            -97.876389,
            30.435347
          ],
          [
            -97.876312,
            30.435533
          ],
          [
            -97.876256,
            30.435789
          ],
          [
            -97.876116,
            30.436631
          ],
          [
            -97.876056,
            30.436912
          ],
          [
            -97.875977,
            30.437149
          ],
          [
            -97.875839,
            30.437491
          ],
          [
            -97.875798,
            30.437705
          ],
          [
            -97.875767,
            30.437952
          ],
          [
            -97.875689,
            30.438128
          ],
          [
            -97.875563,
            30.438301
          ],
          [
            -97.875301,
            30.43858
          ],
          [
            -97.874802,
            30.439025
          ],
          [
            -97.874237,
            30.43948
          ],
          [
            -97.873967,
            30.439692
          ],
          [
            -97.873724,
            30.439854
          ],
          [
            -97.871799,
            30.441026
          ],
          [
            -97.871591,
            30.441137
          ],
          [
            -97.871399,
            30.441204
          ],
          [
            -97.871199,
            30.441264
          ],
          [
            -97.871019,
            30.441295
          ],
          [
            -97.870871,
            30.441306
          ],
          [
            -97.870633,
            30.441304
          ],
          [
            -97.870377,
            30.441271
          ],
          [
            -97.870157,
            30.44122
          ],
          [
            -97.869696,
            30.441114
          ],
          [
            -97.869458,
            30.441069
          ],
          [
            -97.869249,
            30.44105
          ],
          [
            -97.86903,
            30.441058
          ],
          [
            -97.8688,
            30.44109
          ],
          [
            -97.868621,
            30.441139
          ],
          [
            -97.868481,
            30.441192
          ],
          [
            -97.868278,
            30.4413
          ],
          [
            -97.867434,
            30.441746
          ],
          [
            -97.867153,
            30.441895
          ],
          [
            -97.86692,
            30.442016
          ],
          [
            -97.866646,
            30.442113
          ],
          [
            -97.866022,
            30.442332
          ],
          [
            -97.865702,
            30.442455
          ],
          [
            -97.865479,
            30.442561
          ],
          [
            -97.865348,
            30.442642
          ],
          [
            -97.86523,
            30.442714
          ],
          [
            -97.864634,
            30.443117
          ],
          [
            -97.864276,
            30.443372
          ],
          [
            -97.863412,
            30.443975
          ],
          [
            -97.863303,
            30.444051
          ],
          [
            -97.862583,
            30.444627
          ],
          [
            -97.86239,
            30.444799
          ],
          [
            -97.862317,
            30.444864
          ],
          [
            -97.862045,
            30.445173
          ],
          [
            -97.861956,
            30.445273
          ],
          [
            -97.861807,
            30.44538
          ],
          [
            -97.86157,
            30.44551
          ],
          [
            -97.861211,
            30.445714
          ],
          [
            -97.860142,
            30.446302
          ],
          [
            -97.860086,
            30.446333
          ],
          [
            -97.859767,
            30.446464
          ],
          [
            -97.8592,
            30.446599
          ],
          [
            -97.858993,
            30.446699
          ],
          [
            -97.858809,
            30.446864
          ],
          [
            -97.858675,
            30.447026
          ],
          [
            -97.858115,
            30.448074
          ],
          [
            -97.857952,
            30.448304
          ],
          [
            -97.857783,
            30.448475
          ],
          [
            -97.857522,
            30.4487
          ],
          [
            -97.857214,
            30.448901
          ],
          [
            -97.856136,
            30.449528
          ],
          [
            -97.855678,
            30.449733
          ],
          [
            -97.855231,
            30.449883
          ],
          [
            -97.854685,
            30.450067
          ],
          [
            -97.854207,
            30.450228
          ],
          [
            -97.853693,
            30.450444
          ],
          [
            -97.853354,
            30.450652
          ],
          [
            -97.853241,
            30.450716
          ],
          [
            -97.852708,
            30.451011
          ],
          [
            -97.852369,
            30.451175
          ],
          [
            -97.852219,
            30.451234
          ],
          [
            -97.851938,
            30.451341
          ],
          [
            -97.85059,
            30.451864
          ],
          [
            -97.850248,
            30.451986
          ],
          [
            -97.85001,
            30.452082
          ],
          [
            -97.849988,
            30.452091
          ],
          [
            -97.849632,
            30.452234
          ],
          [
            -97.849574,
            30.452257
          ],
          [
            -97.849035,
            30.452473
          ],
          [
            -97.848756,
            30.452603
          ],
          [
            -97.848536,
            30.452728
          ],
          [
            -97.84831,
            30.452896
          ],
          [
            -97.848163,
            30.453005
          ],
          [
            -97.8479,
            30.453236
          ],
          [
            -97.847635,
            30.453514
          ],
          [
            -97.847063,
            30.454142
          ],
          [
            -97.846905,
            30.454359
          ],
          [
            -97.846774,
            30.454573
          ],
          [
            -97.846605,
            30.454981
          ],
          [
            -97.846437,
            30.455618
          ],
          [
            -97.846297,
            30.456376
          ],
          [
            -97.846196,
            30.456681
          ],
          [
            -97.846084,
            30.456904
          ],
          [
            -97.84597,
            30.457114
          ],
          [
            -97.845831,
            30.45734
          ],
          [
            -97.845509,
            30.45763
          ],
          [
            -97.845209,
            30.457849
          ],
          [
            -97.844664,
            30.458257
          ],
          [
            -97.844251,
            30.458558
          ],
          [
            -97.843955,
            30.458693
          ],
          [
            -97.843629,
            30.458805
          ],
          [
            -97.842681,
            30.45905
          ],
          [
            -97.842355,
            30.459161
          ],
          [
            -97.841786,
            30.459409
          ],
          [
            -97.841447,
            30.459605
          ],
          [
            -97.841231,
            30.459756
          ],
          [
            -97.841018,
            30.459965
          ],
          [
            -97.840882,
            30.460152
          ],
          [
            -97.840838,
            30.460224
          ],
          [
            -97.840763,
            30.460345
          ],
          [
            -97.8406,
            30.460627
          ],
          [
            -97.840497,
            30.460798
          ],
          [
            -97.841547,
            30.461298
          ],
          [
            -97.841635,
            30.461356
          ],
          [
            -97.841833,
            30.461483
          ],
          [
            -97.842041,
            30.461638
          ],
          [
            -97.842332,
            30.46189
          ],
          [
            -97.842618,
            30.462226
          ],
          [
            -97.842885,
            30.462563
          ],
          [
            -97.843163,
            30.462916
          ],
          [
            -97.843167,
            30.46292
          ],
          [
            -97.843242,
            30.463015
          ],
          [
            -97.843315,
            30.463122
          ],
          [
            -97.843557,
            30.46348
          ],
          [
            -97.843624,
            30.463608
          ],
          [
            -97.843746,
            30.463905
          ],
          [
            -97.843792,
            30.464062
          ],
          [
            -97.843843,
            30.46433
          ],
          [
            -97.843868,
            30.464666
          ],
          [
            -97.843846,
            30.465285
          ],
          [
            -97.843842,
            30.465605
          ],
          [
            -97.843836,
            30.465977
          ],
          [
            -97.843833,
            30.466071
          ],
          [
            -97.843831,
            30.46617
          ],
          [
            -97.843819,
            30.466721
          ],
          [
            -97.843861,
            30.467011
          ],
          [
            -97.843889,
            30.467146
          ],
          [
            -97.843956,
            30.467435
          ],
          [
            -97.844135,
            30.467849
          ],
          [
            -97.844266,
            30.468101
          ],
          [
            -97.844877,
            30.469107
          ],
          [
            -97.844922,
            30.469182
          ],
          [
            -97.844989,
            30.469291
          ],
          [
            -97.84505,
            30.469389
          ],
          [
            -97.845811,
            30.47061
          ],
          [
            -97.846029,
            30.470959
          ],
          [
            -97.846294,
            30.471301
          ],
          [
            -97.846497,
            30.471516
          ],
          [
            -97.846751,
            30.471749
          ],
          [
            -97.846934,
            30.4719
          ],
          [
            -97.847225,
            30.472118
          ],
          [
            -97.847478,
            30.472252
          ],
          [
            -97.8476,
            30.472316
          ],
          [
            -97.847554,
            30.472376
          ],
          [
            -97.847338,
            30.472662
          ],
          [
            -97.847158,
            30.472877
          ],
          [
            -97.846971,
            30.473052
          ],
          [
            -97.846775,
            30.473205
          ],
          [
            -97.846731,
            30.473235
          ],
          [
            -97.846657,
            30.473284
          ],
          [
            -97.846513,
            30.473371
          ],
          [
            -97.846328,
            30.473464
          ],
          [
            -97.846242,
            30.473498
          ],
          [
            -97.846121,
            30.473545
          ],
          [
            -97.845942,
            30.47361
          ],
          [
            -97.844229,
            30.474141
          ],
          [
            -97.844119,
            30.474175
          ],
          [
            -97.843168,
            30.474474
          ],
          [
            -97.842349,
            30.474724
          ],
          [
            -97.84197,
            30.474838
          ],
          [
            -97.841839,
            30.474879
          ],
          [
            -97.84175,
            30.474906
          ],
          [
            -97.841649,
            30.474938
          ],
          [
            -97.841399,
            30.475018
          ],
          [
            -97.841243,
            30.475067
          ],
          [
            -97.841076,
            30.475119
          ],
          [
            -97.840684,
            30.475241
          ],
          [
            -97.840516,
            30.475293
          ],
          [
            -97.838244,
            30.476001
          ],
          [
            -97.837905,
            30.476105
          ],
          [
            -97.837773,
            30.476145
          ],
          [
            -97.83766,
            30.47618
          ],
          [
            -97.837258,
            30.476302
          ],
          [
            -97.836513,
            30.476537
          ],
          [
            -97.836196,
            30.476637
          ],
          [
            -97.836001,
            30.476706
          ],
          [
            -97.835778,
            30.476799
          ],
          [
            -97.835688,
            30.47684
          ],
          [
            -97.835606,
            30.476882
          ],
          [
            -97.835494,
            30.476944
          ],
          [
            -97.835385,
            30.477006
          ],
          [
            -97.835264,
            30.477085
          ],
          [
            -97.835159,
            30.477157
          ],
          [
            -97.835015,
            30.47727
          ],
          [
            -97.8349,
            30.477367
          ],
          [
            -97.834791,
            30.477471
          ],
          [
            -97.834702,
            30.477563
          ],
          [
            -97.834608,
            30.477678
          ],
          [
            -97.834546,
            30.477743
          ],
          [
            -97.83449,
            30.477819
          ],
          [
            -97.834424,
            30.477911
          ],
          [
            -97.834343,
            30.478037
          ],
          [
            -97.83419,
            30.478303
          ],
          [
            -97.83407,
            30.478538
          ],
          [
            -97.833943,
            30.478787
          ],
          [
            -97.833793,
            30.47908
          ],
          [
            -97.833766,
            30.479133
          ],
          [
            -97.833702,
            30.479254
          ],
          [
            -97.833571,
            30.479505
          ],
          [
            -97.833314,
            30.480035
          ],
          [
            -97.833221,
            30.480098
          ],
          [
            -97.833117,
            30.4803
          ],
          [
            -97.833097,
            30.480339
          ],
          [
            -97.832955,
            30.480612
          ],
          [
            -97.832922,
            30.480673
          ],
          [
            -97.83284,
            30.480824
          ],
          [
            -97.832573,
            30.481338
          ],
          [
            -97.832523,
            30.481434
          ],
          [
            -97.832446,
            30.48156
          ],
          [
            -97.832404,
            30.481639
          ],
          [
            -97.832246,
            30.481932
          ],
          [
            -97.832226,
            30.481973
          ],
          [
            -97.832085,
            30.48225
          ],
          [
            -97.831765,
            30.483005
          ],
          [
            -97.831781,
            30.483162
          ],
          [
            -97.831622,
            30.483535
          ],
          [
            -97.831401,
            30.484068
          ],
          [
            -97.831229,
            30.484507
          ],
          [
            -97.831195,
            30.484579
          ],
          [
            -97.830973,
            30.485116
          ],
          [
            -97.830775,
            30.48563
          ],
          [
            -97.830612,
            30.486021
          ],
          [
            -97.83054,
            30.486201
          ],
          [
            -97.830495,
            30.486313
          ],
          [
            -97.830212,
            30.486985
          ],
          [
            -97.830047,
            30.487409
          ],
          [
            -97.829788,
            30.488042
          ],
          [
            -97.829721,
            30.488219
          ],
          [
            -97.829482,
            30.488827
          ],
          [
            -97.829383,
            30.489076
          ],
          [
            -97.829234,
            30.489433
          ],
          [
            -97.828875,
            30.4903
          ],
          [
            -97.828708,
            30.490708
          ],
          [
            -97.828544,
            30.491122
          ],
          [
            -97.828221,
            30.491923
          ],
          [
            -97.827878,
            30.492749
          ],
          [
            -97.827766,
            30.492966
          ],
          [
            -97.827612,
            30.493209
          ],
          [
            -97.827509,
            30.493346
          ],
          [
            -97.827253,
            30.493626
          ],
          [
            -97.826838,
            30.493974
          ],
          [
            -97.826894,
            30.494062
          ],
          [
            -97.826991,
            30.494201
          ],
          [
            -97.82717,
            30.494495
          ],
          [
            -97.827366,
            30.494783
          ],
          [
            -97.827396,
            30.494831
          ],
          [
            -97.827731,
            30.495377
          ],
          [
            -97.827786,
            30.495503
          ],
          [
            -97.82782,
            30.495628
          ],
          [
            -97.827835,
            30.495708
          ],
          [
            -97.827838,
            30.495789
          ],
          [
            -97.827827,
            30.49595
          ],
          [
            -97.827762,
            30.496304
          ],
          [
            -97.827717,
            30.496573
          ],
          [
            -97.827712,
            30.496603
          ],
          [
            -97.827703,
            30.496659
          ],
          [
            -97.827696,
            30.496707
          ],
          [
            -97.827691,
            30.496737
          ],
          [
            -97.827557,
            30.497427
          ],
          [
            -97.827535,
            30.497586
          ],
          [
            -97.827531,
            30.497686
          ],
          [
            -97.827549,
            30.497806
          ],
          [
            -97.827586,
            30.497926
          ],
          [
            -97.827617,
            30.49801
          ],
          [
            -97.827656,
            30.498093
          ],
          [
            -97.827736,
            30.498233
          ],
          [
            -97.827797,
            30.498342
          ],
          [
            -97.827878,
            30.498519
          ],
          [
            -97.827906,
            30.498659
          ],
          [
            -97.82792,
            30.498777
          ],
          [
            -97.82792,
            30.498804
          ],
          [
            -97.827922,
            30.498855
          ],
          [
            -97.827924,
            30.498907
          ],
          [
            -97.827926,
            30.498935
          ],
          [
            -97.82794,
            30.49919
          ],
          [
            -97.82795,
            30.499288
          ],
          [
            -97.827973,
            30.499385
          ],
          [
            -97.828047,
            30.499543
          ],
          [
            -97.828145,
            30.499704
          ],
          [
            -97.828512,
            30.50021
          ],
          [
            -97.82861,
            30.500363
          ],
          [
            -97.828743,
            30.500734
          ],
          [
            -97.828749,
            30.50076
          ],
          [
            -97.828768,
            30.500808
          ],
          [
            -97.828798,
            30.500894
          ],
          [
            -97.828817,
            30.500945
          ],
          [
            -97.828827,
            30.500973
          ],
          [
            -97.829298,
            30.502332
          ],
          [
            -97.82935,
            30.502524
          ],
          [
            -97.829434,
            30.502956
          ],
          [
            -97.829551,
            30.503295
          ],
          [
            -97.829834,
            30.503952
          ],
          [
            -97.829878,
            30.504064
          ],
          [
            -97.829897,
            30.504112
          ],
          [
            -97.829918,
            30.504165
          ],
          [
            -97.829951,
            30.504246
          ],
          [
            -97.830117,
            30.504655
          ],
          [
            -97.830166,
            30.50477
          ],
          [
            -97.830176,
            30.504791
          ],
          [
            -97.830199,
            30.504839
          ],
          [
            -97.830118,
            30.504865
          ],
          [
            -97.830091,
            30.504873
          ],
          [
            -97.829963,
            30.504913
          ]
        ]
      }
    }
  ]
}