{
  "type": "FeatureCollection",
  "features": [
    {
      "type": "Feature",
      "properties": {
        "route": "Llano River & Castell Run",
        "category": "Lakes & Rivers",
        "color": "#2980b9",
        "waypoints": [
          "Llano",
          "Castell",
          "Mason"
        ],
        "via": "FM 152 -> Castell -> FM 2323",
        "distance_mi": 43.2,
        "source": "road-snapped"
      },
      "geometry": {
        "type": "LineString",
        "coordinates": [
          [
            -98.675269,
            30.758031
          ],
          [
            -98.67522,
            30.758344
          ],
          [
            -98.675206,
            30.758473
          ],
          [
            -98.675193,
            30.758633
          ],
          [
            -98.675184,
            30.758927
          ],
          [
            -98.675183,
            30.759155
          ],
          [
            -98.675183,
            30.759239
          ],
          [
            -98.675182,
            30.759519
          ],
          [
            -98.675647,
            30.759517
          ],
          [
            -98.675717,
            30.759517
          ],
          [
            -98.675913,
            30.759516
          ],
          [
            -98.676042,
            30.759515
          ],
          [
            -98.676127,
            30.759515
          ],
          [
            -98.676367,
            30.759519
          ],
          [
            -98.676704,
            30.75953
          ],
          [
            -98.677217,
            30.759532
          ],
          [
            -98.677781,
            30.759538
          ],
          [
            -98.678205,
            30.75953
          ],
          [
            -98.679371,
            30.759509
          ],
          [
            -98.680502,
            30.759519
          ],
          [
            -98.681624,
            30.75953
          ],
          [
            -98.681833,
            30.759531
          ],
          [
            -98.682127,
            30.759531
          ],
          [
            -98.682315,
            30.759534
          ],
          [
            -98.682759,
            30.759542
          ],
          [
            -98.683279,
            30.759545
          ],
          [
            -98.684274,
            30.759563
          ],
          [
            -98.684831,
            30.759582
          ],
          [
            -98.685334,
            30.759608
          ],
          [
            -98.685798,
            30.759647
          ],
          [
            -98.686131,
            30.759677
          ],
          [
            -98.686222,
            30.759685
          ],
          [
            -98.686461,
            30.759714
          ],
          [
            -98.687039,
            30.759784
          ],
          [
            -98.68727,
            30.759823
          ],
          [
            -98.688091,
            30.75997
          ],
          [
            -98.689327,
            30.760243
          ],
          [
            -98.689386,
            30.760255
          ],
          [
            -98.689787,
            30.760336
          ],
          [
            -98.690619,
            30.760516
          ],
          [
            -98.691868,
            30.760782
          ],
          [
            -98.692786,
            30.760967
          ],
          [
            -98.694244,
            30.761301
          ],
          [
            -98.69678,
            30.761839
          ],
          [
            -98.697572,
            30.76201
          ],
          [
            -98.698134,
            30.762132
          ],
          [
            -98.699292,
            30.762376
          ],
          [
            -98.69982,
            30.762494
          ],
          [
            -98.701444,
            30.762816
          ],
          [
            -98.702188,
            30.762921
          ],
          [
            -98.702524,
            30.762974
          ],
          [
            -98.703011,
            30.763008
          ],
          [
            -98.703683,
            30.763077
          ],
          [
            -98.704408,
            30.763127
          ],
          [
            -98.705446,
            30.763218
          ],
          [
            -98.705852,
            30.763273
          ],
          [
            -98.706319,
            30.76336
          ],
          [
            -98.706409,
            30.76338
          ],
          [
            -98.706505,
            30.763409
          ],
          [
            -98.70676,
            30.76346
          ],
          [
            -98.707358,
            30.763626
          ],
          [
            -98.707607,
            30.763706
          ],
          [
            -98.708005,
            30.763857
          ],
          [
            -98.708361,
            30.764
          ],
          [
            -98.708945,
            30.76427
          ],
          [
            -98.709082,
            30.764339
          ],
          [
            -98.712555,
            30.766339
          ],
          [
            -98.713288,
            30.766767
          ],
          [
            -98.714197,
            30.767277
          ],
          [
            -98.714826,
            30.767585
          ],
          [
            -98.715324,
            30.767819
          ],
          [
            -98.716141,
            30.768156
          ],
          [
            -98.716875,
            30.768432
          ],
          [
            -98.717429,
            30.768623
          ],
          [
            -98.717726,
            30.768717
          ],
          [
            -98.718739,
            30.768986
          ],
          [
            -98.719031,
            30.769055
          ],
          [
            -98.719801,
            30.769218
          ],
          [
            -98.72065,
            30.769348
          ],
          [
            -98.721063,
            30.769403
          ],
          [
            -98.721447,
            30.769449
          ],
          [
            -98.722165,
            30.769513
          ],
          [
            -98.722723,
            30.769543
          ],
          [
            -98.723331,
            30.769559
          ],
          [
            -98.724032,
            30.76956
          ],
          [
            -98.725041,
            30.769545
          ],
          [
            -98.725222,
            30.769547
          ],
          [
            -98.726333,
            30.76954
          ],
          [
            -98.727435,
            30.769539
          ],
          [
            -98.734956,
            30.769496
          ],
          [
            -98.737131,
            30.769483
          ],
          [
            -98.737622,
            30.769478
          ],
          [
            -98.738317,
            30.76947
          ],
          [
            -98.738944,
            30.769468
          ],
          [
            -98.740093,
            30.769463
          ],
          [
            -98.740984,
            30.769454
          ],
          [
            -98.743218,
            30.769443
          ],
          [
            -98.746476,
            30.76942
          ],
          [
            -98.747379,
            30.769418
          ],
          [
            -98.748173,
            30.769408
          ],
          [
            -98.751129,
            30.769394
          ],
          [
            -98.752735,
            30.769378
          ],
          [
            -98.75671,
            30.769354
          ],
          [
            -98.756984,
            30.769347
          ],
          [
            -98.757339,
            30.769324
          ],
          [
            -98.757761,
            30.769277
          ],
          [
            -98.758401,
            30.769182
          ],
          [
            -98.759852,
            30.768778
          ],
          [
            -98.760593,
            30.768526
          ],
          [
            -98.760935,
            30.768371
          ],
          [
            -98.761163,
            30.768269
          ],
          [
            -98.761795,
            30.767994
          ],
          [
            -98.762689,
            30.76763
          ],
          [
            -98.763267,
            30.767395
          ],
          [
            -98.763326,
            30.767371
          ],
          [
            -98.76397,
            30.76717
          ],
          [
            -98.764387,
            30.76706
          ],
          [
            -98.764811,
            30.766968
          ],
          [
            -98.765239,
            30.766894
          ],
          [
            -98.76573,
            30.766832
          ],
          [
            -98.766154,
            30.766794
          ],
          [
            -98.766579,
            30.766775
          ],
          [
            -98.768898,
            30.766771
          ],
          [
            -98.782032,
            30.766754
          ],
          [
            -98.785543,
            30.766744
          ],
          [
            -98.786902,
            30.766752
          ],
          [
            -98.787871,
            30.766739
          ],
          [
            -98.788766,
            30.766751
          ],
          [
            -98.788884,
            30.766753
          ],
          [
            -98.790085,
            30.766733
          ],
          [
            -98.790586,
            30.766711
          ],
          [
            -98.791144,
            30.766665
          ],
          [
            -98.791626,
            30.766607
          ],
          [
            -98.792106,
            30.766532
          ],
          [
            -98.792589,
            30.766437
          ],
          [
            -98.79314,
            30.766309
          ],
          [
            -98.793684,
            30.766161
          ],
          [
            -98.794154,
            30.766015
          ],
          [
            -98.794598,
            30.765855
          ],
          [
            -98.800445,
            30.763518
          ],
          [
            -98.801094,
            30.763263
          ],
          [
            -98.80469,
            30.761819
          ],
          [
            -98.806255,
            30.761198
          ],
          [
            -98.807874,
            30.760545
          ],
          [
            -98.809325,
            30.759969
          ],
          [
            -98.810431,
            30.759526
          ],
          [
            -98.811685,
            30.759023
          ],
          [
            -98.814814,
            30.757783
          ],
          [
            -98.81505,
            30.757689
          ],
          [
            -98.815537,
            30.757488
          ],
          [
            -98.816111,
            30.757219
          ],
          [
            -98.816348,
            30.757108
          ],
          [
            -98.816727,
            30.75692
          ],
          [
            -98.817366,
            30.75657
          ],
          [
            -98.817792,
            30.756328
          ],
          [
            -98.818911,
            30.755642
          ],
          [
            -98.819816,
            30.755046
          ],
          [
            -98.822038,
            30.753662
          ],
          [
            -98.822516,
            30.753372
          ],
          [
            -98.822928,
            30.753138
          ],
          [
            -98.823419,
            30.75288
          ],
          [
            -98.823795,
            30.752695
          ],
          [
            -98.824371,
            30.75243
          ],
          [
            -98.824908,
            30.752207
          ],
          [
            -98.825591,
            30.751947
          ],
          [
            -98.826265,
            30.751713
          ],
          [
            -98.832323,
            30.749901
          ],
          [
            -98.833307,
            30.749601
          ],
          [
            -98.84408,
            30.746368
          ],
          [
            -98.84468,
            30.746205
          ],
          [
            -98.845251,
            30.746069
          ],
          [
            -98.845348,
            30.746046
          ],
          [
            -98.846022,
            30.745909
          ],
          [
            -98.846641,
            30.745803
          ],
          [
            -98.847264,
            30.745716
          ],
          [
            -98.84789,
            30.745648
          ],
          [
            -98.848519,
            30.745599
          ],
          [
            -98.849149,
            30.74557
          ],
          [
            -98.850256,
            30.745552
          ],
          [
            -98.85129,
            30.745561
          ],
          [
            -98.854071,
            30.745576
          ],
          [
            -98.856843,
            30.745583
          ],
          [
            -98.858043,
            30.745599
          ],
          [
            -98.859228,
            30.745597
          ],
          [
            -98.85993,
            30.7456
          ],
          [
            -98.860136,
            30.745601
          ],
          [
            -98.864367,
            30.745617
          ],
          [
            -98.870312,
            30.74565
          ],
          [
            -98.870423,
            30.745651
          ],
          [
            -98.872816,
            30.745655
          ],
          [
            -98.880349,
            30.745688
          ],
          [
            -98.884148,
            30.745704
          ],
          [
            -98.885213,
            30.745716
          ],
          [
            -98.885951,
            30.745719
          ],
          [
            -98.886408,
            30.745719
          ],
          [
            -98.88684,
            30.745695
          ],
          [
            -98.887333,
            30.745647
          ],
          [
            -98.887822,
            30.745579
          ],
          [
            -98.888307,
            30.745489
          ],
          [
            -98.888732,
            30.745392
          ],
          [
            -98.889214,
            30.745261
          ],
          [
            -98.89217,
            30.744329
          ],
          [
            -98.893873,
            30.743803
          ],
          [
            -98.894348,
            30.743674
          ],
          [
            -98.894576,
            30.743622
          ],
          [
            -98.894834,
            30.743562
          ],
          [
            -98.895324,
            30.743468
          ],
          [
            -98.895881,
            30.743382
          ],
          [
            -98.896381,
            30.743322
          ],
          [
            -98.896777,
            30.74329
          ],
          [
            -98.896882,
            30.743281
          ],
          [
            -98.897386,
            30.743258
          ],
          [
            -98.897892,
            30.743253
          ],
          [
            -98.898398,
            30.743268
          ],
          [
            -98.901916,
            30.74352
          ],
          [
            -98.902167,
            30.743533
          ],
          [
            -98.902852,
            30.743542
          ],
          [
            -98.903537,
            30.743531
          ],
          [
            -98.904161,
            30.743503
          ],
          [
            -98.904855,
            30.743448
          ],
          [
            -98.905489,
            30.743378
          ],
          [
            -98.905546,
            30.743372
          ],
          [
            -98.906234,
            30.743276
          ],
          [
            -98.906358,
            30.743253
          ],
          [
            -98.907369,
            30.743061
          ],
          [
            -98.908347,
            30.742848
          ],
          [
            -98.909349,
            30.742641
          ],
          [
            -98.909963,
            30.742531
          ],
          [
            -98.910581,
            30.742442
          ],
          [
            -98.911203,
            30.742374
          ],
          [
            -98.913005,
            30.742201
          ],
          [
            -98.914842,
            30.742025
          ],
          [
            -98.915892,
            30.741933
          ],
          [
            -98.919755,
            30.741565
          ],
          [
            -98.922234,
            30.741329
          ],
          [
            -98.926885,
            30.740883
          ],
          [
            -98.927964,
            30.740781
          ],
          [
            -98.929201,
            30.740662
          ],
          [
            -98.930356,
            30.740551
          ],
          [
            -98.932225,
            30.740378
          ],
          [
            -98.933051,
            30.740299
          ],
          [
            -98.941688,
            30.739471
          ],
          [
            -98.942062,
            30.739428
          ],
          [
            -98.942807,
            30.739321
          ],
          [
            -98.943547,
            30.739194
          ],
          [
            -98.94443,
            30.739005
          ],
          [
            -98.946004,
            30.738603
          ],
          [
            -98.949239,
            30.73779
          ],
          [
            -98.949565,
            30.737711
          ],
          [
            -98.949886,
            30.737646
          ],
          [
            -98.950117,
            30.737607
          ],
          [
            -98.950347,
            30.737573
          ],
          [
            -98.950501,
            30.737554
          ],
          [
            -98.950575,
            30.737548
          ],
          [
            -98.950647,
            30.737541
          ],
          [
            -98.95097,
            30.737513
          ],
          [
            -98.951438,
            30.737493
          ],
          [
            -98.951867,
            30.737491
          ],
          [
            -98.95233,
            30.737493
          ],
          [
            -98.952809,
            30.737501
          ],
          [
            -98.953375,
            30.737508
          ],
          [
            -98.953769,
            30.737515
          ],
          [
            -98.954713,
            30.737526
          ],
          [
            -98.954723,
            30.736446
          ],
          [
            -98.954761,
            30.734185
          ],
          [
            -98.954832,
            30.733249
          ],
          [
            -98.954877,
            30.732095
          ],
          [
            -98.954872,
            30.73096
          ],
          [
            -98.954853,
            30.729739
          ],
          [
            -98.954788,
            30.728448
          ],
          [
            -98.954801,
            30.725389
          ],
          [
            -98.954807,
            30.725259
          ],
          [
            -98.954825,
            30.720643
          ],
          [
            -98.95484,
            30.719734
          ],
          [
            -98.954842,
            30.71909
          ],
          [
            -98.954828,
            30.71705
          ],
          [
            -98.954823,
            30.716345
          ],
          [
            -98.954841,
            30.713479
          ],
          [
            -98.954852,
            30.71174
          ],
          [
            -98.954886,
            30.709295
          ],
          [
            -98.954913,
            30.707988
          ],
          [
            -98.954916,
            30.706864
          ],
          [
            -98.95491,
            30.706597
          ],
          [
            -98.95492,
            30.706438
          ],
          [
            -98.954948,
            30.70628
          ],
          [
            -98.954993,
            30.706125
          ],
          [
            -98.955054,
            30.705974
          ],
          [
            -98.955131,
            30.705828
          ],
          [
            -98.955223,
            30.70569
          ],
          [
            -98.95533,
            30.705559
          ],
          [
            -98.955378,
            30.705503
          ],
          [
            -98.955464,
            30.705424
          ],
          [
            -98.955605,
            30.705316
          ],
          [
            -98.955757,
            30.705221
          ],
          [
            -98.955921,
            30.705139
          ],
          [
            -98.956093,
            30.705073
          ],
          [
            -98.956272,
            30.705023
          ],
          [
            -98.956456,
            30.704988
          ],
          [
            -98.956643,
            30.704971
          ],
          [
            -98.956885,
            30.704969
          ],
          [
            -98.957487,
            30.704975
          ],
          [
            -98.958002,
            30.704985
          ],
          [
            -98.958092,
            30.704979
          ],
          [
            -98.958211,
            30.704963
          ],
          [
            -98.958402,
            30.704904
          ],
          [
            -98.958563,
            30.704792
          ],
          [
            -98.958624,
            30.70472
          ],
          [
            -98.958678,
            30.704617
          ],
          [
            -98.958722,
            30.704445
          ],
          [
            -98.958748,
            30.703044
          ],
          [
            -98.958731,
            30.702878
          ],
          [
            -98.958704,
            30.702771
          ],
          [
            -98.958669,
            30.702666
          ],
          [
            -98.958621,
            30.702571
          ],
          [
            -98.958537,
            30.702434
          ],
          [
            -98.958437,
            30.702304
          ],
          [
            -98.958802,
            30.7023
          ],
          [
            -98.959836,
            30.702309
          ],
          [
            -98.960027,
            30.702306
          ],
          [
            -98.960153,
            30.702293
          ],
          [
            -98.960277,
            30.702272
          ],
          [
            -98.960399,
            30.702243
          ],
          [
            -98.960518,
            30.702205
          ],
          [
            -98.960748,
            30.702111
          ],
          [
            -98.96086,
            30.70206
          ],
          [
            -98.960967,
            30.702001
          ],
          [
            -98.961069,
            30.701935
          ],
          [
            -98.961164,
            30.701862
          ],
          [
            -98.961252,
            30.701782
          ],
          [
            -98.961332,
            30.701697
          ],
          [
            -98.961405,
            30.701607
          ],
          [
            -98.961469,
            30.701512
          ],
          [
            -98.961548,
            30.701365
          ],
          [
            -98.961632,
            30.701166
          ],
          [
            -98.961696,
            30.700962
          ],
          [
            -98.961783,
            30.700553
          ],
          [
            -98.961977,
            30.699768
          ],
          [
            -98.962012,
            30.699663
          ],
          [
            -98.962055,
            30.699561
          ],
          [
            -98.962107,
            30.699461
          ],
          [
            -98.962166,
            30.699365
          ],
          [
            -98.962234,
            30.699273
          ],
          [
            -98.962308,
            30.699185
          ],
          [
            -98.962447,
            30.699043
          ],
          [
            -98.962536,
            30.698967
          ],
          [
            -98.962632,
            30.698897
          ],
          [
            -98.962733,
            30.698833
          ],
          [
            -98.96284,
            30.698777
          ],
          [
            -98.962895,
            30.698751
          ],
          [
            -98.96301,
            30.698705
          ],
          [
            -98.963051,
            30.698692
          ],
          [
            -98.963128,
            30.698667
          ],
          [
            -98.963249,
            30.698636
          ],
          [
            -98.963672,
            30.698573
          ],
          [
            -98.963877,
            30.698538
          ],
          [
            -98.964059,
            30.698498
          ],
          [
            -98.964239,
            30.695757
          ],
          [
            -98.964269,
            30.695155
          ],
          [
            -98.964341,
            30.693685
          ],
          [
            -98.964633,
            30.692021
          ],
          [
            -98.964958,
            30.687389
          ],
          [
            -98.965061,
            30.685869
          ],
          [
            -98.965487,
            30.685897
          ],
          [
            -98.965699,
            30.685888
          ],
          [
            -98.965989,
            30.68585
          ],
          [
            -98.966383,
            30.685828
          ],
          [
            -98.966667,
            30.68576
          ],
          [
            -98.966887,
            30.685741
          ],
          [
            -98.967281,
            30.685752
          ],
          [
            -98.967424,
            30.68577
          ],
          [
            -98.967551,
            30.685807
          ],
          [
            -98.967771,
            30.685859
          ],
          [
            -98.967903,
            30.685814
          ],
          [
            -98.967982,
            30.685708
          ],
          [
            -98.968089,
            30.685603
          ],
          [
            -98.968234,
            30.685568
          ],
          [
            -98.968339,
            30.685577
          ],
          [
            -98.968423,
            30.685616
          ],
          [
            -98.968533,
            30.685724
          ],
          [
            -98.968684,
            30.685871
          ],
          [
            -98.968791,
            30.685963
          ],
          [
            -98.968914,
            30.68601
          ],
          [
            -98.969042,
            30.685994
          ],
          [
            -98.96916,
            30.685915
          ],
          [
            -98.969246,
            30.685783
          ],
          [
            -98.969364,
            30.685572
          ],
          [
            -98.969409,
            30.685481
          ],
          [
            -98.969459,
            30.685379
          ],
          [
            -98.969628,
            30.685479
          ],
          [
            -98.970104,
            30.685374
          ],
          [
            -98.970227,
            30.685355
          ],
          [
            -98.970304,
            30.685347
          ],
          [
            -98.970394,
            30.68538
          ],
          [
            -98.97054,
            30.685492
          ],
          [
            -98.970759,
            30.685639
          ],
          [
            -98.970876,
            30.685703
          ],
          [
            -98.971006,
            30.685706
          ],
          [
            -98.97113,
            30.685695
          ],
          [
            -98.971363,
            30.685675
          ],
          [
            -98.971752,
            30.685615
          ],
          [
            -98.972162,
            30.685526
          ],
          [
            -98.973428,
            30.685721
          ],
          [
            -98.973574,
            30.686315
          ],
          [
            -98.97376,
            30.686659
          ],
          [
            -98.974078,
            30.686957
          ],
          [
            -98.974344,
            30.687599
          ],
          [
            -98.97506,
            30.688309
          ],
          [
            -98.97575,
            30.688744
          ],
          [
            -98.976413,
            30.688813
          ],
          [
            -98.977394,
            30.689202
          ],
          [
            -98.977368,
            30.689569
          ],
          [
            -98.977182,
            30.689729
          ],
          [
            -98.976678,
            30.689959
          ],
          [
            -98.976121,
            30.690005
          ],
          [
            -98.976122,
            30.690393
          ],
          [
            -98.976918,
            30.692685
          ],
          [
            -98.977078,
            30.693694
          ],
          [
            -98.977025,
            30.694794
          ],
          [
            -98.97676,
            30.695917
          ],
          [
            -98.976734,
            30.696398
          ],
          [
            -98.976276,
            30.697459
          ],
          [
            -98.97417,
            30.697363
          ],
          [
            -98.973737,
            30.697359
          ],
          [
            -98.973304,
            30.697375
          ],
          [
            -98.972647,
            30.697432
          ],
          [
            -98.971072,
            30.697641
          ],
          [
            -98.968095,
            30.698001
          ],
          [
            -98.964059,
            30.698498
          ],
          [
            -98.963877,
            30.698538
          ],
          [
            -98.963672,
            30.698573
          ],
          [
            -98.963249,
            30.698636
          ],
          [
            -98.963128,
            30.698667
          ],
          [
            -98.963051,
            30.698692
          ],
          [
            -98.96301,
            30.698705
          ],
          [
            -98.962895,
            30.698751
          ],
          [
            -98.96284,
            30.698777
          ],
          [
            -98.962733,
            30.698833
          ],
          [
            -98.962632,
            30.698897
          ],
          [
            -98.962536,
            30.698967
          ],
          [
            -98.962447,
            30.699043
          ],
          [
            -98.962308,
            30.699185
          ],
          [
            -98.962234,
            30.699273
          ],
          [
            -98.962166,
            30.699365
          ],
          [
            -98.962107,
            30.699461
          ],
          [
            -98.962055,
            30.699561
          ],
          [
            -98.962012,
            30.699663
          ],
          [
            -98.961977,
            30.699768
          ],
          [
            -98.961783,
            30.700553
          ],
          [
            -98.961696,
            30.700962
          ],
          [
            -98.961632,
            30.701166
          ],
          [
            -98.961548,
            30.701365
          ],
          [
            -98.961469,
            30.701512
          ],
          [
            -98.961405,
            30.701607
          ],
          [
            -98.961332,
            30.701697
          ],
          [
            -98.961252,
            30.701782
          ],
          [
            -98.961164,
            30.701862
          ],
          [
            -98.961069,
            30.701935
          ],
          [
            -98.960967,
            30.702001
          ],
          [
            -98.96086,
            30.70206
          ],
          [
            -98.960748,
            30.702111
          ],
          [
            -98.960518,
            30.702205
          ],
          [
            -98.960399,
            30.702243
          ],
          [
            -98.960277,
            30.702272
          ],
          [
            -98.960153,
            30.702293
          ],
          [
            -98.960027,
            30.702306
          ],
          [
            -98.959836,
            30.702309
          ],
          [
            -98.958802,
            30.7023
          ],
          [
            -98.958437,
            30.702304
          ],
          [
            -98.958537,
            30.702434
          ],
          [
            -98.958621,
            30.702571
          ],
          [
            -98.958669,
            30.702666
          ],
          [
            -98.958704,
            30.702771
          ],
          [
            -98.958731,
            30.702878
          ],
          [
            -98.958748,
            30.703044
          ],
          [
            -98.958722,
            30.704445
          ],
          [
            -98.958678,
            30.704617
          ],
          [
            -98.958624,
            30.70472
          ],
          [
            -98.958563,
            30.704792
          ],
          [
            -98.958402,
            30.704904
          ],
          [
            -98.958211,
            30.704963
          ],
          [
            -98.958092,
            30.704979
          ],
          [
            -98.958002,
            30.704985
          ],
          [
            -98.957487,
            30.704975
          ],
          [
            -98.956885,
            30.704969
          ],
          [
            -98.956643,
            30.704971
          ],
          [
            -98.956456,
            30.704988
          ],
          [
            -98.956272,
            30.705023
          ],
          [
            -98.956093,
            30.705073
          ],
          [
            -98.955921,
            30.705139
          ],
          [
            -98.955757,
            30.705221
          ],
          [
            -98.955605,
            30.705316
          ],
          [
            -98.955464,
            30.705424
          ],
          [
            -98.955378,
            30.705503
          ],
          [
            -98.95533,
            30.705559
          ],
          [
            -98.955223,
            30.70569
          ],
          [
            -98.955131,
            30.705828
          ],
          [
            -98.955054,
            30.705974
          ],
          [
            -98.954993,
            30.706125
          ],
          [
            -98.954948,
            30.70628
          ],
          [
            -98.95492,
            30.706438
          ],
          [
            -98.95491,
            30.706597
          ],
          [
            -98.954916,
            30.706864
          ],
          [
            -98.954913,
            30.707988
          ],
          [
            -98.954886,
            30.709295
          ],
          [
            -98.954852,
            30.71174
          ],
          [
            -98.954841,
            30.713479
          ],
          [
            -98.954823,
            30.716345
          ],
          [
            -98.954828,
            30.71705
          ],
          [
            -98.954842,
            30.71909
          ],
          [
            -98.95484,
            30.719734
          ],
          [
            -98.954825,
            30.720643
          ],
          [
            -98.954807,
            30.725259
          ],
          [
            -98.954801,
            30.725389
          ],
          [
            -98.954788,
            30.728448
          ],
          [
            -98.954853,
            30.729739
          ],
          [
            -98.954872,
            30.73096
          ],
          [
            -98.954877,
            30.732095
          ],
          [
            -98.954832,
            30.733249
          ],
          [
            -98.954761,
            30.734185
          ],
          [
            -98.954723,
            30.736446
          ],
          [
            -98.954713,
            30.737526
          ],
          [
            -98.956903,
            30.73756
          ],
          [
            -98.957798,
            30.737566
          ],
          [
            -98.95974,
            30.737595
          ],
          [
            -98.96013,
            30.737607
          ],
          [
            -98.960597,
            30.737632
          ],
          [
            -98.961275,
            30.737689
          ],
          [
            -98.961952,
            30.737758
          ],
          [
            -98.963813,
            30.738084
          ],
          [
            -98.966378,
            30.738517
          ],
          [
            -98.967612,
            30.738657
          ],
          [
            -98.968075,
            30.738689
          ],
          [
            -98.968638,
            30.738727
          ],
          [
            -98.972328,
            30.738723
          ],
          [
            -98.981648,
            30.738692
          ],
          [
            -98.984358,
            30.738676
          ],
          [
            -98.985518,
            30.738703
          ],
          [
            -98.986299,
            30.738751
          ],
          [
            -98.990016,
            30.739132
          ],
          [
            -98.996878,
            30.739784
          ],
          [
            -98.99878,
            30.739979
          ],
          [
            -99.000135,
            30.740115
          ],
          [
            -99.008167,
            30.740905
          ],
          [
            -99.008949,
            30.740966
          ],
          [
            -99.00961,
            30.740986
          ],
          [
            -99.010301,
            30.740966
          ],
          [
            -99.011086,
            30.740851
          ],
          [
            -99.011678,
            30.740712
          ],
          [
            -99.012461,
            30.740473
          ],
          [
            -99.014181,
            30.739844
          ],
          [
            -99.014996,
            30.739589
          ],
          [
            -99.015547,
            30.739485
          ],
          [
            -99.016307,
            30.739401
          ],
          [
            -99.017194,
            30.739363
          ],
          [
            -99.017779,
            30.739342
          ],
          [
            -99.022459,
            30.739167
          ],
          [
            -99.025018,
            30.739068
          ],
          [
            -99.029042,
            30.738916
          ],
          [
            -99.029519,
            30.738898
          ],
          [
            -99.032144,
            30.738797
          ],
          [
            -99.034698,
            30.738684
          ],
          [
            -99.03668,
            30.738619
          ],
          [
            -99.037376,
            30.738614
          ],
          [
            -99.03856,
            30.738657
          ],
          [
            -99.042387,
            30.738822
          ],
          [
            -99.043372,
            30.738847
          ],
          [
            -99.044332,
            30.738812
          ],
          [
            -99.045119,
            30.738754
          ],
          [
            -99.04607,
            30.738639
          ],
          [
            -99.047795,
            30.73843
          ],
          [
            -99.050002,
            30.738197
          ],
          [
            -99.050764,
            30.738126
          ],
          [
            -99.051507,
            30.738095
          ],
          [
            -99.052318,
            30.738097
          ],
          [
            -99.054924,
            30.738102
          ],
          [
            -99.069018,
            30.738131
          ],
          [
            -99.074118,
            30.738202
          ],
          [
            -99.074681,
            30.738207
          ],
          [
            -99.07734,
            30.738238
          ],
          [
            -99.085893,
            30.738376
          ],
          [
            -99.092581,
            30.738481
          ],
          [
            -99.095317,
            30.738524
          ],
          [
            -99.100737,
            30.738512
          ],
          [
            -99.106515,
            30.738508
          ],
          [
            -99.10904,
            30.738515
          ],
          [
            -99.11134,
            30.738501
          ],
          [
            -99.111709,
            30.738502
          ],
          [
            -99.116758,
            30.738505
          ],
          [
            -99.117676,
            30.738507
          ],
          [
            -99.119183,
            30.738526
          ],
          [
            -99.119807,
            30.738544
          ],
          [
            -99.122917,
            30.738634
          ],
          [
            -99.129379,
            30.738742
          ],
          [
            -99.142596,
            30.738956
          ],
          [
            -99.143732,
            30.738982
          ],
          [
            -99.158694,
            30.739243
          ],
          [
            -99.160778,
            30.739259
          ],
          [
            -99.161888,
            30.739254
          ],
          [
            -99.170729,
            30.739232
          ],
          [
            -99.171331,
            30.73931
          ],
          [
            -99.17181,
            30.739409
          ],
          [
            -99.172323,
            30.739589
          ],
          [
            -99.172871,
            30.739843
          ],
          [
            -99.178353,
            30.744878
          ],
          [
            -99.17879,
            30.745275
          ],
          [
            -99.179124,
            30.745515
          ],
          [
            -99.179662,
            30.745828
          ],
          [
            -99.179789,
            30.7459
          ],
          [
            -99.180084,
            30.746067
          ],
          [
            -99.180461,
            30.746251
          ],
          [
            -99.180751,
            30.746376
          ],
          [
            -99.180872,
            30.746429
          ],
          [
            -99.181336,
            30.746587
          ],
          [
            -99.181563,
            30.746643
          ],
          [
            -99.182089,
            30.746788
          ],
          [
            -99.182791,
            30.746936
          ],
          [
            -99.183331,
            30.746996
          ],
          [
            -99.183551,
            30.747021
          ],
          [
            -99.185249,
            30.7471
          ],
          [
            -99.185984,
            30.747139
          ],
          [
            -99.186337,
            30.747157
          ],
          [
            -99.188245,
            30.747258
          ],
          [
            -99.188311,
            30.747261
          ],
          [
            -99.189079,
            30.747307
          ],
          [
            -99.189946,
            30.74733
          ],
          [
            -99.190342,
            30.747341
          ],
          [
            -99.191418,
            30.747349
          ],
          [
            -99.193014,
            30.74736
          ],
          [
            -99.19458,
            30.747371
          ],
          [
            -99.196871,
            30.747368
          ],
          [
            -99.198918,
            30.747365
          ],
          [
            -99.201887,
            30.747394
          ],
          [
            -99.202817,
            30.747399
          ],
          [
            -99.203575,
            30.747403
          ],
          [
            -99.205031,
            30.747432
          ],
          [
            -99.208233,
            30.747485
          ],
          [
            -99.209397,
            30.747493
          ],
          [
            -99.211187,
            30.747522
          ],
          [
            -99.211463,
            30.747524
          ],
          [
            -99.211889,
            30.747526
          ],
          [
            -99.212627,
            30.74753
          ],
          [
            -99.214044,
            30.747552
          ],
          [
            -99.215591,
            30.747592
          ],
          [
            -99.217126,
            30.747657
          ],
          [
            -99.219097,
            30.747729
          ],
          [
            -99.220117,
            30.747765
          ],
          [
            -99.220995,
            30.747794
          ],
          [
            -99.22173,
            30.747819
          ],
          [
            -99.224418,
            30.747923
          ],
          [
            -99.224954,
            30.747937
          ],
          [
            -99.225831,
            30.747969
          ],
          [
            -99.226856,
            30.748017
          ],
          [
            -99.226995,
            30.748041
          ],
          [
            -99.227283,
            30.74809
          ],
          [
            -99.227986,
            30.74831
          ],
          [
            -99.229092,
            30.748676
          ],
          [
            -99.229097,
            30.748555
          ],
          [
            -99.22912,
            30.747975
          ]
        ]
      }
    }
  ]
}