{
  "type": "FeatureCollection",
  "features": [
    {
      "type": "Feature",
      "properties": {
        "route": "Lost Pines & Bastrop State Park Loop",
        "category": "Savannah & Prairie Sweeps",
        "color": "#27ae60",
        "waypoints": [
          "Bastrop",
          "Lost Pines",
          "Buescher State Park"
        ],
        "via": "FM 1441 -> Park Road 1 -> Smithville -> Bastrop",
        "distance_mi": 27.8,
        "source": "road-snapped"
      },
      "geometry": {
        "type": "LineString",
        "coordinates": [
          [
            -97.315061,
            30.110006
          ],
          [
            -97.315069,
            30.110313
          ],
          [
            -97.315075,
            30.110534
          ],
          [
            -97.315076,
            30.110588
          ],
          [
            -97.315006,
            30.110589
          ],
          [
            -97.314846,
            30.110593
          ],
          [
            -97.314573,
            30.110599
          ],
          [
            -97.313922,
            30.110613
          ],
          [
            -97.313846,
            30.110615
          ],
          [
            -97.313805,
            30.110615
          ],
          [
            -97.313267,
            30.110619
          ],
          [
            -97.313114,
            30.110623
          ],
          [
            -97.31266,
            30.110628
          ],
          [
            -97.312532,
            30.11063
          ],
          [
            -97.312492,
            30.110631
          ],
          [
            -97.312211,
            30.110636
          ],
          [
            -97.311716,
            30.110641
          ],
          [
            -97.311405,
            30.110648
          ],
          [
            -97.310657,
            30.110657
          ],
          [
            -97.310413,
            30.11066
          ],
          [
            -97.31026,
            30.110662
          ],
          [
            -97.310165,
            30.110663
          ],
          [
            -97.310111,
            30.110664
          ],
          [
            -97.309981,
            30.110665
          ],
          [
            -97.309761,
            30.110668
          ],
          [
            -97.309285,
            30.110673
          ],
          [
            -97.308754,
            30.110679
          ],
          [
            -97.308685,
            30.110681
          ],
          [
            -97.308477,
            30.110687
          ],
          [
            -97.308188,
            30.110693
          ],
          [
            -97.307534,
            30.110706
          ],
          [
            -97.30756,
            30.111468
          ],
          [
            -97.307567,
            30.11164
          ],
          [
            -97.307574,
            30.11181
          ],
          [
            -97.307582,
            30.111935
          ],
          [
            -97.307626,
            30.112433
          ],
          [
            -97.307666,
            30.112884
          ],
          [
            -97.307817,
            30.114875
          ],
          [
            -97.30784,
            30.115277
          ],
          [
            -97.307965,
            30.116618
          ],
          [
            -97.307999,
            30.116951
          ],
          [
            -97.30801,
            30.117073
          ],
          [
            -97.308043,
            30.117501
          ],
          [
            -97.308073,
            30.117669
          ],
          [
            -97.308182,
            30.118282
          ],
          [
            -97.308184,
            30.118302
          ],
          [
            -97.308286,
            30.11867
          ],
          [
            -97.308352,
            30.11888
          ],
          [
            -97.3085,
            30.119283
          ],
          [
            -97.308559,
            30.119424
          ],
          [
            -97.308719,
            30.11978
          ],
          [
            -97.308773,
            30.119885
          ],
          [
            -97.308898,
            30.120126
          ],
          [
            -97.309375,
            30.120964
          ],
          [
            -97.309468,
            30.121127
          ],
          [
            -97.311406,
            30.124551
          ],
          [
            -97.311767,
            30.125189
          ],
          [
            -97.311902,
            30.125429
          ],
          [
            -97.312254,
            30.12605
          ],
          [
            -97.313242,
            30.127784
          ],
          [
            -97.313891,
            30.128923
          ],
          [
            -97.314159,
            30.129394
          ],
          [
            -97.314257,
            30.129566
          ],
          [
            -97.31482,
            30.130558
          ],
          [
            -97.315017,
            30.130951
          ],
          [
            -97.315194,
            30.131351
          ],
          [
            -97.315368,
            30.131812
          ],
          [
            -97.315407,
            30.131932
          ],
          [
            -97.315523,
            30.132286
          ],
          [
            -97.315653,
            30.132762
          ],
          [
            -97.315707,
            30.133034
          ],
          [
            -97.315733,
            30.133242
          ],
          [
            -97.315773,
            30.133625
          ],
          [
            -97.315802,
            30.1339
          ],
          [
            -97.315864,
            30.134263
          ],
          [
            -97.315948,
            30.134832
          ],
          [
            -97.316101,
            30.135747
          ],
          [
            -97.316249,
            30.136628
          ],
          [
            -97.316388,
            30.137692
          ],
          [
            -97.316406,
            30.137821
          ],
          [
            -97.316675,
            30.139737
          ],
          [
            -97.316786,
            30.140433
          ],
          [
            -97.316964,
            30.141779
          ],
          [
            -97.317022,
            30.142207
          ],
          [
            -97.317094,
            30.142733
          ],
          [
            -97.317158,
            30.143196
          ],
          [
            -97.317199,
            30.143502
          ],
          [
            -97.317271,
            30.144028
          ],
          [
            -97.317544,
            30.145902
          ],
          [
            -97.317744,
            30.147345
          ],
          [
            -97.317856,
            30.148157
          ],
          [
            -97.317892,
            30.148415
          ],
          [
            -97.318018,
            30.149323
          ],
          [
            -97.31803,
            30.149412
          ],
          [
            -97.31807,
            30.14972
          ],
          [
            -97.318094,
            30.149909
          ],
          [
            -97.318101,
            30.149966
          ],
          [
            -97.318124,
            30.150149
          ],
          [
            -97.318215,
            30.15086
          ],
          [
            -97.318236,
            30.150999
          ],
          [
            -97.318334,
            30.151656
          ],
          [
            -97.318366,
            30.151872
          ],
          [
            -97.318425,
            30.152272
          ],
          [
            -97.318482,
            30.152654
          ],
          [
            -97.318493,
            30.152723
          ],
          [
            -97.318515,
            30.152904
          ],
          [
            -97.318518,
            30.152929
          ],
          [
            -97.318577,
            30.153332
          ],
          [
            -97.318612,
            30.153714
          ],
          [
            -97.318648,
            30.153916
          ],
          [
            -97.318707,
            30.154255
          ],
          [
            -97.31877,
            30.15479
          ],
          [
            -97.318812,
            30.155298
          ],
          [
            -97.318835,
            30.155767
          ],
          [
            -97.318839,
            30.155839
          ],
          [
            -97.318829,
            30.156599
          ],
          [
            -97.318797,
            30.157247
          ],
          [
            -97.31879,
            30.157331
          ],
          [
            -97.318775,
            30.157506
          ],
          [
            -97.318723,
            30.157999
          ],
          [
            -97.318625,
            30.158695
          ],
          [
            -97.31859,
            30.158973
          ],
          [
            -97.318504,
            30.159656
          ],
          [
            -97.318499,
            30.159696
          ],
          [
            -97.318404,
            30.160451
          ],
          [
            -97.318382,
            30.160636
          ],
          [
            -97.318362,
            30.160803
          ],
          [
            -97.31831,
            30.161241
          ],
          [
            -97.318303,
            30.161298
          ],
          [
            -97.318219,
            30.161942
          ],
          [
            -97.318172,
            30.162311
          ],
          [
            -97.318111,
            30.162789
          ],
          [
            -97.318024,
            30.16347
          ],
          [
            -97.31792,
            30.164295
          ],
          [
            -97.317857,
            30.164792
          ],
          [
            -97.317791,
            30.165314
          ],
          [
            -97.317766,
            30.165505
          ],
          [
            -97.317735,
            30.165748
          ],
          [
            -97.317704,
            30.165993
          ],
          [
            -97.317656,
            30.166371
          ],
          [
            -97.317606,
            30.166763
          ],
          [
            -97.317483,
            30.167734
          ],
          [
            -97.317318,
            30.169028
          ],
          [
            -97.317282,
            30.169318
          ],
          [
            -97.317259,
            30.169499
          ],
          [
            -97.31724,
            30.16965
          ],
          [
            -97.317055,
            30.17112
          ],
          [
            -97.316988,
            30.171652
          ],
          [
            -97.316942,
            30.17202
          ],
          [
            -97.316817,
            30.173019
          ],
          [
            -97.316805,
            30.1731
          ],
          [
            -97.316782,
            30.173238
          ],
          [
            -97.316691,
            30.17402
          ],
          [
            -97.316681,
            30.174103
          ],
          [
            -97.316595,
            30.174739
          ],
          [
            -97.316526,
            30.175268
          ],
          [
            -97.31649,
            30.175534
          ],
          [
            -97.316369,
            30.176435
          ],
          [
            -97.316003,
            30.179293
          ],
          [
            -97.315866,
            30.180376
          ],
          [
            -97.315857,
            30.180446
          ],
          [
            -97.315783,
            30.181036
          ],
          [
            -97.315736,
            30.181407
          ],
          [
            -97.315658,
            30.182018
          ],
          [
            -97.315334,
            30.184581
          ],
          [
            -97.315199,
            30.185683
          ],
          [
            -97.31519,
            30.185754
          ],
          [
            -97.314379,
            30.192169
          ],
          [
            -97.314304,
            30.192753
          ],
          [
            -97.314249,
            30.19318
          ],
          [
            -97.31424,
            30.193252
          ],
          [
            -97.314026,
            30.194923
          ],
          [
            -97.313837,
            30.196399
          ],
          [
            -97.313795,
            30.196729
          ],
          [
            -97.313736,
            30.19719
          ],
          [
            -97.313719,
            30.197331
          ],
          [
            -97.313685,
            30.197617
          ],
          [
            -97.313576,
            30.198526
          ],
          [
            -97.313536,
            30.198981
          ],
          [
            -97.313533,
            30.199019
          ],
          [
            -97.313504,
            30.199338
          ],
          [
            -97.313475,
            30.199794
          ],
          [
            -97.313472,
            30.199844
          ],
          [
            -97.313453,
            30.200206
          ],
          [
            -97.313447,
            30.200469
          ],
          [
            -97.313441,
            30.200695
          ],
          [
            -97.313433,
            30.201046
          ],
          [
            -97.313428,
            30.201235
          ],
          [
            -97.31344,
            30.201972
          ],
          [
            -97.312096,
            30.202023
          ],
          [
            -97.312029,
            30.202023
          ],
          [
            -97.311721,
            30.202025
          ],
          [
            -97.311607,
            30.20202
          ],
          [
            -97.311346,
            30.202008
          ],
          [
            -97.310973,
            30.201974
          ],
          [
            -97.310604,
            30.201922
          ],
          [
            -97.310237,
            30.201852
          ],
          [
            -97.309875,
            30.201767
          ],
          [
            -97.30952,
            30.201662
          ],
          [
            -97.309172,
            30.201541
          ],
          [
            -97.308831,
            30.201407
          ],
          [
            -97.308502,
            30.201256
          ],
          [
            -97.307152,
            30.200553
          ],
          [
            -97.30706,
            30.200502
          ],
          [
            -97.306884,
            30.200403
          ],
          [
            -97.306619,
            30.200273
          ],
          [
            -97.306344,
            30.200154
          ],
          [
            -97.306062,
            30.200048
          ],
          [
            -97.305773,
            30.199959
          ],
          [
            -97.305479,
            30.199883
          ],
          [
            -97.304849,
            30.199775
          ],
          [
            -97.302999,
            30.199451
          ],
          [
            -97.30245,
            30.199352
          ],
          [
            -97.301738,
            30.199247
          ],
          [
            -97.301423,
            30.199197
          ],
          [
            -97.301176,
            30.199159
          ],
          [
            -97.300697,
            30.199084
          ],
          [
            -97.30054,
            30.199059
          ],
          [
            -97.299836,
            30.198928
          ],
          [
            -97.298438,
            30.198674
          ],
          [
            -97.297701,
            30.198547
          ],
          [
            -97.297283,
            30.198473
          ],
          [
            -97.29647,
            30.198336
          ],
          [
            -97.294365,
            30.197978
          ],
          [
            -97.291922,
            30.197554
          ],
          [
            -97.292079,
            30.196791
          ],
          [
            -97.292121,
            30.196585
          ],
          [
            -97.292146,
            30.196473
          ],
          [
            -97.292212,
            30.19618
          ],
          [
            -97.29232,
            30.195703
          ],
          [
            -97.292491,
            30.194944
          ],
          [
            -97.292663,
            30.194183
          ],
          [
            -97.292789,
            30.193626
          ],
          [
            -97.292947,
            30.192933
          ],
          [
            -97.293007,
            30.19267
          ],
          [
            -97.293054,
            30.192399
          ],
          [
            -97.293201,
            30.191643
          ],
          [
            -97.292078,
            30.191457
          ],
          [
            -97.291737,
            30.191386
          ],
          [
            -97.291385,
            30.191322
          ],
          [
            -97.291679,
            30.190017
          ],
          [
            -97.291879,
            30.189188
          ],
          [
            -97.29208,
            30.188513
          ],
          [
            -97.292236,
            30.188055
          ],
          [
            -97.292474,
            30.187449
          ],
          [
            -97.292759,
            30.186797
          ],
          [
            -97.293562,
            30.185185
          ],
          [
            -97.293924,
            30.184515
          ],
          [
            -97.294628,
            30.183233
          ],
          [
            -97.29469,
            30.183111
          ],
          [
            -97.295214,
            30.182072
          ],
          [
            -97.295345,
            30.181872
          ],
          [
            -97.295499,
            30.181287
          ],
          [
            -97.295503,
            30.181197
          ],
          [
            -97.295413,
            30.180723
          ],
          [
            -97.295012,
            30.179853
          ],
          [
            -97.294885,
            30.179437
          ],
          [
            -97.294809,
            30.178874
          ],
          [
            -97.294737,
            30.178518
          ],
          [
            -97.294586,
            30.178239
          ],
          [
            -97.294268,
            30.177764
          ],
          [
            -97.29421,
            30.177676
          ],
          [
            -97.294066,
            30.177472
          ],
          [
            -97.29381,
            30.177118
          ],
          [
            -97.293293,
            30.176388
          ],
          [
            -97.293251,
            30.176329
          ],
          [
            -97.293099,
            30.176108
          ],
          [
            -97.292782,
            30.175648
          ],
          [
            -97.292202,
            30.174741
          ],
          [
            -97.292061,
            30.17457
          ],
          [
            -97.29202,
            30.174561
          ],
          [
            -97.291838,
            30.174523
          ],
          [
            -97.290378,
            30.174617
          ],
          [
            -97.289613,
            30.174653
          ],
          [
            -97.289611,
            30.174653
          ],
          [
            -97.2886,
            30.17472
          ],
          [
            -97.287885,
            30.174751
          ],
          [
            -97.287797,
            30.174748
          ],
          [
            -97.287295,
            30.17484
          ],
          [
            -97.286841,
            30.17486
          ],
          [
            -97.286551,
            30.174873
          ],
          [
            -97.286237,
            30.174887
          ],
          [
            -97.285852,
            30.174904
          ],
          [
            -97.284758,
            30.174939
          ],
          [
            -97.284653,
            30.174942
          ],
          [
            -97.283627,
            30.174937
          ],
          [
            -97.283492,
            30.174936
          ],
          [
            -97.28322,
            30.174937
          ],
          [
            -97.282993,
            30.174938
          ],
          [
            -97.282684,
            30.174939
          ],
          [
            -97.282258,
            30.174939
          ],
          [
            -97.281612,
            30.174938
          ],
          [
            -97.280879,
            30.174926
          ],
          [
            -97.280346,
            30.174916
          ],
          [
            -97.279862,
            30.174919
          ],
          [
            -97.279262,
            30.174922
          ],
          [
            -97.27849,
            30.174927
          ],
          [
            -97.277231,
            30.174939
          ],
          [
            -97.275692,
            30.174953
          ],
          [
            -97.275074,
            30.174963
          ],
          [
            -97.274652,
            30.174977
          ],
          [
            -97.273735,
            30.175006
          ],
          [
            -97.27263,
            30.175062
          ],
          [
            -97.272261,
            30.175064
          ],
          [
            -97.271891,
            30.17505
          ],
          [
            -97.269662,
            30.174912
          ],
          [
            -97.269505,
            30.174902
          ],
          [
            -97.26888,
            30.174892
          ],
          [
            -97.268887,
            30.174565
          ],
          [
            -97.267696,
            30.174531
          ],
          [
            -97.26704,
            30.174518
          ],
          [
            -97.26522,
            30.1745
          ],
          [
            -97.263724,
            30.174486
          ],
          [
            -97.262474,
            30.174474
          ],
          [
            -97.261566,
            30.174465
          ],
          [
            -97.260982,
            30.174465
          ],
          [
            -97.260472,
            30.174457
          ],
          [
            -97.260128,
            30.174448
          ],
          [
            -97.260034,
            30.174438
          ],
          [
            -97.259597,
            30.174397
          ],
          [
            -97.259115,
            30.174331
          ],
          [
            -97.258994,
            30.174311
          ],
          [
            -97.258634,
            30.174237
          ],
          [
            -97.258279,
            30.174146
          ],
          [
            -97.257932,
            30.174036
          ],
          [
            -97.257592,
            30.173906
          ],
          [
            -97.256486,
            30.173439
          ],
          [
            -97.256419,
            30.173411
          ],
          [
            -97.25479,
            30.172662
          ],
          [
            -97.253473,
            30.172077
          ],
          [
            -97.251845,
            30.171352
          ],
          [
            -97.248819,
            30.170004
          ],
          [
            -97.247381,
            30.169364
          ],
          [
            -97.246924,
            30.16916
          ],
          [
            -97.245858,
            30.168685
          ],
          [
            -97.244912,
            30.168264
          ],
          [
            -97.24425,
            30.16797
          ],
          [
            -97.243892,
            30.16781
          ],
          [
            -97.242313,
            30.167107
          ],
          [
            -97.240617,
            30.166346
          ],
          [
            -97.239845,
            30.166
          ],
          [
            -97.239521,
            30.165835
          ],
          [
            -97.239207,
            30.165657
          ],
          [
            -97.238905,
            30.165463
          ],
          [
            -97.238615,
            30.165258
          ],
          [
            -97.238337,
            30.165039
          ],
          [
            -97.238073,
            30.16481
          ],
          [
            -97.237962,
            30.164705
          ],
          [
            -97.237362,
            30.164094
          ],
          [
            -97.237139,
            30.163857
          ],
          [
            -97.235637,
            30.162245
          ],
          [
            -97.233817,
            30.160327
          ],
          [
            -97.233381,
            30.159865
          ],
          [
            -97.233258,
            30.159734
          ],
          [
            -97.231671,
            30.158051
          ],
          [
            -97.231104,
            30.157444
          ],
          [
            -97.230961,
            30.157291
          ],
          [
            -97.229387,
            30.155622
          ],
          [
            -97.229333,
            30.155565
          ],
          [
            -97.228832,
            30.155035
          ],
          [
            -97.226338,
            30.152389
          ],
          [
            -97.226223,
            30.152267
          ],
          [
            -97.225971,
            30.151999
          ],
          [
            -97.225741,
            30.151743
          ],
          [
            -97.226635,
            30.151216
          ],
          [
            -97.227345,
            30.150797
          ],
          [
            -97.227413,
            30.150757
          ],
          [
            -97.228546,
            30.150083
          ],
          [
            -97.229467,
            30.149536
          ],
          [
            -97.23095,
            30.148655
          ],
          [
            -97.23243,
            30.147776
          ],
          [
            -97.232446,
            30.147763
          ],
          [
            -97.232995,
            30.147443
          ],
          [
            -97.233925,
            30.146894
          ],
          [
            -97.234402,
            30.146613
          ],
          [
            -97.235332,
            30.146064
          ],
          [
            -97.236068,
            30.145625
          ],
          [
            -97.236125,
            30.145591
          ],
          [
            -97.236687,
            30.145288
          ],
          [
            -97.236836,
            30.145206
          ],
          [
            -97.237158,
            30.145044
          ],
          [
            -97.23749,
            30.144895
          ],
          [
            -97.237829,
            30.144763
          ],
          [
            -97.238207,
            30.144635
          ],
          [
            -97.238553,
            30.144538
          ],
          [
            -97.239001,
            30.14442
          ],
          [
            -97.240406,
            30.144049
          ],
          [
            -97.241736,
            30.143697
          ],
          [
            -97.243198,
            30.143316
          ],
          [
            -97.24494,
            30.142861
          ],
          [
            -97.245733,
            30.142655
          ],
          [
            -97.246498,
            30.142455
          ],
          [
            -97.248136,
            30.14203
          ],
          [
            -97.248367,
            30.14197
          ],
          [
            -97.248836,
            30.141824
          ],
          [
            -97.249135,
            30.141717
          ],
          [
            -97.249166,
            30.141706
          ],
          [
            -97.249296,
            30.141659
          ],
          [
            -97.249746,
            30.141475
          ],
          [
            -97.250152,
            30.141277
          ],
          [
            -97.250499,
            30.141108
          ],
          [
            -97.25056,
            30.141074
          ],
          [
            -97.25086,
            30.140905
          ],
          [
            -97.250913,
            30.140872
          ],
          [
            -97.25121,
            30.140685
          ],
          [
            -97.251548,
            30.140451
          ],
          [
            -97.251819,
            30.140247
          ],
          [
            -97.251927,
            30.140166
          ],
          [
            -97.252244,
            30.139901
          ],
          [
            -97.252565,
            30.139606
          ],
          [
            -97.252832,
            30.139332
          ],
          [
            -97.253494,
            30.138586
          ],
          [
            -97.254207,
            30.137792
          ],
          [
            -97.255016,
            30.136909
          ],
          [
            -97.255149,
            30.136769
          ],
          [
            -97.255436,
            30.136493
          ],
          [
            -97.255739,
            30.136228
          ],
          [
            -97.256057,
            30.135977
          ],
          [
            -97.256329,
            30.135784
          ],
          [
            -97.256437,
            30.135708
          ],
          [
            -97.256783,
            30.135483
          ],
          [
            -97.257143,
            30.135277
          ],
          [
            -97.257513,
            30.135085
          ],
          [
            -97.257895,
            30.13491
          ],
          [
            -97.258792,
            30.134546
          ],
          [
            -97.2595,
            30.134247
          ],
          [
            -97.259827,
            30.134106
          ],
          [
            -97.260514,
            30.133782
          ],
          [
            -97.261864,
            30.133121
          ],
          [
            -97.262823,
            30.132627
          ],
          [
            -97.263328,
            30.132317
          ],
          [
            -97.263718,
            30.132049
          ],
          [
            -97.263787,
            30.131997
          ],
          [
            -97.264093,
            30.131769
          ],
          [
            -97.265124,
            30.130917
          ],
          [
            -97.265513,
            30.130598
          ],
          [
            -97.268023,
            30.128543
          ],
          [
            -97.269253,
            30.12753
          ],
          [
            -97.269929,
            30.126977
          ],
          [
            -97.271149,
            30.125978
          ],
          [
            -97.272054,
            30.125237
          ],
          [
            -97.272862,
            30.124567
          ],
          [
            -97.273946,
            30.123668
          ],
          [
            -97.273987,
            30.123635
          ],
          [
            -97.275027,
            30.122788
          ],
          [
            -97.276676,
            30.121437
          ],
          [
            -97.277299,
            30.120926
          ],
          [
            -97.278346,
            30.120049
          ],
          [
            -97.279091,
            30.119467
          ],
          [
            -97.279615,
            30.119023
          ],
          [
            -97.28233,
            30.116783
          ],
          [
            -97.283463,
            30.115868
          ],
          [
            -97.284405,
            30.115088
          ],
          [
            -97.284463,
            30.11504
          ],
          [
            -97.284818,
            30.114746
          ],
          [
            -97.28519,
            30.114452
          ],
          [
            -97.285578,
            30.114173
          ],
          [
            -97.28598,
            30.113913
          ],
          [
            -97.286373,
            30.113683
          ],
          [
            -97.286633,
            30.113546
          ],
          [
            -97.287065,
            30.113347
          ],
          [
            -97.287507,
            30.113162
          ],
          [
            -97.287959,
            30.112997
          ],
          [
            -97.289672,
            30.112455
          ],
          [
            -97.289863,
            30.11239
          ],
          [
            -97.290604,
            30.112139
          ],
          [
            -97.290633,
            30.11213
          ],
          [
            -97.291226,
            30.111935
          ],
          [
            -97.29192,
            30.111706
          ],
          [
            -97.292333,
            30.11157
          ],
          [
            -97.292538,
            30.111502
          ],
          [
            -97.292704,
            30.111449
          ],
          [
            -97.29311,
            30.111324
          ],
          [
            -97.293512,
            30.11122
          ],
          [
            -97.293574,
            30.111208
          ],
          [
            -97.293813,
            30.111159
          ],
          [
            -97.294301,
            30.111075
          ],
          [
            -97.294263,
            30.110965
          ],
          [
            -97.294222,
            30.110873
          ],
          [
            -97.29417,
            30.110777
          ],
          [
            -97.294093,
            30.110681
          ],
          [
            -97.294058,
            30.11064
          ],
          [
            -97.293978,
            30.110564
          ],
          [
            -97.293939,
            30.110523
          ],
          [
            -97.293911,
            30.110505
          ],
          [
            -97.293857,
            30.11047
          ],
          [
            -97.293667,
            30.110361
          ],
          [
            -97.292973,
            30.110039
          ],
          [
            -97.292793,
            30.109955
          ],
          [
            -97.292784,
            30.109951
          ],
          [
            -97.292248,
            30.109701
          ],
          [
            -97.290887,
            30.109069
          ],
          [
            -97.289841,
            30.108589
          ],
          [
            -97.289465,
            30.10839
          ],
          [
            -97.289102,
            30.108175
          ],
          [
            -97.288619,
            30.107853
          ],
          [
            -97.288328,
            30.10764
          ],
          [
            -97.28805,
            30.107415
          ],
          [
            -97.288006,
            30.107379
          ],
          [
            -97.2877,
            30.107099
          ],
          [
            -97.287413,
            30.106806
          ],
          [
            -97.287338,
            30.106719
          ],
          [
            -97.287069,
            30.106406
          ],
          [
            -97.287063,
            30.106399
          ],
          [
            -97.286981,
            30.106304
          ],
          [
            -97.286597,
            30.10583
          ],
          [
            -97.286468,
            30.105669
          ],
          [
            -97.285808,
            30.104847
          ],
          [
            -97.285551,
            30.104527
          ],
          [
            -97.285302,
            30.104221
          ],
          [
            -97.285087,
            30.103942
          ],
          [
            -97.284839,
            30.103653
          ],
          [
            -97.284351,
            30.103148
          ],
          [
            -97.284269,
            30.103004
          ],
          [
            -97.284226,
            30.102912
          ],
          [
            -97.284213,
            30.102841
          ],
          [
            -97.284203,
            30.102762
          ],
          [
            -97.2842,
            30.102731
          ],
          [
            -97.284197,
            30.102703
          ],
          [
            -97.284211,
            30.102655
          ],
          [
            -97.284378,
            30.102106
          ],
          [
            -97.284218,
            30.102057
          ],
          [
            -97.28406,
            30.102014
          ],
          [
            -97.283334,
            30.101827
          ],
          [
            -97.281081,
            30.101197
          ],
          [
            -97.280397,
            30.101041
          ],
          [
            -97.279541,
            30.100839
          ],
          [
            -97.279136,
            30.100765
          ],
          [
            -97.278643,
            30.100612
          ],
          [
            -97.278061,
            30.100403
          ],
          [
            -97.277574,
            30.100287
          ],
          [
            -97.276958,
            30.10003
          ],
          [
            -97.276526,
            30.099845
          ],
          [
            -97.274806,
            30.099109
          ],
          [
            -97.271906,
            30.097868
          ],
          [
            -97.271523,
            30.097683
          ],
          [
            -97.271151,
            30.097481
          ],
          [
            -97.27079,
            30.097266
          ],
          [
            -97.270441,
            30.097035
          ],
          [
            -97.270106,
            30.096791
          ],
          [
            -97.269784,
            30.096533
          ],
          [
            -97.26869,
            30.095588
          ],
          [
            -97.267333,
            30.094416
          ],
          [
            -97.266921,
            30.094052
          ],
          [
            -97.266595,
            30.093796
          ],
          [
            -97.266253,
            30.093557
          ],
          [
            -97.265897,
            30.093337
          ],
          [
            -97.265528,
            30.09313
          ],
          [
            -97.265145,
            30.092945
          ],
          [
            -97.264752,
            30.092776
          ],
          [
            -97.264349,
            30.092626
          ],
          [
            -97.263936,
            30.092498
          ],
          [
            -97.263517,
            30.092386
          ],
          [
            -97.262003,
            30.091985
          ],
          [
            -97.259152,
            30.091211
          ],
          [
            -97.258321,
            30.090986
          ],
          [
            -97.256825,
            30.090574
          ],
          [
            -97.255875,
            30.090312
          ],
          [
            -97.254572,
            30.089937
          ],
          [
            -97.254113,
            30.089769
          ],
          [
            -97.253663,
            30.08958
          ],
          [
            -97.253224,
            30.089371
          ],
          [
            -97.252796,
            30.089146
          ],
          [
            -97.252382,
            30.088905
          ],
          [
            -97.252215,
            30.088797
          ],
          [
            -97.248635,
            30.086549
          ],
          [
            -97.247565,
            30.086228
          ],
          [
            -97.248434,
            30.086771
          ],
          [
            -97.249706,
            30.087565
          ],
          [
            -97.251259,
            30.088534
          ],
          [
            -97.251446,
            30.088651
          ],
          [
            -97.252029,
            30.089015
          ],
          [
            -97.253172,
            30.089728
          ],
          [
            -97.253581,
            30.089955
          ],
          [
            -97.253933,
            30.090131
          ],
          [
            -97.254003,
            30.090166
          ],
          [
            -97.254391,
            30.090337
          ],
          [
            -97.254789,
            30.090493
          ],
          [
            -97.255191,
            30.090634
          ],
          [
            -97.255703,
            30.090784
          ],
          [
            -97.256972,
            30.091098
          ],
          [
            -97.258141,
            30.091387
          ],
          [
            -97.259855,
            30.091811
          ],
          [
            -97.261002,
            30.092095
          ],
          [
            -97.261871,
            30.092318
          ],
          [
            -97.262407,
            30.092445
          ],
          [
            -97.263066,
            30.092601
          ],
          [
            -97.263762,
            30.092766
          ],
          [
            -97.264122,
            30.09286
          ],
          [
            -97.264475,
            30.09297
          ],
          [
            -97.26482,
            30.093099
          ],
          [
            -97.265155,
            30.093245
          ],
          [
            -97.265481,
            30.093409
          ],
          [
            -97.265796,
            30.093588
          ],
          [
            -97.266099,
            30.093779
          ],
          [
            -97.266388,
            30.093987
          ],
          [
            -97.266664,
            30.094211
          ],
          [
            -97.26701,
            30.094524
          ],
          [
            -97.26845,
            30.095768
          ],
          [
            -97.269693,
            30.096841
          ],
          [
            -97.270173,
            30.097249
          ],
          [
            -97.270408,
            30.097425
          ],
          [
            -97.270655,
            30.097588
          ],
          [
            -97.270915,
            30.09774
          ],
          [
            -97.271183,
            30.097875
          ],
          [
            -97.271461,
            30.097995
          ],
          [
            -97.271689,
            30.09808
          ],
          [
            -97.274214,
            30.099161
          ],
          [
            -97.275287,
            30.099639
          ],
          [
            -97.276127,
            30.09998
          ],
          [
            -97.276822,
            30.100274
          ],
          [
            -97.277399,
            30.100519
          ],
          [
            -97.277909,
            30.10071
          ],
          [
            -97.278429,
            30.100885
          ],
          [
            -97.278894,
            30.101016
          ],
          [
            -97.279669,
            30.101217
          ],
          [
            -97.281382,
            30.101687
          ],
          [
            -97.282438,
            30.101968
          ],
          [
            -97.283842,
            30.102361
          ],
          [
            -97.284627,
            30.10258
          ],
          [
            -97.287651,
            30.103426
          ],
          [
            -97.288623,
            30.103704
          ],
          [
            -97.28968,
            30.103999
          ],
          [
            -97.290447,
            30.1042
          ],
          [
            -97.290827,
            30.104297
          ],
          [
            -97.292585,
            30.104754
          ],
          [
            -97.292957,
            30.104829
          ],
          [
            -97.293378,
            30.104907
          ],
          [
            -97.293619,
            30.104952
          ],
          [
            -97.294174,
            30.105039
          ],
          [
            -97.294294,
            30.105058
          ],
          [
            -97.295153,
            30.10515
          ],
          [
            -97.295344,
            30.105166
          ],
          [
            -97.296077,
            30.105227
          ],
          [
            -97.296262,
            30.10524
          ],
          [
            -97.29744,
            30.105251
          ],
          [
            -97.300504,
            30.105205
          ],
          [
            -97.302443,
            30.105176
          ],
          [
            -97.30329,
            30.105283
          ],
          [
            -97.303958,
            30.105345
          ],
          [
            -97.304591,
            30.105389
          ],
          [
            -97.305146,
            30.105401
          ],
          [
            -97.30615,
            30.105426
          ],
          [
            -97.306512,
            30.105419
          ],
          [
            -97.306791,
            30.105415
          ],
          [
            -97.307057,
            30.105515
          ],
          [
            -97.307148,
            30.105556
          ],
          [
            -97.307166,
            30.10557
          ],
          [
            -97.307225,
            30.105614
          ],
          [
            -97.307292,
            30.1057
          ],
          [
            -97.30744,
            30.105901
          ],
          [
            -97.307443,
            30.106011
          ],
          [
            -97.307448,
            30.106298
          ],
          [
            -97.307458,
            30.106702
          ],
          [
            -97.307465,
            30.106994
          ],
          [
            -97.30747,
            30.107426
          ],
          [
            -97.307494,
            30.108567
          ],
          [
            -97.307508,
            30.109436
          ],
          [
            -97.307516,
            30.109764
          ],
          [
            -97.307522,
            30.109961
          ],
          [
            -97.307525,
            30.110167
          ],
          [
            -97.307534,
            30.110706
          ],
          [
            -97.308188,
            30.110693
          ],
          [
            -97.308477,
            30.110687
          ],
          [
            -97.308685,
            30.110681
          ],
          [
            -97.308754,
            30.110679
          ],
          [
            -97.309285,
            30.110673
          ],
          [
            -97.309761,
            30.110668
          ],
          [
            -97.309981,
            30.110665
          ],
          [
            -97.310111,
            30.110664
          ],
          [
            -97.310165,
            30.110663
          ],
          [
            -97.31026,
            30.110662
          ],
          [
            -97.310413,
            30.11066
          ],
          [
            -97.310657,
            30.110657
          ],
          [
            -97.311405,
            30.110648
          ],
          [
            -97.311716,
            30.110641
          ],
          [
            -97.312211,
            30.110636
          ],
          [
            -97.312492,
            30.110631
          ],
          [
            -97.312532,
            30.11063
          ],
          [
            -97.31266,
            30.110628
          ],
          [
            -97.313114,
            30.110623
          ],
          [
            -97.313267,
            30.110619
          ],
          [
            -97.313805,
            30.110615
          ],
          [
            -97.313846,
            30.110615
          ],
          [
            -97.313922,
            30.110613
          ],
          [
            -97.314573,
            30.110599
          ],
          [
            -97.314846,
            30.110593
          ],
          [
            -97.315006,
            30.110589
          ],
          [
            -97.315076,
            30.110588
          ],
          [
            -97.315075,
            30.110534
          ],
          [
            -97.315069,
            30.110313
          ],
          [
            -97.315061,
            30.110006
          ]
        ]
      }
    }
  ]
}