{
  "type": "FeatureCollection",
  "features": [
    {
      "type": "Feature",
      "properties": {
        "route": "Mason Mountain Ridge Run",
        "category": "Savannah & Prairie Sweeps",
        "color": "#27ae60",
        "waypoints": [
          "Mason",
          "Art",
          "Streeter"
        ],
        "via": "TX 29 West -> Art Road -> US 87 -> Mason",
        "distance_mi": 57.3,
        "source": "road-snapped"
      },
      "geometry": {
        "type": "LineString",
        "coordinates": [
          [
            -99.22912,
            30.747975
          ],
          [
            -99.229153,
            30.747124
          ],
          [
            -99.229157,
            30.747001
          ],
          [
            -99.229161,
            30.746956
          ],
          [
            -99.229198,
            30.746783
          ],
          [
            -99.229213,
            30.746766
          ],
          [
            -99.229322,
            30.746647
          ],
          [
            -99.228281,
            30.745618
          ],
          [
            -99.228182,
            30.745507
          ],
          [
            -99.226676,
            30.744047
          ],
          [
            -99.225882,
            30.743277
          ],
          [
            -99.224595,
            30.742088
          ],
          [
            -99.22423,
            30.74183
          ],
          [
            -99.223951,
            30.741664
          ],
          [
            -99.223817,
            30.741611
          ],
          [
            -99.223715,
            30.741571
          ],
          [
            -99.223125,
            30.741406
          ],
          [
            -99.222871,
            30.741371
          ],
          [
            -99.222052,
            30.741258
          ],
          [
            -99.221537,
            30.741157
          ],
          [
            -99.220829,
            30.740963
          ],
          [
            -99.220207,
            30.740686
          ],
          [
            -99.219713,
            30.740382
          ],
          [
            -99.219273,
            30.740032
          ],
          [
            -99.218876,
            30.739543
          ],
          [
            -99.218415,
            30.738888
          ],
          [
            -99.218093,
            30.738381
          ],
          [
            -99.217725,
            30.737674
          ],
          [
            -99.217132,
            30.736617
          ],
          [
            -99.216806,
            30.736039
          ],
          [
            -99.216352,
            30.735364
          ],
          [
            -99.216087,
            30.735059
          ],
          [
            -99.215668,
            30.734526
          ],
          [
            -99.213619,
            30.732507
          ],
          [
            -99.212407,
            30.731345
          ],
          [
            -99.21187,
            30.730865
          ],
          [
            -99.208104,
            30.727868
          ],
          [
            -99.20465,
            30.725138
          ],
          [
            -99.201603,
            30.722786
          ],
          [
            -99.200916,
            30.722168
          ],
          [
            -99.200047,
            30.721283
          ],
          [
            -99.197617,
            30.718679
          ],
          [
            -99.197234,
            30.71827
          ],
          [
            -99.195916,
            30.71692
          ],
          [
            -99.194597,
            30.715555
          ],
          [
            -99.192751,
            30.713609
          ],
          [
            -99.192419,
            30.713157
          ],
          [
            -99.185066,
            30.705358
          ],
          [
            -99.184125,
            30.704477
          ],
          [
            -99.183482,
            30.70396
          ],
          [
            -99.18154,
            30.702733
          ],
          [
            -99.175949,
            30.699338
          ],
          [
            -99.169717,
            30.695578
          ],
          [
            -99.16815,
            30.694559
          ],
          [
            -99.167409,
            30.694202
          ],
          [
            -99.165919,
            30.6936
          ],
          [
            -99.159138,
            30.691247
          ],
          [
            -99.156692,
            30.690435
          ],
          [
            -99.15446,
            30.689688
          ],
          [
            -99.151113,
            30.688609
          ],
          [
            -99.144311,
            30.686311
          ],
          [
            -99.140652,
            30.685121
          ],
          [
            -99.138807,
            30.684438
          ],
          [
            -99.137829,
            30.684018
          ],
          [
            -99.136908,
            30.683525
          ],
          [
            -99.134784,
            30.682224
          ],
          [
            -99.130953,
            30.679862
          ],
          [
            -99.126608,
            30.677241
          ],
          [
            -99.125449,
            30.676503
          ],
          [
            -99.124377,
            30.675841
          ],
          [
            -99.122016,
            30.6743
          ],
          [
            -99.118154,
            30.672067
          ],
          [
            -99.116695,
            30.671245
          ],
          [
            -99.11574,
            30.6706
          ],
          [
            -99.114839,
            30.669769
          ],
          [
            -99.114377,
            30.669271
          ],
          [
            -99.11383,
            30.668505
          ],
          [
            -99.112273,
            30.66566
          ],
          [
            -99.111298,
            30.663863
          ],
          [
            -99.111115,
            30.663521
          ],
          [
            -99.110459,
            30.662299
          ],
          [
            -99.10923,
            30.660054
          ],
          [
            -99.108875,
            30.659394
          ],
          [
            -99.108627,
            30.658935
          ],
          [
            -99.108537,
            30.658786
          ],
          [
            -99.108337,
            30.658455
          ],
          [
            -99.10779,
            30.657624
          ],
          [
            -99.106535,
            30.655843
          ],
          [
            -99.103724,
            30.651819
          ],
          [
            -99.10264,
            30.650259
          ],
          [
            -99.101425,
            30.648511
          ],
          [
            -99.100232,
            30.646803
          ],
          [
            -99.099775,
            30.646262
          ],
          [
            -99.099369,
            30.645857
          ],
          [
            -99.098887,
            30.645367
          ],
          [
            -99.098618,
            30.645104
          ],
          [
            -99.098392,
            30.644771
          ],
          [
            -99.09831,
            30.644628
          ],
          [
            -99.098213,
            30.644381
          ],
          [
            -99.098163,
            30.644129
          ],
          [
            -99.098141,
            30.643847
          ],
          [
            -99.098127,
            30.643393
          ],
          [
            -99.098019,
            30.636884
          ],
          [
            -99.097931,
            30.631847
          ],
          [
            -99.097835,
            30.625786
          ],
          [
            -99.097856,
            30.625041
          ],
          [
            -99.097937,
            30.624537
          ],
          [
            -99.098009,
            30.624291
          ],
          [
            -99.098103,
            30.624047
          ],
          [
            -99.098343,
            30.623564
          ],
          [
            -99.10029,
            30.620171
          ],
          [
            -99.101241,
            30.618515
          ],
          [
            -99.101649,
            30.617832
          ],
          [
            -99.102088,
            30.617226
          ],
          [
            -99.105634,
            30.612743
          ],
          [
            -99.106008,
            30.612199
          ],
          [
            -99.106274,
            30.611692
          ],
          [
            -99.106404,
            30.611379
          ],
          [
            -99.10654,
            30.610959
          ],
          [
            -99.107634,
            30.607083
          ],
          [
            -99.107647,
            30.60704
          ],
          [
            -99.108727,
            30.603356
          ],
          [
            -99.109088,
            30.602142
          ],
          [
            -99.109205,
            30.601653
          ],
          [
            -99.109393,
            30.600478
          ],
          [
            -99.109543,
            30.599884
          ],
          [
            -99.112433,
            30.590117
          ],
          [
            -99.112638,
            30.589469
          ],
          [
            -99.112754,
            30.589162
          ],
          [
            -99.112862,
            30.588936
          ],
          [
            -99.113046,
            30.588596
          ],
          [
            -99.113223,
            30.588326
          ],
          [
            -99.113543,
            30.587903
          ],
          [
            -99.114407,
            30.58684
          ],
          [
            -99.114551,
            30.586648
          ],
          [
            -99.11527,
            30.58578
          ],
          [
            -99.115876,
            30.585048
          ],
          [
            -99.116082,
            30.584752
          ],
          [
            -99.116225,
            30.584506
          ],
          [
            -99.116432,
            30.584017
          ],
          [
            -99.116573,
            30.583493
          ],
          [
            -99.116626,
            30.583036
          ],
          [
            -99.116656,
            30.579126
          ],
          [
            -99.116668,
            30.578876
          ],
          [
            -99.116723,
            30.578468
          ],
          [
            -99.116829,
            30.578063
          ],
          [
            -99.116983,
            30.577675
          ],
          [
            -99.117372,
            30.576944
          ],
          [
            -99.117809,
            30.576114
          ],
          [
            -99.118002,
            30.575693
          ],
          [
            -99.118188,
            30.575126
          ],
          [
            -99.118295,
            30.574566
          ],
          [
            -99.11854,
            30.571381
          ],
          [
            -99.118959,
            30.567556
          ],
          [
            -99.118984,
            30.566948
          ],
          [
            -99.118952,
            30.566361
          ],
          [
            -99.118843,
            30.565038
          ],
          [
            -99.118833,
            30.564731
          ],
          [
            -99.118877,
            30.564326
          ],
          [
            -99.118958,
            30.564008
          ],
          [
            -99.119037,
            30.563783
          ],
          [
            -99.119232,
            30.563363
          ],
          [
            -99.119447,
            30.563052
          ],
          [
            -99.121005,
            30.561209
          ],
          [
            -99.123157,
            30.55868
          ],
          [
            -99.123593,
            30.55823
          ],
          [
            -99.124903,
            30.557032
          ],
          [
            -99.125428,
            30.556479
          ],
          [
            -99.125593,
            30.556274
          ],
          [
            -99.125715,
            30.556089
          ],
          [
            -99.126317,
            30.555133
          ],
          [
            -99.126504,
            30.554893
          ],
          [
            -99.12678,
            30.554609
          ],
          [
            -99.127046,
            30.554396
          ],
          [
            -99.127338,
            30.554198
          ],
          [
            -99.128992,
            30.553193
          ],
          [
            -99.129574,
            30.552854
          ],
          [
            -99.129977,
            30.552642
          ],
          [
            -99.130403,
            30.552452
          ],
          [
            -99.132052,
            30.551797
          ],
          [
            -99.132593,
            30.551564
          ],
          [
            -99.132849,
            30.55143
          ],
          [
            -99.133157,
            30.55123
          ],
          [
            -99.133597,
            30.550848
          ],
          [
            -99.133796,
            30.550623
          ],
          [
            -99.13397,
            30.550388
          ],
          [
            -99.134126,
            30.550127
          ],
          [
            -99.134228,
            30.549915
          ],
          [
            -99.134385,
            30.549457
          ],
          [
            -99.134688,
            30.548181
          ],
          [
            -99.134763,
            30.547807
          ],
          [
            -99.134803,
            30.54743
          ],
          [
            -99.134799,
            30.547053
          ],
          [
            -99.134753,
            30.546685
          ],
          [
            -99.134695,
            30.546417
          ],
          [
            -99.134617,
            30.546162
          ],
          [
            -99.134186,
            30.545098
          ],
          [
            -99.13405,
            30.544717
          ],
          [
            -99.133932,
            30.544249
          ],
          [
            -99.133872,
            30.543719
          ],
          [
            -99.133859,
            30.54319
          ],
          [
            -99.133875,
            30.542664
          ],
          [
            -99.133878,
            30.542172
          ],
          [
            -99.133886,
            30.541169
          ],
          [
            -99.133812,
            30.538972
          ],
          [
            -99.133775,
            30.536728
          ],
          [
            -99.133751,
            30.535684
          ],
          [
            -99.133739,
            30.534566
          ],
          [
            -99.133754,
            30.534006
          ],
          [
            -99.133794,
            30.533456
          ],
          [
            -99.133916,
            30.532671
          ],
          [
            -99.134567,
            30.52932
          ],
          [
            -99.134737,
            30.528549
          ],
          [
            -99.136028,
            30.523972
          ],
          [
            -99.137361,
            30.518464
          ],
          [
            -99.138206,
            30.515583
          ],
          [
            -99.138306,
            30.515054
          ],
          [
            -99.138319,
            30.514519
          ],
          [
            -99.138279,
            30.514167
          ],
          [
            -99.138197,
            30.513782
          ],
          [
            -99.13801,
            30.513277
          ],
          [
            -99.137731,
            30.512651
          ],
          [
            -99.137671,
            30.512517
          ],
          [
            -99.13762,
            30.512399
          ],
          [
            -99.135807,
            30.508236
          ],
          [
            -99.135052,
            30.506501
          ],
          [
            -99.134719,
            30.50573
          ],
          [
            -99.132502,
            30.500611
          ],
          [
            -99.132047,
            30.499525
          ],
          [
            -99.1317,
            30.498781
          ],
          [
            -99.131614,
            30.498579
          ],
          [
            -99.130935,
            30.496989
          ],
          [
            -99.130689,
            30.496413
          ],
          [
            -99.130532,
            30.495929
          ],
          [
            -99.130454,
            30.495492
          ],
          [
            -99.130444,
            30.495184
          ],
          [
            -99.130455,
            30.494894
          ],
          [
            -99.130791,
            30.492289
          ],
          [
            -99.130796,
            30.492133
          ],
          [
            -99.130814,
            30.491578
          ],
          [
            -99.13079,
            30.491116
          ],
          [
            -99.130749,
            30.490757
          ],
          [
            -99.130431,
            30.488996
          ],
          [
            -99.130315,
            30.488114
          ],
          [
            -99.130297,
            30.487482
          ],
          [
            -99.130271,
            30.484108
          ],
          [
            -99.130269,
            30.483924
          ],
          [
            -99.130281,
            30.481499
          ],
          [
            -99.12966,
            30.481128
          ],
          [
            -99.126069,
            30.479049
          ],
          [
            -99.125614,
            30.478798
          ],
          [
            -99.125285,
            30.478593
          ],
          [
            -99.125014,
            30.478337
          ],
          [
            -99.12475,
            30.477986
          ],
          [
            -99.124418,
            30.477459
          ],
          [
            -99.124388,
            30.477307
          ],
          [
            -99.124321,
            30.476988
          ],
          [
            -99.124117,
            30.476786
          ],
          [
            -99.123884,
            30.476619
          ],
          [
            -99.123506,
            30.476463
          ],
          [
            -99.12317,
            30.476328
          ],
          [
            -99.122742,
            30.476117
          ],
          [
            -99.122435,
            30.475772
          ],
          [
            -99.121863,
            30.47501
          ],
          [
            -99.120513,
            30.472671
          ],
          [
            -99.119612,
            30.470998
          ],
          [
            -99.119585,
            30.470815
          ],
          [
            -99.118764,
            30.469211
          ],
          [
            -99.118579,
            30.468981
          ],
          [
            -99.118473,
            30.468661
          ],
          [
            -99.118129,
            30.468179
          ],
          [
            -99.118102,
            30.467973
          ],
          [
            -99.117413,
            30.466621
          ],
          [
            -99.11519,
            30.464742
          ],
          [
            -99.112358,
            30.462933
          ],
          [
            -99.112146,
            30.462658
          ],
          [
            -99.111775,
            30.462543
          ],
          [
            -99.109499,
            30.461123
          ],
          [
            -99.109076,
            30.461031
          ],
          [
            -99.108814,
            30.467083
          ],
          [
            -99.108355,
            30.468409
          ],
          [
            -99.10707,
            30.472126
          ],
          [
            -99.106779,
            30.47247
          ],
          [
            -99.103261,
            30.474259
          ],
          [
            -99.09707,
            30.478547
          ],
          [
            -99.096567,
            30.478754
          ],
          [
            -99.096514,
            30.478891
          ],
          [
            -99.093287,
            30.481161
          ],
          [
            -99.092466,
            30.48162
          ],
          [
            -99.090809,
            30.482738
          ],
          [
            -99.090052,
            30.483214
          ],
          [
            -99.09003,
            30.483361
          ],
          [
            -99.090021,
            30.483482
          ],
          [
            -99.09008,
            30.483581
          ],
          [
            -99.090147,
            30.483625
          ],
          [
            -99.090263,
            30.48364
          ],
          [
            -99.09031,
            30.483662
          ],
          [
            -99.090342,
            30.483704
          ],
          [
            -99.090389,
            30.483804
          ],
          [
            -99.090401,
            30.483828
          ],
          [
            -99.090342,
            30.483704
          ],
          [
            -99.09031,
            30.483662
          ],
          [
            -99.090263,
            30.48364
          ],
          [
            -99.090147,
            30.483625
          ],
          [
            -99.09008,
            30.483581
          ],
          [
            -99.090021,
            30.483482
          ],
          [
            -99.09003,
            30.483361
          ],
          [
            -99.090052,
            30.483214
          ],
          [
            -99.089424,
            30.483797
          ],
          [
            -99.086222,
            30.486663
          ],
          [
            -99.085773,
            30.487695
          ],
          [
            -99.08564,
            30.488268
          ],
          [
            -99.084503,
            30.491477
          ],
          [
            -99.08453,
            30.4926
          ],
          [
            -99.084662,
            30.493219
          ],
          [
            -99.085086,
            30.494159
          ],
          [
            -99.08551,
            30.494777
          ],
          [
            -99.085589,
            30.495098
          ],
          [
            -99.085854,
            30.495763
          ],
          [
            -99.08588,
            30.496153
          ],
          [
            -99.086013,
            30.496198
          ],
          [
            -99.086145,
            30.496634
          ],
          [
            -99.087019,
            30.498376
          ],
          [
            -99.087037,
            30.498558
          ],
          [
            -99.087046,
            30.498618
          ],
          [
            -99.087059,
            30.498699
          ],
          [
            -99.086972,
            30.498857
          ],
          [
            -99.086956,
            30.498932
          ],
          [
            -99.086787,
            30.499291
          ],
          [
            -99.086622,
            30.500189
          ],
          [
            -99.086623,
            30.5018
          ],
          [
            -99.087205,
            30.502922
          ],
          [
            -99.089032,
            30.505718
          ],
          [
            -99.089059,
            30.507689
          ],
          [
            -99.090092,
            30.509316
          ],
          [
            -99.091204,
            30.510714
          ],
          [
            -99.092105,
            30.512021
          ],
          [
            -99.092264,
            30.512364
          ],
          [
            -99.092237,
            30.512594
          ],
          [
            -99.091793,
            30.513257
          ],
          [
            -99.090834,
            30.512731
          ],
          [
            -99.09012,
            30.512617
          ],
          [
            -99.088867,
            30.512646
          ],
          [
            -99.088161,
            30.512663
          ],
          [
            -99.08717,
            30.512878
          ],
          [
            -99.087102,
            30.512893
          ],
          [
            -99.086361,
            30.513214
          ],
          [
            -99.085831,
            30.513581
          ],
          [
            -99.085805,
            30.513718
          ],
          [
            -99.085276,
            30.513902
          ],
          [
            -99.083286,
            30.515259
          ],
          [
            -99.082655,
            30.51569
          ],
          [
            -99.082285,
            30.516057
          ],
          [
            -99.079588,
            30.522732
          ],
          [
            -99.079382,
            30.523044
          ],
          [
            -99.079331,
            30.523116
          ],
          [
            -99.079316,
            30.523138
          ],
          [
            -99.079233,
            30.523275
          ],
          [
            -99.079086,
            30.523539
          ],
          [
            -99.079064,
            30.523621
          ],
          [
            -99.07905,
            30.523738
          ],
          [
            -99.079073,
            30.523872
          ],
          [
            -99.079335,
            30.524622
          ],
          [
            -99.079367,
            30.524842
          ],
          [
            -99.079294,
            30.525178
          ],
          [
            -99.076515,
            30.530061
          ],
          [
            -99.076136,
            30.5308
          ],
          [
            -99.075804,
            30.531394
          ],
          [
            -99.075508,
            30.531689
          ],
          [
            -99.074954,
            30.532147
          ],
          [
            -99.072208,
            30.534708
          ],
          [
            -99.071253,
            30.535496
          ],
          [
            -99.070909,
            30.535879
          ],
          [
            -99.070793,
            30.536209
          ],
          [
            -99.070651,
            30.537359
          ],
          [
            -99.070479,
            30.537603
          ],
          [
            -99.070156,
            30.537755
          ],
          [
            -99.069557,
            30.537797
          ],
          [
            -99.069026,
            30.537655
          ],
          [
            -99.067448,
            30.536998
          ],
          [
            -99.06578,
            30.536096
          ],
          [
            -99.061748,
            30.534179
          ],
          [
            -99.060872,
            30.534159
          ],
          [
            -99.060488,
            30.534067
          ],
          [
            -99.060209,
            30.533875
          ],
          [
            -99.059173,
            30.532606
          ],
          [
            -99.05818,
            30.531445
          ],
          [
            -99.057908,
            30.531245
          ],
          [
            -99.057615,
            30.531143
          ],
          [
            -99.057299,
            30.531097
          ],
          [
            -99.055579,
            30.53108
          ],
          [
            -99.052926,
            30.530721
          ],
          [
            -99.052143,
            30.530575
          ],
          [
            -99.051895,
            30.530453
          ],
          [
            -99.051115,
            30.529325
          ],
          [
            -99.050516,
            30.528819
          ],
          [
            -99.050035,
            30.528526
          ],
          [
            -99.049586,
            30.528238
          ],
          [
            -99.049187,
            30.528033
          ],
          [
            -99.044968,
            30.526952
          ],
          [
            -99.043014,
            30.526532
          ],
          [
            -99.042323,
            30.526304
          ],
          [
            -99.041927,
            30.52606
          ],
          [
            -99.040113,
            30.524421
          ],
          [
            -99.0394,
            30.523726
          ],
          [
            -99.039136,
            30.523562
          ],
          [
            -99.036805,
            30.522619
          ],
          [
            -99.032142,
            30.520776
          ],
          [
            -99.031535,
            30.520661
          ],
          [
            -99.030662,
            30.520649
          ],
          [
            -99.024164,
            30.520693
          ],
          [
            -99.023634,
            30.520719
          ],
          [
            -99.019005,
            30.521845
          ],
          [
            -99.014074,
            30.523051
          ],
          [
            -99.014138,
            30.524243
          ],
          [
            -99.014095,
            30.525398
          ],
          [
            -99.013956,
            30.526609
          ],
          [
            -99.013677,
            30.528993
          ],
          [
            -99.01358,
            30.530029
          ],
          [
            -99.013258,
            30.532672
          ],
          [
            -99.012625,
            30.538281
          ],
          [
            -99.012357,
            30.540619
          ],
          [
            -99.012003,
            30.542578
          ],
          [
            -99.011037,
            30.548205
          ],
          [
            -99.009879,
            30.554959
          ],
          [
            -99.009718,
            30.556132
          ],
          [
            -99.009685,
            30.557656
          ],
          [
            -99.009761,
            30.55967
          ],
          [
            -99.009836,
            30.564835
          ],
          [
            -99.010075,
            30.565984
          ],
          [
            -99.010203,
            30.566529
          ],
          [
            -99.010449,
            30.567428
          ],
          [
            -99.010568,
            30.567868
          ],
          [
            -99.011909,
            30.572754
          ],
          [
            -99.012854,
            30.576262
          ],
          [
            -99.014669,
            30.582924
          ],
          [
            -99.014936,
            30.583946
          ],
          [
            -99.015197,
            30.584689
          ],
          [
            -99.015447,
            30.585323
          ],
          [
            -99.016016,
            30.586089
          ],
          [
            -99.016724,
            30.586791
          ],
          [
            -99.025972,
            30.594124
          ],
          [
            -99.027002,
            30.594799
          ],
          [
            -99.028257,
            30.595436
          ],
          [
            -99.031411,
            30.596498
          ],
          [
            -99.032688,
            30.596969
          ],
          [
            -99.035016,
            30.5978
          ],
          [
            -99.038589,
            30.599056
          ],
          [
            -99.040252,
            30.59985
          ],
          [
            -99.04214,
            30.60081
          ],
          [
            -99.047258,
            30.603544
          ],
          [
            -99.051785,
            30.606009
          ],
          [
            -99.053792,
            30.607053
          ],
          [
            -99.053955,
            30.607144
          ],
          [
            -99.055626,
            30.608078
          ],
          [
            -99.056528,
            30.608715
          ],
          [
            -99.057289,
            30.609417
          ],
          [
            -99.057858,
            30.610109
          ],
          [
            -99.058351,
            30.610802
          ],
          [
            -99.063019,
            30.617145
          ],
          [
            -99.065808,
            30.620903
          ],
          [
            -99.068213,
            30.624117
          ],
          [
            -99.06863,
            30.624748
          ],
          [
            -99.069273,
            30.625552
          ],
          [
            -99.069917,
            30.626369
          ],
          [
            -99.07084,
            30.627237
          ],
          [
            -99.071752,
            30.627858
          ],
          [
            -99.076011,
            30.630449
          ],
          [
            -99.077395,
            30.631289
          ],
          [
            -99.079236,
            30.632459
          ],
          [
            -99.079747,
            30.632783
          ],
          [
            -99.08174,
            30.63428
          ],
          [
            -99.083071,
            30.635167
          ],
          [
            -99.084293,
            30.635967
          ],
          [
            -99.086236,
            30.637078
          ],
          [
            -99.088253,
            30.638379
          ],
          [
            -99.089712,
            30.639358
          ],
          [
            -99.091482,
            30.640576
          ],
          [
            -99.093322,
            30.641873
          ],
          [
            -99.09396,
            30.642323
          ],
          [
            -99.094953,
            30.643024
          ],
          [
            -99.096436,
            30.644054
          ],
          [
            -99.097432,
            30.644738
          ],
          [
            -99.098778,
            30.645752
          ],
          [
            -99.09911,
            30.646022
          ],
          [
            -99.099636,
            30.646548
          ],
          [
            -99.100194,
            30.647259
          ],
          [
            -99.10087,
            30.648284
          ],
          [
            -99.103938,
            30.652668
          ],
          [
            -99.107082,
            30.657144
          ],
          [
            -99.108123,
            30.658676
          ],
          [
            -99.108249,
            30.658897
          ],
          [
            -99.108477,
            30.659295
          ],
          [
            -99.108669,
            30.659628
          ],
          [
            -99.108895,
            30.66008
          ],
          [
            -99.11015,
            30.662395
          ],
          [
            -99.11083,
            30.663639
          ],
          [
            -99.111984,
            30.665762
          ],
          [
            -99.112521,
            30.666788
          ],
          [
            -99.113659,
            30.668772
          ],
          [
            -99.11412,
            30.6694
          ],
          [
            -99.114538,
            30.669926
          ],
          [
            -99.114633,
            30.670054
          ],
          [
            -99.114978,
            30.670387
          ],
          [
            -99.115568,
            30.670876
          ],
          [
            -99.116405,
            30.671402
          ],
          [
            -99.117113,
            30.671873
          ],
          [
            -99.118003,
            30.672343
          ],
          [
            -99.119774,
            30.673396
          ],
          [
            -99.121383,
            30.67418
          ],
          [
            -99.122381,
            30.674687
          ],
          [
            -99.124377,
            30.675841
          ],
          [
            -99.125449,
            30.676503
          ],
          [
            -99.126608,
            30.677241
          ],
          [
            -99.130953,
            30.679862
          ],
          [
            -99.134784,
            30.682224
          ],
          [
            -99.136908,
            30.683525
          ],
          [
            -99.137829,
            30.684018
          ],
          [
            -99.138807,
            30.684438
          ],
          [
            -99.140652,
            30.685121
          ],
          [
            -99.144311,
            30.686311
          ],
          [
            -99.151113,
            30.688609
          ],
          [
            -99.15446,
            30.689688
          ],
          [
            -99.156692,
            30.690435
          ],
          [
            -99.159138,
            30.691247
          ],
          [
            -99.165919,
            30.6936
          ],
          [
            -99.167409,
            30.694202
          ],
          [
            -99.16815,
            30.694559
          ],
          [
            -99.169717,
            30.695578
          ],
          [
            -99.175949,
            30.699338
          ],
          [
            -99.18154,
            30.702733
          ],
          [
            -99.183482,
            30.70396
          ],
          [
            -99.184125,
            30.704477
          ],
          [
            -99.185066,
            30.705358
          ],
          [
            -99.192419,
            30.713157
          ],
          [
            -99.192751,
            30.713609
          ],
          [
            -99.194597,
            30.715555
          ],
          [
            -99.195916,
            30.71692
          ],
          [
            -99.197234,
            30.71827
          ],
          [
            -99.197617,
            30.718679
          ],
          [
            -99.200047,
            30.721283
          ],
          [
            -99.200916,
            30.722168
          ],
          [
            -99.201603,
            30.722786
          ],
          [
            -99.20465,
            30.725138
          ],
          [
            -99.208104,
            30.727868
          ],
          [
            -99.21187,
            30.730865
          ],
          [
            -99.212407,
            30.731345
          ],
          [
            -99.213619,
            30.732507
          ],
          [
            -99.215668,
            30.734526
          ],
          [
            -99.216087,
            30.735059
          ],
          [
            -99.216352,
            30.735364
          ],
          [
            -99.216806,
            30.736039
          ],
          [
            -99.217132,
            30.736617
          ],
          [
            -99.217725,
            30.737674
          ],
          [
            -99.218093,
            30.738381
          ],
          [
            -99.218415,
            30.738888
          ],
          [
            -99.218876,
            30.739543
          ],
          [
            -99.219273,
            30.740032
          ],
          [
            -99.219713,
            30.740382
          ],
          [
            -99.220207,
            30.740686
          ],
          [
            -99.220829,
            30.740963
          ],
          [
            -99.221537,
            30.741157
          ],
          [
            -99.222052,
            30.741258
          ],
          [
            -99.222871,
            30.741371
          ],
          [
            -99.223125,
            30.741406
          ],
          [
            -99.223715,
            30.741571
          ],
          [
            -99.223817,
            30.741611
          ],
          [
            -99.223951,
            30.741664
          ],
          [
            -99.22423,
            30.74183
          ],
          [
            -99.224595,
            30.742088
          ],
          [
            -99.225882,
            30.743277
          ],
          [
            -99.226676,
            30.744047
          ],
          [
            -99.228182,
            30.745507
          ],
          [
            -99.228281,
            30.745618
          ],
          [
            -99.229322,
            30.746647
          ],
          [
            -99.229213,
            30.746766
          ],
          [
            -99.229198,
            30.746783
          ],
          [
            -99.229161,
            30.746956
          ],
          [
            -99.229157,
            30.747001
          ],
          [
            -99.229153,
            30.747124
          ],
          [
            -99.22912,
            30.747975
          ]
        ]
      }
    }
  ]
}