{
  "type": "FeatureCollection",
  "features": [
    {
      "type": "Feature",
      "properties": {
        "route": "North Gabriel River Sweep",
        "category": "Savannah & Prairie Sweeps",
        "color": "#27ae60",
        "waypoints": [
          "TX 29 @ CR 200",
          "North Gabriel River",
          "Liberty Hill",
          "US 183"
        ],
        "via": "TX 29 @ CR 200 -> CR 200 -> CR 201 -> CR 214 -> RM 243 -> CR 210 -> US 183",
        "distance_mi": 22.1,
        "source": "road-snapped"
      },
      "geometry": {
        "type": "LineString",
        "coordinates": [
          [
            -97.932008,
            30.674918
          ],
          [
            -97.932167,
            30.675521
          ],
          [
            -97.932336,
            30.676315
          ],
          [
            -97.932372,
            30.676521
          ],
          [
            -97.932769,
            30.678031
          ],
          [
            -97.93344,
            30.680299
          ],
          [
            -97.933541,
            30.680665
          ],
          [
            -97.933686,
            30.681165
          ],
          [
            -97.933807,
            30.681582
          ],
          [
            -97.933937,
            30.681996
          ],
          [
            -97.9341,
            30.682474
          ],
          [
            -97.934486,
            30.6833
          ],
          [
            -97.934956,
            30.68448
          ],
          [
            -97.93611,
            30.687173
          ],
          [
            -97.93639,
            30.687805
          ],
          [
            -97.936469,
            30.688052
          ],
          [
            -97.936572,
            30.688375
          ],
          [
            -97.936605,
            30.68855
          ],
          [
            -97.936601,
            30.688698
          ],
          [
            -97.93655,
            30.688931
          ],
          [
            -97.936451,
            30.689262
          ],
          [
            -97.936389,
            30.689421
          ],
          [
            -97.936307,
            30.689634
          ],
          [
            -97.936886,
            30.689879
          ],
          [
            -97.937107,
            30.689992
          ],
          [
            -97.93729,
            30.69008
          ],
          [
            -97.937696,
            30.690295
          ],
          [
            -97.937908,
            30.690356
          ],
          [
            -97.938075,
            30.690373
          ],
          [
            -97.938239,
            30.690351
          ],
          [
            -97.938524,
            30.690253
          ],
          [
            -97.938995,
            30.690094
          ],
          [
            -97.939193,
            30.690025
          ],
          [
            -97.939545,
            30.689928
          ],
          [
            -97.939725,
            30.689906
          ],
          [
            -97.939852,
            30.689908
          ],
          [
            -97.940086,
            30.689951
          ],
          [
            -97.940192,
            30.689976
          ],
          [
            -97.940266,
            30.690028
          ],
          [
            -97.940548,
            30.690255
          ],
          [
            -97.940807,
            30.690498
          ],
          [
            -97.940923,
            30.690623
          ],
          [
            -97.941027,
            30.69082
          ],
          [
            -97.941359,
            30.691548
          ],
          [
            -97.941931,
            30.69293
          ],
          [
            -97.942237,
            30.693663
          ],
          [
            -97.942249,
            30.69369
          ],
          [
            -97.94237,
            30.693979
          ],
          [
            -97.942394,
            30.694037
          ],
          [
            -97.943115,
            30.69576
          ],
          [
            -97.943147,
            30.695839
          ],
          [
            -97.94332,
            30.696264
          ],
          [
            -97.943336,
            30.696303
          ],
          [
            -97.943558,
            30.696847
          ],
          [
            -97.94366,
            30.697097
          ],
          [
            -97.94371,
            30.697219
          ],
          [
            -97.943848,
            30.697559
          ],
          [
            -97.944388,
            30.698866
          ],
          [
            -97.944482,
            30.699091
          ],
          [
            -97.944496,
            30.699125
          ],
          [
            -97.944546,
            30.699247
          ],
          [
            -97.944586,
            30.699343
          ],
          [
            -97.944829,
            30.699935
          ],
          [
            -97.944955,
            30.700239
          ],
          [
            -97.944973,
            30.700283
          ],
          [
            -97.945001,
            30.70034
          ],
          [
            -97.945108,
            30.700554
          ],
          [
            -97.945261,
            30.700814
          ],
          [
            -97.945326,
            30.700898
          ],
          [
            -97.945361,
            30.700949
          ],
          [
            -97.945667,
            30.701331
          ],
          [
            -97.945893,
            30.701598
          ],
          [
            -97.945921,
            30.701631
          ],
          [
            -97.945971,
            30.701688
          ],
          [
            -97.946838,
            30.702744
          ],
          [
            -97.94705,
            30.703003
          ],
          [
            -97.947636,
            30.703733
          ],
          [
            -97.948034,
            30.704222
          ],
          [
            -97.948546,
            30.704861
          ],
          [
            -97.948754,
            30.705143
          ],
          [
            -97.949113,
            30.705628
          ],
          [
            -97.949593,
            30.706247
          ],
          [
            -97.94974,
            30.706434
          ],
          [
            -97.949918,
            30.706649
          ],
          [
            -97.950446,
            30.707181
          ],
          [
            -97.950458,
            30.707194
          ],
          [
            -97.950764,
            30.707515
          ],
          [
            -97.951032,
            30.707812
          ],
          [
            -97.951278,
            30.708109
          ],
          [
            -97.951342,
            30.708198
          ],
          [
            -97.951418,
            30.708283
          ],
          [
            -97.951563,
            30.708453
          ],
          [
            -97.952289,
            30.709324
          ],
          [
            -97.952445,
            30.709458
          ],
          [
            -97.952645,
            30.709557
          ],
          [
            -97.952852,
            30.709656
          ],
          [
            -97.95307,
            30.709735
          ],
          [
            -97.953677,
            30.709957
          ],
          [
            -97.954729,
            30.710334
          ],
          [
            -97.955768,
            30.710698
          ],
          [
            -97.956508,
            30.710969
          ],
          [
            -97.95682,
            30.711044
          ],
          [
            -97.957531,
            30.711229
          ],
          [
            -97.957966,
            30.711324
          ],
          [
            -97.95839,
            30.711405
          ],
          [
            -97.958491,
            30.711429
          ],
          [
            -97.958714,
            30.711471
          ],
          [
            -97.958875,
            30.711515
          ],
          [
            -97.959088,
            30.711574
          ],
          [
            -97.959362,
            30.711716
          ],
          [
            -97.959681,
            30.711992
          ],
          [
            -97.960526,
            30.712812
          ],
          [
            -97.960846,
            30.713119
          ],
          [
            -97.961035,
            30.713254
          ],
          [
            -97.961069,
            30.713278
          ],
          [
            -97.961381,
            30.713454
          ],
          [
            -97.96165,
            30.713551
          ],
          [
            -97.962031,
            30.713695
          ],
          [
            -97.962535,
            30.713908
          ],
          [
            -97.962771,
            30.714038
          ],
          [
            -97.962785,
            30.714048
          ],
          [
            -97.962878,
            30.714115
          ],
          [
            -97.963033,
            30.714278
          ],
          [
            -97.963136,
            30.714419
          ],
          [
            -97.963555,
            30.715145
          ],
          [
            -97.963669,
            30.715335
          ],
          [
            -97.963926,
            30.71576
          ],
          [
            -97.964496,
            30.716745
          ],
          [
            -97.965009,
            30.717586
          ],
          [
            -97.96543,
            30.718347
          ],
          [
            -97.965684,
            30.718827
          ],
          [
            -97.966137,
            30.719712
          ],
          [
            -97.96635,
            30.720157
          ],
          [
            -97.966429,
            30.72031
          ],
          [
            -97.966554,
            30.720508
          ],
          [
            -97.966851,
            30.720933
          ],
          [
            -97.966933,
            30.721064
          ],
          [
            -97.967969,
            30.722619
          ],
          [
            -97.968793,
            30.723825
          ],
          [
            -97.969314,
            30.724598
          ],
          [
            -97.969591,
            30.725017
          ],
          [
            -97.96986,
            30.725424
          ],
          [
            -97.970233,
            30.725984
          ],
          [
            -97.970307,
            30.726095
          ],
          [
            -97.970944,
            30.727049
          ],
          [
            -97.971757,
            30.728296
          ],
          [
            -97.972226,
            30.729014
          ],
          [
            -97.972317,
            30.729112
          ],
          [
            -97.972414,
            30.729171
          ],
          [
            -97.972579,
            30.729252
          ],
          [
            -97.97351,
            30.729472
          ],
          [
            -97.973808,
            30.729547
          ],
          [
            -97.9741,
            30.729662
          ],
          [
            -97.974456,
            30.729829
          ],
          [
            -97.975074,
            30.730293
          ],
          [
            -97.975092,
            30.730307
          ],
          [
            -97.975722,
            30.7308
          ],
          [
            -97.976275,
            30.731298
          ],
          [
            -97.976511,
            30.73151
          ],
          [
            -97.976953,
            30.73194
          ],
          [
            -97.976969,
            30.731957
          ],
          [
            -97.977053,
            30.732038
          ],
          [
            -97.977126,
            30.73211
          ],
          [
            -97.977324,
            30.732303
          ],
          [
            -97.97734,
            30.732318
          ],
          [
            -97.977614,
            30.732522
          ],
          [
            -97.977817,
            30.732673
          ],
          [
            -97.978113,
            30.732894
          ],
          [
            -97.978322,
            30.733057
          ],
          [
            -97.978366,
            30.733086
          ],
          [
            -97.978446,
            30.733153
          ],
          [
            -97.978514,
            30.73323
          ],
          [
            -97.978568,
            30.733313
          ],
          [
            -97.978589,
            30.733358
          ],
          [
            -97.978817,
            30.734002
          ],
          [
            -97.979123,
            30.73474
          ],
          [
            -97.979217,
            30.734909
          ],
          [
            -97.979501,
            30.73542
          ],
          [
            -97.97952,
            30.735458
          ],
          [
            -97.979748,
            30.735909
          ],
          [
            -97.980138,
            30.736831
          ],
          [
            -97.980272,
            30.73703
          ],
          [
            -97.980416,
            30.737225
          ],
          [
            -97.980566,
            30.73735
          ],
          [
            -97.980795,
            30.737505
          ],
          [
            -97.980989,
            30.737606
          ],
          [
            -97.981424,
            30.737833
          ],
          [
            -97.98158,
            30.737925
          ],
          [
            -97.981676,
            30.737994
          ],
          [
            -97.981759,
            30.738065
          ],
          [
            -97.981822,
            30.738146
          ],
          [
            -97.981879,
            30.738231
          ],
          [
            -97.981936,
            30.73831
          ],
          [
            -97.982021,
            30.738477
          ],
          [
            -97.982124,
            30.738668
          ],
          [
            -97.982244,
            30.738851
          ],
          [
            -97.982266,
            30.73888
          ],
          [
            -97.982379,
            30.739026
          ],
          [
            -97.982574,
            30.739263
          ],
          [
            -97.982708,
            30.739413
          ],
          [
            -97.982891,
            30.739631
          ],
          [
            -97.982995,
            30.739754
          ],
          [
            -97.983798,
            30.740551
          ],
          [
            -97.984498,
            30.741246
          ],
          [
            -97.984556,
            30.741305
          ],
          [
            -97.984736,
            30.741488
          ],
          [
            -97.985041,
            30.741803
          ],
          [
            -97.985371,
            30.742125
          ],
          [
            -97.985498,
            30.742249
          ],
          [
            -97.985646,
            30.74235
          ],
          [
            -97.98574,
            30.742421
          ],
          [
            -97.985839,
            30.742486
          ],
          [
            -97.986023,
            30.742609
          ],
          [
            -97.986508,
            30.742923
          ],
          [
            -97.98714,
            30.74334
          ],
          [
            -97.987681,
            30.743696
          ],
          [
            -97.988191,
            30.744033
          ],
          [
            -97.989383,
            30.74482
          ],
          [
            -97.989568,
            30.744955
          ],
          [
            -97.989667,
            30.745064
          ],
          [
            -97.989746,
            30.74517
          ],
          [
            -97.99005,
            30.745805
          ],
          [
            -97.990495,
            30.746735
          ],
          [
            -97.99076,
            30.747276
          ],
          [
            -97.990826,
            30.747393
          ],
          [
            -97.990946,
            30.747609
          ],
          [
            -97.991688,
            30.748618
          ],
          [
            -97.991795,
            30.748774
          ],
          [
            -97.99203,
            30.749043
          ],
          [
            -97.992337,
            30.749359
          ],
          [
            -97.994828,
            30.751761
          ],
          [
            -97.996083,
            30.752961
          ],
          [
            -97.996459,
            30.75332
          ],
          [
            -97.997417,
            30.75422
          ],
          [
            -97.997959,
            30.754721
          ],
          [
            -97.99825,
            30.754989
          ],
          [
            -98.000096,
            30.756648
          ],
          [
            -98.000189,
            30.756732
          ],
          [
            -98.00025,
            30.756787
          ],
          [
            -98.000693,
            30.757185
          ],
          [
            -98.001179,
            30.757622
          ],
          [
            -98.001645,
            30.758038
          ],
          [
            -98.002581,
            30.758873
          ],
          [
            -98.00263,
            30.758918
          ],
          [
            -98.003325,
            30.759538
          ],
          [
            -98.003408,
            30.759615
          ],
          [
            -98.003521,
            30.759714
          ],
          [
            -98.003935,
            30.760089
          ],
          [
            -98.004048,
            30.760184
          ],
          [
            -98.004224,
            30.760347
          ],
          [
            -98.00426,
            30.760381
          ],
          [
            -98.0044,
            30.760513
          ],
          [
            -98.004455,
            30.760562
          ],
          [
            -98.005069,
            30.761114
          ],
          [
            -98.005346,
            30.761363
          ],
          [
            -98.005454,
            30.761451
          ],
          [
            -98.005515,
            30.761499
          ],
          [
            -98.005759,
            30.761662
          ],
          [
            -98.005819,
            30.761699
          ],
          [
            -98.006047,
            30.761838
          ],
          [
            -98.006164,
            30.76191
          ],
          [
            -98.006291,
            30.761987
          ],
          [
            -98.006778,
            30.762285
          ],
          [
            -98.007317,
            30.762622
          ],
          [
            -98.007348,
            30.762642
          ],
          [
            -98.007405,
            30.762681
          ],
          [
            -98.007508,
            30.76275
          ],
          [
            -98.007638,
            30.762833
          ],
          [
            -98.007843,
            30.762965
          ],
          [
            -98.007969,
            30.763046
          ],
          [
            -98.007979,
            30.763052
          ],
          [
            -98.008165,
            30.763171
          ],
          [
            -98.008307,
            30.763262
          ],
          [
            -98.008572,
            30.763427
          ],
          [
            -98.008777,
            30.763555
          ],
          [
            -98.008835,
            30.763591
          ],
          [
            -98.008947,
            30.763661
          ],
          [
            -98.009292,
            30.763876
          ],
          [
            -98.00964,
            30.764091
          ],
          [
            -98.009993,
            30.764308
          ],
          [
            -98.01001,
            30.764319
          ],
          [
            -98.010046,
            30.764341
          ],
          [
            -98.010572,
            30.764672
          ],
          [
            -98.010697,
            30.764749
          ],
          [
            -98.010787,
            30.764804
          ],
          [
            -98.010896,
            30.764871
          ],
          [
            -98.011317,
            30.765079
          ],
          [
            -98.01168,
            30.765259
          ],
          [
            -98.011791,
            30.76531
          ],
          [
            -98.012057,
            30.765442
          ],
          [
            -98.01224,
            30.765527
          ],
          [
            -98.012291,
            30.765552
          ],
          [
            -98.012438,
            30.765626
          ],
          [
            -98.012463,
            30.765639
          ],
          [
            -98.013188,
            30.765985
          ],
          [
            -98.013286,
            30.766036
          ],
          [
            -98.013351,
            30.76607
          ],
          [
            -98.013573,
            30.766187
          ],
          [
            -98.01362,
            30.766212
          ],
          [
            -98.013656,
            30.76623
          ],
          [
            -98.014268,
            30.766527
          ],
          [
            -98.015482,
            30.767115
          ],
          [
            -98.015602,
            30.767171
          ],
          [
            -98.016959,
            30.767802
          ],
          [
            -98.017392,
            30.76806
          ],
          [
            -98.014929,
            30.768973
          ],
          [
            -98.013659,
            30.769524
          ],
          [
            -98.013047,
            30.769855
          ],
          [
            -98.011742,
            30.770562
          ],
          [
            -98.011602,
            30.770619
          ],
          [
            -98.01065,
            30.77101
          ],
          [
            -98.010258,
            30.771171
          ],
          [
            -98.009909,
            30.771314
          ],
          [
            -98.008609,
            30.771848
          ],
          [
            -98.005934,
            30.772945
          ],
          [
            -98.003427,
            30.773975
          ],
          [
            -98.003037,
            30.774135
          ],
          [
            -98.001162,
            30.774904
          ],
          [
            -97.999929,
            30.775411
          ],
          [
            -97.998912,
            30.775818
          ],
          [
            -97.996816,
            30.776638
          ],
          [
            -97.996103,
            30.776922
          ],
          [
            -97.993984,
            30.777766
          ],
          [
            -97.99396,
            30.777776
          ],
          [
            -97.993006,
            30.778218
          ],
          [
            -97.992604,
            30.778464
          ],
          [
            -97.992467,
            30.778599
          ],
          [
            -97.992384,
            30.77868
          ],
          [
            -97.991515,
            30.779588
          ],
          [
            -97.990229,
            30.780934
          ],
          [
            -97.989864,
            30.781315
          ],
          [
            -97.989763,
            30.78141
          ],
          [
            -97.989302,
            30.781841
          ],
          [
            -97.989226,
            30.7819
          ],
          [
            -97.988597,
            30.782388
          ],
          [
            -97.988509,
            30.782457
          ],
          [
            -97.988426,
            30.78251
          ],
          [
            -97.988245,
            30.782621
          ],
          [
            -97.988134,
            30.782694
          ],
          [
            -97.988056,
            30.782743
          ],
          [
            -97.978588,
            30.788148
          ],
          [
            -97.977009,
            30.789036
          ],
          [
            -97.975406,
            30.789952
          ],
          [
            -97.973403,
            30.791079
          ],
          [
            -97.972384,
            30.79166
          ],
          [
            -97.971862,
            30.791958
          ],
          [
            -97.970512,
            30.792731
          ],
          [
            -97.969061,
            30.793562
          ],
          [
            -97.968873,
            30.793669
          ],
          [
            -97.968735,
            30.793748
          ],
          [
            -97.968396,
            30.793945
          ],
          [
            -97.967631,
            30.794388
          ],
          [
            -97.967387,
            30.794514
          ],
          [
            -97.967245,
            30.794587
          ],
          [
            -97.966858,
            30.794767
          ],
          [
            -97.96634,
            30.79498
          ],
          [
            -97.965857,
            30.795161
          ],
          [
            -97.965717,
            30.795207
          ],
          [
            -97.964315,
            30.795669
          ],
          [
            -97.964014,
            30.795853
          ],
          [
            -97.963791,
            30.796055
          ],
          [
            -97.963601,
            30.796297
          ],
          [
            -97.96349,
            30.796539
          ],
          [
            -97.963411,
            30.796838
          ],
          [
            -97.963342,
            30.797246
          ],
          [
            -97.963417,
            30.797439
          ],
          [
            -97.96368,
            30.798069
          ],
          [
            -97.963877,
            30.798438
          ],
          [
            -97.963929,
            30.798536
          ],
          [
            -97.964341,
            30.799176
          ],
          [
            -97.965059,
            30.800222
          ],
          [
            -97.965072,
            30.80024
          ],
          [
            -97.965102,
            30.800284
          ],
          [
            -97.965625,
            30.801133
          ],
          [
            -97.966041,
            30.802128
          ],
          [
            -97.966095,
            30.802254
          ],
          [
            -97.966372,
            30.802839
          ],
          [
            -97.967278,
            30.805011
          ],
          [
            -97.967358,
            30.805192
          ],
          [
            -97.967628,
            30.805804
          ],
          [
            -97.967759,
            30.806331
          ],
          [
            -97.967805,
            30.806957
          ],
          [
            -97.967755,
            30.807693
          ],
          [
            -97.967692,
            30.808346
          ],
          [
            -97.967575,
            30.808726
          ],
          [
            -97.967162,
            30.809679
          ],
          [
            -97.967058,
            30.810056
          ],
          [
            -97.967025,
            30.810443
          ],
          [
            -97.96702,
            30.811078
          ],
          [
            -97.967019,
            30.811231
          ],
          [
            -97.967019,
            30.811252
          ],
          [
            -97.96698,
            30.811831
          ],
          [
            -97.966828,
            30.812472
          ],
          [
            -97.966554,
            30.813144
          ],
          [
            -97.966071,
            30.813776
          ],
          [
            -97.965699,
            30.814238
          ],
          [
            -97.965306,
            30.814726
          ],
          [
            -97.962639,
            30.818074
          ],
          [
            -97.962327,
            30.818415
          ],
          [
            -97.961981,
            30.818675
          ],
          [
            -97.961799,
            30.818843
          ],
          [
            -97.961279,
            30.819081
          ],
          [
            -97.960309,
            30.81942
          ],
          [
            -97.959511,
            30.819626
          ],
          [
            -97.959201,
            30.819666
          ],
          [
            -97.95876,
            30.819724
          ],
          [
            -97.957415,
            30.819766
          ],
          [
            -97.957262,
            30.819773
          ],
          [
            -97.957034,
            30.819773
          ],
          [
            -97.955983,
            30.81983
          ],
          [
            -97.955473,
            30.819774
          ],
          [
            -97.955095,
            30.81969
          ],
          [
            -97.95453,
            30.819393
          ],
          [
            -97.95405,
            30.819178
          ],
          [
            -97.953732,
            30.819096
          ],
          [
            -97.95357,
            30.819054
          ],
          [
            -97.95351,
            30.819051
          ],
          [
            -97.953196,
            30.819036
          ],
          [
            -97.953028,
            30.819028
          ],
          [
            -97.952906,
            30.819022
          ],
          [
            -97.952548,
            30.819064
          ],
          [
            -97.950666,
            30.819283
          ],
          [
            -97.950079,
            30.819352
          ],
          [
            -97.949626,
            30.819385
          ],
          [
            -97.949323,
            30.819349
          ],
          [
            -97.949213,
            30.819336
          ],
          [
            -97.948935,
            30.819254
          ],
          [
            -97.947915,
            30.818897
          ],
          [
            -97.946788,
            30.818551
          ],
          [
            -97.946393,
            30.818472
          ],
          [
            -97.94579,
            30.81836
          ],
          [
            -97.94407,
            30.818064
          ],
          [
            -97.943244,
            30.817965
          ],
          [
            -97.942644,
            30.817973
          ],
          [
            -97.942598,
            30.817974
          ],
          [
            -97.941868,
            30.818122
          ],
          [
            -97.939838,
            30.818679
          ],
          [
            -97.939211,
            30.818851
          ],
          [
            -97.938383,
            30.819078
          ],
          [
            -97.93735,
            30.819394
          ],
          [
            -97.936715,
            30.819651
          ],
          [
            -97.936168,
            30.819972
          ],
          [
            -97.935416,
            30.820541
          ],
          [
            -97.934807,
            30.820928
          ],
          [
            -97.934715,
            30.820987
          ],
          [
            -97.934514,
            30.821077
          ],
          [
            -97.934187,
            30.821186
          ],
          [
            -97.934032,
            30.821227
          ],
          [
            -97.93324,
            30.821439
          ],
          [
            -97.932398,
            30.821664
          ],
          [
            -97.931782,
            30.821837
          ],
          [
            -97.929505,
            30.822557
          ],
          [
            -97.928056,
            30.823036
          ],
          [
            -97.927807,
            30.823159
          ],
          [
            -97.92761,
            30.823256
          ],
          [
            -97.927328,
            30.823503
          ],
          [
            -97.927105,
            30.823793
          ],
          [
            -97.927033,
            30.823965
          ],
          [
            -97.926931,
            30.824255
          ],
          [
            -97.926906,
            30.824587
          ],
          [
            -97.926987,
            30.825004
          ],
          [
            -97.927515,
            30.826386
          ],
          [
            -97.928535,
            30.829086
          ],
          [
            -97.928558,
            30.829254
          ],
          [
            -97.928565,
            30.829522
          ],
          [
            -97.928512,
            30.829753
          ],
          [
            -97.928409,
            30.830004
          ],
          [
            -97.928319,
            30.830191
          ],
          [
            -97.928218,
            30.830329
          ],
          [
            -97.928016,
            30.830537
          ],
          [
            -97.927635,
            30.830775
          ],
          [
            -97.927454,
            30.830846
          ],
          [
            -97.921201,
            30.832594
          ],
          [
            -97.92035,
            30.832834
          ],
          [
            -97.91767,
            30.833593
          ],
          [
            -97.91491,
            30.834375
          ],
          [
            -97.912893,
            30.834946
          ],
          [
            -97.912422,
            30.835102
          ],
          [
            -97.912014,
            30.83527
          ],
          [
            -97.911657,
            30.835418
          ],
          [
            -97.911499,
            30.835484
          ],
          [
            -97.911323,
            30.835557
          ],
          [
            -97.910604,
            30.835855
          ],
          [
            -97.910137,
            30.83603
          ],
          [
            -97.908219,
            30.836654
          ],
          [
            -97.906726,
            30.837097
          ],
          [
            -97.904193,
            30.837879
          ],
          [
            -97.90297,
            30.838243
          ],
          [
            -97.903174,
            30.838757
          ],
          [
            -97.903188,
            30.838788
          ],
          [
            -97.903664,
            30.839911
          ],
          [
            -97.90432,
            30.84141
          ],
          [
            -97.904424,
            30.841719
          ],
          [
            -97.904881,
            30.843215
          ],
          [
            -97.905115,
            30.844009
          ],
          [
            -97.905153,
            30.844174
          ],
          [
            -97.906047,
            30.847001
          ],
          [
            -97.906477,
            30.848087
          ],
          [
            -97.906604,
            30.848391
          ],
          [
            -97.907201,
            30.84986
          ],
          [
            -97.907887,
            30.851546
          ],
          [
            -97.908503,
            30.852872
          ],
          [
            -97.910354,
            30.857428
          ],
          [
            -97.911638,
            30.860459
          ],
          [
            -97.911771,
            30.86075
          ],
          [
            -97.914273,
            30.866454
          ],
          [
            -97.914392,
            30.866731
          ],
          [
            -97.915151,
            30.868494
          ],
          [
            -97.918283,
            30.876273
          ],
          [
            -97.919949,
            30.880226
          ],
          [
            -97.920087,
            30.880551
          ],
          [
            -97.920382,
            30.881248
          ],
          [
            -97.920779,
            30.882176
          ],
          [
            -97.920925,
            30.882499
          ],
          [
            -97.921004,
            30.882657
          ],
          [
            -97.921069,
            30.882778
          ],
          [
            -97.921134,
            30.882898
          ],
          [
            -97.921304,
            30.88318
          ],
          [
            -97.921418,
            30.883351
          ],
          [
            -97.921549,
            30.883512
          ],
          [
            -97.921685,
            30.88368
          ],
          [
            -97.92183,
            30.883836
          ],
          [
            -97.92202,
            30.884029
          ],
          [
            -97.922196,
            30.884194
          ],
          [
            -97.922388,
            30.884361
          ],
          [
            -97.922571,
            30.884507
          ],
          [
            -97.922753,
            30.884636
          ],
          [
            -97.92298,
            30.884791
          ],
          [
            -97.923121,
            30.88488
          ],
          [
            -97.923177,
            30.884916
          ],
          [
            -97.923391,
            30.885041
          ],
          [
            -97.924447,
            30.885637
          ],
          [
            -97.924932,
            30.885907
          ],
          [
            -97.925935,
            30.886457
          ],
          [
            -97.926448,
            30.886739
          ],
          [
            -97.92739,
            30.887282
          ],
          [
            -97.927391,
            30.8873
          ]
        ]
      }
    }
  ]
}