{
  "type": "FeatureCollection",
  "features": [
    {
      "type": "Feature",
      "properties": {
        "route": "Oakalla & Berry Creek Valley Run",
        "category": "Savannah & Prairie Sweeps",
        "color": "#27ae60",
        "waypoints": [
          "US 183",
          "Oakalla",
          "Berry Creek Valley",
          "Burnet"
        ],
        "via": "US 183 -> FM 963 North to Oakalla -> FM 963 West through Berry Creek Valley -> Burnet",
        "distance_mi": 35.5,
        "source": "road-snapped"
      },
      "geometry": {
        "type": "LineString",
        "coordinates": [
          [
            -97.927391,
            30.8873
          ],
          [
            -97.9274,
            30.88745
          ],
          [
            -97.927398,
            30.887544
          ],
          [
            -97.92744,
            30.887628
          ],
          [
            -97.927986,
            30.889015
          ],
          [
            -97.927438,
            30.889192
          ],
          [
            -97.926739,
            30.889407
          ],
          [
            -97.925558,
            30.889796
          ],
          [
            -97.925431,
            30.889838
          ],
          [
            -97.925276,
            30.889877
          ],
          [
            -97.925155,
            30.889924
          ],
          [
            -97.925076,
            30.889955
          ],
          [
            -97.924816,
            30.890034
          ],
          [
            -97.922888,
            30.890645
          ],
          [
            -97.921794,
            30.890971
          ],
          [
            -97.921015,
            30.891222
          ],
          [
            -97.920449,
            30.891401
          ],
          [
            -97.919847,
            30.891591
          ],
          [
            -97.919534,
            30.891687
          ],
          [
            -97.918267,
            30.892075
          ],
          [
            -97.916905,
            30.892495
          ],
          [
            -97.915334,
            30.892983
          ],
          [
            -97.914029,
            30.893393
          ],
          [
            -97.912935,
            30.893734
          ],
          [
            -97.912645,
            30.893824
          ],
          [
            -97.912449,
            30.893885
          ],
          [
            -97.911752,
            30.894101
          ],
          [
            -97.911079,
            30.894311
          ],
          [
            -97.910723,
            30.894419
          ],
          [
            -97.910295,
            30.894552
          ],
          [
            -97.910133,
            30.894602
          ],
          [
            -97.908995,
            30.89495
          ],
          [
            -97.907831,
            30.895312
          ],
          [
            -97.907333,
            30.895464
          ],
          [
            -97.906478,
            30.895724
          ],
          [
            -97.905895,
            30.895902
          ],
          [
            -97.905005,
            30.896188
          ],
          [
            -97.904136,
            30.896444
          ],
          [
            -97.903872,
            30.896544
          ],
          [
            -97.903591,
            30.89667
          ],
          [
            -97.903338,
            30.896806
          ],
          [
            -97.903096,
            30.896967
          ],
          [
            -97.902863,
            30.897132
          ],
          [
            -97.902694,
            30.897304
          ],
          [
            -97.902509,
            30.897484
          ],
          [
            -97.902441,
            30.897611
          ],
          [
            -97.902328,
            30.89776
          ],
          [
            -97.902176,
            30.897986
          ],
          [
            -97.902015,
            30.898321
          ],
          [
            -97.901858,
            30.898717
          ],
          [
            -97.901726,
            30.899083
          ],
          [
            -97.901449,
            30.89985
          ],
          [
            -97.900652,
            30.902022
          ],
          [
            -97.900518,
            30.902424
          ],
          [
            -97.900411,
            30.902786
          ],
          [
            -97.900336,
            30.903187
          ],
          [
            -97.900284,
            30.903566
          ],
          [
            -97.900273,
            30.903757
          ],
          [
            -97.900214,
            30.904761
          ],
          [
            -97.900208,
            30.904871
          ],
          [
            -97.900119,
            30.906772
          ],
          [
            -97.900037,
            30.907888
          ],
          [
            -97.899987,
            30.90897
          ],
          [
            -97.899971,
            30.909297
          ],
          [
            -97.899931,
            30.909547
          ],
          [
            -97.899882,
            30.909793
          ],
          [
            -97.899811,
            30.910017
          ],
          [
            -97.899718,
            30.910239
          ],
          [
            -97.899563,
            30.910539
          ],
          [
            -97.899366,
            30.910824
          ],
          [
            -97.899178,
            30.91104
          ],
          [
            -97.899006,
            30.911203
          ],
          [
            -97.898714,
            30.911451
          ],
          [
            -97.897801,
            30.912135
          ],
          [
            -97.897297,
            30.912522
          ],
          [
            -97.897097,
            30.912674
          ],
          [
            -97.896799,
            30.912911
          ],
          [
            -97.896592,
            30.91308
          ],
          [
            -97.896393,
            30.913278
          ],
          [
            -97.896243,
            30.913433
          ],
          [
            -97.896136,
            30.913583
          ],
          [
            -97.896021,
            30.913755
          ],
          [
            -97.89592,
            30.913932
          ],
          [
            -97.895833,
            30.914112
          ],
          [
            -97.895745,
            30.914337
          ],
          [
            -97.895672,
            30.914611
          ],
          [
            -97.895625,
            30.91488
          ],
          [
            -97.895608,
            30.915064
          ],
          [
            -97.895595,
            30.915312
          ],
          [
            -97.895606,
            30.915518
          ],
          [
            -97.895643,
            30.915748
          ],
          [
            -97.895674,
            30.915891
          ],
          [
            -97.895751,
            30.916107
          ],
          [
            -97.895813,
            30.916297
          ],
          [
            -97.895848,
            30.916369
          ],
          [
            -97.896608,
            30.918157
          ],
          [
            -97.896666,
            30.918298
          ],
          [
            -97.897494,
            30.920127
          ],
          [
            -97.897657,
            30.920487
          ],
          [
            -97.898573,
            30.922608
          ],
          [
            -97.899798,
            30.925432
          ],
          [
            -97.900306,
            30.92661
          ],
          [
            -97.900336,
            30.926679
          ],
          [
            -97.901119,
            30.928492
          ],
          [
            -97.901397,
            30.929138
          ],
          [
            -97.901453,
            30.929267
          ],
          [
            -97.901667,
            30.929764
          ],
          [
            -97.902197,
            30.931042
          ],
          [
            -97.902578,
            30.931887
          ],
          [
            -97.902858,
            30.932558
          ],
          [
            -97.905443,
            30.938869
          ],
          [
            -97.905813,
            30.939703
          ],
          [
            -97.905915,
            30.940003
          ],
          [
            -97.905966,
            30.94024
          ],
          [
            -97.906,
            30.940586
          ],
          [
            -97.906008,
            30.940781
          ],
          [
            -97.906013,
            30.940884
          ],
          [
            -97.906011,
            30.940911
          ],
          [
            -97.905985,
            30.941243
          ],
          [
            -97.905907,
            30.941631
          ],
          [
            -97.905736,
            30.942003
          ],
          [
            -97.905539,
            30.942347
          ],
          [
            -97.905294,
            30.942646
          ],
          [
            -97.904939,
            30.943007
          ],
          [
            -97.904463,
            30.943386
          ],
          [
            -97.904266,
            30.943483
          ],
          [
            -97.904,
            30.943613
          ],
          [
            -97.902737,
            30.944047
          ],
          [
            -97.902667,
            30.944071
          ],
          [
            -97.902425,
            30.944155
          ],
          [
            -97.901606,
            30.944399
          ],
          [
            -97.901573,
            30.944409
          ],
          [
            -97.900116,
            30.944862
          ],
          [
            -97.899316,
            30.945127
          ],
          [
            -97.898883,
            30.94527
          ],
          [
            -97.898126,
            30.945521
          ],
          [
            -97.897884,
            30.945607
          ],
          [
            -97.897711,
            30.945681
          ],
          [
            -97.897503,
            30.945796
          ],
          [
            -97.897188,
            30.945996
          ],
          [
            -97.897173,
            30.946005
          ],
          [
            -97.896957,
            30.94619
          ],
          [
            -97.896886,
            30.946252
          ],
          [
            -97.89671,
            30.946404
          ],
          [
            -97.896445,
            30.946718
          ],
          [
            -97.896263,
            30.947015
          ],
          [
            -97.896027,
            30.947503
          ],
          [
            -97.895906,
            30.947953
          ],
          [
            -97.895869,
            30.948297
          ],
          [
            -97.895869,
            30.948641
          ],
          [
            -97.895891,
            30.948927
          ],
          [
            -97.895965,
            30.949245
          ],
          [
            -97.896078,
            30.949549
          ],
          [
            -97.896294,
            30.950081
          ],
          [
            -97.897814,
            30.95362
          ],
          [
            -97.898738,
            30.955829
          ],
          [
            -97.899158,
            30.956832
          ],
          [
            -97.899219,
            30.956946
          ],
          [
            -97.899358,
            30.957229
          ],
          [
            -97.89955,
            30.957548
          ],
          [
            -97.899861,
            30.957935
          ],
          [
            -97.900315,
            30.958403
          ],
          [
            -97.900817,
            30.958817
          ],
          [
            -97.901251,
            30.959102
          ],
          [
            -97.901319,
            30.959147
          ],
          [
            -97.901363,
            30.959175
          ],
          [
            -97.903085,
            30.960149
          ],
          [
            -97.903412,
            30.960342
          ],
          [
            -97.903708,
            30.960525
          ],
          [
            -97.903994,
            30.960719
          ],
          [
            -97.90428,
            30.960937
          ],
          [
            -97.904488,
            30.961119
          ],
          [
            -97.904729,
            30.96136
          ],
          [
            -97.904986,
            30.96163
          ],
          [
            -97.905217,
            30.961936
          ],
          [
            -97.905398,
            30.962197
          ],
          [
            -97.90563,
            30.962562
          ],
          [
            -97.906052,
            30.963271
          ],
          [
            -97.90689,
            30.964629
          ],
          [
            -97.907426,
            30.965541
          ],
          [
            -97.907553,
            30.965758
          ],
          [
            -97.907905,
            30.966342
          ],
          [
            -97.908144,
            30.966732
          ],
          [
            -97.908675,
            30.967633
          ],
          [
            -97.909187,
            30.968503
          ],
          [
            -97.909746,
            30.969296
          ],
          [
            -97.910563,
            30.970322
          ],
          [
            -97.911052,
            30.970829
          ],
          [
            -97.912137,
            30.971915
          ],
          [
            -97.913454,
            30.973206
          ],
          [
            -97.913779,
            30.973525
          ],
          [
            -97.914403,
            30.974139
          ],
          [
            -97.915689,
            30.975404
          ],
          [
            -97.915749,
            30.975464
          ],
          [
            -97.915792,
            30.975505
          ],
          [
            -97.915876,
            30.975588
          ],
          [
            -97.91765,
            30.977333
          ],
          [
            -97.918148,
            30.977887
          ],
          [
            -97.91844,
            30.978346
          ],
          [
            -97.918795,
            30.978936
          ],
          [
            -97.919222,
            30.979726
          ],
          [
            -97.919452,
            30.980152
          ],
          [
            -97.919456,
            30.98016
          ],
          [
            -97.919691,
            30.980656
          ],
          [
            -97.919697,
            30.980676
          ],
          [
            -97.919894,
            30.981277
          ],
          [
            -97.919997,
            30.981256
          ],
          [
            -97.920109,
            30.981246
          ],
          [
            -97.920199,
            30.981256
          ],
          [
            -97.920279,
            30.981288
          ],
          [
            -97.920401,
            30.981403
          ],
          [
            -97.920466,
            30.981528
          ],
          [
            -97.920578,
            30.981725
          ],
          [
            -97.920589,
            30.981751
          ],
          [
            -97.920892,
            30.982428
          ],
          [
            -97.92099,
            30.982646
          ],
          [
            -97.921077,
            30.98285
          ],
          [
            -97.92122,
            30.983186
          ],
          [
            -97.921333,
            30.98337
          ],
          [
            -97.921492,
            30.983549
          ],
          [
            -97.9216,
            30.983644
          ],
          [
            -97.92181,
            30.983797
          ],
          [
            -97.922029,
            30.983982
          ],
          [
            -97.922219,
            30.984198
          ],
          [
            -97.922329,
            30.984348
          ],
          [
            -97.922495,
            30.984624
          ],
          [
            -97.922834,
            30.985147
          ],
          [
            -97.923042,
            30.985442
          ],
          [
            -97.923344,
            30.985816
          ],
          [
            -97.923427,
            30.98592
          ],
          [
            -97.923636,
            30.986136
          ],
          [
            -97.923696,
            30.986199
          ],
          [
            -97.923783,
            30.986267
          ],
          [
            -97.923909,
            30.986357
          ],
          [
            -97.924084,
            30.986426
          ],
          [
            -97.92415,
            30.986448
          ],
          [
            -97.924191,
            30.986453
          ],
          [
            -97.924296,
            30.986466
          ],
          [
            -97.92446,
            30.986471
          ],
          [
            -97.924586,
            30.98647
          ],
          [
            -97.924703,
            30.986456
          ],
          [
            -97.924871,
            30.986431
          ],
          [
            -97.925021,
            30.986399
          ],
          [
            -97.925162,
            30.986358
          ],
          [
            -97.925236,
            30.986336
          ],
          [
            -97.925379,
            30.986282
          ],
          [
            -97.925517,
            30.986226
          ],
          [
            -97.92564,
            30.986167
          ],
          [
            -97.926165,
            30.98583
          ],
          [
            -97.926437,
            30.985636
          ],
          [
            -97.927168,
            30.985143
          ],
          [
            -97.92742,
            30.984977
          ],
          [
            -97.929302,
            30.983708
          ],
          [
            -97.929521,
            30.983547
          ],
          [
            -97.929752,
            30.983331
          ],
          [
            -97.929867,
            30.983219
          ],
          [
            -97.930602,
            30.982429
          ],
          [
            -97.930837,
            30.982212
          ],
          [
            -97.931276,
            30.981859
          ],
          [
            -97.932332,
            30.981121
          ],
          [
            -97.932653,
            30.980856
          ],
          [
            -97.932801,
            30.980729
          ],
          [
            -97.932936,
            30.980595
          ],
          [
            -97.9331,
            30.980396
          ],
          [
            -97.933196,
            30.98025
          ],
          [
            -97.933331,
            30.979998
          ],
          [
            -97.933397,
            30.979844
          ],
          [
            -97.93382,
            30.978664
          ],
          [
            -97.934177,
            30.977693
          ],
          [
            -97.934301,
            30.977424
          ],
          [
            -97.934375,
            30.97728
          ],
          [
            -97.93454,
            30.977016
          ],
          [
            -97.934703,
            30.976785
          ],
          [
            -97.93493,
            30.976523
          ],
          [
            -97.935429,
            30.976012
          ],
          [
            -97.935572,
            30.975875
          ],
          [
            -97.936086,
            30.97538
          ],
          [
            -97.936225,
            30.975246
          ],
          [
            -97.93641,
            30.975095
          ],
          [
            -97.936688,
            30.974927
          ],
          [
            -97.936975,
            30.974781
          ],
          [
            -97.93724,
            30.974673
          ],
          [
            -97.937497,
            30.974593
          ],
          [
            -97.937809,
            30.974524
          ],
          [
            -97.938415,
            30.974428
          ],
          [
            -97.939836,
            30.974204
          ],
          [
            -97.940153,
            30.974153
          ],
          [
            -97.941966,
            30.973859
          ],
          [
            -97.943997,
            30.973542
          ],
          [
            -97.945998,
            30.973224
          ],
          [
            -97.946344,
            30.973109
          ],
          [
            -97.94653,
            30.973047
          ],
          [
            -97.946827,
            30.972923
          ],
          [
            -97.947064,
            30.972784
          ],
          [
            -97.947119,
            30.972749
          ],
          [
            -97.947262,
            30.972659
          ],
          [
            -97.948025,
            30.972123
          ],
          [
            -97.948576,
            30.971742
          ],
          [
            -97.948873,
            30.971517
          ],
          [
            -97.949383,
            30.971119
          ],
          [
            -97.949655,
            30.970871
          ],
          [
            -97.949899,
            30.970597
          ],
          [
            -97.950089,
            30.970384
          ],
          [
            -97.950273,
            30.970126
          ],
          [
            -97.950643,
            30.969634
          ],
          [
            -97.951925,
            30.967929
          ],
          [
            -97.952257,
            30.967494
          ],
          [
            -97.952985,
            30.966541
          ],
          [
            -97.953637,
            30.965686
          ],
          [
            -97.954349,
            30.964738
          ],
          [
            -97.95439,
            30.964683
          ],
          [
            -97.955267,
            30.963533
          ],
          [
            -97.956129,
            30.96238
          ],
          [
            -97.956154,
            30.96235
          ],
          [
            -97.956258,
            30.962226
          ],
          [
            -97.956277,
            30.962204
          ],
          [
            -97.956444,
            30.962025
          ],
          [
            -97.956513,
            30.961977
          ],
          [
            -97.956592,
            30.961921
          ],
          [
            -97.956727,
            30.96183
          ],
          [
            -97.956902,
            30.961729
          ],
          [
            -97.957103,
            30.961636
          ],
          [
            -97.958024,
            30.961158
          ],
          [
            -97.958325,
            30.961026
          ],
          [
            -97.958426,
            30.960967
          ],
          [
            -97.958523,
            30.9609
          ],
          [
            -97.958661,
            30.960771
          ],
          [
            -97.95869,
            30.96074
          ],
          [
            -97.958794,
            30.960628
          ],
          [
            -97.958906,
            30.960404
          ],
          [
            -97.958998,
            30.960095
          ],
          [
            -97.959023,
            30.959837
          ],
          [
            -97.959031,
            30.959661
          ],
          [
            -97.959012,
            30.959232
          ],
          [
            -97.958996,
            30.958481
          ],
          [
            -97.959048,
            30.958165
          ],
          [
            -97.959078,
            30.958053
          ],
          [
            -97.959173,
            30.957857
          ],
          [
            -97.959306,
            30.957664
          ],
          [
            -97.959478,
            30.957486
          ],
          [
            -97.959635,
            30.957362
          ],
          [
            -97.960544,
            30.956873
          ],
          [
            -97.960969,
            30.956622
          ],
          [
            -97.961805,
            30.956049
          ],
          [
            -97.962295,
            30.955725
          ],
          [
            -97.962432,
            30.955643
          ],
          [
            -97.962564,
            30.955549
          ],
          [
            -97.962717,
            30.955414
          ],
          [
            -97.962861,
            30.955221
          ],
          [
            -97.962977,
            30.954961
          ],
          [
            -97.963004,
            30.954902
          ],
          [
            -97.963051,
            30.954683
          ],
          [
            -97.963056,
            30.954419
          ],
          [
            -97.962946,
            30.953928
          ],
          [
            -97.962673,
            30.952831
          ],
          [
            -97.962652,
            30.95261
          ],
          [
            -97.962667,
            30.952393
          ],
          [
            -97.962754,
            30.95216
          ],
          [
            -97.962777,
            30.952098
          ],
          [
            -97.962832,
            30.952009
          ],
          [
            -97.962924,
            30.951862
          ],
          [
            -97.963149,
            30.951632
          ],
          [
            -97.963353,
            30.951507
          ],
          [
            -97.963569,
            30.951411
          ],
          [
            -97.963628,
            30.951385
          ],
          [
            -97.964132,
            30.951224
          ],
          [
            -97.965051,
            30.950977
          ],
          [
            -97.967404,
            30.950327
          ],
          [
            -97.968556,
            30.950011
          ],
          [
            -97.969325,
            30.949796
          ],
          [
            -97.971623,
            30.949142
          ],
          [
            -97.972625,
            30.948852
          ],
          [
            -97.972847,
            30.948766
          ],
          [
            -97.973059,
            30.94867
          ],
          [
            -97.973352,
            30.948511
          ],
          [
            -97.973651,
            30.948299
          ],
          [
            -97.97461,
            30.947571
          ],
          [
            -97.974867,
            30.947422
          ],
          [
            -97.975078,
            30.947316
          ],
          [
            -97.975374,
            30.947192
          ],
          [
            -97.975784,
            30.947062
          ],
          [
            -97.976456,
            30.946912
          ],
          [
            -97.976686,
            30.946869
          ],
          [
            -97.976975,
            30.946814
          ],
          [
            -97.977204,
            30.946755
          ],
          [
            -97.977879,
            30.946644
          ],
          [
            -97.978486,
            30.946517
          ],
          [
            -97.980095,
            30.946181
          ],
          [
            -97.980331,
            30.946111
          ],
          [
            -97.980633,
            30.945971
          ],
          [
            -97.980848,
            30.945834
          ],
          [
            -97.981559,
            30.945308
          ],
          [
            -97.982573,
            30.944606
          ],
          [
            -97.982755,
            30.944516
          ],
          [
            -97.983,
            30.944435
          ],
          [
            -97.983212,
            30.9444
          ],
          [
            -97.9834,
            30.944379
          ],
          [
            -97.983644,
            30.944392
          ],
          [
            -97.983882,
            30.944418
          ],
          [
            -97.984062,
            30.944461
          ],
          [
            -97.984113,
            30.944477
          ],
          [
            -97.984206,
            30.944507
          ],
          [
            -97.984401,
            30.944598
          ],
          [
            -97.984498,
            30.944658
          ],
          [
            -97.984688,
            30.944821
          ],
          [
            -97.98547,
            30.945671
          ],
          [
            -97.986474,
            30.946597
          ],
          [
            -97.986583,
            30.946687
          ],
          [
            -97.986766,
            30.946814
          ],
          [
            -97.98694,
            30.946908
          ],
          [
            -97.98711,
            30.946991
          ],
          [
            -97.98739,
            30.947103
          ],
          [
            -97.987582,
            30.947148
          ],
          [
            -97.987853,
            30.94718
          ],
          [
            -97.988315,
            30.947199
          ],
          [
            -97.988735,
            30.947127
          ],
          [
            -97.989104,
            30.947024
          ],
          [
            -97.989244,
            30.946977
          ],
          [
            -97.989831,
            30.946754
          ],
          [
            -97.990845,
            30.946368
          ],
          [
            -97.99109,
            30.946246
          ],
          [
            -97.991309,
            30.946074
          ],
          [
            -97.991462,
            30.945923
          ],
          [
            -97.991582,
            30.945735
          ],
          [
            -97.991654,
            30.94556
          ],
          [
            -97.991676,
            30.945463
          ],
          [
            -97.991716,
            30.945289
          ],
          [
            -97.991728,
            30.944995
          ],
          [
            -97.991741,
            30.944501
          ],
          [
            -97.991816,
            30.944274
          ],
          [
            -97.991926,
            30.944064
          ],
          [
            -97.992053,
            30.943909
          ],
          [
            -97.992176,
            30.943785
          ],
          [
            -97.992326,
            30.94367
          ],
          [
            -97.992553,
            30.943544
          ],
          [
            -97.994207,
            30.942953
          ],
          [
            -97.994298,
            30.942923
          ],
          [
            -97.994905,
            30.942715
          ],
          [
            -97.995262,
            30.942605
          ],
          [
            -97.995908,
            30.942413
          ],
          [
            -97.996541,
            30.942258
          ],
          [
            -97.99735,
            30.942017
          ],
          [
            -97.998402,
            30.941651
          ],
          [
            -97.998841,
            30.94148
          ],
          [
            -97.999043,
            30.941377
          ],
          [
            -97.999236,
            30.941273
          ],
          [
            -97.999423,
            30.941133
          ],
          [
            -97.999573,
            30.941009
          ],
          [
            -97.999675,
            30.94091
          ],
          [
            -97.999765,
            30.940793
          ],
          [
            -97.99995,
            30.940502
          ],
          [
            -97.999989,
            30.940399
          ],
          [
            -98.00001,
            30.940341
          ],
          [
            -98.000305,
            30.939758
          ],
          [
            -98.000415,
            30.939633
          ],
          [
            -98.000532,
            30.9395
          ],
          [
            -98.000831,
            30.939256
          ],
          [
            -98.0009,
            30.939211
          ],
          [
            -98.001019,
            30.939133
          ],
          [
            -98.001203,
            30.939045
          ],
          [
            -98.001543,
            30.938903
          ],
          [
            -98.001687,
            30.938857
          ],
          [
            -98.001715,
            30.938848
          ],
          [
            -98.001915,
            30.938794
          ],
          [
            -98.004819,
            30.937887
          ],
          [
            -98.005028,
            30.937822
          ],
          [
            -98.005128,
            30.937791
          ],
          [
            -98.007318,
            30.937113
          ],
          [
            -98.007841,
            30.936951
          ],
          [
            -98.008729,
            30.936651
          ],
          [
            -98.010313,
            30.936174
          ],
          [
            -98.010366,
            30.936158
          ],
          [
            -98.012195,
            30.93558
          ],
          [
            -98.013127,
            30.935316
          ],
          [
            -98.013561,
            30.935154
          ],
          [
            -98.013985,
            30.93492
          ],
          [
            -98.014185,
            30.934752
          ],
          [
            -98.014306,
            30.934596
          ],
          [
            -98.01449,
            30.934326
          ],
          [
            -98.015032,
            30.933326
          ],
          [
            -98.015219,
            30.933082
          ],
          [
            -98.015326,
            30.932961
          ],
          [
            -98.015404,
            30.932871
          ],
          [
            -98.015619,
            30.932661
          ],
          [
            -98.015946,
            30.932372
          ],
          [
            -98.016158,
            30.932211
          ],
          [
            -98.01636,
            30.932072
          ],
          [
            -98.018299,
            30.930891
          ],
          [
            -98.018897,
            30.930521
          ],
          [
            -98.021225,
            30.929081
          ],
          [
            -98.021747,
            30.928758
          ],
          [
            -98.022014,
            30.928602
          ],
          [
            -98.022136,
            30.928531
          ],
          [
            -98.023135,
            30.927917
          ],
          [
            -98.023499,
            30.9277
          ],
          [
            -98.023734,
            30.927542
          ],
          [
            -98.023766,
            30.927525
          ],
          [
            -98.023879,
            30.927468
          ],
          [
            -98.024019,
            30.927388
          ],
          [
            -98.024169,
            30.927286
          ],
          [
            -98.024281,
            30.927192
          ],
          [
            -98.024416,
            30.927048
          ],
          [
            -98.024501,
            30.926945
          ],
          [
            -98.024596,
            30.926804
          ],
          [
            -98.02523,
            30.926045
          ],
          [
            -98.025814,
            30.925357
          ],
          [
            -98.026358,
            30.924724
          ],
          [
            -98.026936,
            30.924052
          ],
          [
            -98.027499,
            30.923406
          ],
          [
            -98.027856,
            30.922996
          ],
          [
            -98.029513,
            30.921051
          ],
          [
            -98.029881,
            30.92058
          ],
          [
            -98.030301,
            30.920111
          ],
          [
            -98.031069,
            30.919144
          ],
          [
            -98.031115,
            30.919086
          ],
          [
            -98.031493,
            30.918571
          ],
          [
            -98.033406,
            30.915961
          ],
          [
            -98.03484,
            30.914026
          ],
          [
            -98.035579,
            30.912997
          ],
          [
            -98.035798,
            30.912717
          ],
          [
            -98.035901,
            30.912599
          ],
          [
            -98.036002,
            30.912483
          ],
          [
            -98.036038,
            30.912441
          ],
          [
            -98.03641,
            30.91203
          ],
          [
            -98.036615,
            30.911822
          ],
          [
            -98.036976,
            30.911476
          ],
          [
            -98.038515,
            30.910034
          ],
          [
            -98.038715,
            30.909838
          ],
          [
            -98.03942,
            30.909105
          ],
          [
            -98.039528,
            30.908952
          ],
          [
            -98.039813,
            30.908548
          ],
          [
            -98.040315,
            30.907823
          ],
          [
            -98.040618,
            30.907311
          ],
          [
            -98.041069,
            30.906549
          ],
          [
            -98.041422,
            30.905934
          ],
          [
            -98.041566,
            30.905615
          ],
          [
            -98.042156,
            30.904304
          ],
          [
            -98.042251,
            30.904092
          ],
          [
            -98.04261,
            30.903401
          ],
          [
            -98.042652,
            30.903321
          ],
          [
            -98.042676,
            30.903279
          ],
          [
            -98.042904,
            30.902885
          ],
          [
            -98.043959,
            30.901257
          ],
          [
            -98.04432,
            30.900696
          ],
          [
            -98.044575,
            30.9003
          ],
          [
            -98.044884,
            30.89982
          ],
          [
            -98.045032,
            30.89959
          ],
          [
            -98.046089,
            30.898082
          ],
          [
            -98.04619,
            30.897929
          ],
          [
            -98.046295,
            30.89777
          ],
          [
            -98.046726,
            30.897068
          ],
          [
            -98.046847,
            30.896828
          ],
          [
            -98.047024,
            30.896424
          ],
          [
            -98.047172,
            30.896045
          ],
          [
            -98.0477,
            30.894462
          ],
          [
            -98.048033,
            30.893491
          ],
          [
            -98.048111,
            30.893301
          ],
          [
            -98.048183,
            30.893128
          ],
          [
            -98.048379,
            30.892719
          ],
          [
            -98.048567,
            30.892379
          ],
          [
            -98.048769,
            30.892052
          ],
          [
            -98.049002,
            30.891734
          ],
          [
            -98.049376,
            30.891276
          ],
          [
            -98.04967,
            30.890931
          ],
          [
            -98.050065,
            30.890466
          ],
          [
            -98.050099,
            30.890426
          ],
          [
            -98.050224,
            30.890304
          ],
          [
            -98.050485,
            30.890017
          ],
          [
            -98.050606,
            30.889872
          ],
          [
            -98.05074,
            30.889712
          ],
          [
            -98.050761,
            30.889687
          ],
          [
            -98.050997,
            30.889372
          ],
          [
            -98.051144,
            30.889157
          ],
          [
            -98.051419,
            30.888719
          ],
          [
            -98.051605,
            30.888376
          ],
          [
            -98.051727,
            30.888117
          ],
          [
            -98.051773,
            30.888019
          ],
          [
            -98.051968,
            30.88753
          ],
          [
            -98.05206,
            30.887245
          ],
          [
            -98.052167,
            30.886882
          ],
          [
            -98.052249,
            30.88652
          ],
          [
            -98.052279,
            30.886363
          ],
          [
            -98.05233,
            30.886098
          ],
          [
            -98.052372,
            30.885738
          ],
          [
            -98.052385,
            30.885496
          ],
          [
            -98.052387,
            30.885461
          ],
          [
            -98.052389,
            30.885084
          ],
          [
            -98.05238,
            30.88485
          ],
          [
            -98.052356,
            30.884553
          ],
          [
            -98.052225,
            30.884096
          ],
          [
            -98.052201,
            30.883953
          ],
          [
            -98.052191,
            30.883892
          ],
          [
            -98.052058,
            30.883367
          ],
          [
            -98.051928,
            30.882976
          ],
          [
            -98.051756,
            30.882533
          ],
          [
            -98.051584,
            30.882129
          ],
          [
            -98.05141,
            30.881719
          ],
          [
            -98.051029,
            30.880875
          ],
          [
            -98.050857,
            30.880236
          ],
          [
            -98.05072,
            30.879939
          ],
          [
            -98.049833,
            30.877908
          ],
          [
            -98.048776,
            30.87549
          ],
          [
            -98.04731,
            30.872104
          ],
          [
            -98.047225,
            30.871943
          ],
          [
            -98.04711,
            30.871666
          ],
          [
            -98.047035,
            30.871438
          ],
          [
            -98.046972,
            30.871155
          ],
          [
            -98.046948,
            30.870778
          ],
          [
            -98.046943,
            30.870643
          ],
          [
            -98.046984,
            30.87027
          ],
          [
            -98.047017,
            30.870113
          ],
          [
            -98.047075,
            30.8699
          ],
          [
            -98.047146,
            30.869695
          ],
          [
            -98.047238,
            30.869488
          ],
          [
            -98.047351,
            30.869286
          ],
          [
            -98.047464,
            30.869109
          ],
          [
            -98.047609,
            30.868917
          ],
          [
            -98.04775,
            30.868757
          ],
          [
            -98.04792,
            30.868584
          ],
          [
            -98.048102,
            30.868425
          ],
          [
            -98.048287,
            30.868288
          ],
          [
            -98.048486,
            30.868154
          ],
          [
            -98.048699,
            30.868034
          ],
          [
            -98.048922,
            30.867928
          ],
          [
            -98.049197,
            30.867815
          ],
          [
            -98.050234,
            30.867517
          ],
          [
            -98.052739,
            30.866664
          ],
          [
            -98.055012,
            30.865915
          ],
          [
            -98.05895,
            30.864624
          ],
          [
            -98.059723,
            30.864381
          ],
          [
            -98.061557,
            30.863814
          ],
          [
            -98.062437,
            30.863533
          ],
          [
            -98.063891,
            30.863071
          ],
          [
            -98.065074,
            30.86271
          ],
          [
            -98.065747,
            30.862535
          ],
          [
            -98.066363,
            30.862436
          ],
          [
            -98.067388,
            30.862253
          ],
          [
            -98.068327,
            30.862121
          ],
          [
            -98.069671,
            30.862026
          ],
          [
            -98.070974,
            30.861969
          ],
          [
            -98.07417,
            30.861849
          ],
          [
            -98.076419,
            30.861738
          ],
          [
            -98.076552,
            30.861733
          ],
          [
            -98.082117,
            30.861504
          ],
          [
            -98.082673,
            30.861483
          ],
          [
            -98.087357,
            30.861301
          ],
          [
            -98.0874,
            30.861299
          ],
          [
            -98.092399,
            30.86108
          ],
          [
            -98.092954,
            30.861055
          ],
          [
            -98.095656,
            30.860954
          ],
          [
            -98.095698,
            30.860952
          ],
          [
            -98.09684,
            30.860903
          ],
          [
            -98.098083,
            30.86085
          ],
          [
            -98.099191,
            30.860803
          ],
          [
            -98.101141,
            30.860732
          ],
          [
            -98.103443,
            30.860629
          ],
          [
            -98.104067,
            30.860582
          ],
          [
            -98.104702,
            30.860516
          ],
          [
            -98.10493,
            30.860483
          ],
          [
            -98.105446,
            30.860406
          ],
          [
            -98.105806,
            30.860354
          ],
          [
            -98.106139,
            30.860295
          ],
          [
            -98.106289,
            30.860269
          ],
          [
            -98.106776,
            30.860167
          ],
          [
            -98.106879,
            30.860143
          ],
          [
            -98.107394,
            30.860024
          ],
          [
            -98.10774,
            30.859926
          ],
          [
            -98.107988,
            30.859855
          ],
          [
            -98.108709,
            30.859588
          ],
          [
            -98.110597,
            30.859034
          ],
          [
            -98.110694,
            30.859004
          ],
          [
            -98.112095,
            30.858541
          ],
          [
            -98.116407,
            30.857219
          ],
          [
            -98.117646,
            30.856831
          ],
          [
            -98.118029,
            30.856711
          ],
          [
            -98.119566,
            30.856229
          ],
          [
            -98.119671,
            30.856192
          ],
          [
            -98.121188,
            30.855721
          ],
          [
            -98.12163,
            30.855583
          ],
          [
            -98.12242,
            30.855344
          ],
          [
            -98.122806,
            30.855226
          ],
          [
            -98.124281,
            30.854744
          ],
          [
            -98.126723,
            30.854105
          ],
          [
            -98.127125,
            30.853974
          ],
          [
            -98.127765,
            30.853752
          ],
          [
            -98.128749,
            30.85346
          ],
          [
            -98.129409,
            30.853243
          ],
          [
            -98.130155,
            30.852998
          ],
          [
            -98.131274,
            30.85264
          ],
          [
            -98.133344,
            30.851981
          ],
          [
            -98.133702,
            30.851863
          ],
          [
            -98.136103,
            30.851094
          ],
          [
            -98.136568,
            30.850944
          ],
          [
            -98.137655,
            30.850605
          ],
          [
            -98.138943,
            30.850199
          ],
          [
            -98.143102,
            30.848878
          ],
          [
            -98.144086,
            30.848566
          ],
          [
            -98.144348,
            30.848483
          ],
          [
            -98.144467,
            30.848445
          ],
          [
            -98.1453,
            30.848181
          ],
          [
            -98.145977,
            30.847966
          ],
          [
            -98.146703,
            30.847735
          ],
          [
            -98.147189,
            30.847581
          ],
          [
            -98.147772,
            30.847421
          ],
          [
            -98.148029,
            30.847367
          ],
          [
            -98.148324,
            30.847323
          ],
          [
            -98.148688,
            30.847279
          ],
          [
            -98.149051,
            30.847258
          ],
          [
            -98.149356,
            30.847252
          ],
          [
            -98.149637,
            30.847257
          ],
          [
            -98.149737,
            30.847264
          ],
          [
            -98.150099,
            30.847289
          ],
          [
            -98.150501,
            30.84734
          ],
          [
            -98.150801,
            30.847404
          ],
          [
            -98.1512,
            30.84749
          ],
          [
            -98.154244,
            30.848479
          ],
          [
            -98.155206,
            30.848792
          ],
          [
            -98.156236,
            30.849109
          ],
          [
            -98.15695,
            30.849237
          ],
          [
            -98.157557,
            30.849291
          ],
          [
            -98.158082,
            30.849292
          ],
          [
            -98.158752,
            30.849237
          ],
          [
            -98.159117,
            30.849183
          ],
          [
            -98.159475,
            30.849101
          ],
          [
            -98.159663,
            30.849054
          ],
          [
            -98.159896,
            30.848995
          ],
          [
            -98.161092,
            30.848605
          ],
          [
            -98.163484,
            30.847836
          ],
          [
            -98.163584,
            30.847804
          ],
          [
            -98.164597,
            30.847479
          ],
          [
            -98.16516,
            30.847309
          ],
          [
            -98.165978,
            30.847062
          ],
          [
            -98.16619,
            30.846994
          ],
          [
            -98.166425,
            30.846943
          ],
          [
            -98.166828,
            30.846868
          ],
          [
            -98.167159,
            30.846815
          ],
          [
            -98.167623,
            30.846782
          ],
          [
            -98.167973,
            30.846774
          ],
          [
            -98.168659,
            30.846802
          ],
          [
            -98.169511,
            30.846797
          ],
          [
            -98.1706,
            30.846738
          ],
          [
            -98.170968,
            30.84669
          ],
          [
            -98.171315,
            30.846616
          ],
          [
            -98.171682,
            30.846523
          ],
          [
            -98.172018,
            30.846411
          ],
          [
            -98.172082,
            30.846387
          ],
          [
            -98.172558,
            30.846197
          ],
          [
            -98.172724,
            30.846107
          ],
          [
            -98.172865,
            30.846037
          ],
          [
            -98.173033,
            30.845941
          ],
          [
            -98.173251,
            30.845802
          ],
          [
            -98.17331,
            30.845764
          ],
          [
            -98.173649,
            30.845536
          ],
          [
            -98.17371,
            30.845487
          ],
          [
            -98.174544,
            30.844815
          ],
          [
            -98.175366,
            30.844152
          ],
          [
            -98.175542,
            30.844011
          ],
          [
            -98.176291,
            30.843363
          ],
          [
            -98.177293,
            30.842475
          ],
          [
            -98.178046,
            30.841822
          ],
          [
            -98.178382,
            30.841531
          ],
          [
            -98.179126,
            30.840886
          ],
          [
            -98.180167,
            30.839968
          ],
          [
            -98.180324,
            30.839829
          ],
          [
            -98.181901,
            30.838456
          ],
          [
            -98.182684,
            30.837775
          ],
          [
            -98.183663,
            30.837046
          ],
          [
            -98.183958,
            30.836839
          ],
          [
            -98.184053,
            30.836777
          ],
          [
            -98.185581,
            30.835771
          ],
          [
            -98.186653,
            30.835062
          ],
          [
            -98.187116,
            30.834768
          ],
          [
            -98.187497,
            30.834514
          ],
          [
            -98.188325,
            30.834027
          ],
          [
            -98.188471,
            30.833941
          ],
          [
            -98.190358,
            30.833008
          ],
          [
            -98.190758,
            30.83281
          ],
          [
            -98.192111,
            30.832012
          ],
          [
            -98.192349,
            30.831872
          ],
          [
            -98.192799,
            30.831612
          ],
          [
            -98.193309,
            30.831266
          ],
          [
            -98.193546,
            30.831069
          ],
          [
            -98.193705,
            30.83091
          ],
          [
            -98.193944,
            30.830661
          ],
          [
            -98.194113,
            30.830438
          ],
          [
            -98.194281,
            30.830193
          ],
          [
            -98.194399,
            30.829923
          ],
          [
            -98.194501,
            30.829658
          ],
          [
            -98.194536,
            30.829538
          ],
          [
            -98.194575,
            30.829406
          ],
          [
            -98.194621,
            30.829137
          ],
          [
            -98.194625,
            30.829097
          ],
          [
            -98.194672,
            30.828566
          ],
          [
            -98.194806,
            30.8276
          ],
          [
            -98.194817,
            30.827572
          ],
          [
            -98.195352,
            30.826229
          ],
          [
            -98.195819,
            30.825541
          ],
          [
            -98.196001,
            30.825173
          ],
          [
            -98.196205,
            30.824684
          ],
          [
            -98.196363,
            30.824227
          ],
          [
            -98.196552,
            30.823503
          ],
          [
            -98.196794,
            30.822576
          ],
          [
            -98.197011,
            30.821641
          ],
          [
            -98.19704,
            30.821532
          ],
          [
            -98.197293,
            30.820513
          ],
          [
            -98.197593,
            30.819388
          ],
          [
            -98.197855,
            30.818312
          ],
          [
            -98.197924,
            30.818079
          ],
          [
            -98.197935,
            30.818043
          ],
          [
            -98.198159,
            30.817395
          ],
          [
            -98.198192,
            30.817312
          ],
          [
            -98.198262,
            30.817139
          ],
          [
            -98.198377,
            30.816912
          ],
          [
            -98.198501,
            30.8167
          ],
          [
            -98.19866,
            30.816463
          ],
          [
            -98.198931,
            30.816061
          ],
          [
            -98.199326,
            30.81536
          ],
          [
            -98.199648,
            30.814769
          ],
          [
            -98.199819,
            30.814436
          ],
          [
            -98.199855,
            30.814353
          ],
          [
            -98.199903,
            30.814242
          ],
          [
            -98.200654,
            30.81255
          ],
          [
            -98.200722,
            30.8124
          ],
          [
            -98.200806,
            30.812215
          ],
          [
            -98.201726,
            30.810194
          ],
          [
            -98.202066,
            30.809473
          ],
          [
            -98.202277,
            30.80908
          ],
          [
            -98.202975,
            30.807701
          ],
          [
            -98.203036,
            30.807581
          ],
          [
            -98.203285,
            30.80706
          ],
          [
            -98.20333,
            30.806965
          ],
          [
            -98.203776,
            30.80607
          ],
          [
            -98.203865,
            30.805851
          ],
          [
            -98.204286,
            30.80502
          ],
          [
            -98.20473,
            30.804132
          ],
          [
            -98.205149,
            30.803293
          ],
          [
            -98.205287,
            30.802999
          ],
          [
            -98.205569,
            30.802398
          ],
          [
            -98.205634,
            30.802242
          ],
          [
            -98.205744,
            30.801981
          ],
          [
            -98.205892,
            30.80163
          ],
          [
            -98.206058,
            30.801235
          ],
          [
            -98.206116,
            30.801096
          ],
          [
            -98.206432,
            30.800345
          ],
          [
            -98.206901,
            30.799197
          ],
          [
            -98.206992,
            30.799009
          ],
          [
            -98.207083,
            30.798845
          ],
          [
            -98.207209,
            30.79866
          ],
          [
            -98.207318,
            30.798525
          ],
          [
            -98.207354,
            30.798481
          ],
          [
            -98.207516,
            30.798313
          ],
          [
            -98.207699,
            30.798154
          ],
          [
            -98.207877,
            30.798022
          ],
          [
            -98.208087,
            30.797888
          ],
          [
            -98.208302,
            30.797776
          ],
          [
            -98.208523,
            30.797678
          ],
          [
            -98.20918,
            30.797444
          ],
          [
            -98.210035,
            30.797128
          ],
          [
            -98.210916,
            30.796802
          ],
          [
            -98.211338,
            30.796657
          ],
          [
            -98.211625,
            30.796527
          ],
          [
            -98.211898,
            30.796386
          ],
          [
            -98.212165,
            30.796226
          ],
          [
            -98.212298,
            30.796123
          ],
          [
            -98.21248,
            30.795967
          ],
          [
            -98.212591,
            30.795856
          ],
          [
            -98.212801,
            30.795623
          ],
          [
            -98.212965,
            30.795463
          ],
          [
            -98.213304,
            30.794655
          ],
          [
            -98.213461,
            30.794274
          ],
          [
            -98.214202,
            30.792523
          ],
          [
            -98.214337,
            30.792144
          ],
          [
            -98.214594,
            30.79152
          ],
          [
            -98.214754,
            30.791141
          ],
          [
            -98.215159,
            30.79019
          ],
          [
            -98.215308,
            30.789838
          ],
          [
            -98.215368,
            30.789697
          ],
          [
            -98.215489,
            30.789413
          ],
          [
            -98.215492,
            30.789405
          ],
          [
            -98.215757,
            30.788757
          ],
          [
            -98.216064,
            30.787986
          ],
          [
            -98.216195,
            30.787657
          ],
          [
            -98.216283,
            30.787374
          ],
          [
            -98.21629,
            30.78735
          ],
          [
            -98.216364,
            30.787041
          ],
          [
            -98.216425,
            30.78672
          ],
          [
            -98.216455,
            30.786418
          ],
          [
            -98.216451,
            30.785986
          ],
          [
            -98.216438,
            30.78573
          ],
          [
            -98.216416,
            30.785522
          ],
          [
            -98.216378,
            30.785168
          ],
          [
            -98.2163,
            30.784696
          ],
          [
            -98.216274,
            30.784516
          ],
          [
            -98.216168,
            30.783781
          ],
          [
            -98.216167,
            30.783767
          ],
          [
            -98.216149,
            30.783459
          ],
          [
            -98.216144,
            30.782934
          ],
          [
            -98.216147,
            30.782894
          ],
          [
            -98.216185,
            30.782379
          ],
          [
            -98.216239,
            30.781733
          ],
          [
            -98.216393,
            30.779883
          ],
          [
            -98.216407,
            30.779358
          ],
          [
            -98.216371,
            30.778092
          ],
          [
            -98.216369,
            30.777495
          ],
          [
            -98.216399,
            30.777072
          ],
          [
            -98.216411,
            30.776984
          ],
          [
            -98.21645,
            30.776704
          ],
          [
            -98.216518,
            30.776356
          ],
          [
            -98.216612,
            30.775984
          ],
          [
            -98.216794,
            30.775456
          ],
          [
            -98.216992,
            30.774945
          ],
          [
            -98.217,
            30.77493
          ],
          [
            -98.217137,
            30.774661
          ],
          [
            -98.217309,
            30.774336
          ],
          [
            -98.217569,
            30.773846
          ],
          [
            -98.217625,
            30.773742
          ],
          [
            -98.217688,
            30.773623
          ],
          [
            -98.218061,
            30.77298
          ],
          [
            -98.218414,
            30.772298
          ],
          [
            -98.218946,
            30.771437
          ],
          [
            -98.219154,
            30.771214
          ],
          [
            -98.219184,
            30.771187
          ]
        ]
      }
    }
  ]
}