{
  "type": "FeatureCollection",
  "features": [
    {
      "type": "Feature",
      "properties": {
        "route": "Pedernales Wine Country Sweep",
        "category": "German Towns & Culture",
        "color": "#8e44ad",
        "waypoints": [
          "Fredericksburg",
          "Tivydale",
          "Stonewall",
          "Johnson City"
        ],
        "via": "FM 2093 Tivydale -> US 290 Wine Road -> Stonewall",
        "distance_mi": 77.7,
        "source": "road-snapped"
      },
      "geometry": {
        "type": "LineString",
        "coordinates": [
          [
            -98.872096,
            30.275297
          ],
          [
            -98.872187,
            30.275204
          ],
          [
            -98.872296,
            30.275091
          ],
          [
            -98.872394,
            30.275165
          ],
          [
            -98.873201,
            30.275769
          ],
          [
            -98.873569,
            30.276032
          ],
          [
            -98.873907,
            30.276274
          ],
          [
            -98.874036,
            30.276366
          ],
          [
            -98.874138,
            30.27644
          ],
          [
            -98.874223,
            30.276502
          ],
          [
            -98.874331,
            30.276581
          ],
          [
            -98.874955,
            30.277036
          ],
          [
            -98.875309,
            30.277294
          ],
          [
            -98.875623,
            30.277523
          ],
          [
            -98.875713,
            30.277589
          ],
          [
            -98.875795,
            30.277649
          ],
          [
            -98.875938,
            30.277752
          ],
          [
            -98.877274,
            30.278724
          ],
          [
            -98.877384,
            30.278804
          ],
          [
            -98.877456,
            30.278857
          ],
          [
            -98.879043,
            30.28002
          ],
          [
            -98.879356,
            30.280238
          ],
          [
            -98.879416,
            30.280279
          ],
          [
            -98.879642,
            30.280445
          ],
          [
            -98.87978,
            30.280543
          ],
          [
            -98.879855,
            30.280597
          ],
          [
            -98.880328,
            30.280932
          ],
          [
            -98.880709,
            30.281203
          ],
          [
            -98.881185,
            30.281536
          ],
          [
            -98.881473,
            30.281738
          ],
          [
            -98.882396,
            30.282386
          ],
          [
            -98.882995,
            30.282814
          ],
          [
            -98.883332,
            30.283055
          ],
          [
            -98.884066,
            30.283579
          ],
          [
            -98.884449,
            30.283856
          ],
          [
            -98.884788,
            30.284101
          ],
          [
            -98.884951,
            30.28422
          ],
          [
            -98.8851,
            30.284327
          ],
          [
            -98.885522,
            30.284632
          ],
          [
            -98.88571,
            30.284769
          ],
          [
            -98.885829,
            30.284945
          ],
          [
            -98.886026,
            30.285097
          ],
          [
            -98.886101,
            30.285155
          ],
          [
            -98.886283,
            30.285214
          ],
          [
            -98.886438,
            30.285279
          ],
          [
            -98.886577,
            30.285329
          ],
          [
            -98.886804,
            30.285387
          ],
          [
            -98.886814,
            30.28539
          ],
          [
            -98.886885,
            30.285409
          ],
          [
            -98.886976,
            30.285424
          ],
          [
            -98.887069,
            30.285447
          ],
          [
            -98.887161,
            30.285469
          ],
          [
            -98.887276,
            30.285496
          ],
          [
            -98.887513,
            30.285528
          ],
          [
            -98.887628,
            30.285503
          ],
          [
            -98.8879,
            30.285519
          ],
          [
            -98.888159,
            30.285524
          ],
          [
            -98.888401,
            30.285513
          ],
          [
            -98.888692,
            30.285481
          ],
          [
            -98.888918,
            30.285439
          ],
          [
            -98.889161,
            30.285381
          ],
          [
            -98.889405,
            30.285308
          ],
          [
            -98.889512,
            30.285276
          ],
          [
            -98.890896,
            30.284868
          ],
          [
            -98.891255,
            30.284761
          ],
          [
            -98.893262,
            30.284157
          ],
          [
            -98.894512,
            30.283776
          ],
          [
            -98.89475,
            30.283703
          ],
          [
            -98.895182,
            30.283564
          ],
          [
            -98.895425,
            30.283497
          ],
          [
            -98.896159,
            30.283275
          ],
          [
            -98.897118,
            30.283009
          ],
          [
            -98.898094,
            30.282712
          ],
          [
            -98.902801,
            30.281283
          ],
          [
            -98.90414,
            30.280885
          ],
          [
            -98.905562,
            30.280462
          ],
          [
            -98.905833,
            30.280377
          ],
          [
            -98.906439,
            30.2802
          ],
          [
            -98.907468,
            30.279904
          ],
          [
            -98.907847,
            30.279827
          ],
          [
            -98.908228,
            30.279771
          ],
          [
            -98.908926,
            30.279727
          ],
          [
            -98.913325,
            30.279716
          ],
          [
            -98.914836,
            30.279712
          ],
          [
            -98.916791,
            30.279707
          ],
          [
            -98.919127,
            30.279701
          ],
          [
            -98.92039,
            30.279692
          ],
          [
            -98.920609,
            30.27969
          ],
          [
            -98.923036,
            30.279672
          ],
          [
            -98.923438,
            30.279668
          ],
          [
            -98.926006,
            30.279643
          ],
          [
            -98.927048,
            30.279633
          ],
          [
            -98.931068,
            30.279594
          ],
          [
            -98.932804,
            30.279577
          ],
          [
            -98.933792,
            30.279579
          ],
          [
            -98.934497,
            30.279595
          ],
          [
            -98.93494,
            30.27963
          ],
          [
            -98.93543,
            30.279686
          ],
          [
            -98.935683,
            30.279732
          ],
          [
            -98.936372,
            30.279866
          ],
          [
            -98.936605,
            30.279932
          ],
          [
            -98.937102,
            30.280071
          ],
          [
            -98.938205,
            30.280389
          ],
          [
            -98.941192,
            30.281248
          ],
          [
            -98.946414,
            30.282749
          ],
          [
            -98.947394,
            30.283047
          ],
          [
            -98.947755,
            30.28318
          ],
          [
            -98.948116,
            30.283328
          ],
          [
            -98.94895,
            30.28372
          ],
          [
            -98.949782,
            30.284132
          ],
          [
            -98.953176,
            30.285836
          ],
          [
            -98.955162,
            30.286819
          ],
          [
            -98.956565,
            30.287514
          ],
          [
            -98.957575,
            30.288013
          ],
          [
            -98.960218,
            30.289314
          ],
          [
            -98.962639,
            30.290506
          ],
          [
            -98.964817,
            30.291562
          ],
          [
            -98.965257,
            30.291738
          ],
          [
            -98.965922,
            30.291858
          ],
          [
            -98.966587,
            30.291802
          ],
          [
            -98.967746,
            30.291636
          ],
          [
            -98.969304,
            30.291325
          ],
          [
            -98.970964,
            30.290969
          ],
          [
            -98.971662,
            30.290858
          ],
          [
            -98.972402,
            30.29082
          ],
          [
            -98.973239,
            30.29082
          ],
          [
            -98.973446,
            30.290872
          ],
          [
            -98.974859,
            30.291228
          ],
          [
            -98.981111,
            30.293592
          ],
          [
            -98.984494,
            30.294873
          ],
          [
            -98.990623,
            30.297049
          ],
          [
            -98.991521,
            30.297379
          ],
          [
            -98.992379,
            30.297537
          ],
          [
            -98.993555,
            30.297643
          ],
          [
            -98.9944,
            30.297643
          ],
          [
            -98.995335,
            30.297659
          ],
          [
            -98.995721,
            30.297665
          ],
          [
            -98.997147,
            30.297779
          ],
          [
            -98.997808,
            30.297985
          ],
          [
            -98.999491,
            30.298949
          ],
          [
            -98.999757,
            30.29912
          ],
          [
            -99.000186,
            30.299342
          ],
          [
            -99.000503,
            30.299542
          ],
          [
            -99.000804,
            30.29969
          ],
          [
            -99.001139,
            30.299838
          ],
          [
            -99.001688,
            30.300046
          ],
          [
            -99.002622,
            30.300139
          ],
          [
            -99.003229,
            30.300116
          ],
          [
            -99.00418,
            30.29991
          ],
          [
            -99.004814,
            30.299636
          ],
          [
            -99.006323,
            30.298823
          ],
          [
            -99.007275,
            30.298542
          ],
          [
            -99.009068,
            30.298102
          ],
          [
            -99.010048,
            30.297637
          ],
          [
            -99.011181,
            30.297156
          ],
          [
            -99.014854,
            30.295459
          ],
          [
            -99.015721,
            30.295296
          ],
          [
            -99.016768,
            30.295281
          ],
          [
            -99.018058,
            30.295435
          ],
          [
            -99.019687,
            30.295629
          ],
          [
            -99.023155,
            30.295967
          ],
          [
            -99.023671,
            30.296018
          ],
          [
            -99.027137,
            30.296355
          ],
          [
            -99.027817,
            30.2964
          ],
          [
            -99.02839,
            30.296441
          ],
          [
            -99.028384,
            30.292538
          ],
          [
            -99.028383,
            30.292443
          ],
          [
            -99.028364,
            30.288966
          ],
          [
            -99.028364,
            30.288966
          ],
          [
            -99.028383,
            30.292443
          ],
          [
            -99.028384,
            30.292538
          ],
          [
            -99.02839,
            30.296441
          ],
          [
            -99.028879,
            30.296444
          ],
          [
            -99.033126,
            30.296014
          ],
          [
            -99.033181,
            30.296008
          ],
          [
            -99.035219,
            30.295823
          ],
          [
            -99.036003,
            30.295795
          ],
          [
            -99.036226,
            30.295808
          ],
          [
            -99.037655,
            30.29598
          ],
          [
            -99.038642,
            30.296286
          ],
          [
            -99.039339,
            30.296583
          ],
          [
            -99.03994,
            30.296944
          ],
          [
            -99.044468,
            30.299723
          ],
          [
            -99.045519,
            30.300316
          ],
          [
            -99.046774,
            30.300862
          ],
          [
            -99.047708,
            30.301131
          ],
          [
            -99.051227,
            30.301909
          ],
          [
            -99.051506,
            30.301992
          ],
          [
            -99.053941,
            30.302539
          ],
          [
            -99.054617,
            30.302659
          ],
          [
            -99.055432,
            30.302696
          ],
          [
            -99.056599,
            30.302691
          ],
          [
            -99.057321,
            30.302688
          ],
          [
            -99.057492,
            30.302687
          ],
          [
            -99.058222,
            30.302641
          ],
          [
            -99.059306,
            30.302539
          ],
          [
            -99.060679,
            30.3024
          ],
          [
            -99.066075,
            30.301798
          ],
          [
            -99.076075,
            30.30076
          ],
          [
            -99.086439,
            30.299575
          ],
          [
            -99.087898,
            30.299426
          ],
          [
            -99.08837,
            30.29938
          ],
          [
            -99.090162,
            30.299389
          ],
          [
            -99.090969,
            30.299392
          ],
          [
            -99.095192,
            30.299437
          ],
          [
            -99.099174,
            30.299454
          ],
          [
            -99.10544,
            30.299436
          ],
          [
            -99.117477,
            30.299482
          ],
          [
            -99.122938,
            30.299464
          ],
          [
            -99.13062,
            30.299482
          ],
          [
            -99.132111,
            30.299482
          ],
          [
            -99.132691,
            30.299445
          ],
          [
            -99.135309,
            30.299223
          ],
          [
            -99.137658,
            30.299065
          ],
          [
            -99.141724,
            30.298769
          ],
          [
            -99.143774,
            30.29863
          ],
          [
            -99.148677,
            30.29825
          ],
          [
            -99.151938,
            30.297963
          ],
          [
            -99.154793,
            30.29776
          ],
          [
            -99.156241,
            30.297657
          ],
          [
            -99.157013,
            30.297583
          ],
          [
            -99.158558,
            30.297481
          ],
          [
            -99.165371,
            30.29699
          ],
          [
            -99.166175,
            30.296999
          ],
          [
            -99.16698,
            30.297166
          ],
          [
            -99.167763,
            30.297463
          ],
          [
            -99.1686,
            30.297889
          ],
          [
            -99.170961,
            30.299399
          ],
          [
            -99.17184,
            30.29988
          ],
          [
            -99.172355,
            30.300112
          ],
          [
            -99.172967,
            30.300306
          ],
          [
            -99.1736,
            30.300418
          ],
          [
            -99.174168,
            30.300436
          ],
          [
            -99.176947,
            30.300399
          ],
          [
            -99.185777,
            30.300381
          ],
          [
            -99.192418,
            30.300325
          ],
          [
            -99.194821,
            30.300316
          ],
          [
            -99.207314,
            30.300193
          ],
          [
            -99.208634,
            30.300202
          ],
          [
            -99.210125,
            30.300184
          ],
          [
            -99.21387,
            30.300147
          ],
          [
            -99.215844,
            30.300119
          ],
          [
            -99.218998,
            30.300091
          ],
          [
            -99.222152,
            30.300082
          ],
          [
            -99.226766,
            30.300045
          ],
          [
            -99.23276,
            30.300024
          ],
          [
            -99.235563,
            30.300008
          ],
          [
            -99.236515,
            30.3
          ],
          [
            -99.239811,
            30.299969
          ],
          [
            -99.241092,
            30.299983
          ],
          [
            -99.241899,
            30.299992
          ],
          [
            -99.242213,
            30.299998
          ],
          [
            -99.242183,
            30.299825
          ],
          [
            -99.242157,
            30.299697
          ],
          [
            -99.24212,
            30.299517
          ],
          [
            -99.242041,
            30.299206
          ],
          [
            -99.241916,
            30.298927
          ],
          [
            -99.241866,
            30.298815
          ],
          [
            -99.241415,
            30.29796
          ],
          [
            -99.24105,
            30.297268
          ],
          [
            -99.240428,
            30.296089
          ],
          [
            -99.240346,
            30.295933
          ],
          [
            -99.238914,
            30.293216
          ],
          [
            -99.238616,
            30.292751
          ],
          [
            -99.238204,
            30.292252
          ],
          [
            -99.237813,
            30.291876
          ],
          [
            -99.237323,
            30.291488
          ],
          [
            -99.23676,
            30.291131
          ],
          [
            -99.233523,
            30.289247
          ],
          [
            -99.232962,
            30.288917
          ],
          [
            -99.232197,
            30.288467
          ],
          [
            -99.23176,
            30.288213
          ],
          [
            -99.229214,
            30.286725
          ],
          [
            -99.227697,
            30.285851
          ],
          [
            -99.227368,
            30.285688
          ],
          [
            -99.227029,
            30.285544
          ],
          [
            -99.226553,
            30.285378
          ],
          [
            -99.226014,
            30.285236
          ],
          [
            -99.225329,
            30.285067
          ],
          [
            -99.224912,
            30.284964
          ],
          [
            -99.220402,
            30.283852
          ],
          [
            -99.215613,
            30.282672
          ],
          [
            -99.215209,
            30.282567
          ],
          [
            -99.214856,
            30.282464
          ],
          [
            -99.21441,
            30.2823
          ],
          [
            -99.214046,
            30.282138
          ],
          [
            -99.213615,
            30.281914
          ],
          [
            -99.213283,
            30.281712
          ],
          [
            -99.212882,
            30.281421
          ],
          [
            -99.212602,
            30.281187
          ],
          [
            -99.212314,
            30.280906
          ],
          [
            -99.208436,
            30.2766
          ],
          [
            -99.207701,
            30.275817
          ],
          [
            -99.206389,
            30.274361
          ],
          [
            -99.206115,
            30.274107
          ],
          [
            -99.205813,
            30.273861
          ],
          [
            -99.205402,
            30.273577
          ],
          [
            -99.205054,
            30.273373
          ],
          [
            -99.204613,
            30.273157
          ],
          [
            -99.204159,
            30.272974
          ],
          [
            -99.203799,
            30.272857
          ],
          [
            -99.203248,
            30.272721
          ],
          [
            -99.202972,
            30.272682
          ],
          [
            -99.189452,
            30.270006
          ],
          [
            -99.183328,
            30.268794
          ],
          [
            -99.181484,
            30.268487
          ],
          [
            -99.17513,
            30.267491
          ],
          [
            -99.175021,
            30.267474
          ],
          [
            -99.170876,
            30.266825
          ],
          [
            -99.170503,
            30.266744
          ],
          [
            -99.170311,
            30.266688
          ],
          [
            -99.170083,
            30.266612
          ],
          [
            -99.16993,
            30.266546
          ],
          [
            -99.169769,
            30.266472
          ],
          [
            -99.169573,
            30.266367
          ],
          [
            -99.1694,
            30.266262
          ],
          [
            -99.169227,
            30.266143
          ],
          [
            -99.169065,
            30.26602
          ],
          [
            -99.168876,
            30.265857
          ],
          [
            -99.168703,
            30.265693
          ],
          [
            -99.168571,
            30.265537
          ],
          [
            -99.168455,
            30.265377
          ],
          [
            -99.168329,
            30.265184
          ],
          [
            -99.168194,
            30.264929
          ],
          [
            -99.168105,
            30.264718
          ],
          [
            -99.168046,
            30.264533
          ],
          [
            -99.168006,
            30.264389
          ],
          [
            -99.167976,
            30.26426
          ],
          [
            -99.167956,
            30.264134
          ],
          [
            -99.167938,
            30.263931
          ],
          [
            -99.167913,
            30.261446
          ],
          [
            -99.167891,
            30.261039
          ],
          [
            -99.167858,
            30.260844
          ],
          [
            -99.167779,
            30.260564
          ],
          [
            -99.167681,
            30.260298
          ],
          [
            -99.167554,
            30.260036
          ],
          [
            -99.167368,
            30.259753
          ],
          [
            -99.16718,
            30.259513
          ],
          [
            -99.166815,
            30.259156
          ],
          [
            -99.166511,
            30.258925
          ],
          [
            -99.166252,
            30.258766
          ],
          [
            -99.165977,
            30.258631
          ],
          [
            -99.165688,
            30.258514
          ],
          [
            -99.165402,
            30.258419
          ],
          [
            -99.165109,
            30.258346
          ],
          [
            -99.164873,
            30.258306
          ],
          [
            -99.164547,
            30.258279
          ],
          [
            -99.162991,
            30.258263
          ],
          [
            -99.159281,
            30.258264
          ],
          [
            -99.152904,
            30.258064
          ],
          [
            -99.146207,
            30.257923
          ],
          [
            -99.142431,
            30.257844
          ],
          [
            -99.141411,
            30.257796
          ],
          [
            -99.141147,
            30.257772
          ],
          [
            -99.140962,
            30.257756
          ],
          [
            -99.140349,
            30.257686
          ],
          [
            -99.139358,
            30.257539
          ],
          [
            -99.137416,
            30.25722
          ],
          [
            -99.133014,
            30.256497
          ],
          [
            -99.128629,
            30.25579
          ],
          [
            -99.124705,
            30.255134
          ],
          [
            -99.122787,
            30.254814
          ],
          [
            -99.120406,
            30.254429
          ],
          [
            -99.117792,
            30.254009
          ],
          [
            -99.114853,
            30.253525
          ],
          [
            -99.114147,
            30.25339
          ],
          [
            -99.113825,
            30.253311
          ],
          [
            -99.113524,
            30.253231
          ],
          [
            -99.112613,
            30.252922
          ],
          [
            -99.111292,
            30.252437
          ],
          [
            -99.106528,
            30.250716
          ],
          [
            -99.102187,
            30.249144
          ],
          [
            -99.100694,
            30.248608
          ],
          [
            -99.100344,
            30.248494
          ],
          [
            -99.099819,
            30.248352
          ],
          [
            -99.099133,
            30.248211
          ],
          [
            -99.097689,
            30.247958
          ],
          [
            -99.097641,
            30.24795
          ],
          [
            -99.095398,
            30.247558
          ],
          [
            -99.094623,
            30.247435
          ],
          [
            -99.094254,
            30.247394
          ],
          [
            -99.093553,
            30.247363
          ],
          [
            -99.092885,
            30.24738
          ],
          [
            -99.092622,
            30.247403
          ],
          [
            -99.092337,
            30.247442
          ],
          [
            -99.091885,
            30.247522
          ],
          [
            -99.091457,
            30.247598
          ],
          [
            -99.091098,
            30.247674
          ],
          [
            -99.090904,
            30.247712
          ],
          [
            -99.087106,
            30.248447
          ],
          [
            -99.083125,
            30.249211
          ],
          [
            -99.082854,
            30.249256
          ],
          [
            -99.082616,
            30.249281
          ],
          [
            -99.082176,
            30.249286
          ],
          [
            -99.081922,
            30.249265
          ],
          [
            -99.081662,
            30.249231
          ],
          [
            -99.081325,
            30.249159
          ],
          [
            -99.075127,
            30.24747
          ],
          [
            -99.074674,
            30.247358
          ],
          [
            -99.074224,
            30.247261
          ],
          [
            -99.073688,
            30.247189
          ],
          [
            -99.073146,
            30.247137
          ],
          [
            -99.072505,
            30.247108
          ],
          [
            -99.071486,
            30.247043
          ],
          [
            -99.070946,
            30.247016
          ],
          [
            -99.070376,
            30.246991
          ],
          [
            -99.069413,
            30.246936
          ],
          [
            -99.068863,
            30.246884
          ],
          [
            -99.068342,
            30.246795
          ],
          [
            -99.067976,
            30.246722
          ],
          [
            -99.067571,
            30.246629
          ],
          [
            -99.067294,
            30.246552
          ],
          [
            -99.066895,
            30.246422
          ],
          [
            -99.06647,
            30.246273
          ],
          [
            -99.065984,
            30.246083
          ],
          [
            -99.065224,
            30.245787
          ],
          [
            -99.064652,
            30.245563
          ],
          [
            -99.064059,
            30.245364
          ],
          [
            -99.063388,
            30.245182
          ],
          [
            -99.062853,
            30.245072
          ],
          [
            -99.062416,
            30.245007
          ],
          [
            -99.061865,
            30.244951
          ],
          [
            -99.061071,
            30.24491
          ],
          [
            -99.060272,
            30.244869
          ],
          [
            -99.058916,
            30.24481
          ],
          [
            -99.058112,
            30.244796
          ],
          [
            -99.055834,
            30.244832
          ],
          [
            -99.055307,
            30.244836
          ],
          [
            -99.054931,
            30.244826
          ],
          [
            -99.053668,
            30.244721
          ],
          [
            -99.053079,
            30.244676
          ],
          [
            -99.051825,
            30.244566
          ],
          [
            -99.051157,
            30.244468
          ],
          [
            -99.050853,
            30.244411
          ],
          [
            -99.050466,
            30.244326
          ],
          [
            -99.049751,
            30.244147
          ],
          [
            -99.048076,
            30.243728
          ],
          [
            -99.045439,
            30.243061
          ],
          [
            -99.045119,
            30.242994
          ],
          [
            -99.044898,
            30.242967
          ],
          [
            -99.044544,
            30.242957
          ],
          [
            -99.043539,
            30.242981
          ],
          [
            -99.043037,
            30.243011
          ],
          [
            -99.041116,
            30.243062
          ],
          [
            -99.03965,
            30.243096
          ],
          [
            -99.039497,
            30.243103
          ],
          [
            -99.037927,
            30.243144
          ],
          [
            -99.032216,
            30.2433
          ],
          [
            -99.030424,
            30.243339
          ],
          [
            -99.027314,
            30.243427
          ],
          [
            -99.025695,
            30.243473
          ],
          [
            -99.024978,
            30.243489
          ],
          [
            -99.02432,
            30.243504
          ],
          [
            -99.023939,
            30.243512
          ],
          [
            -99.023434,
            30.243507
          ],
          [
            -99.022986,
            30.243475
          ],
          [
            -99.022535,
            30.243423
          ],
          [
            -99.020291,
            30.243122
          ],
          [
            -99.019944,
            30.243073
          ],
          [
            -99.019508,
            30.243027
          ],
          [
            -99.015102,
            30.242713
          ],
          [
            -99.014976,
            30.242703
          ],
          [
            -99.013858,
            30.242617
          ],
          [
            -99.009319,
            30.242279
          ],
          [
            -99.004477,
            30.241923
          ],
          [
            -99.002859,
            30.241805
          ],
          [
            -99.002084,
            30.241744
          ],
          [
            -99.001387,
            30.241639
          ],
          [
            -99.000944,
            30.241553
          ],
          [
            -99.000569,
            30.241458
          ],
          [
            -99.000237,
            30.241363
          ],
          [
            -98.997816,
            30.240553
          ],
          [
            -98.997436,
            30.240446
          ],
          [
            -98.997294,
            30.240407
          ],
          [
            -98.997017,
            30.240372
          ],
          [
            -98.99676,
            30.240351
          ],
          [
            -98.9965,
            30.240355
          ],
          [
            -98.996242,
            30.240368
          ],
          [
            -98.995912,
            30.240424
          ],
          [
            -98.994223,
            30.24086
          ],
          [
            -98.992997,
            30.241178
          ],
          [
            -98.992458,
            30.24126
          ],
          [
            -98.992163,
            30.241304
          ],
          [
            -98.991358,
            30.241357
          ],
          [
            -98.990621,
            30.241377
          ],
          [
            -98.986589,
            30.241423
          ],
          [
            -98.984937,
            30.241442
          ],
          [
            -98.982434,
            30.241463
          ],
          [
            -98.981838,
            30.241473
          ],
          [
            -98.978692,
            30.241544
          ],
          [
            -98.976345,
            30.241573
          ],
          [
            -98.976103,
            30.241576
          ],
          [
            -98.973913,
            30.241603
          ],
          [
            -98.973787,
            30.241604
          ],
          [
            -98.973429,
            30.241609
          ],
          [
            -98.972535,
            30.241622
          ],
          [
            -98.971761,
            30.241634
          ],
          [
            -98.971456,
            30.241638
          ],
          [
            -98.971162,
            30.241654
          ],
          [
            -98.970588,
            30.241688
          ],
          [
            -98.969767,
            30.241712
          ],
          [
            -98.969628,
            30.241711
          ],
          [
            -98.969226,
            30.241709
          ],
          [
            -98.968888,
            30.241727
          ],
          [
            -98.968243,
            30.24173
          ],
          [
            -98.966951,
            30.24174
          ],
          [
            -98.965288,
            30.24176
          ],
          [
            -98.964042,
            30.241776
          ],
          [
            -98.962816,
            30.241778
          ],
          [
            -98.961961,
            30.241779
          ],
          [
            -98.960603,
            30.241744
          ],
          [
            -98.960447,
            30.241741
          ],
          [
            -98.957622,
            30.241651
          ],
          [
            -98.956984,
            30.241643
          ],
          [
            -98.956533,
            30.241638
          ],
          [
            -98.956233,
            30.241644
          ],
          [
            -98.95619,
            30.241646
          ],
          [
            -98.956113,
            30.241649
          ],
          [
            -98.955947,
            30.241682
          ],
          [
            -98.95574,
            30.241733
          ],
          [
            -98.955562,
            30.241796
          ],
          [
            -98.955393,
            30.241882
          ],
          [
            -98.955244,
            30.241981
          ],
          [
            -98.955161,
            30.242033
          ],
          [
            -98.955085,
            30.242093
          ],
          [
            -98.954976,
            30.242195
          ],
          [
            -98.954861,
            30.242317
          ],
          [
            -98.954769,
            30.24245
          ],
          [
            -98.954692,
            30.242592
          ],
          [
            -98.954625,
            30.242743
          ],
          [
            -98.954571,
            30.242908
          ],
          [
            -98.954549,
            30.243071
          ],
          [
            -98.954541,
            30.243418
          ],
          [
            -98.954541,
            30.243956
          ],
          [
            -98.9545,
            30.244165
          ],
          [
            -98.954403,
            30.244446
          ],
          [
            -98.954295,
            30.244647
          ],
          [
            -98.954206,
            30.244776
          ],
          [
            -98.953986,
            30.245012
          ],
          [
            -98.953712,
            30.245229
          ],
          [
            -98.953564,
            30.245318
          ],
          [
            -98.953403,
            30.245392
          ],
          [
            -98.95323,
            30.245468
          ],
          [
            -98.952991,
            30.245537
          ],
          [
            -98.952809,
            30.245574
          ],
          [
            -98.952632,
            30.245596
          ],
          [
            -98.951339,
            30.245749
          ],
          [
            -98.950203,
            30.245883
          ],
          [
            -98.949251,
            30.245984
          ],
          [
            -98.946827,
            30.246257
          ],
          [
            -98.946351,
            30.246325
          ],
          [
            -98.945889,
            30.246413
          ],
          [
            -98.945504,
            30.246502
          ],
          [
            -98.945094,
            30.246617
          ],
          [
            -98.944237,
            30.246911
          ],
          [
            -98.943835,
            30.247081
          ],
          [
            -98.942608,
            30.247668
          ],
          [
            -98.942347,
            30.247781
          ],
          [
            -98.942026,
            30.247892
          ],
          [
            -98.941636,
            30.248004
          ],
          [
            -98.941314,
            30.248072
          ],
          [
            -98.941022,
            30.248132
          ],
          [
            -98.940448,
            30.248189
          ],
          [
            -98.93997,
            30.248209
          ],
          [
            -98.936048,
            30.248187
          ],
          [
            -98.93325,
            30.248191
          ],
          [
            -98.932843,
            30.248192
          ],
          [
            -98.932056,
            30.248199
          ],
          [
            -98.931014,
            30.248247
          ],
          [
            -98.930134,
            30.248304
          ],
          [
            -98.929041,
            30.248377
          ],
          [
            -98.926723,
            30.24853
          ],
          [
            -98.925804,
            30.248581
          ],
          [
            -98.923546,
            30.248727
          ],
          [
            -98.92252,
            30.248801
          ],
          [
            -98.921183,
            30.24885
          ],
          [
            -98.920818,
            30.248851
          ],
          [
            -98.920521,
            30.248855
          ],
          [
            -98.918885,
            30.24888
          ],
          [
            -98.918246,
            30.24889
          ],
          [
            -98.917823,
            30.248897
          ],
          [
            -98.917458,
            30.248921
          ],
          [
            -98.917283,
            30.248949
          ],
          [
            -98.917118,
            30.248986
          ],
          [
            -98.916958,
            30.249032
          ],
          [
            -98.916793,
            30.249088
          ],
          [
            -98.916502,
            30.249224
          ],
          [
            -98.916324,
            30.249337
          ],
          [
            -98.91617,
            30.249452
          ],
          [
            -98.915949,
            30.249658
          ],
          [
            -98.915752,
            30.249894
          ],
          [
            -98.915288,
            30.250596
          ],
          [
            -98.915121,
            30.250823
          ],
          [
            -98.914882,
            30.25107
          ],
          [
            -98.914625,
            30.251285
          ],
          [
            -98.914464,
            30.251382
          ],
          [
            -98.914294,
            30.251475
          ],
          [
            -98.914141,
            30.251545
          ],
          [
            -98.913991,
            30.251609
          ],
          [
            -98.913804,
            30.251664
          ],
          [
            -98.913556,
            30.251724
          ],
          [
            -98.91345,
            30.251745
          ],
          [
            -98.913286,
            30.25176
          ],
          [
            -98.912952,
            30.251764
          ],
          [
            -98.911857,
            30.251766
          ],
          [
            -98.908163,
            30.251741
          ],
          [
            -98.907855,
            30.251739
          ],
          [
            -98.906903,
            30.251725
          ],
          [
            -98.906373,
            30.251717
          ],
          [
            -98.904516,
            30.251716
          ],
          [
            -98.903943,
            30.25172
          ],
          [
            -98.903906,
            30.25172
          ],
          [
            -98.901587,
            30.251724
          ],
          [
            -98.900302,
            30.251727
          ],
          [
            -98.899716,
            30.251723
          ],
          [
            -98.899232,
            30.251717
          ],
          [
            -98.898909,
            30.25171
          ],
          [
            -98.898751,
            30.251707
          ],
          [
            -98.898323,
            30.251691
          ],
          [
            -98.898108,
            30.251675
          ],
          [
            -98.897878,
            30.251661
          ],
          [
            -98.897436,
            30.251631
          ],
          [
            -98.897209,
            30.251616
          ],
          [
            -98.896889,
            30.251595
          ],
          [
            -98.896662,
            30.251579
          ],
          [
            -98.896554,
            30.251571
          ],
          [
            -98.895662,
            30.251505
          ],
          [
            -98.895611,
            30.251501
          ],
          [
            -98.895319,
            30.251479
          ],
          [
            -98.89496,
            30.251448
          ],
          [
            -98.894354,
            30.251394
          ],
          [
            -98.893707,
            30.251358
          ],
          [
            -98.893031,
            30.251321
          ],
          [
            -98.888898,
            30.251034
          ],
          [
            -98.888538,
            30.25104
          ],
          [
            -98.888439,
            30.251051
          ],
          [
            -98.888224,
            30.251074
          ],
          [
            -98.887878,
            30.251144
          ],
          [
            -98.887517,
            30.25126
          ],
          [
            -98.88726,
            30.25137
          ],
          [
            -98.886994,
            30.251509
          ],
          [
            -98.885251,
            30.252706
          ],
          [
            -98.883838,
            30.253671
          ],
          [
            -98.883224,
            30.25409
          ],
          [
            -98.882721,
            30.254434
          ],
          [
            -98.881487,
            30.255265
          ],
          [
            -98.881463,
            30.255282
          ],
          [
            -98.881439,
            30.255298
          ],
          [
            -98.880621,
            30.255861
          ],
          [
            -98.880282,
            30.256014
          ],
          [
            -98.880039,
            30.256091
          ],
          [
            -98.879729,
            30.256159
          ],
          [
            -98.879471,
            30.256183
          ],
          [
            -98.879234,
            30.256181
          ],
          [
            -98.878519,
            30.256165
          ],
          [
            -98.878084,
            30.256146
          ],
          [
            -98.877812,
            30.256132
          ],
          [
            -98.877439,
            30.256112
          ],
          [
            -98.87715,
            30.256117
          ],
          [
            -98.876645,
            30.256128
          ],
          [
            -98.876022,
            30.256131
          ],
          [
            -98.875381,
            30.256121
          ],
          [
            -98.874307,
            30.256105
          ],
          [
            -98.873207,
            30.256088
          ],
          [
            -98.872877,
            30.256083
          ],
          [
            -98.871671,
            30.256078
          ],
          [
            -98.870326,
            30.256061
          ],
          [
            -98.869522,
            30.25606
          ],
          [
            -98.867479,
            30.256059
          ],
          [
            -98.864841,
            30.2561
          ],
          [
            -98.862122,
            30.256066
          ],
          [
            -98.86133,
            30.256059
          ],
          [
            -98.860604,
            30.256075
          ],
          [
            -98.858071,
            30.256119
          ],
          [
            -98.856101,
            30.256143
          ],
          [
            -98.855572,
            30.25615
          ],
          [
            -98.855368,
            30.256139
          ],
          [
            -98.855307,
            30.256128
          ],
          [
            -98.8552,
            30.256108
          ],
          [
            -98.855089,
            30.256088
          ],
          [
            -98.854931,
            30.256036
          ],
          [
            -98.854723,
            30.255916
          ],
          [
            -98.854495,
            30.255759
          ],
          [
            -98.852831,
            30.254344
          ],
          [
            -98.852744,
            30.254266
          ],
          [
            -98.85247,
            30.254037
          ],
          [
            -98.85238,
            30.253978
          ],
          [
            -98.852234,
            30.253882
          ],
          [
            -98.852031,
            30.253799
          ],
          [
            -98.851786,
            30.253737
          ],
          [
            -98.851523,
            30.253717
          ],
          [
            -98.85147,
            30.253717
          ],
          [
            -98.851036,
            30.253717
          ],
          [
            -98.849784,
            30.253717
          ],
          [
            -98.849443,
            30.253718
          ],
          [
            -98.849126,
            30.253718
          ],
          [
            -98.848988,
            30.253718
          ],
          [
            -98.848955,
            30.25362
          ],
          [
            -98.848534,
            30.25238
          ],
          [
            -98.848024,
            30.250878
          ],
          [
            -98.847871,
            30.250478
          ],
          [
            -98.847735,
            30.250009
          ],
          [
            -98.847669,
            30.249779
          ],
          [
            -98.847604,
            30.249557
          ],
          [
            -98.847588,
            30.249499
          ],
          [
            -98.847516,
            30.24925
          ],
          [
            -98.847268,
            30.248543
          ],
          [
            -98.847131,
            30.24812
          ],
          [
            -98.847021,
            30.247759
          ],
          [
            -98.846997,
            30.247679
          ],
          [
            -98.846986,
            30.247643
          ],
          [
            -98.846971,
            30.247597
          ],
          [
            -98.846726,
            30.246857
          ],
          [
            -98.846596,
            30.246537
          ],
          [
            -98.846441,
            30.246221
          ],
          [
            -98.84627,
            30.245948
          ],
          [
            -98.846065,
            30.245656
          ],
          [
            -98.845839,
            30.245394
          ],
          [
            -98.845177,
            30.244668
          ],
          [
            -98.844161,
            30.243523
          ],
          [
            -98.843375,
            30.242637
          ],
          [
            -98.843087,
            30.242304
          ],
          [
            -98.842463,
            30.241581
          ],
          [
            -98.841873,
            30.240997
          ],
          [
            -98.841176,
            30.24043
          ],
          [
            -98.841146,
            30.240411
          ],
          [
            -98.840134,
            30.239767
          ],
          [
            -98.839438,
            30.239325
          ],
          [
            -98.838623,
            30.238807
          ],
          [
            -98.837748,
            30.238251
          ],
          [
            -98.834885,
            30.236485
          ],
          [
            -98.833132,
            30.235379
          ],
          [
            -98.832812,
            30.235176
          ],
          [
            -98.830529,
            30.233732
          ],
          [
            -98.83008,
            30.233448
          ],
          [
            -98.829514,
            30.23309
          ],
          [
            -98.827619,
            30.231834
          ],
          [
            -98.827261,
            30.231597
          ],
          [
            -98.822954,
            30.22875
          ],
          [
            -98.822511,
            30.228495
          ],
          [
            -98.822242,
            30.228349
          ],
          [
            -98.821766,
            30.228123
          ],
          [
            -98.821224,
            30.227924
          ],
          [
            -98.820686,
            30.227764
          ],
          [
            -98.819895,
            30.227582
          ],
          [
            -98.817182,
            30.226992
          ],
          [
            -98.8164,
            30.226821
          ],
          [
            -98.813888,
            30.22627
          ],
          [
            -98.812947,
            30.226064
          ],
          [
            -98.810901,
            30.225631
          ],
          [
            -98.810109,
            30.225501
          ],
          [
            -98.809247,
            30.225424
          ],
          [
            -98.808321,
            30.225391
          ],
          [
            -98.807459,
            30.225363
          ],
          [
            -98.806929,
            30.225345
          ],
          [
            -98.804801,
            30.225276
          ],
          [
            -98.804485,
            30.225265
          ],
          [
            -98.804084,
            30.225252
          ],
          [
            -98.803547,
            30.225237
          ],
          [
            -98.800425,
            30.225144
          ],
          [
            -98.798872,
            30.225099
          ],
          [
            -98.798468,
            30.225083
          ],
          [
            -98.798165,
            30.225072
          ],
          [
            -98.796512,
            30.225007
          ],
          [
            -98.796279,
            30.22499
          ],
          [
            -98.795407,
            30.224914
          ],
          [
            -98.793572,
            30.224737
          ],
          [
            -98.790566,
            30.224417
          ],
          [
            -98.790248,
            30.224383
          ],
          [
            -98.790115,
            30.224369
          ],
          [
            -98.785896,
            30.223879
          ],
          [
            -98.781416,
            30.223366
          ],
          [
            -98.778305,
            30.223023
          ],
          [
            -98.777146,
            30.2228
          ],
          [
            -98.776181,
            30.222587
          ],
          [
            -98.772705,
            30.221864
          ],
          [
            -98.770741,
            30.22166
          ],
          [
            -98.767902,
            30.221433
          ],
          [
            -98.767779,
            30.221423
          ],
          [
            -98.766608,
            30.22133
          ],
          [
            -98.766568,
            30.221326
          ],
          [
            -98.763272,
            30.221054
          ],
          [
            -98.761988,
            30.220949
          ],
          [
            -98.761648,
            30.220917
          ],
          [
            -98.760034,
            30.220807
          ],
          [
            -98.759079,
            30.220751
          ],
          [
            -98.758528,
            30.220761
          ],
          [
            -98.757053,
            30.220786
          ],
          [
            -98.755852,
            30.220806
          ],
          [
            -98.755259,
            30.220816
          ],
          [
            -98.754747,
            30.220824
          ],
          [
            -98.754616,
            30.220826
          ],
          [
            -98.752848,
            30.220886
          ],
          [
            -98.750303,
            30.220974
          ],
          [
            -98.749388,
            30.221004
          ],
          [
            -98.749207,
            30.22101
          ],
          [
            -98.748908,
            30.22102
          ],
          [
            -98.74812,
            30.221033
          ],
          [
            -98.747728,
            30.221039
          ],
          [
            -98.747329,
            30.221079
          ],
          [
            -98.745479,
            30.221138
          ],
          [
            -98.745086,
            30.22115
          ],
          [
            -98.743994,
            30.221271
          ],
          [
            -98.743039,
            30.22153
          ],
          [
            -98.741976,
            30.221799
          ],
          [
            -98.740507,
            30.22217
          ],
          [
            -98.737503,
            30.222851
          ],
          [
            -98.73741,
            30.222872
          ],
          [
            -98.735409,
            30.22327
          ],
          [
            -98.734521,
            30.223449
          ],
          [
            -98.73319,
            30.22357
          ],
          [
            -98.732064,
            30.223568
          ],
          [
            -98.731335,
            30.223567
          ],
          [
            -98.729891,
            30.223565
          ],
          [
            -98.728533,
            30.223563
          ],
          [
            -98.728406,
            30.223563
          ],
          [
            -98.727483,
            30.223494
          ],
          [
            -98.727138,
            30.223467
          ],
          [
            -98.726984,
            30.223455
          ],
          [
            -98.726201,
            30.223382
          ],
          [
            -98.72612,
            30.223375
          ],
          [
            -98.726012,
            30.223359
          ],
          [
            -98.725943,
            30.223347
          ],
          [
            -98.724757,
            30.223215
          ],
          [
            -98.724532,
            30.22319
          ],
          [
            -98.72391,
            30.223125
          ],
          [
            -98.723173,
            30.223064
          ],
          [
            -98.723127,
            30.22306
          ],
          [
            -98.721852,
            30.222979
          ],
          [
            -98.721807,
            30.222976
          ],
          [
            -98.720617,
            30.222961
          ],
          [
            -98.719573,
            30.222948
          ],
          [
            -98.718964,
            30.222939
          ],
          [
            -98.718277,
            30.222902
          ],
          [
            -98.717589,
            30.22281
          ],
          [
            -98.717451,
            30.222791
          ],
          [
            -98.717056,
            30.222694
          ],
          [
            -98.715906,
            30.222411
          ],
          [
            -98.71578,
            30.222368
          ],
          [
            -98.713299,
            30.221734
          ],
          [
            -98.710779,
            30.22109
          ],
          [
            -98.709812,
            30.220835
          ],
          [
            -98.709364,
            30.220739
          ],
          [
            -98.708864,
            30.22066
          ],
          [
            -98.70816,
            30.220575
          ],
          [
            -98.707226,
            30.220585
          ],
          [
            -98.706626,
            30.220612
          ],
          [
            -98.705757,
            30.220696
          ],
          [
            -98.704327,
            30.220796
          ],
          [
            -98.701916,
            30.220965
          ],
          [
            -98.700466,
            30.221064
          ],
          [
            -98.698794,
            30.221178
          ],
          [
            -98.69801,
            30.221187
          ],
          [
            -98.695757,
            30.221132
          ],
          [
            -98.69476,
            30.221196
          ],
          [
            -98.69388,
            30.22141
          ],
          [
            -98.693379,
            30.221582
          ],
          [
            -98.692989,
            30.221716
          ],
          [
            -98.690393,
            30.222819
          ],
          [
            -98.685273,
            30.225053
          ],
          [
            -98.684107,
            30.225574
          ],
          [
            -98.683704,
            30.225778
          ],
          [
            -98.683127,
            30.22612
          ],
          [
            -98.682569,
            30.226538
          ],
          [
            -98.682305,
            30.226758
          ],
          [
            -98.681784,
            30.227192
          ],
          [
            -98.680706,
            30.228175
          ],
          [
            -98.679882,
            30.228937
          ],
          [
            -98.679693,
            30.22912
          ],
          [
            -98.679181,
            30.229697
          ],
          [
            -98.67892,
            30.230093
          ],
          [
            -98.678185,
            30.23121
          ],
          [
            -98.677515,
            30.232227
          ],
          [
            -98.677323,
            30.232484
          ],
          [
            -98.677043,
            30.232857
          ],
          [
            -98.676411,
            30.233515
          ],
          [
            -98.67563,
            30.234175
          ],
          [
            -98.674808,
            30.234719
          ],
          [
            -98.674053,
            30.23512
          ],
          [
            -98.673023,
            30.235528
          ],
          [
            -98.671786,
            30.235853
          ],
          [
            -98.671185,
            30.235924
          ],
          [
            -98.670625,
            30.23599
          ],
          [
            -98.669051,
            30.235999
          ],
          [
            -98.667689,
            30.235953
          ],
          [
            -98.667345,
            30.235953
          ],
          [
            -98.666927,
            30.235934
          ],
          [
            -98.66539,
            30.235864
          ],
          [
            -98.665331,
            30.235863
          ],
          [
            -98.664712,
            30.235852
          ],
          [
            -98.66285,
            30.23579
          ],
          [
            -98.660449,
            30.235741
          ],
          [
            -98.659269,
            30.235695
          ],
          [
            -98.657776,
            30.235634
          ],
          [
            -98.657209,
            30.235611
          ],
          [
            -98.657139,
            30.23561
          ],
          [
            -98.656297,
            30.235593
          ],
          [
            -98.65529,
            30.23555
          ],
          [
            -98.653175,
            30.235459
          ],
          [
            -98.652172,
            30.23542
          ],
          [
            -98.65097,
            30.235384
          ],
          [
            -98.649166,
            30.235319
          ],
          [
            -98.648195,
            30.235284
          ],
          [
            -98.647555,
            30.235261
          ],
          [
            -98.647231,
            30.23525
          ],
          [
            -98.643277,
            30.235118
          ],
          [
            -98.642898,
            30.235103
          ],
          [
            -98.642805,
            30.2351
          ],
          [
            -98.641529,
            30.235053
          ],
          [
            -98.640431,
            30.235011
          ],
          [
            -98.637881,
            30.234914
          ],
          [
            -98.637119,
            30.234859
          ],
          [
            -98.636738,
            30.234868
          ],
          [
            -98.636558,
            30.234866
          ],
          [
            -98.634077,
            30.234767
          ],
          [
            -98.632184,
            30.234692
          ],
          [
            -98.629496,
            30.234627
          ],
          [
            -98.62913,
            30.234619
          ],
          [
            -98.628664,
            30.234606
          ],
          [
            -98.628238,
            30.234589
          ],
          [
            -98.627935,
            30.234578
          ],
          [
            -98.626111,
            30.234506
          ],
          [
            -98.625543,
            30.234488
          ],
          [
            -98.625328,
            30.234488
          ],
          [
            -98.624899,
            30.234479
          ],
          [
            -98.624376,
            30.234461
          ],
          [
            -98.621584,
            30.234367
          ],
          [
            -98.617533,
            30.234221
          ],
          [
            -98.616664,
            30.234239
          ],
          [
            -98.615715,
            30.234284
          ],
          [
            -98.614604,
            30.234416
          ],
          [
            -98.613384,
            30.23463
          ],
          [
            -98.611934,
            30.234948
          ],
          [
            -98.611104,
            30.23513
          ],
          [
            -98.610657,
            30.235216
          ],
          [
            -98.609304,
            30.235471
          ],
          [
            -98.60817,
            30.235681
          ],
          [
            -98.607529,
            30.235823
          ],
          [
            -98.599294,
            30.237428
          ],
          [
            -98.597961,
            30.237701
          ],
          [
            -98.595804,
            30.238142
          ],
          [
            -98.592953,
            30.238624
          ],
          [
            -98.592304,
            30.238739
          ],
          [
            -98.587909,
            30.239523
          ],
          [
            -98.587858,
            30.239532
          ],
          [
            -98.586097,
            30.239856
          ],
          [
            -98.584423,
            30.240149
          ],
          [
            -98.584334,
            30.240165
          ],
          [
            -98.584251,
            30.24018
          ],
          [
            -98.581137,
            30.24073
          ],
          [
            -98.58072,
            30.240806
          ],
          [
            -98.580086,
            30.240922
          ],
          [
            -98.5766,
            30.241545
          ],
          [
            -98.576225,
            30.241613
          ],
          [
            -98.575661,
            30.241713
          ],
          [
            -98.574764,
            30.241872
          ],
          [
            -98.571867,
            30.242387
          ],
          [
            -98.571591,
            30.242434
          ],
          [
            -98.570346,
            30.242646
          ],
          [
            -98.569971,
            30.242709
          ],
          [
            -98.569485,
            30.242796
          ],
          [
            -98.567805,
            30.243081
          ],
          [
            -98.566748,
            30.243254
          ],
          [
            -98.566073,
            30.243347
          ],
          [
            -98.565957,
            30.243359
          ],
          [
            -98.565394,
            30.243418
          ],
          [
            -98.565375,
            30.243419
          ],
          [
            -98.564712,
            30.243469
          ],
          [
            -98.56256,
            30.24357
          ],
          [
            -98.561795,
            30.243606
          ],
          [
            -98.561267,
            30.24363
          ],
          [
            -98.560966,
            30.243645
          ],
          [
            -98.560472,
            30.243703
          ],
          [
            -98.559982,
            30.243781
          ],
          [
            -98.559497,
            30.24388
          ],
          [
            -98.559019,
            30.243999
          ],
          [
            -98.558547,
            30.244137
          ],
          [
            -98.557499,
            30.244467
          ],
          [
            -98.55678,
            30.244693
          ],
          [
            -98.555185,
            30.245195
          ],
          [
            -98.554262,
            30.245491
          ],
          [
            -98.553843,
            30.245604
          ],
          [
            -98.553419,
            30.245698
          ],
          [
            -98.55299,
            30.245775
          ],
          [
            -98.552784,
            30.245802
          ],
          [
            -98.552557,
            30.245832
          ],
          [
            -98.552121,
            30.245872
          ],
          [
            -98.551683,
            30.245893
          ],
          [
            -98.551474,
            30.245894
          ],
          [
            -98.551245,
            30.245895
          ],
          [
            -98.550686,
            30.245877
          ],
          [
            -98.547918,
            30.245788
          ],
          [
            -98.546343,
            30.245727
          ],
          [
            -98.544131,
            30.245651
          ],
          [
            -98.542675,
            30.245602
          ],
          [
            -98.541682,
            30.245568
          ],
          [
            -98.541247,
            30.24557
          ],
          [
            -98.540813,
            30.24559
          ],
          [
            -98.54038,
            30.245628
          ],
          [
            -98.540196,
            30.24565
          ],
          [
            -98.539925,
            30.245702
          ],
          [
            -98.539528,
            30.245798
          ],
          [
            -98.539171,
            30.245903
          ],
          [
            -98.538821,
            30.246023
          ],
          [
            -98.538676,
            30.246078
          ],
          [
            -98.538312,
            30.246233
          ],
          [
            -98.537983,
            30.246392
          ],
          [
            -98.537664,
            30.246565
          ],
          [
            -98.537356,
            30.246752
          ],
          [
            -98.537059,
            30.246954
          ],
          [
            -98.536776,
            30.247168
          ],
          [
            -98.536684,
            30.247243
          ],
          [
            -98.536638,
            30.247275
          ],
          [
            -98.535616,
            30.247977
          ],
          [
            -98.534548,
            30.248711
          ],
          [
            -98.532162,
            30.250352
          ],
          [
            -98.531392,
            30.250862
          ],
          [
            -98.530792,
            30.25126
          ],
          [
            -98.530523,
            30.251438
          ],
          [
            -98.52958,
            30.252047
          ],
          [
            -98.529219,
            30.252271
          ],
          [
            -98.52877,
            30.252576
          ],
          [
            -98.527988,
            30.253073
          ],
          [
            -98.527834,
            30.253171
          ],
          [
            -98.52756,
            30.253303
          ],
          [
            -98.527253,
            30.253428
          ],
          [
            -98.526928,
            30.253539
          ],
          [
            -98.526629,
            30.253621
          ],
          [
            -98.526326,
            30.253687
          ],
          [
            -98.526017,
            30.253737
          ],
          [
            -98.52572,
            30.253763
          ],
          [
            -98.525394,
            30.253786
          ],
          [
            -98.525082,
            30.253786
          ],
          [
            -98.524769,
            30.253769
          ],
          [
            -98.52377,
            30.253772
          ],
          [
            -98.523136,
            30.253774
          ],
          [
            -98.522634,
            30.253778
          ],
          [
            -98.520537,
            30.253796
          ],
          [
            -98.519758,
            30.253803
          ],
          [
            -98.517568,
            30.253821
          ],
          [
            -98.516063,
            30.253836
          ],
          [
            -98.515835,
            30.253837
          ],
          [
            -98.515093,
            30.253842
          ],
          [
            -98.514041,
            30.253848
          ],
          [
            -98.513878,
            30.253849
          ],
          [
            -98.513862,
            30.253849
          ],
          [
            -98.512513,
            30.253858
          ],
          [
            -98.510224,
            30.253872
          ],
          [
            -98.509158,
            30.253879
          ],
          [
            -98.506302,
            30.253904
          ],
          [
            -98.504315,
            30.253922
          ],
          [
            -98.503274,
            30.253931
          ],
          [
            -98.50006,
            30.253956
          ],
          [
            -98.498555,
            30.253967
          ],
          [
            -98.497888,
            30.253973
          ],
          [
            -98.497605,
            30.253975
          ],
          [
            -98.497555,
            30.253975
          ],
          [
            -98.497116,
            30.253995
          ],
          [
            -98.496679,
            30.254035
          ],
          [
            -98.496245,
            30.254092
          ],
          [
            -98.495815,
            30.254168
          ],
          [
            -98.495389,
            30.254262
          ],
          [
            -98.494969,
            30.254374
          ],
          [
            -98.494555,
            30.254502
          ],
          [
            -98.491503,
            30.255616
          ],
          [
            -98.490774,
            30.255881
          ],
          [
            -98.487317,
            30.25718
          ],
          [
            -98.486665,
            30.257429
          ],
          [
            -98.483524,
            30.258547
          ],
          [
            -98.480621,
            30.259628
          ],
          [
            -98.478445,
            30.260424
          ],
          [
            -98.47798,
            30.260594
          ],
          [
            -98.474521,
            30.261865
          ],
          [
            -98.473198,
            30.262349
          ],
          [
            -98.472171,
            30.262724
          ],
          [
            -98.472135,
            30.262738
          ],
          [
            -98.47113,
            30.263112
          ],
          [
            -98.470765,
            30.263247
          ],
          [
            -98.468616,
            30.264036
          ],
          [
            -98.46762,
            30.264402
          ],
          [
            -98.466134,
            30.264948
          ],
          [
            -98.465835,
            30.265058
          ],
          [
            -98.462549,
            30.266265
          ],
          [
            -98.460693,
            30.266953
          ],
          [
            -98.459275,
            30.267472
          ],
          [
            -98.458719,
            30.267675
          ],
          [
            -98.456156,
            30.268623
          ],
          [
            -98.456023,
            30.268672
          ],
          [
            -98.455754,
            30.268771
          ],
          [
            -98.455454,
            30.268866
          ],
          [
            -98.454934,
            30.26903
          ],
          [
            -98.45429,
            30.269178
          ],
          [
            -98.453645,
            30.269304
          ],
          [
            -98.452346,
            30.269539
          ],
          [
            -98.449287,
            30.270094
          ],
          [
            -98.448598,
            30.270217
          ],
          [
            -98.446844,
            30.270531
          ],
          [
            -98.443914,
            30.271062
          ],
          [
            -98.443502,
            30.271123
          ],
          [
            -98.443324,
            30.271144
          ],
          [
            -98.442891,
            30.27118
          ],
          [
            -98.442457,
            30.271195
          ],
          [
            -98.439764,
            30.271222
          ],
          [
            -98.439324,
            30.271227
          ],
          [
            -98.438444,
            30.271236
          ],
          [
            -98.437883,
            30.271241
          ],
          [
            -98.437587,
            30.271244
          ],
          [
            -98.436938,
            30.271251
          ],
          [
            -98.434459,
            30.27128
          ],
          [
            -98.433682,
            30.27129
          ],
          [
            -98.433575,
            30.271291
          ],
          [
            -98.43341,
            30.271288
          ],
          [
            -98.432883,
            30.271277
          ],
          [
            -98.43227,
            30.271254
          ],
          [
            -98.430498,
            30.271176
          ],
          [
            -98.429755,
            30.271145
          ],
          [
            -98.428193,
            30.27108
          ],
          [
            -98.427758,
            30.271082
          ],
          [
            -98.427325,
            30.271105
          ],
          [
            -98.426893,
            30.271149
          ],
          [
            -98.426647,
            30.271187
          ],
          [
            -98.426279,
            30.271263
          ],
          [
            -98.425918,
            30.27136
          ],
          [
            -98.425909,
            30.271363
          ],
          [
            -98.425564,
            30.271475
          ],
          [
            -98.425292,
            30.271581
          ],
          [
            -98.425219,
            30.271609
          ],
          [
            -98.424884,
            30.271762
          ],
          [
            -98.424613,
            30.271902
          ],
          [
            -98.424344,
            30.272069
          ],
          [
            -98.424295,
            30.2721
          ],
          [
            -98.424123,
            30.272206
          ],
          [
            -98.423596,
            30.27256
          ],
          [
            -98.422527,
            30.273298
          ],
          [
            -98.422114,
            30.273579
          ],
          [
            -98.421432,
            30.274042
          ],
          [
            -98.420927,
            30.274408
          ],
          [
            -98.420873,
            30.274447
          ],
          [
            -98.419658,
            30.275326
          ],
          [
            -98.419459,
            30.275465
          ],
          [
            -98.419245,
            30.275605
          ],
          [
            -98.418974,
            30.275774
          ],
          [
            -98.418668,
            30.275949
          ],
          [
            -98.418278,
            30.276179
          ],
          [
            -98.418122,
            30.276269
          ],
          [
            -98.417966,
            30.276345
          ],
          [
            -98.417783,
            30.276425
          ],
          [
            -98.417581,
            30.276497
          ],
          [
            -98.417423,
            30.276542
          ],
          [
            -98.417285,
            30.276574
          ],
          [
            -98.417178,
            30.276594
          ],
          [
            -98.417147,
            30.2766
          ],
          [
            -98.417039,
            30.276621
          ],
          [
            -98.416879,
            30.276642
          ],
          [
            -98.416741,
            30.27665
          ],
          [
            -98.416571,
            30.276655
          ],
          [
            -98.416426,
            30.276657
          ],
          [
            -98.415338,
            30.276672
          ],
          [
            -98.414226,
            30.276689
          ],
          [
            -98.413164,
            30.2767
          ],
          [
            -98.411993,
            30.276713
          ],
          [
            -98.411925,
            30.276714
          ],
          [
            -98.411473,
            30.276722
          ],
          [
            -98.410888,
            30.276731
          ],
          [
            -98.409793,
            30.27675
          ],
          [
            -98.409798,
            30.277003
          ]
        ]
      }
    }
  ]
}