{
  "type": "FeatureCollection",
  "features": [
    {
      "type": "Feature",
      "properties": {
        "route": "Round Top & Fayetteville Country Lane",
        "category": "Savannah & Prairie Sweeps",
        "color": "#27ae60",
        "waypoints": [
          "Fayetteville",
          "Round Top",
          "Shelby"
        ],
        "via": "FM 1291 -> Round Top -> FM 2503 -> Shelby",
        "distance_mi": 28.3,
        "source": "road-snapped"
      },
      "geometry": {
        "type": "LineString",
        "coordinates": [
          [
            -96.677977,
            29.904022
          ],
          [
            -96.678222,
            29.904217
          ],
          [
            -96.678669,
            29.904571
          ],
          [
            -96.679318,
            29.905099
          ],
          [
            -96.679383,
            29.905142
          ],
          [
            -96.679506,
            29.905195
          ],
          [
            -96.679603,
            29.905233
          ],
          [
            -96.679682,
            29.90525
          ],
          [
            -96.679757,
            29.905255
          ],
          [
            -96.68032,
            29.905239
          ],
          [
            -96.680775,
            29.905249
          ],
          [
            -96.681637,
            29.905251
          ],
          [
            -96.682301,
            29.905251
          ],
          [
            -96.682598,
            29.905252
          ],
          [
            -96.682694,
            29.90526
          ],
          [
            -96.682815,
            29.905279
          ],
          [
            -96.68293,
            29.905306
          ],
          [
            -96.683055,
            29.905346
          ],
          [
            -96.683187,
            29.905401
          ],
          [
            -96.683332,
            29.905466
          ],
          [
            -96.683469,
            29.905531
          ],
          [
            -96.684449,
            29.906001
          ],
          [
            -96.687611,
            29.907504
          ],
          [
            -96.688424,
            29.907874
          ],
          [
            -96.689051,
            29.908179
          ],
          [
            -96.689267,
            29.908297
          ],
          [
            -96.689602,
            29.908512
          ],
          [
            -96.68998,
            29.908805
          ],
          [
            -96.693713,
            29.911872
          ],
          [
            -96.694581,
            29.912581
          ],
          [
            -96.694718,
            29.912689
          ],
          [
            -96.69655,
            29.914125
          ],
          [
            -96.697926,
            29.915182
          ],
          [
            -96.698341,
            29.915507
          ],
          [
            -96.699314,
            29.916283
          ],
          [
            -96.700138,
            29.916925
          ],
          [
            -96.700199,
            29.916971
          ],
          [
            -96.700766,
            29.917403
          ],
          [
            -96.701311,
            29.917859
          ],
          [
            -96.70185,
            29.918397
          ],
          [
            -96.702215,
            29.918828
          ],
          [
            -96.702627,
            29.919411
          ],
          [
            -96.702873,
            29.919818
          ],
          [
            -96.703169,
            29.920374
          ],
          [
            -96.703445,
            29.921112
          ],
          [
            -96.703565,
            29.921517
          ],
          [
            -96.703656,
            29.921926
          ],
          [
            -96.703756,
            29.922593
          ],
          [
            -96.70381,
            29.923317
          ],
          [
            -96.703923,
            29.925264
          ],
          [
            -96.704173,
            29.929562
          ],
          [
            -96.70424,
            29.93051
          ],
          [
            -96.70426,
            29.930939
          ],
          [
            -96.704356,
            29.931479
          ],
          [
            -96.704506,
            29.932109
          ],
          [
            -96.704744,
            29.932773
          ],
          [
            -96.705003,
            29.933311
          ],
          [
            -96.705225,
            29.933751
          ],
          [
            -96.705498,
            29.93418
          ],
          [
            -96.705794,
            29.934581
          ],
          [
            -96.706227,
            29.935113
          ],
          [
            -96.706558,
            29.935444
          ],
          [
            -96.707158,
            29.935952
          ],
          [
            -96.708066,
            29.936696
          ],
          [
            -96.709286,
            29.937675
          ],
          [
            -96.710475,
            29.938624
          ],
          [
            -96.711035,
            29.939078
          ],
          [
            -96.71195,
            29.939807
          ],
          [
            -96.71265,
            29.940356
          ],
          [
            -96.713045,
            29.940685
          ],
          [
            -96.713467,
            29.941036
          ],
          [
            -96.714389,
            29.941786
          ],
          [
            -96.715546,
            29.94271
          ],
          [
            -96.716739,
            29.943655
          ],
          [
            -96.717862,
            29.944561
          ],
          [
            -96.718546,
            29.945097
          ],
          [
            -96.718945,
            29.945409
          ],
          [
            -96.720116,
            29.946365
          ],
          [
            -96.721855,
            29.94777
          ],
          [
            -96.722688,
            29.94845
          ],
          [
            -96.723628,
            29.949199
          ],
          [
            -96.723908,
            29.949415
          ],
          [
            -96.724282,
            29.949704
          ],
          [
            -96.724557,
            29.949902
          ],
          [
            -96.72487,
            29.950095
          ],
          [
            -96.725048,
            29.950205
          ],
          [
            -96.725269,
            29.950341
          ],
          [
            -96.72552,
            29.950465
          ],
          [
            -96.725982,
            29.950693
          ],
          [
            -96.726443,
            29.950882
          ],
          [
            -96.726845,
            29.951031
          ],
          [
            -96.727745,
            29.951289
          ],
          [
            -96.728367,
            29.951414
          ],
          [
            -96.72936,
            29.951536
          ],
          [
            -96.730189,
            29.95162
          ],
          [
            -96.731076,
            29.9517
          ],
          [
            -96.733273,
            29.951916
          ],
          [
            -96.734209,
            29.95208
          ],
          [
            -96.735107,
            29.952256
          ],
          [
            -96.735167,
            29.95227
          ],
          [
            -96.735525,
            29.952356
          ],
          [
            -96.736999,
            29.952806
          ],
          [
            -96.738968,
            29.953578
          ],
          [
            -96.740465,
            29.95421
          ],
          [
            -96.740985,
            29.954404
          ],
          [
            -96.742477,
            29.954895
          ],
          [
            -96.743228,
            29.955098
          ],
          [
            -96.743295,
            29.955111
          ],
          [
            -96.744695,
            29.955386
          ],
          [
            -96.744847,
            29.95541
          ],
          [
            -96.745395,
            29.955498
          ],
          [
            -96.746183,
            29.955585
          ],
          [
            -96.747317,
            29.955663
          ],
          [
            -96.748022,
            29.955664
          ],
          [
            -96.748326,
            29.955666
          ],
          [
            -96.748835,
            29.955664
          ],
          [
            -96.749425,
            29.955648
          ],
          [
            -96.750429,
            29.955607
          ],
          [
            -96.751243,
            29.955559
          ],
          [
            -96.751973,
            29.95553
          ],
          [
            -96.752706,
            29.955489
          ],
          [
            -96.753586,
            29.955462
          ],
          [
            -96.753955,
            29.955447
          ],
          [
            -96.754867,
            29.955412
          ],
          [
            -96.755928,
            29.955364
          ],
          [
            -96.757055,
            29.955306
          ],
          [
            -96.758357,
            29.955236
          ],
          [
            -96.759006,
            29.955256
          ],
          [
            -96.759595,
            29.955304
          ],
          [
            -96.760082,
            29.955362
          ],
          [
            -96.760537,
            29.955434
          ],
          [
            -96.761151,
            29.955563
          ],
          [
            -96.761692,
            29.955733
          ],
          [
            -96.761939,
            29.95581
          ],
          [
            -96.762412,
            29.955986
          ],
          [
            -96.762924,
            29.956191
          ],
          [
            -96.763222,
            29.956342
          ],
          [
            -96.763866,
            29.956726
          ],
          [
            -96.764394,
            29.957082
          ],
          [
            -96.765269,
            29.957751
          ],
          [
            -96.766108,
            29.958389
          ],
          [
            -96.766829,
            29.958955
          ],
          [
            -96.767719,
            29.959679
          ],
          [
            -96.767897,
            29.959823
          ],
          [
            -96.768849,
            29.960549
          ],
          [
            -96.769429,
            29.961014
          ],
          [
            -96.770394,
            29.96179
          ],
          [
            -96.773017,
            29.963846
          ],
          [
            -96.773715,
            29.964399
          ],
          [
            -96.775341,
            29.965664
          ],
          [
            -96.775498,
            29.96585
          ],
          [
            -96.775563,
            29.965985
          ],
          [
            -96.775595,
            29.966166
          ],
          [
            -96.775587,
            29.966315
          ],
          [
            -96.77556,
            29.966494
          ],
          [
            -96.775185,
            29.966868
          ],
          [
            -96.775149,
            29.966901
          ],
          [
            -96.77508,
            29.966966
          ],
          [
            -96.774096,
            29.967882
          ],
          [
            -96.772382,
            29.969535
          ],
          [
            -96.770097,
            29.971739
          ],
          [
            -96.769573,
            29.972238
          ],
          [
            -96.768839,
            29.972956
          ],
          [
            -96.768697,
            29.973088
          ],
          [
            -96.768228,
            29.973535
          ],
          [
            -96.767888,
            29.973881
          ],
          [
            -96.767657,
            29.974117
          ],
          [
            -96.767003,
            29.974808
          ],
          [
            -96.766876,
            29.97495
          ],
          [
            -96.766486,
            29.975384
          ],
          [
            -96.766423,
            29.975454
          ],
          [
            -96.765964,
            29.976068
          ],
          [
            -96.765863,
            29.976231
          ],
          [
            -96.76482,
            29.977591
          ],
          [
            -96.764578,
            29.977893
          ],
          [
            -96.764151,
            29.978339
          ],
          [
            -96.764044,
            29.978446
          ],
          [
            -96.763688,
            29.978803
          ],
          [
            -96.763174,
            29.979336
          ],
          [
            -96.762352,
            29.980173
          ],
          [
            -96.761546,
            29.980964
          ],
          [
            -96.76153,
            29.980983
          ],
          [
            -96.759671,
            29.982885
          ],
          [
            -96.758811,
            29.983777
          ],
          [
            -96.758466,
            29.984122
          ],
          [
            -96.758114,
            29.984497
          ],
          [
            -96.757755,
            29.984841
          ],
          [
            -96.757404,
            29.985225
          ],
          [
            -96.757005,
            29.985748
          ],
          [
            -96.756314,
            29.986616
          ],
          [
            -96.756151,
            29.98683
          ],
          [
            -96.755196,
            29.988082
          ],
          [
            -96.753138,
            29.990733
          ],
          [
            -96.751596,
            29.992735
          ],
          [
            -96.751342,
            29.993065
          ],
          [
            -96.750766,
            29.993811
          ],
          [
            -96.750115,
            29.994628
          ],
          [
            -96.750016,
            29.994752
          ],
          [
            -96.749049,
            29.995982
          ],
          [
            -96.748266,
            29.996991
          ],
          [
            -96.748099,
            29.997207
          ],
          [
            -96.747061,
            29.998528
          ],
          [
            -96.746707,
            29.99899
          ],
          [
            -96.746683,
            29.999021
          ],
          [
            -96.746611,
            29.999108
          ],
          [
            -96.74651,
            29.999229
          ],
          [
            -96.746395,
            29.999368
          ],
          [
            -96.745222,
            30.000883
          ],
          [
            -96.744643,
            30.001702
          ],
          [
            -96.744489,
            30.001951
          ],
          [
            -96.744042,
            30.002839
          ],
          [
            -96.743822,
            30.003403
          ],
          [
            -96.743485,
            30.004293
          ],
          [
            -96.742552,
            30.006669
          ],
          [
            -96.742251,
            30.007341
          ],
          [
            -96.741886,
            30.00796
          ],
          [
            -96.741326,
            30.008625
          ],
          [
            -96.741101,
            30.008861
          ],
          [
            -96.740547,
            30.009398
          ],
          [
            -96.738044,
            30.011808
          ],
          [
            -96.736874,
            30.012917
          ],
          [
            -96.736751,
            30.013034
          ],
          [
            -96.736156,
            30.013608
          ],
          [
            -96.735591,
            30.014148
          ],
          [
            -96.735073,
            30.014644
          ],
          [
            -96.734717,
            30.014984
          ],
          [
            -96.734436,
            30.015252
          ],
          [
            -96.734345,
            30.015339
          ],
          [
            -96.734204,
            30.015473
          ],
          [
            -96.733872,
            30.015788
          ],
          [
            -96.733393,
            30.016243
          ],
          [
            -96.733376,
            30.016259
          ],
          [
            -96.732792,
            30.016853
          ],
          [
            -96.731954,
            30.017661
          ],
          [
            -96.731728,
            30.017886
          ],
          [
            -96.731697,
            30.017917
          ],
          [
            -96.731195,
            30.018415
          ],
          [
            -96.730365,
            30.019187
          ],
          [
            -96.729834,
            30.019681
          ],
          [
            -96.729469,
            30.020033
          ],
          [
            -96.729164,
            30.020327
          ],
          [
            -96.728254,
            30.021203
          ],
          [
            -96.72733,
            30.022062
          ],
          [
            -96.726471,
            30.022885
          ],
          [
            -96.72619,
            30.022678
          ],
          [
            -96.726039,
            30.022566
          ],
          [
            -96.725847,
            30.022406
          ],
          [
            -96.725707,
            30.022299
          ],
          [
            -96.72559,
            30.02223
          ],
          [
            -96.725449,
            30.022159
          ],
          [
            -96.725151,
            30.02199
          ],
          [
            -96.725004,
            30.021919
          ],
          [
            -96.724921,
            30.021888
          ],
          [
            -96.72485,
            30.02186
          ],
          [
            -96.724519,
            30.02172
          ],
          [
            -96.724343,
            30.02168
          ],
          [
            -96.724099,
            30.02164
          ],
          [
            -96.723708,
            30.021555
          ],
          [
            -96.723346,
            30.021463
          ],
          [
            -96.722915,
            30.021338
          ],
          [
            -96.722519,
            30.021213
          ],
          [
            -96.72223,
            30.021071
          ],
          [
            -96.721842,
            30.02091
          ],
          [
            -96.721686,
            30.020803
          ],
          [
            -96.721638,
            30.020773
          ],
          [
            -96.721491,
            30.020683
          ],
          [
            -96.721311,
            30.020563
          ],
          [
            -96.721064,
            30.020364
          ],
          [
            -96.720057,
            30.019422
          ],
          [
            -96.71971,
            30.019131
          ],
          [
            -96.719515,
            30.018968
          ],
          [
            -96.718955,
            30.01844
          ],
          [
            -96.718637,
            30.018171
          ],
          [
            -96.718249,
            30.017858
          ],
          [
            -96.717955,
            30.017637
          ],
          [
            -96.717629,
            30.017399
          ],
          [
            -96.717374,
            30.017229
          ],
          [
            -96.717243,
            30.017142
          ],
          [
            -96.716858,
            30.016933
          ],
          [
            -96.716223,
            30.01653
          ],
          [
            -96.715988,
            30.016388
          ],
          [
            -96.715059,
            30.015828
          ],
          [
            -96.713983,
            30.015169
          ],
          [
            -96.713212,
            30.014678
          ],
          [
            -96.712627,
            30.014339
          ],
          [
            -96.712048,
            30.013992
          ],
          [
            -96.711659,
            30.013767
          ],
          [
            -96.711338,
            30.013616
          ],
          [
            -96.711004,
            30.013474
          ],
          [
            -96.710763,
            30.013397
          ],
          [
            -96.71049,
            30.013319
          ],
          [
            -96.709859,
            30.013205
          ],
          [
            -96.709488,
            30.013152
          ],
          [
            -96.708515,
            30.013059
          ],
          [
            -96.708024,
            30.013012
          ],
          [
            -96.706991,
            30.012948
          ],
          [
            -96.704561,
            30.012733
          ],
          [
            -96.704366,
            30.012711
          ],
          [
            -96.704055,
            30.012659
          ],
          [
            -96.703289,
            30.012492
          ],
          [
            -96.702773,
            30.012336
          ],
          [
            -96.701989,
            30.012021
          ],
          [
            -96.701212,
            30.011728
          ],
          [
            -96.700782,
            30.011574
          ],
          [
            -96.70021,
            30.011384
          ],
          [
            -96.699421,
            30.011244
          ],
          [
            -96.698947,
            30.011206
          ],
          [
            -96.698443,
            30.011157
          ],
          [
            -96.69651,
            30.011114
          ],
          [
            -96.696325,
            30.011112
          ],
          [
            -96.695909,
            30.011111
          ],
          [
            -96.695327,
            30.011068
          ],
          [
            -96.694872,
            30.011008
          ],
          [
            -96.694378,
            30.010911
          ],
          [
            -96.694043,
            30.010832
          ],
          [
            -96.693674,
            30.010723
          ],
          [
            -96.693218,
            30.01056
          ],
          [
            -96.691521,
            30.009895
          ],
          [
            -96.688397,
            30.008663
          ],
          [
            -96.687052,
            30.008133
          ],
          [
            -96.686094,
            30.007799
          ],
          [
            -96.684339,
            30.007237
          ],
          [
            -96.676858,
            30.004859
          ],
          [
            -96.674958,
            30.004263
          ],
          [
            -96.674616,
            30.004148
          ],
          [
            -96.672798,
            30.003571
          ],
          [
            -96.672462,
            30.003455
          ],
          [
            -96.672058,
            30.003302
          ],
          [
            -96.671505,
            30.003033
          ],
          [
            -96.670977,
            30.002696
          ],
          [
            -96.670492,
            30.002314
          ],
          [
            -96.670177,
            30.002016
          ],
          [
            -96.667352,
            29.998998
          ],
          [
            -96.666972,
            29.998618
          ],
          [
            -96.666698,
            29.998366
          ],
          [
            -96.666224,
            29.998
          ],
          [
            -96.665706,
            29.997691
          ],
          [
            -96.665118,
            29.997407
          ],
          [
            -96.664667,
            29.997233
          ],
          [
            -96.664272,
            29.997124
          ],
          [
            -96.663747,
            29.997012
          ],
          [
            -96.66288,
            29.996861
          ],
          [
            -96.662239,
            29.996751
          ],
          [
            -96.662118,
            29.996735
          ],
          [
            -96.661598,
            29.996652
          ],
          [
            -96.661331,
            29.996607
          ],
          [
            -96.660694,
            29.996498
          ],
          [
            -96.660011,
            29.996345
          ],
          [
            -96.659956,
            29.996327
          ],
          [
            -96.659349,
            29.996131
          ],
          [
            -96.658717,
            29.995856
          ],
          [
            -96.657841,
            29.995388
          ],
          [
            -96.657731,
            29.995333
          ],
          [
            -96.65712,
            29.995073
          ],
          [
            -96.656482,
            29.99487
          ],
          [
            -96.655822,
            29.994727
          ],
          [
            -96.655429,
            29.994671
          ],
          [
            -96.653904,
            29.994477
          ],
          [
            -96.653063,
            29.994355
          ],
          [
            -96.652909,
            29.994331
          ],
          [
            -96.651958,
            29.994217
          ],
          [
            -96.651128,
            29.994122
          ],
          [
            -96.649917,
            29.99395
          ],
          [
            -96.649607,
            29.993912
          ],
          [
            -96.648337,
            29.993776
          ],
          [
            -96.647709,
            29.993741
          ],
          [
            -96.645182,
            29.993654
          ],
          [
            -96.644945,
            29.993646
          ],
          [
            -96.644366,
            29.993611
          ],
          [
            -96.644112,
            29.993585
          ],
          [
            -96.643957,
            29.993565
          ],
          [
            -96.643537,
            29.9935
          ],
          [
            -96.642991,
            29.993381
          ],
          [
            -96.642422,
            29.993179
          ],
          [
            -96.641941,
            29.992956
          ],
          [
            -96.641372,
            29.992607
          ],
          [
            -96.640802,
            29.99223
          ],
          [
            -96.639385,
            29.991246
          ],
          [
            -96.638513,
            29.990661
          ],
          [
            -96.637967,
            29.990266
          ],
          [
            -96.637611,
            29.990009
          ],
          [
            -96.636404,
            29.989179
          ],
          [
            -96.635663,
            29.988694
          ],
          [
            -96.634921,
            29.988246
          ],
          [
            -96.634517,
            29.988027
          ],
          [
            -96.634102,
            29.987848
          ],
          [
            -96.633616,
            29.987649
          ],
          [
            -96.632937,
            29.987404
          ],
          [
            -96.632184,
            29.987155
          ],
          [
            -96.631827,
            29.98703
          ],
          [
            -96.629299,
            29.986153
          ],
          [
            -96.628618,
            29.985887
          ],
          [
            -96.627822,
            29.985518
          ],
          [
            -96.62702,
            29.985108
          ],
          [
            -96.62623,
            29.98469
          ],
          [
            -96.625384,
            29.984252
          ],
          [
            -96.624524,
            29.983822
          ],
          [
            -96.622796,
            29.982928
          ],
          [
            -96.622391,
            29.982714
          ],
          [
            -96.62086,
            29.981904
          ],
          [
            -96.620317,
            29.981621
          ],
          [
            -96.620024,
            29.981469
          ],
          [
            -96.61852,
            29.980702
          ],
          [
            -96.61795,
            29.980386
          ],
          [
            -96.617341,
            29.98008
          ],
          [
            -96.616875,
            29.979851
          ],
          [
            -96.616476,
            29.979645
          ],
          [
            -96.616038,
            29.979408
          ],
          [
            -96.615514,
            29.979133
          ],
          [
            -96.614861,
            29.978803
          ],
          [
            -96.614341,
            29.978527
          ],
          [
            -96.613731,
            29.978169
          ],
          [
            -96.613244,
            29.977897
          ],
          [
            -96.613,
            29.977767
          ],
          [
            -96.612873,
            29.977699
          ],
          [
            -96.611974,
            29.977152
          ],
          [
            -96.611006,
            29.976601
          ],
          [
            -96.610625,
            29.976395
          ],
          [
            -96.61018,
            29.976186
          ],
          [
            -96.610078,
            29.976141
          ],
          [
            -96.609758,
            29.976
          ],
          [
            -96.609413,
            29.975877
          ],
          [
            -96.609074,
            29.975764
          ],
          [
            -96.609044,
            29.975754
          ],
          [
            -96.608656,
            29.97561
          ],
          [
            -96.608233,
            29.975466
          ],
          [
            -96.607869,
            29.975319
          ],
          [
            -96.607432,
            29.975108
          ],
          [
            -96.607005,
            29.97487
          ],
          [
            -96.606566,
            29.974572
          ],
          [
            -96.606482,
            29.974503
          ],
          [
            -96.605668,
            29.973833
          ],
          [
            -96.605357,
            29.973577
          ],
          [
            -96.604726,
            29.973006
          ],
          [
            -96.603966,
            29.972373
          ],
          [
            -96.603291,
            29.971776
          ],
          [
            -96.602046,
            29.970719
          ],
          [
            -96.601183,
            29.969972
          ],
          [
            -96.600941,
            29.969768
          ],
          [
            -96.600591,
            29.969419
          ],
          [
            -96.600285,
            29.96904
          ],
          [
            -96.600026,
            29.968635
          ],
          [
            -96.599979,
            29.968542
          ],
          [
            -96.599837,
            29.968186
          ],
          [
            -96.599748,
            29.967929
          ],
          [
            -96.599684,
            29.967685
          ],
          [
            -96.599636,
            29.967437
          ],
          [
            -96.600261,
            29.966452
          ],
          [
            -96.600837,
            29.96638
          ],
          [
            -96.601415,
            29.966293
          ],
          [
            -96.602073,
            29.966169
          ],
          [
            -96.602567,
            29.966063
          ],
          [
            -96.603074,
            29.965941
          ],
          [
            -96.603499,
            29.965829
          ],
          [
            -96.603907,
            29.965712
          ],
          [
            -96.604293,
            29.965596
          ],
          [
            -96.604709,
            29.965453
          ],
          [
            -96.605604,
            29.965121
          ],
          [
            -96.60607,
            29.964927
          ],
          [
            -96.606577,
            29.964697
          ],
          [
            -96.606958,
            29.964514
          ],
          [
            -96.607468,
            29.964255
          ],
          [
            -96.60787,
            29.964032
          ],
          [
            -96.608421,
            29.963712
          ],
          [
            -96.608889,
            29.963409
          ],
          [
            -96.609671,
            29.96286
          ],
          [
            -96.610378,
            29.962375
          ],
          [
            -96.610882,
            29.961993
          ],
          [
            -96.612029,
            29.96116
          ],
          [
            -96.61346,
            29.96012
          ],
          [
            -96.613933,
            29.959777
          ],
          [
            -96.614727,
            29.959195
          ],
          [
            -96.616267,
            29.958083
          ],
          [
            -96.616634,
            29.95781
          ],
          [
            -96.617199,
            29.957396
          ],
          [
            -96.617334,
            29.957302
          ],
          [
            -96.617561,
            29.957144
          ],
          [
            -96.617753,
            29.957017
          ],
          [
            -96.618069,
            29.956827
          ],
          [
            -96.618356,
            29.956683
          ],
          [
            -96.6187,
            29.956541
          ],
          [
            -96.619598,
            29.956216
          ],
          [
            -96.620592,
            29.95586
          ],
          [
            -96.622616,
            29.955113
          ],
          [
            -96.623899,
            29.954651
          ],
          [
            -96.624915,
            29.954306
          ],
          [
            -96.625558,
            29.954045
          ],
          [
            -96.626206,
            29.953791
          ],
          [
            -96.62656,
            29.953631
          ],
          [
            -96.627065,
            29.953348
          ],
          [
            -96.628014,
            29.95261
          ],
          [
            -96.628736,
            29.951996
          ],
          [
            -96.628898,
            29.951857
          ],
          [
            -96.629271,
            29.951534
          ],
          [
            -96.629565,
            29.951286
          ],
          [
            -96.630059,
            29.950877
          ],
          [
            -96.630681,
            29.950335
          ],
          [
            -96.631251,
            29.949846
          ],
          [
            -96.632159,
            29.949076
          ],
          [
            -96.632675,
            29.948607
          ],
          [
            -96.632875,
            29.948425
          ],
          [
            -96.634072,
            29.94736
          ],
          [
            -96.63482,
            29.946676
          ],
          [
            -96.635437,
            29.946104
          ],
          [
            -96.635894,
            29.945691
          ],
          [
            -96.636139,
            29.945476
          ],
          [
            -96.636279,
            29.945343
          ],
          [
            -96.63642,
            29.945159
          ],
          [
            -96.636569,
            29.944952
          ],
          [
            -96.63682,
            29.944551
          ],
          [
            -96.636827,
            29.944534
          ],
          [
            -96.636881,
            29.944397
          ],
          [
            -96.63695,
            29.94419
          ],
          [
            -96.637012,
            29.943951
          ],
          [
            -96.637046,
            29.943726
          ],
          [
            -96.637068,
            29.943489
          ],
          [
            -96.637092,
            29.942971
          ],
          [
            -96.637095,
            29.942739
          ],
          [
            -96.637076,
            29.942051
          ],
          [
            -96.637096,
            29.941163
          ],
          [
            -96.63711,
            29.940753
          ],
          [
            -96.63727,
            29.939615
          ],
          [
            -96.637511,
            29.938508
          ],
          [
            -96.637559,
            29.938285
          ],
          [
            -96.637589,
            29.938167
          ],
          [
            -96.637966,
            29.937002
          ],
          [
            -96.63825,
            29.9363
          ],
          [
            -96.638533,
            29.935695
          ],
          [
            -96.639232,
            29.934438
          ],
          [
            -96.639285,
            29.934351
          ],
          [
            -96.640065,
            29.933221
          ],
          [
            -96.640169,
            29.933082
          ],
          [
            -96.640979,
            29.932118
          ],
          [
            -96.641003,
            29.932089
          ],
          [
            -96.641665,
            29.931436
          ],
          [
            -96.641874,
            29.931198
          ],
          [
            -96.642433,
            29.9307
          ],
          [
            -96.642867,
            29.930313
          ],
          [
            -96.643529,
            29.929761
          ],
          [
            -96.644183,
            29.929209
          ],
          [
            -96.645306,
            29.928274
          ],
          [
            -96.646217,
            29.927504
          ],
          [
            -96.647006,
            29.926847
          ],
          [
            -96.647654,
            29.926302
          ],
          [
            -96.648303,
            29.925755
          ],
          [
            -96.649642,
            29.924646
          ],
          [
            -96.649986,
            29.924368
          ],
          [
            -96.653149,
            29.921685
          ],
          [
            -96.65418,
            29.920832
          ],
          [
            -96.65443,
            29.920625
          ],
          [
            -96.655457,
            29.919748
          ],
          [
            -96.656276,
            29.919058
          ],
          [
            -96.65752,
            29.91803
          ],
          [
            -96.658077,
            29.917553
          ],
          [
            -96.658814,
            29.916941
          ],
          [
            -96.660106,
            29.915853
          ],
          [
            -96.660635,
            29.915427
          ],
          [
            -96.660752,
            29.915323
          ],
          [
            -96.661163,
            29.914961
          ],
          [
            -96.661619,
            29.914584
          ],
          [
            -96.662426,
            29.914018
          ],
          [
            -96.663251,
            29.913469
          ],
          [
            -96.664552,
            29.912611
          ],
          [
            -96.664729,
            29.912495
          ],
          [
            -96.665527,
            29.911958
          ],
          [
            -96.666336,
            29.911441
          ],
          [
            -96.666843,
            29.911081
          ],
          [
            -96.667564,
            29.910604
          ],
          [
            -96.668381,
            29.910076
          ],
          [
            -96.668726,
            29.909853
          ],
          [
            -96.668795,
            29.909808
          ],
          [
            -96.669364,
            29.909428
          ],
          [
            -96.669952,
            29.90902
          ],
          [
            -96.670466,
            29.908682
          ],
          [
            -96.670757,
            29.908449
          ],
          [
            -96.671847,
            29.907446
          ],
          [
            -96.672251,
            29.907073
          ],
          [
            -96.672835,
            29.906504
          ],
          [
            -96.673615,
            29.905748
          ],
          [
            -96.674352,
            29.905061
          ],
          [
            -96.675099,
            29.904319
          ],
          [
            -96.675184,
            29.904239
          ],
          [
            -96.675711,
            29.903746
          ],
          [
            -96.675831,
            29.903633
          ],
          [
            -96.676467,
            29.903039
          ],
          [
            -96.676527,
            29.903002
          ],
          [
            -96.676598,
            29.902985
          ],
          [
            -96.676677,
            29.903003
          ],
          [
            -96.676723,
            29.903031
          ],
          [
            -96.677389,
            29.903556
          ],
          [
            -96.677977,
            29.904022
          ]
        ]
      }
    }
  ]
}