{
  "type": "FeatureCollection",
  "features": [
    {
      "type": "Feature",
      "properties": {
        "route": "Sisterdale, Kendalia & Luckenbach Run",
        "category": "German Towns & Culture",
        "color": "#8e44ad",
        "waypoints": [
          "Boerne",
          "Sisterdale",
          "Kendalia",
          "Luckenbach"
        ],
        "via": "FM 1376 -> FM 473 -> Kendalia -> Luckenbach",
        "distance_mi": 54.0,
        "source": "road-snapped"
      },
      "geometry": {
        "type": "LineString",
        "coordinates": [
          [
            -98.729927,
            29.794029
          ],
          [
            -98.730234,
            29.794612
          ],
          [
            -98.730513,
            29.795134
          ],
          [
            -98.730835,
            29.795006
          ],
          [
            -98.731017,
            29.794933
          ],
          [
            -98.731234,
            29.794847
          ],
          [
            -98.731306,
            29.794818
          ],
          [
            -98.732111,
            29.794497
          ],
          [
            -98.732393,
            29.795044
          ],
          [
            -98.732549,
            29.795347
          ],
          [
            -98.73257,
            29.795388
          ],
          [
            -98.732621,
            29.795485
          ],
          [
            -98.73268,
            29.7956
          ],
          [
            -98.732742,
            29.795721
          ],
          [
            -98.732903,
            29.796033
          ],
          [
            -98.733201,
            29.796612
          ],
          [
            -98.733452,
            29.797098
          ],
          [
            -98.733524,
            29.797237
          ],
          [
            -98.733754,
            29.797684
          ],
          [
            -98.734013,
            29.798186
          ],
          [
            -98.734112,
            29.798378
          ],
          [
            -98.73419,
            29.798523
          ],
          [
            -98.734634,
            29.799345
          ],
          [
            -98.734652,
            29.799378
          ],
          [
            -98.734958,
            29.799951
          ],
          [
            -98.735439,
            29.800903
          ],
          [
            -98.735814,
            29.801612
          ],
          [
            -98.735922,
            29.801816
          ],
          [
            -98.736153,
            29.802251
          ],
          [
            -98.73624,
            29.802417
          ],
          [
            -98.736384,
            29.80269
          ],
          [
            -98.736467,
            29.802847
          ],
          [
            -98.736514,
            29.802935
          ],
          [
            -98.736585,
            29.803071
          ],
          [
            -98.736701,
            29.803291
          ],
          [
            -98.736753,
            29.803384
          ],
          [
            -98.736817,
            29.803498
          ],
          [
            -98.736851,
            29.803558
          ],
          [
            -98.736874,
            29.80359
          ],
          [
            -98.737031,
            29.803807
          ],
          [
            -98.73726,
            29.804071
          ],
          [
            -98.73732,
            29.804142
          ],
          [
            -98.737598,
            29.804374
          ],
          [
            -98.73759,
            29.804699
          ],
          [
            -98.73761,
            29.805302
          ],
          [
            -98.737612,
            29.805696
          ],
          [
            -98.737613,
            29.80584
          ],
          [
            -98.737609,
            29.806075
          ],
          [
            -98.737604,
            29.806347
          ],
          [
            -98.737603,
            29.806375
          ],
          [
            -98.737603,
            29.806467
          ],
          [
            -98.737597,
            29.807039
          ],
          [
            -98.73759,
            29.807619
          ],
          [
            -98.737561,
            29.808561
          ],
          [
            -98.737541,
            29.809212
          ],
          [
            -98.737521,
            29.809864
          ],
          [
            -98.737489,
            29.811285
          ],
          [
            -98.737506,
            29.811608
          ],
          [
            -98.73752,
            29.811646
          ],
          [
            -98.737562,
            29.811759
          ],
          [
            -98.737637,
            29.811871
          ],
          [
            -98.737777,
            29.81198
          ],
          [
            -98.737827,
            29.812012
          ],
          [
            -98.737934,
            29.812072
          ],
          [
            -98.737811,
            29.812307
          ],
          [
            -98.737704,
            29.812564
          ],
          [
            -98.737562,
            29.812907
          ],
          [
            -98.737504,
            29.813045
          ],
          [
            -98.737445,
            29.813287
          ],
          [
            -98.737387,
            29.813524
          ],
          [
            -98.737353,
            29.813809
          ],
          [
            -98.737304,
            29.814223
          ],
          [
            -98.737299,
            29.814329
          ],
          [
            -98.737291,
            29.814502
          ],
          [
            -98.73728,
            29.814746
          ],
          [
            -98.737277,
            29.815079
          ],
          [
            -98.737275,
            29.815751
          ],
          [
            -98.737251,
            29.816099
          ],
          [
            -98.737258,
            29.816575
          ],
          [
            -98.737258,
            29.816593
          ],
          [
            -98.737252,
            29.817228
          ],
          [
            -98.737248,
            29.817684
          ],
          [
            -98.737248,
            29.817755
          ],
          [
            -98.737247,
            29.817852
          ],
          [
            -98.737244,
            29.818157
          ],
          [
            -98.737244,
            29.818336
          ],
          [
            -98.737245,
            29.819121
          ],
          [
            -98.737245,
            29.819349
          ],
          [
            -98.737234,
            29.820044
          ],
          [
            -98.737227,
            29.821423
          ],
          [
            -98.737225,
            29.821927
          ],
          [
            -98.737218,
            29.823377
          ],
          [
            -98.737217,
            29.82347
          ],
          [
            -98.73721,
            29.824339
          ],
          [
            -98.737208,
            29.824521
          ],
          [
            -98.737211,
            29.826724
          ],
          [
            -98.737212,
            29.827541
          ],
          [
            -98.7372,
            29.829303
          ],
          [
            -98.737194,
            29.829934
          ],
          [
            -98.737179,
            29.831482
          ],
          [
            -98.737212,
            29.832274
          ],
          [
            -98.737225,
            29.832599
          ],
          [
            -98.737235,
            29.832725
          ],
          [
            -98.737285,
            29.833385
          ],
          [
            -98.737289,
            29.833431
          ],
          [
            -98.737317,
            29.833772
          ],
          [
            -98.737588,
            29.835884
          ],
          [
            -98.737698,
            29.836744
          ],
          [
            -98.737704,
            29.83684
          ],
          [
            -98.737706,
            29.836874
          ],
          [
            -98.737727,
            29.837215
          ],
          [
            -98.737725,
            29.837603
          ],
          [
            -98.737725,
            29.837637
          ],
          [
            -98.737724,
            29.837678
          ],
          [
            -98.73765,
            29.838422
          ],
          [
            -98.737471,
            29.839259
          ],
          [
            -98.737408,
            29.839485
          ],
          [
            -98.737314,
            29.839825
          ],
          [
            -98.737085,
            29.840652
          ],
          [
            -98.73686,
            29.841464
          ],
          [
            -98.736536,
            29.842591
          ],
          [
            -98.736482,
            29.84278
          ],
          [
            -98.736173,
            29.843856
          ],
          [
            -98.736071,
            29.844211
          ],
          [
            -98.735796,
            29.845159
          ],
          [
            -98.735637,
            29.845634
          ],
          [
            -98.735496,
            29.845978
          ],
          [
            -98.735334,
            29.846291
          ],
          [
            -98.735135,
            29.84662
          ],
          [
            -98.734995,
            29.846827
          ],
          [
            -98.734918,
            29.846941
          ],
          [
            -98.734621,
            29.847298
          ],
          [
            -98.734368,
            29.847538
          ],
          [
            -98.734134,
            29.847751
          ],
          [
            -98.734119,
            29.847764
          ],
          [
            -98.733688,
            29.848115
          ],
          [
            -98.733057,
            29.848506
          ],
          [
            -98.732797,
            29.848632
          ],
          [
            -98.732375,
            29.848838
          ],
          [
            -98.731875,
            29.849068
          ],
          [
            -98.731036,
            29.849456
          ],
          [
            -98.730817,
            29.849556
          ],
          [
            -98.729352,
            29.850219
          ],
          [
            -98.728982,
            29.850411
          ],
          [
            -98.728629,
            29.850623
          ],
          [
            -98.728201,
            29.850938
          ],
          [
            -98.727824,
            29.851263
          ],
          [
            -98.727509,
            29.851582
          ],
          [
            -98.727243,
            29.851909
          ],
          [
            -98.727017,
            29.852228
          ],
          [
            -98.726865,
            29.852489
          ],
          [
            -98.726654,
            29.852899
          ],
          [
            -98.72646,
            29.853403
          ],
          [
            -98.726175,
            29.854414
          ],
          [
            -98.726157,
            29.854477
          ],
          [
            -98.725957,
            29.855008
          ],
          [
            -98.725698,
            29.855504
          ],
          [
            -98.725372,
            29.85605
          ],
          [
            -98.724927,
            29.856703
          ],
          [
            -98.724656,
            29.857197
          ],
          [
            -98.724493,
            29.857579
          ],
          [
            -98.724372,
            29.857896
          ],
          [
            -98.724284,
            29.858221
          ],
          [
            -98.724206,
            29.858568
          ],
          [
            -98.724203,
            29.858596
          ],
          [
            -98.724195,
            29.858672
          ],
          [
            -98.724102,
            29.859551
          ],
          [
            -98.724089,
            29.860173
          ],
          [
            -98.724112,
            29.860517
          ],
          [
            -98.724211,
            29.862415
          ],
          [
            -98.724243,
            29.863031
          ],
          [
            -98.724321,
            29.863804
          ],
          [
            -98.724347,
            29.863951
          ],
          [
            -98.724386,
            29.864172
          ],
          [
            -98.724405,
            29.864289
          ],
          [
            -98.724444,
            29.864517
          ],
          [
            -98.724466,
            29.864647
          ],
          [
            -98.72448,
            29.864729
          ],
          [
            -98.724616,
            29.865334
          ],
          [
            -98.724637,
            29.865412
          ],
          [
            -98.724658,
            29.865488
          ],
          [
            -98.724809,
            29.866032
          ],
          [
            -98.724987,
            29.866564
          ],
          [
            -98.725228,
            29.867364
          ],
          [
            -98.725257,
            29.867473
          ],
          [
            -98.725418,
            29.868077
          ],
          [
            -98.725513,
            29.868419
          ],
          [
            -98.725575,
            29.86879
          ],
          [
            -98.725719,
            29.869643
          ],
          [
            -98.725723,
            29.869666
          ],
          [
            -98.725777,
            29.869989
          ],
          [
            -98.725817,
            29.870294
          ],
          [
            -98.725846,
            29.87083
          ],
          [
            -98.725842,
            29.870942
          ],
          [
            -98.725833,
            29.871188
          ],
          [
            -98.725821,
            29.871538
          ],
          [
            -98.725768,
            29.871943
          ],
          [
            -98.72573,
            29.872236
          ],
          [
            -98.725609,
            29.872781
          ],
          [
            -98.725581,
            29.872866
          ],
          [
            -98.725176,
            29.874072
          ],
          [
            -98.725018,
            29.874542
          ],
          [
            -98.724956,
            29.874796
          ],
          [
            -98.724859,
            29.875194
          ],
          [
            -98.724785,
            29.875601
          ],
          [
            -98.724743,
            29.876369
          ],
          [
            -98.724723,
            29.878126
          ],
          [
            -98.724716,
            29.878782
          ],
          [
            -98.724704,
            29.879793
          ],
          [
            -98.724657,
            29.882195
          ],
          [
            -98.724658,
            29.882389
          ],
          [
            -98.724674,
            29.8865
          ],
          [
            -98.72467,
            29.890193
          ],
          [
            -98.724666,
            29.892386
          ],
          [
            -98.724692,
            29.892812
          ],
          [
            -98.724708,
            29.892947
          ],
          [
            -98.724747,
            29.893227
          ],
          [
            -98.724866,
            29.893798
          ],
          [
            -98.724993,
            29.894413
          ],
          [
            -98.725101,
            29.894936
          ],
          [
            -98.72519,
            29.89544
          ],
          [
            -98.725223,
            29.895728
          ],
          [
            -98.725224,
            29.895809
          ],
          [
            -98.725228,
            29.896292
          ],
          [
            -98.725216,
            29.896441
          ],
          [
            -98.725201,
            29.896628
          ],
          [
            -98.725143,
            29.897001
          ],
          [
            -98.724996,
            29.897539
          ],
          [
            -98.724187,
            29.899518
          ],
          [
            -98.724015,
            29.89999
          ],
          [
            -98.723976,
            29.900128
          ],
          [
            -98.723814,
            29.900797
          ],
          [
            -98.723724,
            29.901459
          ],
          [
            -98.723693,
            29.902142
          ],
          [
            -98.723708,
            29.902531
          ],
          [
            -98.723714,
            29.902689
          ],
          [
            -98.723786,
            29.903236
          ],
          [
            -98.724076,
            29.904773
          ],
          [
            -98.724131,
            29.905541
          ],
          [
            -98.724122,
            29.906454
          ],
          [
            -98.724079,
            29.907841
          ],
          [
            -98.724005,
            29.908311
          ],
          [
            -98.723886,
            29.908764
          ],
          [
            -98.723816,
            29.909164
          ],
          [
            -98.723654,
            29.909526
          ],
          [
            -98.723493,
            29.909877
          ],
          [
            -98.723461,
            29.909948
          ],
          [
            -98.723267,
            29.910406
          ],
          [
            -98.722771,
            29.911547
          ],
          [
            -98.722659,
            29.911771
          ],
          [
            -98.722531,
            29.912025
          ],
          [
            -98.722265,
            29.912453
          ],
          [
            -98.722068,
            29.9127
          ],
          [
            -98.721819,
            29.912983
          ],
          [
            -98.721647,
            29.913161
          ],
          [
            -98.721447,
            29.913353
          ],
          [
            -98.721263,
            29.913515
          ],
          [
            -98.72107,
            29.913674
          ],
          [
            -98.720228,
            29.914298
          ],
          [
            -98.71982,
            29.914676
          ],
          [
            -98.719758,
            29.914733
          ],
          [
            -98.71944,
            29.915089
          ],
          [
            -98.719251,
            29.915346
          ],
          [
            -98.719081,
            29.915614
          ],
          [
            -98.71878,
            29.916175
          ],
          [
            -98.718603,
            29.916623
          ],
          [
            -98.718439,
            29.917246
          ],
          [
            -98.718377,
            29.917724
          ],
          [
            -98.718363,
            29.918373
          ],
          [
            -98.718387,
            29.920217
          ],
          [
            -98.718469,
            29.92552
          ],
          [
            -98.718474,
            29.925857
          ],
          [
            -98.718475,
            29.925925
          ],
          [
            -98.718474,
            29.925946
          ],
          [
            -98.718473,
            29.925959
          ],
          [
            -98.718481,
            29.926448
          ],
          [
            -98.71849,
            29.929248
          ],
          [
            -98.718492,
            29.929746
          ],
          [
            -98.718497,
            29.931354
          ],
          [
            -98.718498,
            29.931645
          ],
          [
            -98.718509,
            29.932435
          ],
          [
            -98.718542,
            29.934886
          ],
          [
            -98.718666,
            29.941219
          ],
          [
            -98.718673,
            29.945645
          ],
          [
            -98.718674,
            29.946523
          ],
          [
            -98.71868,
            29.947841
          ],
          [
            -98.718657,
            29.948112
          ],
          [
            -98.718586,
            29.949089
          ],
          [
            -98.71852,
            29.949604
          ],
          [
            -98.718477,
            29.949853
          ],
          [
            -98.718417,
            29.950193
          ],
          [
            -98.718228,
            29.951037
          ],
          [
            -98.717898,
            29.952249
          ],
          [
            -98.717624,
            29.953277
          ],
          [
            -98.717458,
            29.954129
          ],
          [
            -98.717405,
            29.95448
          ],
          [
            -98.717339,
            29.955078
          ],
          [
            -98.717294,
            29.956018
          ],
          [
            -98.717232,
            29.958048
          ],
          [
            -98.717155,
            29.95944
          ],
          [
            -98.717073,
            29.962503
          ],
          [
            -98.717015,
            29.964327
          ],
          [
            -98.717002,
            29.964727
          ],
          [
            -98.717019,
            29.965056
          ],
          [
            -98.717081,
            29.965472
          ],
          [
            -98.717098,
            29.965585
          ],
          [
            -98.717198,
            29.96598
          ],
          [
            -98.717328,
            29.96636
          ],
          [
            -98.717473,
            29.966683
          ],
          [
            -98.717494,
            29.966729
          ],
          [
            -98.717681,
            29.967068
          ],
          [
            -98.718223,
            29.968111
          ],
          [
            -98.71799,
            29.968281
          ],
          [
            -98.717558,
            29.968581
          ],
          [
            -98.716581,
            29.969236
          ],
          [
            -98.716542,
            29.969262
          ],
          [
            -98.7161,
            29.969488
          ],
          [
            -98.715851,
            29.969584
          ],
          [
            -98.715587,
            29.969664
          ],
          [
            -98.715314,
            29.969731
          ],
          [
            -98.715028,
            29.969779
          ],
          [
            -98.714748,
            29.969799
          ],
          [
            -98.714592,
            29.969809
          ],
          [
            -98.714174,
            29.969788
          ],
          [
            -98.712795,
            29.969655
          ],
          [
            -98.712369,
            29.969652
          ],
          [
            -98.712246,
            29.969665
          ],
          [
            -98.711817,
            29.969711
          ],
          [
            -98.711534,
            29.969769
          ],
          [
            -98.711252,
            29.969848
          ],
          [
            -98.710977,
            29.969946
          ],
          [
            -98.710715,
            29.970066
          ],
          [
            -98.71046,
            29.970201
          ],
          [
            -98.710218,
            29.970353
          ],
          [
            -98.709997,
            29.970516
          ],
          [
            -98.709801,
            29.970689
          ],
          [
            -98.709659,
            29.970851
          ],
          [
            -98.709544,
            29.970968
          ],
          [
            -98.709325,
            29.971281
          ],
          [
            -98.709134,
            29.971616
          ],
          [
            -98.708946,
            29.97206
          ],
          [
            -98.70859,
            29.973079
          ],
          [
            -98.708083,
            29.974536
          ],
          [
            -98.708079,
            29.974547
          ],
          [
            -98.707856,
            29.975181
          ],
          [
            -98.707753,
            29.975472
          ],
          [
            -98.707619,
            29.975849
          ],
          [
            -98.707012,
            29.977639
          ],
          [
            -98.706578,
            29.979087
          ],
          [
            -98.706028,
            29.980924
          ],
          [
            -98.705912,
            29.981223
          ],
          [
            -98.705691,
            29.981616
          ],
          [
            -98.705506,
            29.981857
          ],
          [
            -98.705446,
            29.981929
          ],
          [
            -98.705354,
            29.982039
          ],
          [
            -98.705163,
            29.982232
          ],
          [
            -98.70514,
            29.98225
          ],
          [
            -98.704944,
            29.982412
          ],
          [
            -98.701546,
            29.984809
          ],
          [
            -98.701356,
            29.98492
          ],
          [
            -98.70115,
            29.985039
          ],
          [
            -98.700863,
            29.985168
          ],
          [
            -98.700414,
            29.985317
          ],
          [
            -98.699929,
            29.985422
          ],
          [
            -98.699594,
            29.985452
          ],
          [
            -98.69877,
            29.98546
          ],
          [
            -98.695173,
            29.985456
          ],
          [
            -98.694953,
            29.985456
          ],
          [
            -98.694392,
            29.985456
          ],
          [
            -98.692667,
            29.985454
          ],
          [
            -98.69178,
            29.985449
          ],
          [
            -98.691324,
            29.985428
          ],
          [
            -98.691155,
            29.985408
          ],
          [
            -98.691056,
            29.985396
          ],
          [
            -98.690731,
            29.985336
          ],
          [
            -98.690637,
            29.985315
          ],
          [
            -98.690279,
            29.985236
          ],
          [
            -98.689826,
            29.985111
          ],
          [
            -98.688597,
            29.984735
          ],
          [
            -98.687974,
            29.984633
          ],
          [
            -98.687389,
            29.984521
          ],
          [
            -98.686817,
            29.984417
          ],
          [
            -98.686474,
            29.984336
          ],
          [
            -98.685447,
            29.98396
          ],
          [
            -98.684416,
            29.983519
          ],
          [
            -98.684072,
            29.983357
          ],
          [
            -98.683837,
            29.983225
          ],
          [
            -98.683607,
            29.983067
          ],
          [
            -98.683383,
            29.982887
          ],
          [
            -98.683053,
            29.982582
          ],
          [
            -98.682838,
            29.982358
          ],
          [
            -98.682747,
            29.98225
          ],
          [
            -98.682639,
            29.982121
          ],
          [
            -98.682602,
            29.982065
          ],
          [
            -98.682303,
            29.981611
          ],
          [
            -98.682167,
            29.981348
          ],
          [
            -98.681532,
            29.979976
          ],
          [
            -98.681445,
            29.979803
          ],
          [
            -98.681268,
            29.979493
          ],
          [
            -98.681054,
            29.979203
          ],
          [
            -98.680887,
            29.979011
          ],
          [
            -98.680697,
            29.978828
          ],
          [
            -98.680486,
            29.978661
          ],
          [
            -98.680268,
            29.978508
          ],
          [
            -98.680241,
            29.978492
          ],
          [
            -98.680039,
            29.978373
          ],
          [
            -98.679792,
            29.978249
          ],
          [
            -98.678949,
            29.977902
          ],
          [
            -98.678353,
            29.977678
          ],
          [
            -98.677919,
            29.977549
          ],
          [
            -98.677643,
            29.977497
          ],
          [
            -98.677371,
            29.977457
          ],
          [
            -98.676976,
            29.977441
          ],
          [
            -98.676719,
            29.977449
          ],
          [
            -98.676442,
            29.977483
          ],
          [
            -98.676344,
            29.977495
          ],
          [
            -98.676087,
            29.977547
          ],
          [
            -98.675686,
            29.977663
          ],
          [
            -98.675427,
            29.977766
          ],
          [
            -98.67451,
            29.978196
          ],
          [
            -98.674233,
            29.978326
          ],
          [
            -98.673751,
            29.978534
          ],
          [
            -98.671004,
            29.979619
          ],
          [
            -98.669916,
            29.980041
          ],
          [
            -98.669088,
            29.980354
          ],
          [
            -98.668968,
            29.9804
          ],
          [
            -98.668026,
            29.980764
          ],
          [
            -98.664609,
            29.98203
          ],
          [
            -98.664193,
            29.982157
          ],
          [
            -98.663741,
            29.982268
          ],
          [
            -98.663108,
            29.982366
          ],
          [
            -98.662787,
            29.982391
          ],
          [
            -98.662167,
            29.982402
          ],
          [
            -98.661749,
            29.982382
          ],
          [
            -98.661343,
            29.982331
          ],
          [
            -98.661254,
            29.982312
          ],
          [
            -98.660414,
            29.982141
          ],
          [
            -98.659512,
            29.981947
          ],
          [
            -98.658291,
            29.981662
          ],
          [
            -98.657653,
            29.981474
          ],
          [
            -98.657552,
            29.981441
          ],
          [
            -98.655019,
            29.980598
          ],
          [
            -98.653804,
            29.980178
          ],
          [
            -98.651483,
            29.979364
          ],
          [
            -98.650769,
            29.979153
          ],
          [
            -98.650199,
            29.979053
          ],
          [
            -98.649507,
            29.978991
          ],
          [
            -98.649058,
            29.978985
          ],
          [
            -98.648604,
            29.979008
          ],
          [
            -98.648173,
            29.979065
          ],
          [
            -98.64725,
            29.979217
          ],
          [
            -98.645241,
            29.979547
          ],
          [
            -98.644727,
            29.97962
          ],
          [
            -98.644209,
            29.979667
          ],
          [
            -98.644169,
            29.979667
          ],
          [
            -98.643524,
            29.979661
          ],
          [
            -98.643188,
            29.979632
          ],
          [
            -98.642697,
            29.979565
          ],
          [
            -98.642121,
            29.979472
          ],
          [
            -98.640814,
            29.979263
          ],
          [
            -98.63883,
            29.978944
          ],
          [
            -98.635427,
            29.978397
          ],
          [
            -98.634462,
            29.978242
          ],
          [
            -98.634009,
            29.978181
          ],
          [
            -98.633648,
            29.978145
          ],
          [
            -98.633268,
            29.978134
          ],
          [
            -98.631796,
            29.978174
          ],
          [
            -98.629146,
            29.978303
          ],
          [
            -98.628345,
            29.978361
          ],
          [
            -98.628045,
            29.978366
          ],
          [
            -98.627872,
            29.978418
          ],
          [
            -98.627257,
            29.978551
          ],
          [
            -98.624629,
            29.979228
          ],
          [
            -98.623477,
            29.979488
          ],
          [
            -98.622076,
            29.979756
          ],
          [
            -98.618728,
            29.980279
          ],
          [
            -98.618329,
            29.980321
          ],
          [
            -98.618064,
            29.980332
          ],
          [
            -98.616098,
            29.9803
          ],
          [
            -98.615893,
            29.980316
          ],
          [
            -98.615677,
            29.980353
          ],
          [
            -98.615416,
            29.980424
          ],
          [
            -98.61513,
            29.980527
          ],
          [
            -98.614899,
            29.980652
          ],
          [
            -98.614647,
            29.980829
          ],
          [
            -98.61438,
            29.981104
          ],
          [
            -98.614034,
            29.981569
          ],
          [
            -98.613828,
            29.98182
          ],
          [
            -98.613664,
            29.981983
          ],
          [
            -98.613384,
            29.982197
          ],
          [
            -98.613181,
            29.982312
          ],
          [
            -98.612969,
            29.982408
          ],
          [
            -98.612829,
            29.982451
          ],
          [
            -98.612655,
            29.982506
          ],
          [
            -98.612541,
            29.982529
          ],
          [
            -98.612439,
            29.98255
          ],
          [
            -98.612208,
            29.982576
          ],
          [
            -98.611962,
            29.982582
          ],
          [
            -98.609229,
            29.982561
          ],
          [
            -98.608957,
            29.982572
          ],
          [
            -98.608406,
            29.982621
          ],
          [
            -98.607885,
            29.982691
          ],
          [
            -98.607392,
            29.982782
          ],
          [
            -98.604802,
            29.983417
          ],
          [
            -98.604294,
            29.983525
          ],
          [
            -98.603952,
            29.983574
          ],
          [
            -98.603513,
            29.983636
          ],
          [
            -98.603103,
            29.983672
          ],
          [
            -98.602548,
            29.983697
          ],
          [
            -98.601787,
            29.983694
          ],
          [
            -98.597052,
            29.983615
          ],
          [
            -98.59616,
            29.983611
          ],
          [
            -98.595206,
            29.983644
          ],
          [
            -98.595169,
            29.983646
          ],
          [
            -98.594016,
            29.983698
          ],
          [
            -98.593401,
            29.983733
          ],
          [
            -98.593148,
            29.983759
          ],
          [
            -98.593088,
            29.983766
          ],
          [
            -98.592665,
            29.983828
          ],
          [
            -98.592409,
            29.983885
          ],
          [
            -98.591322,
            29.984173
          ],
          [
            -98.590539,
            29.984412
          ],
          [
            -98.590298,
            29.984502
          ],
          [
            -98.589977,
            29.984642
          ],
          [
            -98.588723,
            29.985294
          ],
          [
            -98.588469,
            29.985402
          ],
          [
            -98.588074,
            29.985538
          ],
          [
            -98.587666,
            29.985636
          ],
          [
            -98.587237,
            29.985702
          ],
          [
            -98.586794,
            29.985737
          ],
          [
            -98.586331,
            29.985743
          ],
          [
            -98.585184,
            29.98572
          ],
          [
            -98.584655,
            29.985703
          ],
          [
            -98.584332,
            29.985685
          ],
          [
            -98.583376,
            29.985597
          ],
          [
            -98.582066,
            29.985431
          ],
          [
            -98.581202,
            29.985371
          ],
          [
            -98.577996,
            29.985278
          ],
          [
            -98.576743,
            29.985227
          ],
          [
            -98.574749,
            29.985167
          ],
          [
            -98.573196,
            29.985136
          ],
          [
            -98.572006,
            29.985121
          ],
          [
            -98.571272,
            29.98512
          ],
          [
            -98.569201,
            29.985131
          ],
          [
            -98.567756,
            29.985161
          ],
          [
            -98.566865,
            29.98518
          ],
          [
            -98.566354,
            29.985168
          ],
          [
            -98.565873,
            29.985116
          ],
          [
            -98.565568,
            29.985058
          ],
          [
            -98.564981,
            29.984886
          ],
          [
            -98.564562,
            29.984705
          ],
          [
            -98.563533,
            29.984167
          ],
          [
            -98.563002,
            29.983924
          ],
          [
            -98.562715,
            29.983822
          ],
          [
            -98.562413,
            29.983734
          ],
          [
            -98.561934,
            29.983638
          ],
          [
            -98.561595,
            29.983601
          ],
          [
            -98.561061,
            29.983578
          ],
          [
            -98.560787,
            29.983568
          ],
          [
            -98.557406,
            29.983501
          ],
          [
            -98.556701,
            29.983487
          ],
          [
            -98.556635,
            29.983486
          ],
          [
            -98.552093,
            29.983396
          ],
          [
            -98.551469,
            29.983348
          ],
          [
            -98.551011,
            29.983246
          ],
          [
            -98.550556,
            29.983088
          ],
          [
            -98.550252,
            29.98293
          ],
          [
            -98.550036,
            29.982818
          ],
          [
            -98.549767,
            29.982631
          ],
          [
            -98.549341,
            29.982256
          ],
          [
            -98.549061,
            29.981921
          ],
          [
            -98.548879,
            29.981627
          ],
          [
            -98.548053,
            29.979892
          ],
          [
            -98.547927,
            29.979669
          ],
          [
            -98.547711,
            29.979353
          ],
          [
            -98.547383,
            29.978979
          ],
          [
            -98.547221,
            29.978836
          ],
          [
            -98.547028,
            29.978664
          ],
          [
            -98.546723,
            29.978438
          ],
          [
            -98.546258,
            29.978159
          ],
          [
            -98.545466,
            29.977823
          ],
          [
            -98.541666,
            29.976335
          ],
          [
            -98.540898,
            29.97603
          ],
          [
            -98.540825,
            29.976005
          ],
          [
            -98.540118,
            29.975741
          ],
          [
            -98.539618,
            29.975594
          ],
          [
            -98.538562,
            29.975326
          ],
          [
            -98.536883,
            29.974864
          ],
          [
            -98.534003,
            29.973887
          ],
          [
            -98.532813,
            29.973544
          ],
          [
            -98.532263,
            29.973444
          ],
          [
            -98.531966,
            29.973392
          ],
          [
            -98.531404,
            29.973336
          ],
          [
            -98.528591,
            29.973129
          ],
          [
            -98.528106,
            29.973042
          ],
          [
            -98.527642,
            29.972887
          ],
          [
            -98.52728,
            29.97272
          ],
          [
            -98.526949,
            29.972531
          ],
          [
            -98.526671,
            29.972331
          ],
          [
            -98.526441,
            29.972133
          ],
          [
            -98.526269,
            29.971944
          ],
          [
            -98.526124,
            29.971786
          ],
          [
            -98.525921,
            29.971502
          ],
          [
            -98.525891,
            29.971464
          ],
          [
            -98.524716,
            29.969984
          ],
          [
            -98.524466,
            29.969697
          ],
          [
            -98.524335,
            29.969573
          ],
          [
            -98.524234,
            29.969498
          ],
          [
            -98.523977,
            29.969314
          ],
          [
            -98.523648,
            29.969147
          ],
          [
            -98.523514,
            29.96909
          ],
          [
            -98.52338,
            29.969044
          ],
          [
            -98.523072,
            29.968963
          ],
          [
            -98.52298,
            29.968949
          ],
          [
            -98.522907,
            29.968939
          ],
          [
            -98.522743,
            29.968922
          ],
          [
            -98.522479,
            29.968904
          ],
          [
            -98.522256,
            29.968924
          ],
          [
            -98.522051,
            29.968943
          ],
          [
            -98.521897,
            29.968975
          ],
          [
            -98.521654,
            29.969037
          ],
          [
            -98.521307,
            29.969126
          ],
          [
            -98.52153,
            29.969807
          ],
          [
            -98.521581,
            29.970048
          ],
          [
            -98.521558,
            29.970118
          ],
          [
            -98.521548,
            29.97015
          ],
          [
            -98.521413,
            29.970432
          ],
          [
            -98.520939,
            29.971212
          ],
          [
            -98.520201,
            29.973137
          ],
          [
            -98.520174,
            29.975177
          ],
          [
            -98.520515,
            29.978891
          ],
          [
            -98.520737,
            29.980676
          ],
          [
            -98.521039,
            29.983109
          ],
          [
            -98.521095,
            29.983625
          ],
          [
            -98.521535,
            29.988144
          ],
          [
            -98.521627,
            29.989281
          ],
          [
            -98.521752,
            29.990475
          ],
          [
            -98.521873,
            29.991724
          ],
          [
            -98.521913,
            29.992424
          ],
          [
            -98.523202,
            29.993735
          ],
          [
            -98.524872,
            29.995544
          ],
          [
            -98.526519,
            29.997363
          ],
          [
            -98.527181,
            29.998216
          ],
          [
            -98.527561,
            29.998984
          ],
          [
            -98.527644,
            29.999153
          ],
          [
            -98.527649,
            29.999162
          ],
          [
            -98.527749,
            29.999355
          ],
          [
            -98.527877,
            29.999619
          ],
          [
            -98.528052,
            30.000122
          ],
          [
            -98.528091,
            30.000212
          ],
          [
            -98.528934,
            30.00074
          ],
          [
            -98.529145,
            30.001129
          ],
          [
            -98.529329,
            30.002046
          ],
          [
            -98.528298,
            30.005514
          ],
          [
            -98.528121,
            30.006112
          ],
          [
            -98.528092,
            30.006323
          ],
          [
            -98.528095,
            30.006509
          ],
          [
            -98.528108,
            30.006595
          ],
          [
            -98.528181,
            30.006726
          ],
          [
            -98.528453,
            30.007107
          ],
          [
            -98.529047,
            30.008202
          ],
          [
            -98.529063,
            30.008235
          ],
          [
            -98.529197,
            30.008396
          ],
          [
            -98.529958,
            30.009313
          ],
          [
            -98.530064,
            30.009588
          ],
          [
            -98.53017,
            30.009723
          ],
          [
            -98.530406,
            30.010023
          ],
          [
            -98.53159,
            30.012338
          ],
          [
            -98.531833,
            30.012936
          ],
          [
            -98.532222,
            30.013897
          ],
          [
            -98.533932,
            30.018963
          ],
          [
            -98.534406,
            30.019697
          ],
          [
            -98.535992,
            30.021311
          ],
          [
            -98.536415,
            30.02172
          ],
          [
            -98.536457,
            30.021761
          ],
          [
            -98.536753,
            30.022043
          ],
          [
            -98.536959,
            30.0222
          ],
          [
            -98.536996,
            30.022323
          ],
          [
            -98.537205,
            30.023004
          ],
          [
            -98.537471,
            30.02364
          ],
          [
            -98.537871,
            30.025392
          ],
          [
            -98.538119,
            30.028913
          ],
          [
            -98.539251,
            30.030655
          ],
          [
            -98.539593,
            30.031733
          ],
          [
            -98.540884,
            30.033795
          ],
          [
            -98.540989,
            30.034322
          ],
          [
            -98.54098,
            30.034626
          ],
          [
            -98.540962,
            30.035239
          ],
          [
            -98.540778,
            30.035972
          ],
          [
            -98.540409,
            30.036637
          ],
          [
            -98.539876,
            30.03752
          ],
          [
            -98.539788,
            30.037739
          ],
          [
            -98.539582,
            30.038205
          ],
          [
            -98.539397,
            30.03875
          ],
          [
            -98.539234,
            30.039803
          ],
          [
            -98.539199,
            30.040211
          ],
          [
            -98.539625,
            30.040727
          ],
          [
            -98.539936,
            30.04109
          ],
          [
            -98.540105,
            30.041296
          ],
          [
            -98.540532,
            30.041808
          ],
          [
            -98.540582,
            30.041903
          ],
          [
            -98.540626,
            30.042037
          ],
          [
            -98.540623,
            30.042195
          ],
          [
            -98.540558,
            30.042426
          ],
          [
            -98.540392,
            30.042882
          ],
          [
            -98.539775,
            30.044156
          ],
          [
            -98.539466,
            30.04485
          ],
          [
            -98.53921,
            30.045584
          ],
          [
            -98.538968,
            30.046257
          ],
          [
            -98.538828,
            30.04676
          ],
          [
            -98.538819,
            30.046918
          ],
          [
            -98.538789,
            30.047745
          ],
          [
            -98.538736,
            30.048169
          ],
          [
            -98.538633,
            30.048571
          ],
          [
            -98.53853,
            30.048797
          ],
          [
            -98.538012,
            30.049634
          ],
          [
            -98.537804,
            30.050029
          ],
          [
            -98.537767,
            30.05017
          ],
          [
            -98.537751,
            30.050255
          ],
          [
            -98.537656,
            30.050901
          ],
          [
            -98.537613,
            30.0512
          ],
          [
            -98.537708,
            30.051188
          ],
          [
            -98.537832,
            30.051168
          ],
          [
            -98.538027,
            30.051078
          ],
          [
            -98.538177,
            30.050998
          ],
          [
            -98.538249,
            30.05096
          ],
          [
            -98.538321,
            30.050902
          ],
          [
            -98.538388,
            30.050849
          ],
          [
            -98.538556,
            30.050687
          ],
          [
            -98.538556,
            30.050687
          ],
          [
            -98.538388,
            30.050849
          ],
          [
            -98.538321,
            30.050902
          ],
          [
            -98.538249,
            30.05096
          ],
          [
            -98.538177,
            30.050998
          ],
          [
            -98.538027,
            30.051078
          ],
          [
            -98.537832,
            30.051168
          ],
          [
            -98.537708,
            30.051188
          ],
          [
            -98.537613,
            30.0512
          ],
          [
            -98.537533,
            30.051995
          ],
          [
            -98.537473,
            30.052405
          ],
          [
            -98.537393,
            30.053036
          ],
          [
            -98.537109,
            30.054153
          ],
          [
            -98.536959,
            30.054694
          ],
          [
            -98.536828,
            30.055194
          ],
          [
            -98.534935,
            30.06172
          ],
          [
            -98.534907,
            30.061789
          ],
          [
            -98.534888,
            30.061969
          ],
          [
            -98.534581,
            30.065767
          ],
          [
            -98.534499,
            30.066778
          ],
          [
            -98.53445,
            30.067956
          ],
          [
            -98.534468,
            30.06819
          ],
          [
            -98.534736,
            30.069433
          ],
          [
            -98.534987,
            30.070548
          ],
          [
            -98.535078,
            30.070939
          ],
          [
            -98.535085,
            30.071109
          ],
          [
            -98.535022,
            30.071281
          ],
          [
            -98.534895,
            30.071453
          ],
          [
            -98.533845,
            30.072615
          ],
          [
            -98.533743,
            30.072708
          ],
          [
            -98.533552,
            30.072874
          ],
          [
            -98.532351,
            30.073812
          ],
          [
            -98.53226,
            30.073875
          ],
          [
            -98.532144,
            30.073955
          ],
          [
            -98.531827,
            30.074265
          ],
          [
            -98.531767,
            30.07435
          ],
          [
            -98.531728,
            30.074439
          ],
          [
            -98.531597,
            30.075018
          ],
          [
            -98.531528,
            30.075371
          ],
          [
            -98.531483,
            30.075518
          ],
          [
            -98.531426,
            30.075663
          ],
          [
            -98.531026,
            30.076492
          ],
          [
            -98.530225,
            30.078186
          ],
          [
            -98.53011,
            30.078429
          ],
          [
            -98.530084,
            30.078484
          ],
          [
            -98.529412,
            30.079893
          ],
          [
            -98.528744,
            30.081258
          ],
          [
            -98.528686,
            30.081343
          ],
          [
            -98.528616,
            30.081422
          ],
          [
            -98.528535,
            30.081493
          ],
          [
            -98.527848,
            30.082045
          ],
          [
            -98.527485,
            30.082323
          ],
          [
            -98.527464,
            30.082342
          ],
          [
            -98.527423,
            30.08238
          ],
          [
            -98.527319,
            30.082462
          ],
          [
            -98.527223,
            30.082526
          ],
          [
            -98.527121,
            30.082583
          ],
          [
            -98.527015,
            30.082633
          ],
          [
            -98.526419,
            30.082892
          ],
          [
            -98.526349,
            30.082926
          ],
          [
            -98.526138,
            30.083025
          ],
          [
            -98.525965,
            30.083091
          ],
          [
            -98.525786,
            30.083143
          ],
          [
            -98.525085,
            30.083298
          ],
          [
            -98.524235,
            30.083463
          ],
          [
            -98.524041,
            30.083501
          ],
          [
            -98.523534,
            30.083589
          ],
          [
            -98.523007,
            30.0837
          ],
          [
            -98.522737,
            30.083745
          ],
          [
            -98.522625,
            30.083772
          ],
          [
            -98.522517,
            30.08381
          ],
          [
            -98.522414,
            30.083856
          ],
          [
            -98.522317,
            30.083912
          ],
          [
            -98.522227,
            30.083976
          ],
          [
            -98.522128,
            30.084032
          ],
          [
            -98.522034,
            30.084095
          ],
          [
            -98.521945,
            30.084164
          ],
          [
            -98.521862,
            30.084238
          ],
          [
            -98.521746,
            30.084356
          ],
          [
            -98.52171,
            30.084398
          ],
          [
            -98.521679,
            30.084443
          ],
          [
            -98.52163,
            30.084538
          ],
          [
            -98.521599,
            30.084639
          ],
          [
            -98.521404,
            30.086126
          ],
          [
            -98.521209,
            30.08737
          ],
          [
            -98.521206,
            30.087441
          ],
          [
            -98.521211,
            30.087517
          ],
          [
            -98.521302,
            30.088091
          ],
          [
            -98.521351,
            30.088361
          ],
          [
            -98.521359,
            30.088444
          ],
          [
            -98.521361,
            30.088535
          ],
          [
            -98.521346,
            30.088755
          ],
          [
            -98.521323,
            30.0889
          ],
          [
            -98.521289,
            30.089044
          ],
          [
            -98.521272,
            30.089099
          ],
          [
            -98.521061,
            30.090269
          ],
          [
            -98.521044,
            30.090428
          ],
          [
            -98.521045,
            30.090641
          ],
          [
            -98.521098,
            30.091194
          ],
          [
            -98.521128,
            30.091504
          ],
          [
            -98.521134,
            30.091716
          ],
          [
            -98.521094,
            30.092758
          ],
          [
            -98.521081,
            30.092898
          ],
          [
            -98.521019,
            30.093272
          ],
          [
            -98.520982,
            30.093431
          ],
          [
            -98.520961,
            30.0935
          ],
          [
            -98.520935,
            30.093564
          ],
          [
            -98.520902,
            30.09362
          ],
          [
            -98.520864,
            30.09367
          ],
          [
            -98.520813,
            30.093721
          ],
          [
            -98.520759,
            30.093762
          ],
          [
            -98.520676,
            30.093804
          ],
          [
            -98.520363,
            30.093877
          ],
          [
            -98.519607,
            30.093959
          ],
          [
            -98.519446,
            30.093969
          ],
          [
            -98.519302,
            30.093992
          ],
          [
            -98.519231,
            30.094004
          ],
          [
            -98.519155,
            30.094024
          ],
          [
            -98.518535,
            30.094232
          ],
          [
            -98.518196,
            30.09436
          ],
          [
            -98.518082,
            30.094411
          ],
          [
            -98.517978,
            30.094466
          ],
          [
            -98.517886,
            30.094525
          ],
          [
            -98.517801,
            30.094588
          ],
          [
            -98.51772,
            30.094658
          ],
          [
            -98.517644,
            30.094736
          ],
          [
            -98.517571,
            30.094821
          ],
          [
            -98.517471,
            30.094965
          ],
          [
            -98.517405,
            30.095098
          ],
          [
            -98.517327,
            30.095322
          ],
          [
            -98.517234,
            30.095651
          ],
          [
            -98.517221,
            30.095696
          ],
          [
            -98.517036,
            30.096396
          ],
          [
            -98.516909,
            30.096796
          ],
          [
            -98.516871,
            30.096902
          ],
          [
            -98.516838,
            30.09698
          ],
          [
            -98.516802,
            30.097047
          ],
          [
            -98.516764,
            30.097106
          ],
          [
            -98.516707,
            30.097175
          ],
          [
            -98.51664,
            30.097245
          ],
          [
            -98.516563,
            30.097317
          ],
          [
            -98.516071,
            30.097709
          ],
          [
            -98.515925,
            30.097823
          ],
          [
            -98.515718,
            30.098005
          ],
          [
            -98.515495,
            30.098175
          ],
          [
            -98.515314,
            30.098304
          ],
          [
            -98.515125,
            30.098429
          ],
          [
            -98.514741,
            30.098654
          ],
          [
            -98.514346,
            30.098867
          ],
          [
            -98.514036,
            30.099026
          ],
          [
            -98.513551,
            30.099262
          ],
          [
            -98.512898,
            30.099616
          ],
          [
            -98.512391,
            30.099867
          ],
          [
            -98.51229,
            30.099923
          ],
          [
            -98.512193,
            30.099985
          ],
          [
            -98.5121,
            30.10005
          ],
          [
            -98.512013,
            30.100119
          ],
          [
            -98.511946,
            30.100182
          ],
          [
            -98.511892,
            30.100248
          ],
          [
            -98.51185,
            30.100317
          ],
          [
            -98.511822,
            30.100386
          ],
          [
            -98.511799,
            30.100475
          ],
          [
            -98.511783,
            30.100566
          ],
          [
            -98.511781,
            30.100591
          ],
          [
            -98.511775,
            30.100655
          ],
          [
            -98.511775,
            30.100742
          ],
          [
            -98.511798,
            30.10102
          ],
          [
            -98.511799,
            30.101287
          ],
          [
            -98.511793,
            30.101834
          ],
          [
            -98.511792,
            30.101897
          ],
          [
            -98.511805,
            30.101935
          ],
          [
            -98.511858,
            30.102017
          ],
          [
            -98.511967,
            30.102214
          ],
          [
            -98.511996,
            30.102259
          ],
          [
            -98.512168,
            30.102231
          ],
          [
            -98.512416,
            30.102218
          ],
          [
            -98.512657,
            30.102245
          ],
          [
            -98.513088,
            30.102099
          ],
          [
            -98.513269,
            30.102048
          ],
          [
            -98.513414,
            30.102017
          ],
          [
            -98.513445,
            30.102011
          ],
          [
            -98.513514,
            30.101996
          ],
          [
            -98.513762,
            30.10196
          ],
          [
            -98.513988,
            30.101942
          ],
          [
            -98.514014,
            30.10194
          ],
          [
            -98.514267,
            30.101938
          ],
          [
            -98.514519,
            30.101953
          ],
          [
            -98.515912,
            30.102119
          ],
          [
            -98.516157,
            30.102166
          ],
          [
            -98.516226,
            30.102183
          ],
          [
            -98.516458,
            30.102238
          ],
          [
            -98.516599,
            30.10228
          ],
          [
            -98.516754,
            30.102326
          ],
          [
            -98.517044,
            30.102427
          ],
          [
            -98.517327,
            30.102544
          ],
          [
            -98.517837,
            30.102788
          ],
          [
            -98.518553,
            30.10313
          ],
          [
            -98.518782,
            30.103222
          ],
          [
            -98.519019,
            30.103298
          ],
          [
            -98.519142,
            30.103328
          ],
          [
            -98.519263,
            30.103357
          ],
          [
            -98.51951,
            30.1034
          ],
          [
            -98.519761,
            30.103425
          ],
          [
            -98.520013,
            30.103433
          ],
          [
            -98.520448,
            30.103418
          ],
          [
            -98.520523,
            30.103411
          ],
          [
            -98.520756,
            30.103389
          ],
          [
            -98.521061,
            30.103339
          ],
          [
            -98.521361,
            30.103268
          ],
          [
            -98.521634,
            30.10321
          ],
          [
            -98.523687,
            30.102762
          ],
          [
            -98.524211,
            30.102648
          ],
          [
            -98.524887,
            30.102501
          ],
          [
            -98.525666,
            30.102311
          ],
          [
            -98.525989,
            30.102248
          ],
          [
            -98.52619,
            30.102219
          ],
          [
            -98.526372,
            30.102204
          ],
          [
            -98.526575,
            30.102201
          ],
          [
            -98.526884,
            30.102216
          ],
          [
            -98.527066,
            30.10223
          ],
          [
            -98.527264,
            30.102254
          ],
          [
            -98.527456,
            30.102291
          ],
          [
            -98.527666,
            30.10234
          ],
          [
            -98.527864,
            30.102396
          ],
          [
            -98.528037,
            30.102453
          ],
          [
            -98.528225,
            30.102529
          ],
          [
            -98.528428,
            30.102625
          ],
          [
            -98.528647,
            30.10274
          ],
          [
            -98.528797,
            30.102833
          ],
          [
            -98.529366,
            30.103233
          ],
          [
            -98.529503,
            30.103337
          ],
          [
            -98.529901,
            30.103601
          ],
          [
            -98.530046,
            30.103684
          ],
          [
            -98.530443,
            30.103868
          ],
          [
            -98.530594,
            30.103929
          ],
          [
            -98.531235,
            30.104158
          ],
          [
            -98.531418,
            30.104223
          ],
          [
            -98.531919,
            30.104414
          ],
          [
            -98.532044,
            30.104454
          ],
          [
            -98.532283,
            30.104517
          ],
          [
            -98.532527,
            30.104566
          ],
          [
            -98.532774,
            30.104599
          ],
          [
            -98.533024,
            30.104616
          ],
          [
            -98.533274,
            30.104619
          ],
          [
            -98.533582,
            30.104602
          ],
          [
            -98.533885,
            30.104565
          ],
          [
            -98.534182,
            30.104507
          ],
          [
            -98.534474,
            30.104427
          ],
          [
            -98.534756,
            30.104326
          ],
          [
            -98.534821,
            30.104301
          ],
          [
            -98.535227,
            30.104116
          ],
          [
            -98.535593,
            30.103948
          ],
          [
            -98.535862,
            30.103833
          ],
          [
            -98.536142,
            30.103737
          ],
          [
            -98.536429,
            30.103662
          ],
          [
            -98.536724,
            30.103604
          ],
          [
            -98.536963,
            30.103575
          ],
          [
            -98.537065,
            30.10357
          ],
          [
            -98.537205,
            30.103564
          ],
          [
            -98.537447,
            30.103572
          ],
          [
            -98.538215,
            30.103643
          ],
          [
            -98.539092,
            30.103736
          ],
          [
            -98.539131,
            30.10374
          ],
          [
            -98.540464,
            30.10388
          ],
          [
            -98.541885,
            30.104033
          ],
          [
            -98.542262,
            30.104053
          ],
          [
            -98.542639,
            30.104053
          ],
          [
            -98.542999,
            30.104034
          ],
          [
            -98.543271,
            30.104014
          ],
          [
            -98.543928,
            30.103968
          ],
          [
            -98.54417,
            30.103961
          ],
          [
            -98.544413,
            30.103969
          ],
          [
            -98.544655,
            30.103993
          ],
          [
            -98.544893,
            30.104031
          ],
          [
            -98.545597,
            30.104187
          ],
          [
            -98.545651,
            30.104194
          ],
          [
            -98.545906,
            30.104226
          ],
          [
            -98.546219,
            30.104245
          ],
          [
            -98.546448,
            30.104242
          ],
          [
            -98.546532,
            30.104241
          ],
          [
            -98.546843,
            30.104216
          ],
          [
            -98.547097,
            30.104177
          ],
          [
            -98.547152,
            30.104169
          ],
          [
            -98.548827,
            30.103804
          ],
          [
            -98.549498,
            30.103664
          ],
          [
            -98.549682,
            30.103632
          ],
          [
            -98.549991,
            30.103597
          ],
          [
            -98.550301,
            30.103583
          ],
          [
            -98.550613,
            30.103592
          ],
          [
            -98.550922,
            30.103623
          ],
          [
            -98.5515,
            30.103733
          ],
          [
            -98.551749,
            30.103774
          ],
          [
            -98.552656,
            30.103925
          ],
          [
            -98.552897,
            30.103961
          ],
          [
            -98.552955,
            30.103969
          ],
          [
            -98.553316,
            30.104004
          ],
          [
            -98.554323,
            30.104046
          ],
          [
            -98.554569,
            30.10404
          ],
          [
            -98.554814,
            30.104019
          ],
          [
            -98.555057,
            30.10398
          ],
          [
            -98.555296,
            30.103925
          ],
          [
            -98.555319,
            30.103919
          ],
          [
            -98.555685,
            30.103817
          ],
          [
            -98.55601,
            30.103751
          ],
          [
            -98.556305,
            30.10369
          ],
          [
            -98.556603,
            30.103647
          ],
          [
            -98.556905,
            30.103623
          ],
          [
            -98.557201,
            30.103618
          ],
          [
            -98.558099,
            30.103603
          ],
          [
            -98.559589,
            30.103587
          ],
          [
            -98.560126,
            30.103581
          ],
          [
            -98.562562,
            30.103554
          ],
          [
            -98.564176,
            30.103506
          ],
          [
            -98.565083,
            30.103479
          ],
          [
            -98.565636,
            30.103508
          ],
          [
            -98.566155,
            30.103596
          ],
          [
            -98.566629,
            30.103743
          ],
          [
            -98.567068,
            30.103939
          ],
          [
            -98.570884,
            30.106096
          ],
          [
            -98.571479,
            30.106404
          ],
          [
            -98.571894,
            30.106557
          ],
          [
            -98.572192,
            30.106634
          ],
          [
            -98.572616,
            30.106708
          ],
          [
            -98.572993,
            30.106729
          ],
          [
            -98.5733,
            30.106731
          ],
          [
            -98.573567,
            30.106713
          ],
          [
            -98.573783,
            30.106679
          ],
          [
            -98.573901,
            30.106659
          ],
          [
            -98.574146,
            30.106606
          ],
          [
            -98.574523,
            30.10649
          ],
          [
            -98.575224,
            30.106153
          ],
          [
            -98.576005,
            30.105762
          ],
          [
            -98.576526,
            30.105492
          ],
          [
            -98.578,
            30.104758
          ],
          [
            -98.578763,
            30.104377
          ],
          [
            -98.579483,
            30.104063
          ],
          [
            -98.579928,
            30.103936
          ],
          [
            -98.580396,
            30.103864
          ],
          [
            -98.580874,
            30.103844
          ],
          [
            -98.581035,
            30.103855
          ],
          [
            -98.581346,
            30.103876
          ],
          [
            -98.581661,
            30.103929
          ],
          [
            -98.581974,
            30.104005
          ],
          [
            -98.584543,
            30.104764
          ],
          [
            -98.58584,
            30.105147
          ],
          [
            -98.586518,
            30.105328
          ],
          [
            -98.586859,
            30.105399
          ],
          [
            -98.590602,
            30.106067
          ],
          [
            -98.592076,
            30.106311
          ],
          [
            -98.598264,
            30.107157
          ],
          [
            -98.59881,
            30.107239
          ],
          [
            -98.599333,
            30.107338
          ],
          [
            -98.600681,
            30.10769
          ],
          [
            -98.602945,
            30.10831
          ],
          [
            -98.604461,
            30.108712
          ],
          [
            -98.605586,
            30.109011
          ],
          [
            -98.60839,
            30.109788
          ],
          [
            -98.609282,
            30.110035
          ],
          [
            -98.611828,
            30.110741
          ],
          [
            -98.612193,
            30.110828
          ],
          [
            -98.612557,
            30.110888
          ],
          [
            -98.613109,
            30.11093
          ],
          [
            -98.613659,
            30.11091
          ],
          [
            -98.614186,
            30.110841
          ],
          [
            -98.614786,
            30.110738
          ],
          [
            -98.615475,
            30.110589
          ],
          [
            -98.615935,
            30.110519
          ],
          [
            -98.616291,
            30.110492
          ],
          [
            -98.616529,
            30.110473
          ],
          [
            -98.616641,
            30.110474
          ],
          [
            -98.616986,
            30.110477
          ],
          [
            -98.6173,
            30.110502
          ],
          [
            -98.617455,
            30.110514
          ],
          [
            -98.617934,
            30.11058
          ],
          [
            -98.620047,
            30.110913
          ],
          [
            -98.620744,
            30.111027
          ],
          [
            -98.62148,
            30.111144
          ],
          [
            -98.622148,
            30.111293
          ],
          [
            -98.622786,
            30.111456
          ],
          [
            -98.623141,
            30.111547
          ],
          [
            -98.623786,
            30.111712
          ],
          [
            -98.624519,
            30.111899
          ],
          [
            -98.624858,
            30.111971
          ],
          [
            -98.625187,
            30.112018
          ],
          [
            -98.625819,
            30.112024
          ],
          [
            -98.626593,
            30.111983
          ],
          [
            -98.630712,
            30.111792
          ],
          [
            -98.631158,
            30.111782
          ],
          [
            -98.631642,
            30.111784
          ],
          [
            -98.631994,
            30.111807
          ],
          [
            -98.632332,
            30.111859
          ],
          [
            -98.632811,
            30.11199
          ],
          [
            -98.63511,
            30.112845
          ],
          [
            -98.636861,
            30.113496
          ],
          [
            -98.637327,
            30.113629
          ],
          [
            -98.637778,
            30.11373
          ],
          [
            -98.638222,
            30.113803
          ],
          [
            -98.638519,
            30.113829
          ],
          [
            -98.64074,
            30.11387
          ],
          [
            -98.641351,
            30.113882
          ],
          [
            -98.642317,
            30.113923
          ],
          [
            -98.642363,
            30.113924
          ],
          [
            -98.642867,
            30.113927
          ],
          [
            -98.643309,
            30.113908
          ],
          [
            -98.643718,
            30.113867
          ],
          [
            -98.644167,
            30.113797
          ],
          [
            -98.645838,
            30.113395
          ],
          [
            -98.645972,
            30.113368
          ],
          [
            -98.646212,
            30.11332
          ],
          [
            -98.646586,
            30.113274
          ],
          [
            -98.647152,
            30.113253
          ],
          [
            -98.647529,
            30.113273
          ],
          [
            -98.647774,
            30.113288
          ],
          [
            -98.647914,
            30.113318
          ],
          [
            -98.648078,
            30.113352
          ],
          [
            -98.648592,
            30.113482
          ],
          [
            -98.649513,
            30.11376
          ],
          [
            -98.649806,
            30.113849
          ],
          [
            -98.650104,
            30.113916
          ],
          [
            -98.650334,
            30.113968
          ],
          [
            -98.650861,
            30.114048
          ],
          [
            -98.651214,
            30.114076
          ],
          [
            -98.651572,
            30.114084
          ],
          [
            -98.652473,
            30.114064
          ],
          [
            -98.654569,
            30.114017
          ],
          [
            -98.654968,
            30.114049
          ],
          [
            -98.655058,
            30.114065
          ],
          [
            -98.655486,
            30.11414
          ],
          [
            -98.655669,
            30.114193
          ],
          [
            -98.655969,
            30.114309
          ],
          [
            -98.65628,
            30.114453
          ],
          [
            -98.656637,
            30.114661
          ],
          [
            -98.656931,
            30.114881
          ],
          [
            -98.657354,
            30.115266
          ],
          [
            -98.659528,
            30.117367
          ],
          [
            -98.660579,
            30.118336
          ],
          [
            -98.661002,
            30.118707
          ],
          [
            -98.661476,
            30.119063
          ],
          [
            -98.661987,
            30.119402
          ],
          [
            -98.662343,
            30.119605
          ],
          [
            -98.664339,
            30.120631
          ],
          [
            -98.664827,
            30.120911
          ],
          [
            -98.665646,
            30.121467
          ],
          [
            -98.667605,
            30.123021
          ],
          [
            -98.667715,
            30.123132
          ],
          [
            -98.668258,
            30.123506
          ],
          [
            -98.668964,
            30.123957
          ],
          [
            -98.670447,
            30.12485
          ],
          [
            -98.670778,
            30.125079
          ],
          [
            -98.671086,
            30.12532
          ],
          [
            -98.671504,
            30.125719
          ],
          [
            -98.671888,
            30.126162
          ],
          [
            -98.674627,
            30.129885
          ],
          [
            -98.674736,
            30.130022
          ],
          [
            -98.674839,
            30.130152
          ],
          [
            -98.675056,
            30.130394
          ],
          [
            -98.675277,
            30.130609
          ],
          [
            -98.675604,
            30.130893
          ],
          [
            -98.675919,
            30.131133
          ],
          [
            -98.67645,
            30.131471
          ],
          [
            -98.679069,
            30.132961
          ],
          [
            -98.679728,
            30.133313
          ],
          [
            -98.680271,
            30.133562
          ],
          [
            -98.680806,
            30.133767
          ],
          [
            -98.687003,
            30.135932
          ],
          [
            -98.687393,
            30.136079
          ],
          [
            -98.687631,
            30.136189
          ],
          [
            -98.687846,
            30.136312
          ],
          [
            -98.688145,
            30.136508
          ],
          [
            -98.688328,
            30.136647
          ],
          [
            -98.688577,
            30.136867
          ],
          [
            -98.68959,
            30.137953
          ],
          [
            -98.689938,
            30.138322
          ],
          [
            -98.690174,
            30.138584
          ],
          [
            -98.690636,
            30.139069
          ],
          [
            -98.692097,
            30.140632
          ],
          [
            -98.692438,
            30.141071
          ],
          [
            -98.692731,
            30.141552
          ],
          [
            -98.692885,
            30.141854
          ],
          [
            -98.693052,
            30.142279
          ],
          [
            -98.693559,
            30.143726
          ],
          [
            -98.69404,
            30.14505
          ],
          [
            -98.694386,
            30.145906
          ],
          [
            -98.694572,
            30.146304
          ],
          [
            -98.694817,
            30.146794
          ],
          [
            -98.695323,
            30.147729
          ],
          [
            -98.696282,
            30.149489
          ],
          [
            -98.696398,
            30.149681
          ],
          [
            -98.696538,
            30.149867
          ],
          [
            -98.696692,
            30.150051
          ],
          [
            -98.696829,
            30.150186
          ],
          [
            -98.696936,
            30.150292
          ],
          [
            -98.697136,
            30.150454
          ],
          [
            -98.697343,
            30.150593
          ],
          [
            -98.697561,
            30.150722
          ],
          [
            -98.697824,
            30.150856
          ],
          [
            -98.697991,
            30.15093
          ],
          [
            -98.698206,
            30.151008
          ],
          [
            -98.698469,
            30.151089
          ],
          [
            -98.698778,
            30.151156
          ],
          [
            -98.699213,
            30.151221
          ],
          [
            -98.701388,
            30.151452
          ],
          [
            -98.701826,
            30.151506
          ],
          [
            -98.702111,
            30.151562
          ],
          [
            -98.702521,
            30.15167
          ],
          [
            -98.702917,
            30.151817
          ],
          [
            -98.703416,
            30.152062
          ],
          [
            -98.703891,
            30.152367
          ],
          [
            -98.704233,
            30.152634
          ],
          [
            -98.705438,
            30.153667
          ],
          [
            -98.705858,
            30.154008
          ],
          [
            -98.706145,
            30.154217
          ],
          [
            -98.706421,
            30.154404
          ],
          [
            -98.706784,
            30.154626
          ],
          [
            -98.707141,
            30.154823
          ],
          [
            -98.707549,
            30.155031
          ],
          [
            -98.707909,
            30.155186
          ],
          [
            -98.71028,
            30.156176
          ],
          [
            -98.711146,
            30.156517
          ],
          [
            -98.712549,
            30.157089
          ],
          [
            -98.712893,
            30.157207
          ],
          [
            -98.713194,
            30.157307
          ],
          [
            -98.713476,
            30.157373
          ],
          [
            -98.713834,
            30.157447
          ],
          [
            -98.714143,
            30.157492
          ],
          [
            -98.714391,
            30.157516
          ],
          [
            -98.714708,
            30.157534
          ],
          [
            -98.720789,
            30.157608
          ],
          [
            -98.721126,
            30.157646
          ],
          [
            -98.721452,
            30.157702
          ],
          [
            -98.721773,
            30.157786
          ],
          [
            -98.722087,
            30.157902
          ],
          [
            -98.722387,
            30.158043
          ],
          [
            -98.722804,
            30.158289
          ],
          [
            -98.723057,
            30.158476
          ],
          [
            -98.72328,
            30.15868
          ],
          [
            -98.72368,
            30.159118
          ],
          [
            -98.724356,
            30.159918
          ],
          [
            -98.726428,
            30.162385
          ],
          [
            -98.726624,
            30.162608
          ],
          [
            -98.726854,
            30.162826
          ],
          [
            -98.727186,
            30.163086
          ],
          [
            -98.727427,
            30.16324
          ],
          [
            -98.727675,
            30.163368
          ],
          [
            -98.728059,
            30.163525
          ],
          [
            -98.728463,
            30.163647
          ],
          [
            -98.728753,
            30.163713
          ],
          [
            -98.729066,
            30.163746
          ],
          [
            -98.729476,
            30.163778
          ],
          [
            -98.731784,
            30.163858
          ],
          [
            -98.732548,
            30.163862
          ],
          [
            -98.733149,
            30.163811
          ],
          [
            -98.735294,
            30.163424
          ],
          [
            -98.735629,
            30.163373
          ],
          [
            -98.735984,
            30.16334
          ],
          [
            -98.736639,
            30.163318
          ],
          [
            -98.740769,
            30.163272
          ],
          [
            -98.742321,
            30.163243
          ],
          [
            -98.74233,
            30.163362
          ],
          [
            -98.742368,
            30.163708
          ],
          [
            -98.742411,
            30.164882
          ],
          [
            -98.742463,
            30.166321
          ],
          [
            -98.742599,
            30.169589
          ],
          [
            -98.742624,
            30.169899
          ],
          [
            -98.742658,
            30.17014
          ],
          [
            -98.742756,
            30.170517
          ],
          [
            -98.742819,
            30.170728
          ],
          [
            -98.74288,
            30.170884
          ],
          [
            -98.743082,
            30.171365
          ],
          [
            -98.743193,
            30.171574
          ],
          [
            -98.743343,
            30.171826
          ],
          [
            -98.743992,
            30.172819
          ],
          [
            -98.744183,
            30.173111
          ],
          [
            -98.745446,
            30.175083
          ],
          [
            -98.745663,
            30.175423
          ],
          [
            -98.746222,
            30.176258
          ],
          [
            -98.746956,
            30.177379
          ],
          [
            -98.747186,
            30.177723
          ],
          [
            -98.74753,
            30.178126
          ],
          [
            -98.747677,
            30.178276
          ],
          [
            -98.748008,
            30.178537
          ],
          [
            -98.748371,
            30.178761
          ],
          [
            -98.748866,
            30.178984
          ],
          [
            -98.749174,
            30.179086
          ],
          [
            -98.749484,
            30.179165
          ],
          [
            -98.750999,
            30.17948
          ],
          [
            -98.751285,
            30.17954
          ],
          [
            -98.751758,
            30.17964
          ],
          [
            -98.752206,
            30.179752
          ],
          [
            -98.752791,
            30.179908
          ],
          [
            -98.75373,
            30.180227
          ],
          [
            -98.754685,
            30.180569
          ],
          [
            -98.754809,
            30.180616
          ],
          [
            -98.755823,
            30.180999
          ],
          [
            -98.756015,
            30.181072
          ],
          [
            -98.756098,
            30.180857
          ],
          [
            -98.756111,
            30.180795
          ],
          [
            -98.756714,
            30.180802
          ],
          [
            -98.756683,
            30.18047
          ],
          [
            -98.756682,
            30.180219
          ],
          [
            -98.756739,
            30.180038
          ],
          [
            -98.756894,
            30.179907
          ]
        ]
      }
    }
  ]
}