{
  "type": "FeatureCollection",
  "features": [
    {
      "type": "Feature",
      "properties": {
        "route": "Willow City Loop & Enchanted Rock Run",
        "category": "Twisties & Canyons",
        "color": "#e74c3c",
        "waypoints": [
          "Fredericksburg",
          "Willow City",
          "Enchanted Rock"
        ],
        "via": "TX 16 -> RM 1323 -> Willow City Loop -> FM 965",
        "distance_mi": 35.7,
        "source": "road-snapped"
      },
      "geometry": {
        "type": "LineString",
        "coordinates": [
          [
            -98.872096,
            30.275297
          ],
          [
            -98.871845,
            30.275557
          ],
          [
            -98.871334,
            30.276086
          ],
          [
            -98.871251,
            30.276171
          ],
          [
            -98.871175,
            30.27625
          ],
          [
            -98.870724,
            30.276716
          ],
          [
            -98.87058,
            30.276865
          ],
          [
            -98.870366,
            30.277086
          ],
          [
            -98.87025,
            30.277206
          ],
          [
            -98.86972,
            30.277754
          ],
          [
            -98.868966,
            30.277233
          ],
          [
            -98.86855,
            30.276932
          ],
          [
            -98.868309,
            30.276758
          ],
          [
            -98.868013,
            30.276538
          ],
          [
            -98.867096,
            30.277495
          ],
          [
            -98.866239,
            30.278428
          ],
          [
            -98.865818,
            30.278874
          ],
          [
            -98.865363,
            30.279356
          ],
          [
            -98.864512,
            30.280286
          ],
          [
            -98.863623,
            30.281216
          ],
          [
            -98.862778,
            30.282093
          ],
          [
            -98.862581,
            30.2823
          ],
          [
            -98.861917,
            30.282999
          ],
          [
            -98.861539,
            30.283377
          ],
          [
            -98.86103,
            30.283782
          ],
          [
            -98.860694,
            30.284016
          ],
          [
            -98.860464,
            30.284144
          ],
          [
            -98.860318,
            30.284226
          ],
          [
            -98.859557,
            30.284536
          ],
          [
            -98.858968,
            30.28469
          ],
          [
            -98.858105,
            30.284891
          ],
          [
            -98.855896,
            30.285395
          ],
          [
            -98.854985,
            30.28562
          ],
          [
            -98.854692,
            30.285693
          ],
          [
            -98.854298,
            30.285791
          ],
          [
            -98.854111,
            30.285837
          ],
          [
            -98.852775,
            30.286168
          ],
          [
            -98.851177,
            30.286557
          ],
          [
            -98.850736,
            30.286699
          ],
          [
            -98.850365,
            30.286809
          ],
          [
            -98.849351,
            30.287277
          ],
          [
            -98.848776,
            30.287502
          ],
          [
            -98.847942,
            30.287807
          ],
          [
            -98.846738,
            30.28832
          ],
          [
            -98.844569,
            30.289271
          ],
          [
            -98.8422,
            30.290276
          ],
          [
            -98.840916,
            30.290829
          ],
          [
            -98.84017,
            30.291135
          ],
          [
            -98.840122,
            30.291155
          ],
          [
            -98.840038,
            30.291189
          ],
          [
            -98.839022,
            30.291606
          ],
          [
            -98.838444,
            30.291875
          ],
          [
            -98.83729,
            30.292457
          ],
          [
            -98.836117,
            30.293248
          ],
          [
            -98.835043,
            30.293902
          ],
          [
            -98.834785,
            30.294024
          ],
          [
            -98.834383,
            30.294213
          ],
          [
            -98.833265,
            30.294678
          ],
          [
            -98.83206,
            30.295181
          ],
          [
            -98.831313,
            30.295529
          ],
          [
            -98.829112,
            30.296827
          ],
          [
            -98.829,
            30.296893
          ],
          [
            -98.828147,
            30.297414
          ],
          [
            -98.825001,
            30.299264
          ],
          [
            -98.824555,
            30.299589
          ],
          [
            -98.824195,
            30.299904
          ],
          [
            -98.823833,
            30.300378
          ],
          [
            -98.823528,
            30.300843
          ],
          [
            -98.822552,
            30.302957
          ],
          [
            -98.822352,
            30.303285
          ],
          [
            -98.822176,
            30.30356
          ],
          [
            -98.821889,
            30.303922
          ],
          [
            -98.821,
            30.304985
          ],
          [
            -98.820453,
            30.305623
          ],
          [
            -98.81994,
            30.306203
          ],
          [
            -98.819189,
            30.306866
          ],
          [
            -98.818798,
            30.307173
          ],
          [
            -98.817403,
            30.308278
          ],
          [
            -98.817159,
            30.308502
          ],
          [
            -98.816092,
            30.309785
          ],
          [
            -98.814339,
            30.311967
          ],
          [
            -98.813212,
            30.313425
          ],
          [
            -98.810433,
            30.317441
          ],
          [
            -98.809734,
            30.31845
          ],
          [
            -98.808878,
            30.319597
          ],
          [
            -98.807889,
            30.321007
          ],
          [
            -98.807626,
            30.321419
          ],
          [
            -98.807458,
            30.321642
          ],
          [
            -98.807286,
            30.32188
          ],
          [
            -98.806815,
            30.322534
          ],
          [
            -98.806231,
            30.323333
          ],
          [
            -98.805643,
            30.323954
          ],
          [
            -98.804647,
            30.324855
          ],
          [
            -98.801014,
            30.327942
          ],
          [
            -98.800485,
            30.32842
          ],
          [
            -98.799554,
            30.329215
          ],
          [
            -98.798061,
            30.330506
          ],
          [
            -98.797583,
            30.331155
          ],
          [
            -98.797332,
            30.33153
          ],
          [
            -98.797133,
            30.331933
          ],
          [
            -98.79685,
            30.332654
          ],
          [
            -98.796281,
            30.334057
          ],
          [
            -98.796135,
            30.334296
          ],
          [
            -98.796083,
            30.334376
          ],
          [
            -98.795671,
            30.334831
          ],
          [
            -98.793925,
            30.336248
          ],
          [
            -98.792587,
            30.337333
          ],
          [
            -98.791112,
            30.338553
          ],
          [
            -98.790894,
            30.338736
          ],
          [
            -98.79068,
            30.338978
          ],
          [
            -98.787646,
            30.342715
          ],
          [
            -98.787345,
            30.343095
          ],
          [
            -98.787175,
            30.343308
          ],
          [
            -98.786963,
            30.343581
          ],
          [
            -98.786527,
            30.344146
          ],
          [
            -98.786011,
            30.34502
          ],
          [
            -98.785372,
            30.346046
          ],
          [
            -98.784478,
            30.347309
          ],
          [
            -98.783968,
            30.348029
          ],
          [
            -98.78374,
            30.348356
          ],
          [
            -98.783035,
            30.349366
          ],
          [
            -98.78261,
            30.349992
          ],
          [
            -98.781929,
            30.350926
          ],
          [
            -98.781567,
            30.351326
          ],
          [
            -98.779964,
            30.352845
          ],
          [
            -98.779742,
            30.353082
          ],
          [
            -98.779535,
            30.353417
          ],
          [
            -98.779325,
            30.354003
          ],
          [
            -98.778944,
            30.355131
          ],
          [
            -98.778612,
            30.356124
          ],
          [
            -98.778498,
            30.356476
          ],
          [
            -98.778324,
            30.356833
          ],
          [
            -98.77798,
            30.357314
          ],
          [
            -98.777652,
            30.357636
          ],
          [
            -98.777302,
            30.357915
          ],
          [
            -98.776928,
            30.358152
          ],
          [
            -98.776136,
            30.358547
          ],
          [
            -98.774681,
            30.359288
          ],
          [
            -98.771742,
            30.360735
          ],
          [
            -98.770414,
            30.361384
          ],
          [
            -98.768847,
            30.362145
          ],
          [
            -98.768608,
            30.362272
          ],
          [
            -98.760598,
            30.366301
          ],
          [
            -98.760229,
            30.366505
          ],
          [
            -98.759473,
            30.366925
          ],
          [
            -98.758728,
            30.367342
          ],
          [
            -98.755716,
            30.369025
          ],
          [
            -98.755213,
            30.369356
          ],
          [
            -98.754736,
            30.369781
          ],
          [
            -98.754335,
            30.370248
          ],
          [
            -98.753612,
            30.37122
          ],
          [
            -98.750274,
            30.375828
          ],
          [
            -98.749125,
            30.377397
          ],
          [
            -98.748265,
            30.378556
          ],
          [
            -98.745762,
            30.382024
          ],
          [
            -98.745349,
            30.382594
          ],
          [
            -98.745131,
            30.382834
          ],
          [
            -98.744621,
            30.383605
          ],
          [
            -98.744387,
            30.384061
          ],
          [
            -98.74411,
            30.385086
          ],
          [
            -98.742821,
            30.389575
          ],
          [
            -98.742381,
            30.391106
          ],
          [
            -98.742077,
            30.391888
          ],
          [
            -98.741124,
            30.394284
          ],
          [
            -98.738658,
            30.400356
          ],
          [
            -98.738376,
            30.401074
          ],
          [
            -98.73821,
            30.401478
          ],
          [
            -98.738074,
            30.4018
          ],
          [
            -98.737908,
            30.402141
          ],
          [
            -98.737683,
            30.402493
          ],
          [
            -98.736987,
            30.403375
          ],
          [
            -98.736788,
            30.403703
          ],
          [
            -98.73678,
            30.403726
          ],
          [
            -98.736664,
            30.404035
          ],
          [
            -98.736577,
            30.404492
          ],
          [
            -98.736564,
            30.40523
          ],
          [
            -98.736571,
            30.406052
          ],
          [
            -98.736648,
            30.413472
          ],
          [
            -98.736034,
            30.413353
          ],
          [
            -98.736648,
            30.413472
          ],
          [
            -98.736677,
            30.414519
          ],
          [
            -98.739835,
            30.414494
          ],
          [
            -98.744497,
            30.414447
          ],
          [
            -98.747871,
            30.414412
          ],
          [
            -98.748401,
            30.414407
          ],
          [
            -98.750315,
            30.414418
          ],
          [
            -98.757386,
            30.414363
          ],
          [
            -98.758947,
            30.414272
          ],
          [
            -98.758842,
            30.41159
          ],
          [
            -98.758845,
            30.405126
          ],
          [
            -98.75911,
            30.405058
          ],
          [
            -98.761436,
            30.405494
          ],
          [
            -98.763527,
            30.404578
          ],
          [
            -98.764691,
            30.403616
          ],
          [
            -98.765167,
            30.403409
          ],
          [
            -98.766436,
            30.403182
          ],
          [
            -98.766621,
            30.403937
          ],
          [
            -98.766662,
            30.404691
          ],
          [
            -98.7667,
            30.405404
          ],
          [
            -98.767995,
            30.406734
          ],
          [
            -98.768206,
            30.407124
          ],
          [
            -98.768232,
            30.408797
          ],
          [
            -98.768126,
            30.409256
          ],
          [
            -98.768099,
            30.409943
          ],
          [
            -98.768495,
            30.410723
          ],
          [
            -98.769579,
            30.412144
          ],
          [
            -98.769899,
            30.413128
          ],
          [
            -98.769903,
            30.413613
          ],
          [
            -98.769912,
            30.414643
          ],
          [
            -98.769888,
            30.414899
          ],
          [
            -98.769921,
            30.414964
          ],
          [
            -98.770747,
            30.415304
          ],
          [
            -98.771356,
            30.415555
          ],
          [
            -98.77209,
            30.415858
          ],
          [
            -98.772592,
            30.415927
          ],
          [
            -98.772803,
            30.416134
          ],
          [
            -98.774353,
            30.416735
          ],
          [
            -98.775051,
            30.417005
          ],
          [
            -98.775306,
            30.41741
          ],
          [
            -98.775435,
            30.419605
          ],
          [
            -98.775438,
            30.419655
          ],
          [
            -98.775578,
            30.421659
          ],
          [
            -98.77579,
            30.422071
          ],
          [
            -98.775975,
            30.422209
          ],
          [
            -98.777852,
            30.422737
          ],
          [
            -98.777984,
            30.422851
          ],
          [
            -98.777958,
            30.423401
          ],
          [
            -98.775735,
            30.427732
          ],
          [
            -98.775734,
            30.428099
          ],
          [
            -98.777638,
            30.430048
          ],
          [
            -98.778273,
            30.430277
          ],
          [
            -98.779119,
            30.430461
          ],
          [
            -98.781791,
            30.430782
          ],
          [
            -98.782265,
            30.43084
          ],
          [
            -98.78256,
            30.430797
          ],
          [
            -98.78317,
            30.430471
          ],
          [
            -98.783498,
            30.430469
          ],
          [
            -98.78376,
            30.430536
          ],
          [
            -98.786526,
            30.430989
          ],
          [
            -98.787372,
            30.43099
          ],
          [
            -98.787954,
            30.430761
          ],
          [
            -98.78843,
            30.430417
          ],
          [
            -98.788933,
            30.429683
          ],
          [
            -98.789674,
            30.429088
          ],
          [
            -98.789716,
            30.429059
          ],
          [
            -98.789799,
            30.42881
          ],
          [
            -98.789879,
            30.428529
          ],
          [
            -98.790009,
            30.42832
          ],
          [
            -98.790169,
            30.428213
          ],
          [
            -98.790333,
            30.428164
          ],
          [
            -98.791166,
            30.428222
          ],
          [
            -98.791627,
            30.428253
          ],
          [
            -98.791975,
            30.428229
          ],
          [
            -98.792242,
            30.428189
          ],
          [
            -98.792557,
            30.428102
          ],
          [
            -98.793156,
            30.427929
          ],
          [
            -98.794717,
            30.427279
          ],
          [
            -98.796902,
            30.426445
          ],
          [
            -98.797045,
            30.426708
          ],
          [
            -98.797477,
            30.427943
          ],
          [
            -98.79819,
            30.429593
          ],
          [
            -98.798428,
            30.430625
          ],
          [
            -98.798516,
            30.431226
          ],
          [
            -98.798793,
            30.43187
          ],
          [
            -98.799051,
            30.4321
          ],
          [
            -98.799327,
            30.432138
          ],
          [
            -98.799433,
            30.432252
          ],
          [
            -98.799962,
            30.432436
          ],
          [
            -98.800416,
            30.43261
          ],
          [
            -98.80053,
            30.432749
          ],
          [
            -98.800716,
            30.432975
          ],
          [
            -98.800944,
            30.433251
          ],
          [
            -98.803734,
            30.43377
          ],
          [
            -98.804069,
            30.433897
          ],
          [
            -98.804357,
            30.43406
          ],
          [
            -98.804642,
            30.434276
          ],
          [
            -98.805933,
            30.435383
          ],
          [
            -98.806995,
            30.436294
          ],
          [
            -98.807513,
            30.436665
          ],
          [
            -98.807977,
            30.436941
          ],
          [
            -98.811039,
            30.438198
          ],
          [
            -98.811385,
            30.438392
          ],
          [
            -98.81149,
            30.438546
          ],
          [
            -98.811503,
            30.438739
          ],
          [
            -98.81142,
            30.439075
          ],
          [
            -98.811372,
            30.439406
          ],
          [
            -98.811463,
            30.439819
          ],
          [
            -98.811793,
            30.440458
          ],
          [
            -98.812301,
            30.441251
          ],
          [
            -98.812565,
            30.441587
          ],
          [
            -98.813533,
            30.442081
          ],
          [
            -98.813862,
            30.442133
          ],
          [
            -98.814991,
            30.441955
          ],
          [
            -98.81601,
            30.441696
          ],
          [
            -98.817655,
            30.441492
          ],
          [
            -98.818373,
            30.441486
          ],
          [
            -98.819174,
            30.441497
          ],
          [
            -98.819886,
            30.44155
          ],
          [
            -98.821156,
            30.441749
          ],
          [
            -98.822227,
            30.442011
          ],
          [
            -98.824008,
            30.44243
          ],
          [
            -98.825595,
            30.442361
          ],
          [
            -98.826284,
            30.442336
          ],
          [
            -98.826858,
            30.442281
          ],
          [
            -98.827486,
            30.44209
          ],
          [
            -98.827978,
            30.441796
          ],
          [
            -98.830017,
            30.440522
          ],
          [
            -98.830362,
            30.440348
          ],
          [
            -98.830744,
            30.440188
          ],
          [
            -98.830912,
            30.44013
          ],
          [
            -98.831674,
            30.440027
          ],
          [
            -98.832029,
            30.439908
          ],
          [
            -98.832276,
            30.439871
          ],
          [
            -98.835044,
            30.439884
          ],
          [
            -98.836318,
            30.439922
          ],
          [
            -98.836426,
            30.440165
          ],
          [
            -98.83725,
            30.441006
          ],
          [
            -98.838546,
            30.441044
          ],
          [
            -98.83873,
            30.440887
          ],
          [
            -98.838873,
            30.440786
          ],
          [
            -98.839195,
            30.440592
          ],
          [
            -98.839415,
            30.440487
          ],
          [
            -98.839783,
            30.440343
          ],
          [
            -98.840147,
            30.440244
          ],
          [
            -98.840603,
            30.440161
          ],
          [
            -98.841117,
            30.440131
          ],
          [
            -98.844721,
            30.440173
          ],
          [
            -98.845361,
            30.440158
          ],
          [
            -98.84565,
            30.440124
          ],
          [
            -98.845917,
            30.440062
          ],
          [
            -98.846194,
            30.439987
          ],
          [
            -98.846411,
            30.439914
          ],
          [
            -98.846803,
            30.439743
          ],
          [
            -98.846858,
            30.43971
          ],
          [
            -98.847201,
            30.439503
          ],
          [
            -98.847434,
            30.439331
          ],
          [
            -98.847632,
            30.439162
          ],
          [
            -98.847862,
            30.438919
          ],
          [
            -98.848139,
            30.438534
          ],
          [
            -98.848372,
            30.438114
          ],
          [
            -98.848509,
            30.437713
          ],
          [
            -98.848575,
            30.437375
          ],
          [
            -98.848588,
            30.436948
          ],
          [
            -98.848606,
            30.435781
          ],
          [
            -98.848628,
            30.435487
          ],
          [
            -98.848679,
            30.435256
          ],
          [
            -98.848793,
            30.43489
          ],
          [
            -98.848934,
            30.434613
          ],
          [
            -98.849114,
            30.434321
          ],
          [
            -98.849393,
            30.433954
          ],
          [
            -98.849628,
            30.433733
          ],
          [
            -98.849806,
            30.433587
          ],
          [
            -98.850017,
            30.433439
          ],
          [
            -98.850267,
            30.433279
          ],
          [
            -98.850371,
            30.433222
          ],
          [
            -98.851622,
            30.432542
          ],
          [
            -98.854907,
            30.430781
          ],
          [
            -98.855373,
            30.430507
          ],
          [
            -98.856071,
            30.430048
          ],
          [
            -98.856686,
            30.429496
          ],
          [
            -98.85695,
            30.429228
          ],
          [
            -98.857017,
            30.429141
          ],
          [
            -98.857169,
            30.428947
          ],
          [
            -98.857254,
            30.42882
          ],
          [
            -98.857333,
            30.428662
          ],
          [
            -98.857383,
            30.428538
          ],
          [
            -98.857436,
            30.428377
          ],
          [
            -98.857524,
            30.428008
          ],
          [
            -98.857568,
            30.427808
          ],
          [
            -98.857595,
            30.427644
          ],
          [
            -98.857626,
            30.427486
          ],
          [
            -98.857654,
            30.427264
          ],
          [
            -98.857724,
            30.425041
          ],
          [
            -98.857817,
            30.423637
          ],
          [
            -98.857842,
            30.423146
          ],
          [
            -98.857832,
            30.422865
          ],
          [
            -98.857807,
            30.422553
          ],
          [
            -98.857777,
            30.422339
          ],
          [
            -98.857604,
            30.42147
          ],
          [
            -98.857574,
            30.421323
          ],
          [
            -98.857554,
            30.421144
          ],
          [
            -98.857546,
            30.421036
          ],
          [
            -98.857538,
            30.420917
          ],
          [
            -98.857499,
            30.419678
          ],
          [
            -98.85747,
            30.41932
          ],
          [
            -98.857426,
            30.418703
          ],
          [
            -98.857348,
            30.417712
          ],
          [
            -98.857283,
            30.417008
          ],
          [
            -98.857223,
            30.416437
          ],
          [
            -98.857197,
            30.416171
          ],
          [
            -98.857196,
            30.416164
          ],
          [
            -98.857183,
            30.415937
          ],
          [
            -98.857192,
            30.415737
          ],
          [
            -98.85722,
            30.415546
          ],
          [
            -98.857284,
            30.415332
          ],
          [
            -98.857373,
            30.415138
          ],
          [
            -98.857678,
            30.414621
          ],
          [
            -98.857824,
            30.414268
          ],
          [
            -98.857871,
            30.414027
          ],
          [
            -98.857888,
            30.413791
          ],
          [
            -98.857852,
            30.413422
          ],
          [
            -98.857834,
            30.413011
          ],
          [
            -98.857856,
            30.412788
          ],
          [
            -98.857951,
            30.412406
          ],
          [
            -98.858013,
            30.412239
          ],
          [
            -98.858434,
            30.411322
          ],
          [
            -98.858482,
            30.411173
          ],
          [
            -98.858522,
            30.410965
          ],
          [
            -98.858553,
            30.410773
          ],
          [
            -98.858569,
            30.410565
          ],
          [
            -98.858541,
            30.410262
          ],
          [
            -98.858492,
            30.409989
          ],
          [
            -98.858383,
            30.409552
          ],
          [
            -98.85831,
            30.409287
          ],
          [
            -98.858206,
            30.409019
          ],
          [
            -98.857951,
            30.408322
          ],
          [
            -98.857925,
            30.408234
          ],
          [
            -98.857923,
            30.408228
          ],
          [
            -98.857864,
            30.408027
          ],
          [
            -98.857813,
            30.407814
          ],
          [
            -98.857778,
            30.407634
          ],
          [
            -98.857716,
            30.407277
          ],
          [
            -98.85769,
            30.407085
          ],
          [
            -98.857673,
            30.406885
          ],
          [
            -98.857591,
            30.405978
          ],
          [
            -98.857591,
            30.405686
          ],
          [
            -98.85761,
            30.405461
          ],
          [
            -98.857618,
            30.405406
          ],
          [
            -98.857642,
            30.405235
          ],
          [
            -98.857676,
            30.405
          ],
          [
            -98.857922,
            30.404041
          ],
          [
            -98.858147,
            30.403257
          ],
          [
            -98.858433,
            30.402254
          ],
          [
            -98.8585,
            30.401933
          ],
          [
            -98.85853,
            30.401675
          ],
          [
            -98.858533,
            30.401373
          ],
          [
            -98.858506,
            30.401049
          ],
          [
            -98.858476,
            30.400854
          ],
          [
            -98.858302,
            30.400116
          ],
          [
            -98.858262,
            30.399941
          ],
          [
            -98.858223,
            30.399732
          ],
          [
            -98.858203,
            30.399599
          ],
          [
            -98.858184,
            30.399473
          ],
          [
            -98.858122,
            30.399077
          ],
          [
            -98.858047,
            30.398612
          ],
          [
            -98.858027,
            30.398421
          ],
          [
            -98.858028,
            30.398284
          ],
          [
            -98.858038,
            30.398209
          ],
          [
            -98.858043,
            30.398021
          ],
          [
            -98.858093,
            30.397757
          ],
          [
            -98.858147,
            30.397564
          ],
          [
            -98.858206,
            30.397399
          ],
          [
            -98.858285,
            30.397213
          ],
          [
            -98.858514,
            30.396848
          ],
          [
            -98.859038,
            30.396112
          ],
          [
            -98.859243,
            30.395704
          ],
          [
            -98.859329,
            30.395579
          ],
          [
            -98.859542,
            30.395052
          ],
          [
            -98.859715,
            30.39439
          ],
          [
            -98.859741,
            30.394286
          ],
          [
            -98.859838,
            30.39395
          ],
          [
            -98.859967,
            30.393612
          ],
          [
            -98.860756,
            30.391982
          ],
          [
            -98.861163,
            30.391142
          ],
          [
            -98.861588,
            30.390275
          ],
          [
            -98.862032,
            30.389363
          ],
          [
            -98.862325,
            30.388729
          ],
          [
            -98.862431,
            30.388431
          ],
          [
            -98.862506,
            30.388121
          ],
          [
            -98.862566,
            30.387732
          ],
          [
            -98.862583,
            30.387424
          ],
          [
            -98.862549,
            30.386677
          ],
          [
            -98.862432,
            30.384124
          ],
          [
            -98.862349,
            30.38328
          ],
          [
            -98.862311,
            30.382932
          ],
          [
            -98.862233,
            30.382225
          ],
          [
            -98.862208,
            30.382088
          ],
          [
            -98.862162,
            30.381836
          ],
          [
            -98.86212,
            30.381717
          ],
          [
            -98.86208,
            30.381601
          ],
          [
            -98.86203,
            30.381491
          ],
          [
            -98.861984,
            30.381406
          ],
          [
            -98.861934,
            30.381327
          ],
          [
            -98.86188,
            30.381251
          ],
          [
            -98.861812,
            30.381168
          ],
          [
            -98.861696,
            30.381049
          ],
          [
            -98.861357,
            30.380739
          ],
          [
            -98.861183,
            30.380538
          ],
          [
            -98.861097,
            30.380399
          ],
          [
            -98.861047,
            30.380318
          ],
          [
            -98.860949,
            30.380089
          ],
          [
            -98.860859,
            30.379782
          ],
          [
            -98.860501,
            30.378324
          ],
          [
            -98.860335,
            30.377728
          ],
          [
            -98.860014,
            30.376633
          ],
          [
            -98.859965,
            30.376437
          ],
          [
            -98.859814,
            30.375919
          ],
          [
            -98.859434,
            30.37449
          ],
          [
            -98.85928,
            30.373988
          ],
          [
            -98.859034,
            30.373377
          ],
          [
            -98.858598,
            30.372578
          ],
          [
            -98.858233,
            30.372005
          ],
          [
            -98.857798,
            30.371298
          ],
          [
            -98.856606,
            30.369399
          ],
          [
            -98.856561,
            30.369328
          ],
          [
            -98.85576,
            30.368027
          ],
          [
            -98.855568,
            30.3677
          ],
          [
            -98.855494,
            30.367511
          ],
          [
            -98.855451,
            30.36736
          ],
          [
            -98.855429,
            30.367254
          ],
          [
            -98.85542,
            30.367167
          ],
          [
            -98.855416,
            30.36709
          ],
          [
            -98.855425,
            30.366815
          ],
          [
            -98.855457,
            30.366596
          ],
          [
            -98.855511,
            30.366391
          ],
          [
            -98.855762,
            30.365623
          ],
          [
            -98.855836,
            30.365335
          ],
          [
            -98.855992,
            30.364209
          ],
          [
            -98.856097,
            30.363729
          ],
          [
            -98.856263,
            30.363247
          ],
          [
            -98.856827,
            30.361927
          ],
          [
            -98.856974,
            30.361606
          ],
          [
            -98.857145,
            30.361172
          ],
          [
            -98.857287,
            30.360679
          ],
          [
            -98.857346,
            30.360359
          ],
          [
            -98.857349,
            30.360333
          ],
          [
            -98.857379,
            30.360048
          ],
          [
            -98.857406,
            30.359518
          ],
          [
            -98.857478,
            30.358372
          ],
          [
            -98.857527,
            30.357258
          ],
          [
            -98.857574,
            30.356143
          ],
          [
            -98.857642,
            30.354488
          ],
          [
            -98.857636,
            30.354247
          ],
          [
            -98.857691,
            30.347254
          ],
          [
            -98.857731,
            30.345476
          ],
          [
            -98.85776,
            30.34418
          ],
          [
            -98.857796,
            30.342594
          ],
          [
            -98.857838,
            30.339284
          ],
          [
            -98.857907,
            30.335333
          ],
          [
            -98.85794,
            30.334893
          ],
          [
            -98.85817,
            30.333363
          ],
          [
            -98.858183,
            30.333274
          ],
          [
            -98.858427,
            30.331656
          ],
          [
            -98.858461,
            30.331081
          ],
          [
            -98.858483,
            30.330013
          ],
          [
            -98.858487,
            30.329791
          ],
          [
            -98.858539,
            30.328835
          ],
          [
            -98.858581,
            30.328365
          ],
          [
            -98.858777,
            30.327074
          ],
          [
            -98.858831,
            30.326597
          ],
          [
            -98.858838,
            30.326284
          ],
          [
            -98.858826,
            30.326001
          ],
          [
            -98.858796,
            30.325713
          ],
          [
            -98.858769,
            30.325526
          ],
          [
            -98.858699,
            30.325088
          ],
          [
            -98.858675,
            30.324778
          ],
          [
            -98.858674,
            30.324429
          ],
          [
            -98.858717,
            30.323944
          ],
          [
            -98.858812,
            30.323398
          ],
          [
            -98.858822,
            30.323354
          ],
          [
            -98.859342,
            30.320933
          ],
          [
            -98.859433,
            30.320541
          ],
          [
            -98.859467,
            30.320392
          ],
          [
            -98.859733,
            30.319236
          ],
          [
            -98.859951,
            30.318381
          ],
          [
            -98.861338,
            30.313143
          ],
          [
            -98.86135,
            30.313105
          ],
          [
            -98.861412,
            30.312904
          ],
          [
            -98.861516,
            30.312673
          ],
          [
            -98.861656,
            30.312453
          ],
          [
            -98.861836,
            30.312252
          ],
          [
            -98.862054,
            30.312083
          ],
          [
            -98.862297,
            30.311949
          ],
          [
            -98.862586,
            30.311842
          ],
          [
            -98.862688,
            30.311823
          ],
          [
            -98.862953,
            30.311779
          ],
          [
            -98.864199,
            30.311729
          ],
          [
            -98.864442,
            30.311715
          ],
          [
            -98.864673,
            30.311686
          ],
          [
            -98.864807,
            30.311657
          ],
          [
            -98.864904,
            30.31162
          ],
          [
            -98.865068,
            30.311559
          ],
          [
            -98.86518,
            30.311504
          ],
          [
            -98.865268,
            30.311446
          ],
          [
            -98.865379,
            30.311382
          ],
          [
            -98.865496,
            30.311293
          ],
          [
            -98.865761,
            30.311011
          ],
          [
            -98.865863,
            30.310857
          ],
          [
            -98.865951,
            30.310686
          ],
          [
            -98.866042,
            30.310456
          ],
          [
            -98.866465,
            30.30919
          ],
          [
            -98.866514,
            30.309043
          ],
          [
            -98.866663,
            30.308558
          ],
          [
            -98.866709,
            30.308206
          ],
          [
            -98.866725,
            30.307832
          ],
          [
            -98.866704,
            30.307574
          ],
          [
            -98.866628,
            30.307222
          ],
          [
            -98.866526,
            30.306914
          ],
          [
            -98.866227,
            30.306173
          ],
          [
            -98.866107,
            30.30584
          ],
          [
            -98.86592,
            30.305333
          ],
          [
            -98.865568,
            30.304318
          ],
          [
            -98.865479,
            30.3041
          ],
          [
            -98.865403,
            30.303924
          ],
          [
            -98.865311,
            30.303747
          ],
          [
            -98.865153,
            30.303521
          ],
          [
            -98.864902,
            30.303258
          ],
          [
            -98.864572,
            30.302939
          ],
          [
            -98.864415,
            30.302772
          ],
          [
            -98.864312,
            30.302598
          ],
          [
            -98.864271,
            30.302499
          ],
          [
            -98.864229,
            30.302376
          ],
          [
            -98.864227,
            30.302192
          ],
          [
            -98.864252,
            30.302066
          ],
          [
            -98.864317,
            30.301894
          ],
          [
            -98.864403,
            30.301734
          ],
          [
            -98.864588,
            30.301532
          ],
          [
            -98.864968,
            30.301246
          ],
          [
            -98.865097,
            30.301108
          ],
          [
            -98.865222,
            30.300893
          ],
          [
            -98.865314,
            30.300673
          ],
          [
            -98.865751,
            30.298712
          ],
          [
            -98.866247,
            30.29679
          ],
          [
            -98.866466,
            30.295769
          ],
          [
            -98.866511,
            30.295471
          ],
          [
            -98.866524,
            30.295384
          ],
          [
            -98.866567,
            30.294796
          ],
          [
            -98.866535,
            30.293839
          ],
          [
            -98.866464,
            30.292635
          ],
          [
            -98.866443,
            30.292378
          ],
          [
            -98.866423,
            30.291487
          ],
          [
            -98.866436,
            30.29117
          ],
          [
            -98.866422,
            30.290866
          ],
          [
            -98.866427,
            30.290736
          ],
          [
            -98.866458,
            30.290517
          ],
          [
            -98.866508,
            30.290379
          ],
          [
            -98.866581,
            30.290213
          ],
          [
            -98.866647,
            30.290084
          ],
          [
            -98.866777,
            30.289912
          ],
          [
            -98.867178,
            30.289444
          ],
          [
            -98.867536,
            30.289064
          ],
          [
            -98.867875,
            30.288683
          ],
          [
            -98.867957,
            30.288613
          ],
          [
            -98.868266,
            30.288264
          ],
          [
            -98.868313,
            30.288214
          ],
          [
            -98.868716,
            30.287787
          ],
          [
            -98.869162,
            30.287371
          ],
          [
            -98.869317,
            30.287216
          ],
          [
            -98.869592,
            30.286956
          ],
          [
            -98.869943,
            30.28659
          ],
          [
            -98.870482,
            30.28606
          ],
          [
            -98.87136,
            30.285126
          ],
          [
            -98.87222,
            30.284206
          ],
          [
            -98.87256,
            30.283837
          ],
          [
            -98.873081,
            30.283298
          ],
          [
            -98.873919,
            30.28242
          ],
          [
            -98.874805,
            30.281477
          ],
          [
            -98.875065,
            30.281205
          ],
          [
            -98.875245,
            30.281016
          ],
          [
            -98.87536,
            30.280896
          ],
          [
            -98.875936,
            30.280295
          ],
          [
            -98.876352,
            30.279856
          ],
          [
            -98.877283,
            30.278908
          ],
          [
            -98.877384,
            30.278804
          ],
          [
            -98.877274,
            30.278724
          ],
          [
            -98.875938,
            30.277752
          ],
          [
            -98.875795,
            30.277649
          ],
          [
            -98.875713,
            30.277589
          ],
          [
            -98.875623,
            30.277523
          ],
          [
            -98.875309,
            30.277294
          ],
          [
            -98.874955,
            30.277036
          ],
          [
            -98.874331,
            30.276581
          ],
          [
            -98.874223,
            30.276502
          ],
          [
            -98.874138,
            30.27644
          ],
          [
            -98.874036,
            30.276366
          ],
          [
            -98.873907,
            30.276274
          ],
          [
            -98.873569,
            30.276032
          ],
          [
            -98.873201,
            30.275769
          ],
          [
            -98.872394,
            30.275165
          ],
          [
            -98.872296,
            30.275091
          ],
          [
            -98.872187,
            30.275204
          ],
          [
            -98.872096,
            30.275297
          ]
        ]
      }
    }
  ]
}