<?xml version='1.0' encoding='UTF-8'?>
<gpx version="1.1" creator="Antigravity Route Generator" xmlns="http://www.topografix.com/GPX/1/1">
  <trk>
    <name>Balcones Escarpment Twisties</name>
    <desc>Twisties &amp; Canyons (29.1 mi) - FM 1431 -&gt; Cow Creek Rd (FM 1174) -&gt; RM 1869</desc>
    <trkseg>
      <trkpt lat="30.578585" lon="-98.27851" />
      <trkpt lat="30.578507" lon="-98.278352" />
      <trkpt lat="30.578184" lon="-98.277671" />
      <trkpt lat="30.578638" lon="-98.27736" />
      <trkpt lat="30.578741" lon="-98.277274" />
      <trkpt lat="30.579054" lon="-98.27711" />
      <trkpt lat="30.57912" lon="-98.277075" />
      <trkpt lat="30.579868" lon="-98.276572" />
      <trkpt lat="30.579917" lon="-98.276539" />
      <trkpt lat="30.580058" lon="-98.276441" />
      <trkpt lat="30.579999" lon="-98.276329" />
      <trkpt lat="30.579897" lon="-98.276115" />
      <trkpt lat="30.579884" lon="-98.276089" />
      <trkpt lat="30.579769" lon="-98.275849" />
      <trkpt lat="30.579525" lon="-98.27534" />
      <trkpt lat="30.579403" lon="-98.275101" />
      <trkpt lat="30.579303" lon="-98.274905" />
      <trkpt lat="30.579258" lon="-98.274816" />
      <trkpt lat="30.579241" lon="-98.274782" />
      <trkpt lat="30.579065" lon="-98.274436" />
      <trkpt lat="30.578975" lon="-98.27426" />
      <trkpt lat="30.578802" lon="-98.273865" />
      <trkpt lat="30.578779" lon="-98.273812" />
      <trkpt lat="30.578723" lon="-98.273706" />
      <trkpt lat="30.578698" lon="-98.273658" />
      <trkpt lat="30.578645" lon="-98.273557" />
      <trkpt lat="30.578576" lon="-98.273427" />
      <trkpt lat="30.578445" lon="-98.273178" />
      <trkpt lat="30.578336" lon="-98.272941" />
      <trkpt lat="30.578285" lon="-98.272823" />
      <trkpt lat="30.578201" lon="-98.272654" />
      <trkpt lat="30.578123" lon="-98.272499" />
      <trkpt lat="30.578103" lon="-98.272461" />
      <trkpt lat="30.577997" lon="-98.272246" />
      <trkpt lat="30.577867" lon="-98.271987" />
      <trkpt lat="30.577362" lon="-98.270898" />
      <trkpt lat="30.576792" lon="-98.269757" />
      <trkpt lat="30.576563" lon="-98.269269" />
      <trkpt lat="30.576537" lon="-98.26922" />
      <trkpt lat="30.576246" lon="-98.268664" />
      <trkpt lat="30.575985" lon="-98.268131" />
      <trkpt lat="30.575971" lon="-98.268104" />
      <trkpt lat="30.575701" lon="-98.267577" />
      <trkpt lat="30.575616" lon="-98.267414" />
      <trkpt lat="30.575541" lon="-98.267226" />
      <trkpt lat="30.575476" lon="-98.266939" />
      <trkpt lat="30.575444" lon="-98.266624" />
      <trkpt lat="30.57544" lon="-98.2665" />
      <trkpt lat="30.575445" lon="-98.26638" />
      <trkpt lat="30.575447" lon="-98.266315" />
      <trkpt lat="30.575458" lon="-98.266235" />
      <trkpt lat="30.575479" lon="-98.266084" />
      <trkpt lat="30.575635" lon="-98.265082" />
      <trkpt lat="30.575657" lon="-98.264923" />
      <trkpt lat="30.575725" lon="-98.264426" />
      <trkpt lat="30.57577" lon="-98.264097" />
      <trkpt lat="30.575792" lon="-98.263937" />
      <trkpt lat="30.575838" lon="-98.263605" />
      <trkpt lat="30.575856" lon="-98.26346" />
      <trkpt lat="30.575869" lon="-98.26336" />
      <trkpt lat="30.575896" lon="-98.263147" />
      <trkpt lat="30.576295" lon="-98.260609" />
      <trkpt lat="30.576409" lon="-98.259654" />
      <trkpt lat="30.57654" lon="-98.258865" />
      <trkpt lat="30.576555" lon="-98.258714" />
      <trkpt lat="30.576592" lon="-98.258334" />
      <trkpt lat="30.57662" lon="-98.257951" />
      <trkpt lat="30.576623" lon="-98.257909" />
      <trkpt lat="30.576624" lon="-98.257787" />
      <trkpt lat="30.576625" lon="-98.257539" />
      <trkpt lat="30.576596" lon="-98.257221" />
      <trkpt lat="30.576559" lon="-98.256981" />
      <trkpt lat="30.576491" lon="-98.256713" />
      <trkpt lat="30.576413" lon="-98.256469" />
      <trkpt lat="30.576202" lon="-98.255982" />
      <trkpt lat="30.57617" lon="-98.255909" />
      <trkpt lat="30.57599" lon="-98.255493" />
      <trkpt lat="30.575964" lon="-98.255432" />
      <trkpt lat="30.575816" lon="-98.255089" />
      <trkpt lat="30.575259" lon="-98.25382" />
      <trkpt lat="30.575232" lon="-98.253758" />
      <trkpt lat="30.575202" lon="-98.253692" />
      <trkpt lat="30.574341" lon="-98.251809" />
      <trkpt lat="30.574007" lon="-98.251061" />
      <trkpt lat="30.573747" lon="-98.250476" />
      <trkpt lat="30.573678" lon="-98.250273" />
      <trkpt lat="30.573596" lon="-98.249935" />
      <trkpt lat="30.573552" lon="-98.249749" />
      <trkpt lat="30.573516" lon="-98.249607" />
      <trkpt lat="30.573466" lon="-98.249403" />
      <trkpt lat="30.573432" lon="-98.249193" />
      <trkpt lat="30.573272" lon="-98.247752" />
      <trkpt lat="30.573144" lon="-98.246858" />
      <trkpt lat="30.573085" lon="-98.246454" />
      <trkpt lat="30.573029" lon="-98.24623" />
      <trkpt lat="30.572948" lon="-98.245974" />
      <trkpt lat="30.572743" lon="-98.245527" />
      <trkpt lat="30.572416" lon="-98.244953" />
      <trkpt lat="30.572217" lon="-98.244604" />
      <trkpt lat="30.572094" lon="-98.244337" />
      <trkpt lat="30.571985" lon="-98.244067" />
      <trkpt lat="30.571915" lon="-98.24383" />
      <trkpt lat="30.571434" lon="-98.241978" />
      <trkpt lat="30.571381" lon="-98.241758" />
      <trkpt lat="30.571154" lon="-98.240808" />
      <trkpt lat="30.571024" lon="-98.240267" />
      <trkpt lat="30.570886" lon="-98.239759" />
      <trkpt lat="30.570845" lon="-98.239616" />
      <trkpt lat="30.57074" lon="-98.239224" />
      <trkpt lat="30.570697" lon="-98.238987" />
      <trkpt lat="30.57068" lon="-98.238892" />
      <trkpt lat="30.570669" lon="-98.238721" />
      <trkpt lat="30.570662" lon="-98.238616" />
      <trkpt lat="30.570666" lon="-98.238387" />
      <trkpt lat="30.570669" lon="-98.238228" />
      <trkpt lat="30.570692" lon="-98.23797" />
      <trkpt lat="30.570738" lon="-98.237733" />
      <trkpt lat="30.570819" lon="-98.237464" />
      <trkpt lat="30.570896" lon="-98.237297" />
      <trkpt lat="30.570999" lon="-98.237094" />
      <trkpt lat="30.57101" lon="-98.237073" />
      <trkpt lat="30.57115" lon="-98.236839" />
      <trkpt lat="30.571282" lon="-98.236674" />
      <trkpt lat="30.571403" lon="-98.236531" />
      <trkpt lat="30.57181" lon="-98.236214" />
      <trkpt lat="30.572047" lon="-98.236042" />
      <trkpt lat="30.574728" lon="-98.234314" />
      <trkpt lat="30.575054" lon="-98.234104" />
      <trkpt lat="30.575084" lon="-98.234082" />
      <trkpt lat="30.575587" lon="-98.233703" />
      <trkpt lat="30.576128" lon="-98.233355" />
      <trkpt lat="30.576909" lon="-98.232665" />
      <trkpt lat="30.577363" lon="-98.232202" />
      <trkpt lat="30.578762" lon="-98.230639" />
      <trkpt lat="30.578976" lon="-98.230399" />
      <trkpt lat="30.579556" lon="-98.229801" />
      <trkpt lat="30.5802" lon="-98.229281" />
      <trkpt lat="30.580742" lon="-98.228806" />
      <trkpt lat="30.58176" lon="-98.228015" />
      <trkpt lat="30.583237" lon="-98.226759" />
      <trkpt lat="30.583439" lon="-98.226557" />
      <trkpt lat="30.583478" lon="-98.226523" />
      <trkpt lat="30.583756" lon="-98.226215" />
      <trkpt lat="30.584191" lon="-98.22562" />
      <trkpt lat="30.584904" lon="-98.224442" />
      <trkpt lat="30.585083" lon="-98.224118" />
      <trkpt lat="30.585258" lon="-98.223753" />
      <trkpt lat="30.585371" lon="-98.223448" />
      <trkpt lat="30.585465" lon="-98.223159" />
      <trkpt lat="30.585638" lon="-98.22263" />
      <trkpt lat="30.585646" lon="-98.222571" />
      <trkpt lat="30.585754" lon="-98.221941" />
      <trkpt lat="30.585869" lon="-98.220941" />
      <trkpt lat="30.586069" lon="-98.219405" />
      <trkpt lat="30.586179" lon="-98.21848" />
      <trkpt lat="30.586224" lon="-98.218105" />
      <trkpt lat="30.586289" lon="-98.217212" />
      <trkpt lat="30.586358" lon="-98.216051" />
      <trkpt lat="30.586376" lon="-98.215722" />
      <trkpt lat="30.586434" lon="-98.214631" />
      <trkpt lat="30.586526" lon="-98.213068" />
      <trkpt lat="30.586579" lon="-98.210852" />
      <trkpt lat="30.586609" lon="-98.209615" />
      <trkpt lat="30.586625" lon="-98.209517" />
      <trkpt lat="30.586694" lon="-98.209098" />
      <trkpt lat="30.586843" lon="-98.208582" />
      <trkpt lat="30.587261" lon="-98.207613" />
      <trkpt lat="30.588023" lon="-98.205812" />
      <trkpt lat="30.588266" lon="-98.205163" />
      <trkpt lat="30.58827" lon="-98.205146" />
      <trkpt lat="30.588407" lon="-98.204583" />
      <trkpt lat="30.588525" lon="-98.203907" />
      <trkpt lat="30.588583" lon="-98.203094" />
      <trkpt lat="30.588675" lon="-98.201801" />
      <trkpt lat="30.588741" lon="-98.200633" />
      <trkpt lat="30.588695" lon="-98.199863" />
      <trkpt lat="30.588544" lon="-98.198754" />
      <trkpt lat="30.588398" lon="-98.19811" />
      <trkpt lat="30.5882" lon="-98.197222" />
      <trkpt lat="30.588099" lon="-98.196762" />
      <trkpt lat="30.587938" lon="-98.196006" />
      <trkpt lat="30.587842" lon="-98.195571" />
      <trkpt lat="30.587774" lon="-98.195071" />
      <trkpt lat="30.587752" lon="-98.194279" />
      <trkpt lat="30.587685" lon="-98.193884" />
      <trkpt lat="30.587591" lon="-98.193515" />
      <trkpt lat="30.587524" lon="-98.193321" />
      <trkpt lat="30.587273" lon="-98.192755" />
      <trkpt lat="30.58704" lon="-98.192281" />
      <trkpt lat="30.586837" lon="-98.191832" />
      <trkpt lat="30.586699" lon="-98.19129" />
      <trkpt lat="30.586659" lon="-98.190884" />
      <trkpt lat="30.586635" lon="-98.190448" />
      <trkpt lat="30.58665" lon="-98.19003" />
      <trkpt lat="30.586713" lon="-98.188959" />
      <trkpt lat="30.58673" lon="-98.188716" />
      <trkpt lat="30.586868" lon="-98.187137" />
      <trkpt lat="30.586942" lon="-98.18628" />
      <trkpt lat="30.586977" lon="-98.185863" />
      <trkpt lat="30.5871" lon="-98.184401" />
      <trkpt lat="30.587141" lon="-98.183914" />
      <trkpt lat="30.587146" lon="-98.183886" />
      <trkpt lat="30.587218" lon="-98.183429" />
      <trkpt lat="30.587344" lon="-98.182945" />
      <trkpt lat="30.587542" lon="-98.182482" />
      <trkpt lat="30.5878" lon="-98.182008" />
      <trkpt lat="30.588094" lon="-98.181584" />
      <trkpt lat="30.588446" lon="-98.181199" />
      <trkpt lat="30.589207" lon="-98.180433" />
      <trkpt lat="30.589431" lon="-98.180204" />
      <trkpt lat="30.589709" lon="-98.179892" />
      <trkpt lat="30.58997" lon="-98.179426" />
      <trkpt lat="30.590001" lon="-98.179372" />
      <trkpt lat="30.590202" lon="-98.178903" />
      <trkpt lat="30.590327" lon="-98.17844" />
      <trkpt lat="30.590378" lon="-98.178129" />
      <trkpt lat="30.590407" lon="-98.177805" />
      <trkpt lat="30.590415" lon="-98.177507" />
      <trkpt lat="30.590407" lon="-98.177123" />
      <trkpt lat="30.59038" lon="-98.176767" />
      <trkpt lat="30.590297" lon="-98.176403" />
      <trkpt lat="30.590208" lon="-98.17608" />
      <trkpt lat="30.590074" lon="-98.175756" />
      <trkpt lat="30.589966" lon="-98.175534" />
      <trkpt lat="30.589881" lon="-98.175392" />
      <trkpt lat="30.589697" lon="-98.175081" />
      <trkpt lat="30.589465" lon="-98.17477" />
      <trkpt lat="30.589262" lon="-98.174588" />
      <trkpt lat="30.589159" lon="-98.174495" />
      <trkpt lat="30.588867" lon="-98.174233" />
      <trkpt lat="30.588454" lon="-98.173984" />
      <trkpt lat="30.588069" lon="-98.173774" />
      <trkpt lat="30.588011" lon="-98.173759" />
      <trkpt lat="30.587594" lon="-98.173651" />
      <trkpt lat="30.586505" lon="-98.17357" />
      <trkpt lat="30.586112" lon="-98.173541" />
      <trkpt lat="30.585635" lon="-98.173507" />
      <trkpt lat="30.585561" lon="-98.173493" />
      <trkpt lat="30.585399" lon="-98.173464" />
      <trkpt lat="30.585118" lon="-98.173396" />
      <trkpt lat="30.582811" lon="-98.172744" />
      <trkpt lat="30.582725" lon="-98.172721" />
      <trkpt lat="30.582545" lon="-98.172671" />
      <trkpt lat="30.582477" lon="-98.172652" />
      <trkpt lat="30.581469" lon="-98.172373" />
      <trkpt lat="30.581409" lon="-98.172356" />
      <trkpt lat="30.58012" lon="-98.171998" />
      <trkpt lat="30.579735" lon="-98.171843" />
      <trkpt lat="30.579352" lon="-98.171646" />
      <trkpt lat="30.578691" lon="-98.171132" />
      <trkpt lat="30.578249" lon="-98.170777" />
      <trkpt lat="30.578107" lon="-98.170664" />
      <trkpt lat="30.577867" lon="-98.170472" />
      <trkpt lat="30.577741" lon="-98.170373" />
      <trkpt lat="30.577477" lon="-98.170165" />
      <trkpt lat="30.577277" lon="-98.170007" />
      <trkpt lat="30.577094" lon="-98.169893" />
      <trkpt lat="30.576813" lon="-98.169752" />
      <trkpt lat="30.576454" lon="-98.169619" />
      <trkpt lat="30.576015" lon="-98.1695" />
      <trkpt lat="30.575736" lon="-98.169462" />
      <trkpt lat="30.575397" lon="-98.169418" />
      <trkpt lat="30.575183" lon="-98.169455" />
      <trkpt lat="30.574876" lon="-98.169521" />
      <trkpt lat="30.574537" lon="-98.169635" />
      <trkpt lat="30.574101" lon="-98.169826" />
      <trkpt lat="30.573396" lon="-98.17027" />
      <trkpt lat="30.573301" lon="-98.170326" />
      <trkpt lat="30.572506" lon="-98.17084" />
      <trkpt lat="30.571453" lon="-98.171521" />
      <trkpt lat="30.57132" lon="-98.171605" />
      <trkpt lat="30.570871" lon="-98.171888" />
      <trkpt lat="30.570623" lon="-98.171999" />
      <trkpt lat="30.570381" lon="-98.172134" />
      <trkpt lat="30.570032" lon="-98.172314" />
      <trkpt lat="30.569571" lon="-98.172459" />
      <trkpt lat="30.569463" lon="-98.172481" />
      <trkpt lat="30.569138" lon="-98.172547" />
      <trkpt lat="30.5687" lon="-98.172593" />
      <trkpt lat="30.568148" lon="-98.172582" />
      <trkpt lat="30.567654" lon="-98.172526" />
      <trkpt lat="30.567168" lon="-98.172431" />
      <trkpt lat="30.566733" lon="-98.172333" />
      <trkpt lat="30.566675" lon="-98.172327" />
      <trkpt lat="30.566114" lon="-98.172208" />
      <trkpt lat="30.565785" lon="-98.172138" />
      <trkpt lat="30.563724" lon="-98.171763" />
      <trkpt lat="30.562808" lon="-98.171554" />
      <trkpt lat="30.56227" lon="-98.171407" />
      <trkpt lat="30.561736" lon="-98.171254" />
      <trkpt lat="30.561475" lon="-98.171137" />
      <trkpt lat="30.561269" lon="-98.171004" />
      <trkpt lat="30.56113" lon="-98.170929" />
      <trkpt lat="30.560775" lon="-98.17067" />
      <trkpt lat="30.560578" lon="-98.170481" />
      <trkpt lat="30.560328" lon="-98.17018" />
      <trkpt lat="30.559679" lon="-98.169353" />
      <trkpt lat="30.559117" lon="-98.168659" />
      <trkpt lat="30.558911" lon="-98.168371" />
      <trkpt lat="30.558864" lon="-98.168297" />
      <trkpt lat="30.558692" lon="-98.168028" />
      <trkpt lat="30.558583" lon="-98.167784" />
      <trkpt lat="30.55848" lon="-98.167523" />
      <trkpt lat="30.558387" lon="-98.167247" />
      <trkpt lat="30.558139" lon="-98.166406" />
      <trkpt lat="30.557887" lon="-98.165063" />
      <trkpt lat="30.557677" lon="-98.164083" />
      <trkpt lat="30.557641" lon="-98.163783" />
      <trkpt lat="30.557642" lon="-98.163657" />
      <trkpt lat="30.557642" lon="-98.16349" />
      <trkpt lat="30.557643" lon="-98.163351" />
      <trkpt lat="30.557674" lon="-98.163052" />
      <trkpt lat="30.557719" lon="-98.16269" />
      <trkpt lat="30.557756" lon="-98.162501" />
      <trkpt lat="30.557829" lon="-98.162215" />
      <trkpt lat="30.557919" lon="-98.161982" />
      <trkpt lat="30.558038" lon="-98.161706" />
      <trkpt lat="30.558143" lon="-98.161493" />
      <trkpt lat="30.558844" lon="-98.159899" />
      <trkpt lat="30.558923" lon="-98.159677" />
      <trkpt lat="30.558985" lon="-98.15945" />
      <trkpt lat="30.559036" lon="-98.159217" />
      <trkpt lat="30.559071" lon="-98.158981" />
      <trkpt lat="30.559092" lon="-98.158745" />
      <trkpt lat="30.559124" lon="-98.156723" />
      <trkpt lat="30.559126" lon="-98.156251" />
      <trkpt lat="30.559127" lon="-98.155666" />
      <trkpt lat="30.559129" lon="-98.155116" />
      <trkpt lat="30.559129" lon="-98.154883" />
      <trkpt lat="30.559177" lon="-98.152544" />
      <trkpt lat="30.559221" lon="-98.150395" />
      <trkpt lat="30.559248" lon="-98.149781" />
      <trkpt lat="30.559315" lon="-98.149242" />
      <trkpt lat="30.559458" lon="-98.14845" />
      <trkpt lat="30.559681" lon="-98.14778" />
      <trkpt lat="30.559742" lon="-98.14763" />
      <trkpt lat="30.56006" lon="-98.146846" />
      <trkpt lat="30.560346" lon="-98.146387" />
      <trkpt lat="30.560598" lon="-98.145962" />
      <trkpt lat="30.561147" lon="-98.145039" />
      <trkpt lat="30.5612" lon="-98.144951" />
      <trkpt lat="30.561323" lon="-98.14475" />
      <trkpt lat="30.561474" lon="-98.144492" />
      <trkpt lat="30.562243" lon="-98.143212" />
      <trkpt lat="30.562649" lon="-98.14254" />
      <trkpt lat="30.562988" lon="-98.141961" />
      <trkpt lat="30.563925" lon="-98.140394" />
      <trkpt lat="30.564546" lon="-98.139358" />
      <trkpt lat="30.564677" lon="-98.139139" />
      <trkpt lat="30.564909" lon="-98.13875" />
      <trkpt lat="30.565084" lon="-98.13846" />
      <trkpt lat="30.565345" lon="-98.138158" />
      <trkpt lat="30.565682" lon="-98.137759" />
      <trkpt lat="30.565977" lon="-98.137451" />
      <trkpt lat="30.566269" lon="-98.137197" />
      <trkpt lat="30.566328" lon="-98.137152" />
      <trkpt lat="30.566611" lon="-98.136933" />
      <trkpt lat="30.567134" lon="-98.136607" />
      <trkpt lat="30.567401" lon="-98.136466" />
      <trkpt lat="30.567685" lon="-98.136355" />
      <trkpt lat="30.568311" lon="-98.136162" />
      <trkpt lat="30.568572" lon="-98.13611" />
      <trkpt lat="30.569597" lon="-98.135975" />
      <trkpt lat="30.570061" lon="-98.135925" />
      <trkpt lat="30.571689" lon="-98.135747" />
      <trkpt lat="30.572003" lon="-98.135711" />
      <trkpt lat="30.572831" lon="-98.135632" />
      <trkpt lat="30.574552" lon="-98.135468" />
      <trkpt lat="30.574978" lon="-98.135421" />
      <trkpt lat="30.575216" lon="-98.135368" />
      <trkpt lat="30.575389" lon="-98.135322" />
      <trkpt lat="30.575485" lon="-98.135302" />
      <trkpt lat="30.57559" lon="-98.135259" />
      <trkpt lat="30.575623" lon="-98.135245" />
      <trkpt lat="30.575752" lon="-98.135192" />
      <trkpt lat="30.576077" lon="-98.135023" />
      <trkpt lat="30.576256" lon="-98.134912" />
      <trkpt lat="30.576484" lon="-98.134743" />
      <trkpt lat="30.576564" lon="-98.134668" />
      <trkpt lat="30.577079" lon="-98.134195" />
      <trkpt lat="30.577387" lon="-98.133813" />
      <trkpt lat="30.577899" lon="-98.132868" />
      <trkpt lat="30.57801" lon="-98.132594" />
      <trkpt lat="30.578081" lon="-98.132408" />
      <trkpt lat="30.578138" lon="-98.132202" />
      <trkpt lat="30.578206" lon="-98.13187" />
      <trkpt lat="30.578217" lon="-98.131767" />
      <trkpt lat="30.578223" lon="-98.131704" />
      <trkpt lat="30.57824" lon="-98.1315" />
      <trkpt lat="30.578252" lon="-98.131353" />
      <trkpt lat="30.578255" lon="-98.131175" />
      <trkpt lat="30.578256" lon="-98.131066" />
      <trkpt lat="30.578236" lon="-98.130745" />
      <trkpt lat="30.578223" lon="-98.130594" />
      <trkpt lat="30.578208" lon="-98.130511" />
      <trkpt lat="30.578199" lon="-98.130458" />
      <trkpt lat="30.578168" lon="-98.130279" />
      <trkpt lat="30.578126" lon="-98.130122" />
      <trkpt lat="30.578092" lon="-98.129993" />
      <trkpt lat="30.578013" lon="-98.129738" />
      <trkpt lat="30.577997" lon="-98.129702" />
      <trkpt lat="30.577973" lon="-98.129647" />
      <trkpt lat="30.577893" lon="-98.129466" />
      <trkpt lat="30.577844" lon="-98.129355" />
      <trkpt lat="30.577705" lon="-98.129093" />
      <trkpt lat="30.57753" lon="-98.128835" />
      <trkpt lat="30.577457" lon="-98.12874" />
      <trkpt lat="30.57713" lon="-98.128248" />
      <trkpt lat="30.576844" lon="-98.1279" />
      <trkpt lat="30.576087" lon="-98.127081" />
      <trkpt lat="30.576264" lon="-98.126877" />
      <trkpt lat="30.576515" lon="-98.126443" />
      <trkpt lat="30.576635" lon="-98.126182" />
      <trkpt lat="30.576847" lon="-98.125599" />
      <trkpt lat="30.576879" lon="-98.125505" />
      <trkpt lat="30.577435" lon="-98.123855" />
      <trkpt lat="30.577489" lon="-98.123694" />
      <trkpt lat="30.577529" lon="-98.123577" />
      <trkpt lat="30.577922" lon="-98.122412" />
      <trkpt lat="30.577999" lon="-98.122185" />
      <trkpt lat="30.578082" lon="-98.12196" />
      <trkpt lat="30.578118" lon="-98.121864" />
      <trkpt lat="30.578284" lon="-98.121414" />
      <trkpt lat="30.57843" lon="-98.121017" />
      <trkpt lat="30.578639" lon="-98.120557" />
      <trkpt lat="30.578809" lon="-98.120225" />
      <trkpt lat="30.578852" lon="-98.120142" />
      <trkpt lat="30.579022" lon="-98.119857" />
      <trkpt lat="30.57905" lon="-98.11981" />
      <trkpt lat="30.579448" lon="-98.119194" />
      <trkpt lat="30.579613" lon="-98.118938" />
      <trkpt lat="30.579619" lon="-98.118928" />
      <trkpt lat="30.580151" lon="-98.118104" />
      <trkpt lat="30.58062" lon="-98.117414" />
      <trkpt lat="30.580732" lon="-98.11725" />
      <trkpt lat="30.580871" lon="-98.117017" />
      <trkpt lat="30.581494" lon="-98.115884" />
      <trkpt lat="30.581559" lon="-98.115766" />
      <trkpt lat="30.581805" lon="-98.115318" />
      <trkpt lat="30.581913" lon="-98.115111" />
      <trkpt lat="30.58209" lon="-98.11477" />
      <trkpt lat="30.582378" lon="-98.114254" />
      <trkpt lat="30.582548" lon="-98.113985" />
      <trkpt lat="30.582608" lon="-98.113891" />
      <trkpt lat="30.582875" lon="-98.113574" />
      <trkpt lat="30.583221" lon="-98.113228" />
      <trkpt lat="30.583351" lon="-98.113128" />
      <trkpt lat="30.583683" lon="-98.112913" />
      <trkpt lat="30.584019" lon="-98.11276" />
      <trkpt lat="30.584122" lon="-98.112722" />
      <trkpt lat="30.584172" lon="-98.112704" />
      <trkpt lat="30.584399" lon="-98.112643" />
      <trkpt lat="30.584552" lon="-98.112601" />
      <trkpt lat="30.585071" lon="-98.112534" />
      <trkpt lat="30.587441" lon="-98.11214" />
      <trkpt lat="30.587882" lon="-98.112073" />
      <trkpt lat="30.5882" lon="-98.112004" />
      <trkpt lat="30.588446" lon="-98.111922" />
      <trkpt lat="30.588656" lon="-98.111814" />
      <trkpt lat="30.588684" lon="-98.111795" />
      <trkpt lat="30.589118" lon="-98.111506" />
      <trkpt lat="30.589297" lon="-98.111373" />
      <trkpt lat="30.589462" lon="-98.111222" />
      <trkpt lat="30.589778" lon="-98.110889" />
      <trkpt lat="30.591337" lon="-98.108792" />
      <trkpt lat="30.593017" lon="-98.106548" />
      <trkpt lat="30.593302" lon="-98.106167" />
      <trkpt lat="30.593512" lon="-98.105907" />
      <trkpt lat="30.593615" lon="-98.105786" />
      <trkpt lat="30.594003" lon="-98.10534" />
      <trkpt lat="30.595172" lon="-98.103926" />
      <trkpt lat="30.595423" lon="-98.103519" />
      <trkpt lat="30.595532" lon="-98.10328" />
      <trkpt lat="30.595665" lon="-98.102879" />
      <trkpt lat="30.595749" lon="-98.102289" />
      <trkpt lat="30.595824" lon="-98.101762" />
      <trkpt lat="30.595923" lon="-98.101411" />
      <trkpt lat="30.596047" lon="-98.101121" />
      <trkpt lat="30.596229" lon="-98.10085" />
      <trkpt lat="30.596693" lon="-98.100357" />
      <trkpt lat="30.597614" lon="-98.099378" />
      <trkpt lat="30.597674" lon="-98.099314" />
      <trkpt lat="30.598314" lon="-98.098611" />
      <trkpt lat="30.598647" lon="-98.09817" />
      <trkpt lat="30.598691" lon="-98.098102" />
      <trkpt lat="30.598966" lon="-98.097677" />
      <trkpt lat="30.599208" lon="-98.097242" />
      <trkpt lat="30.599336" lon="-98.096963" />
      <trkpt lat="30.599477" lon="-98.096571" />
      <trkpt lat="30.599706" lon="-98.095886" />
      <trkpt lat="30.599848" lon="-98.095462" />
      <trkpt lat="30.599922" lon="-98.095256" />
      <trkpt lat="30.600147" lon="-98.094626" />
      <trkpt lat="30.60025" lon="-98.094374" />
      <trkpt lat="30.600365" lon="-98.094167" />
      <trkpt lat="30.600499" lon="-98.09397" />
      <trkpt lat="30.601036" lon="-98.093041" />
      <trkpt lat="30.60137" lon="-98.092482" />
      <trkpt lat="30.601979" lon="-98.091466" />
      <trkpt lat="30.602109" lon="-98.09122" />
      <trkpt lat="30.602228" lon="-98.090927" />
      <trkpt lat="30.602273" lon="-98.090803" />
      <trkpt lat="30.602328" lon="-98.090652" />
      <trkpt lat="30.60242" lon="-98.090289" />
      <trkpt lat="30.602469" lon="-98.089897" />
      <trkpt lat="30.602529" lon="-98.088957" />
      <trkpt lat="30.602581" lon="-98.088629" />
      <trkpt lat="30.602651" lon="-98.08835" />
      <trkpt lat="30.602663" lon="-98.08831" />
      <trkpt lat="30.602846" lon="-98.08766" />
      <trkpt lat="30.602895" lon="-98.087485" />
      <trkpt lat="30.603018" lon="-98.087049" />
      <trkpt lat="30.603109" lon="-98.08683" />
      <trkpt lat="30.603166" lon="-98.086694" />
      <trkpt lat="30.603281" lon="-98.086481" />
      <trkpt lat="30.603357" lon="-98.086353" />
      <trkpt lat="30.603401" lon="-98.08628" />
      <trkpt lat="30.603764" lon="-98.085816" />
      <trkpt lat="30.603829" lon="-98.085753" />
      <trkpt lat="30.604097" lon="-98.085492" />
      <trkpt lat="30.604285" lon="-98.085334" />
      <trkpt lat="30.604652" lon="-98.085107" />
      <trkpt lat="30.604826" lon="-98.085038" />
      <trkpt lat="30.606165" lon="-98.084566" />
      <trkpt lat="30.607099" lon="-98.084243" />
      <trkpt lat="30.607406" lon="-98.084137" />
      <trkpt lat="30.607784" lon="-98.084006" />
      <trkpt lat="30.608258" lon="-98.083815" />
      <trkpt lat="30.608524" lon="-98.083675" />
      <trkpt lat="30.608621" lon="-98.083624" />
      <trkpt lat="30.609097" lon="-98.083333" />
      <trkpt lat="30.609837" lon="-98.082801" />
      <trkpt lat="30.610654" lon="-98.082212" />
      <trkpt lat="30.611602" lon="-98.08154" />
      <trkpt lat="30.612354" lon="-98.081013" />
      <trkpt lat="30.612593" lon="-98.080845" />
      <trkpt lat="30.613438" lon="-98.080235" />
      <trkpt lat="30.614016" lon="-98.079818" />
      <trkpt lat="30.61504" lon="-98.079094" />
      <trkpt lat="30.616896" lon="-98.077769" />
      <trkpt lat="30.617517" lon="-98.077326" />
      <trkpt lat="30.618161" lon="-98.076866" />
      <trkpt lat="30.618763" lon="-98.076436" />
      <trkpt lat="30.619549" lon="-98.075874" />
      <trkpt lat="30.621118" lon="-98.07473" />
      <trkpt lat="30.621446" lon="-98.074499" />
      <trkpt lat="30.622284" lon="-98.073922" />
      <trkpt lat="30.622537" lon="-98.073734" />
      <trkpt lat="30.623019" lon="-98.073441" />
      <trkpt lat="30.623532" lon="-98.073228" />
      <trkpt lat="30.62441" lon="-98.072979" />
      <trkpt lat="30.625868" lon="-98.072667" />
      <trkpt lat="30.626086" lon="-98.072623" />
      <trkpt lat="30.627211" lon="-98.072393" />
      <trkpt lat="30.628361" lon="-98.072127" />
      <trkpt lat="30.628671" lon="-98.072082" />
      <trkpt lat="30.629152" lon="-98.072046" />
      <trkpt lat="30.629545" lon="-98.072046" />
      <trkpt lat="30.630187" lon="-98.072135" />
      <trkpt lat="30.6317" lon="-98.072458" />
      <trkpt lat="30.632038" lon="-98.072484" />
      <trkpt lat="30.632102" lon="-98.072489" />
      <trkpt lat="30.632379" lon="-98.072456" />
      <trkpt lat="30.632547" lon="-98.072436" />
      <trkpt lat="30.632848" lon="-98.072341" />
      <trkpt lat="30.633047" lon="-98.072278" />
      <trkpt lat="30.633265" lon="-98.072161" />
      <trkpt lat="30.633456" lon="-98.072068" />
      <trkpt lat="30.633785" lon="-98.071858" />
      <trkpt lat="30.633834" lon="-98.071823" />
      <trkpt lat="30.63557" lon="-98.070584" />
      <trkpt lat="30.635688" lon="-98.0705" />
      <trkpt lat="30.636333" lon="-98.07004" />
      <trkpt lat="30.636642" lon="-98.069847" />
      <trkpt lat="30.63691" lon="-98.069679" />
      <trkpt lat="30.637419" lon="-98.069423" />
      <trkpt lat="30.638059" lon="-98.069195" />
      <trkpt lat="30.638859" lon="-98.069055" />
      <trkpt lat="30.639872" lon="-98.068916" />
      <trkpt lat="30.640623" lon="-98.068799" />
      <trkpt lat="30.640936" lon="-98.06875" />
      <trkpt lat="30.642382" lon="-98.068536" />
      <trkpt lat="30.642407" lon="-98.068533" />
      <trkpt lat="30.64291" lon="-98.068463" />
      <trkpt lat="30.643934" lon="-98.068321" />
      <trkpt lat="30.644717" lon="-98.068219" />
      <trkpt lat="30.645066" lon="-98.068174" />
      <trkpt lat="30.645232" lon="-98.068152" />
      <trkpt lat="30.645264" lon="-98.068149" />
      <trkpt lat="30.645663" lon="-98.068114" />
      <trkpt lat="30.645759" lon="-98.068118" />
      <trkpt lat="30.646145" lon="-98.068136" />
      <trkpt lat="30.64655" lon="-98.068195" />
      <trkpt lat="30.646667" lon="-98.068222" />
      <trkpt lat="30.647108" lon="-98.068324" />
      <trkpt lat="30.648442" lon="-98.068884" />
      <trkpt lat="30.6491" lon="-98.06916" />
      <trkpt lat="30.649249" lon="-98.069223" />
      <trkpt lat="30.650007" lon="-98.069525" />
      <trkpt lat="30.650996" lon="-98.069937" />
      <trkpt lat="30.652213" lon="-98.07046" />
      <trkpt lat="30.652215" lon="-98.070461" />
      <trkpt lat="30.65386" lon="-98.071142" />
      <trkpt lat="30.655858" lon="-98.064611" />
      <trkpt lat="30.656463" lon="-98.062617" />
      <trkpt lat="30.657084" lon="-98.060533" />
      <trkpt lat="30.657322" lon="-98.059732" />
      <trkpt lat="30.657458" lon="-98.059365" />
      <trkpt lat="30.657624" lon="-98.058975" />
      <trkpt lat="30.65787" lon="-98.058364" />
      <trkpt lat="30.659108" lon="-98.055285" />
      <trkpt lat="30.659445" lon="-98.054313" />
      <trkpt lat="30.65965" lon="-98.053722" />
      <trkpt lat="30.660833" lon="-98.050047" />
      <trkpt lat="30.660909" lon="-98.049809" />
      <trkpt lat="30.661119" lon="-98.049146" />
      <trkpt lat="30.662805" lon="-98.043567" />
      <trkpt lat="30.662889" lon="-98.043199" />
      <trkpt lat="30.662954" lon="-98.042834" />
      <trkpt lat="30.662981" lon="-98.042538" />
      <trkpt lat="30.66309" lon="-98.039704" />
      <trkpt lat="30.663098" lon="-98.039568" />
      <trkpt lat="30.663255" lon="-98.035769" />
      <trkpt lat="30.663262" lon="-98.035397" />
      <trkpt lat="30.663247" lon="-98.035057" />
      <trkpt lat="30.66321" lon="-98.034754" />
      <trkpt lat="30.663159" lon="-98.03442" />
      <trkpt lat="30.6631" lon="-98.034163" />
      <trkpt lat="30.663021" lon="-98.033908" />
      <trkpt lat="30.662889" lon="-98.033602" />
      <trkpt lat="30.66282" lon="-98.033477" />
      <trkpt lat="30.662704" lon="-98.033281" />
      <trkpt lat="30.662453" lon="-98.032935" />
      <trkpt lat="30.662306" lon="-98.03274" />
      <trkpt lat="30.660451" lon="-98.030344" />
      <trkpt lat="30.66032" lon="-98.030186" />
      <trkpt lat="30.658109" lon="-98.028051" />
      <trkpt lat="30.657941" lon="-98.027865" />
      <trkpt lat="30.657794" lon="-98.027664" />
      <trkpt lat="30.657584" lon="-98.027354" />
      <trkpt lat="30.657466" lon="-98.02714" />
      <trkpt lat="30.657321" lon="-98.026804" />
      <trkpt lat="30.657219" lon="-98.026493" />
      <trkpt lat="30.657121" lon="-98.026108" />
      <trkpt lat="30.656612" lon="-98.023596" />
      <trkpt lat="30.656241" lon="-98.021861" />
      <trkpt lat="30.655991" lon="-98.020657" />
      <trkpt lat="30.65578" lon="-98.01977" />
      <trkpt lat="30.655681" lon="-98.019446" />
      <trkpt lat="30.655001" lon="-98.017541" />
      <trkpt lat="30.654784" lon="-98.016927" />
      <trkpt lat="30.654713" lon="-98.016624" />
      <trkpt lat="30.654657" lon="-98.016211" />
      <trkpt lat="30.654641" lon="-98.015948" />
      <trkpt lat="30.654641" lon="-98.015619" />
      <trkpt lat="30.654671" lon="-98.015345" />
      <trkpt lat="30.654734" lon="-98.014908" />
      <trkpt lat="30.654817" lon="-98.014612" />
      <trkpt lat="30.654925" lon="-98.014235" />
      <trkpt lat="30.655188" lon="-98.013381" />
      <trkpt lat="30.655559" lon="-98.012183" />
      <trkpt lat="30.655834" lon="-98.011302" />
      <trkpt lat="30.656023" lon="-98.010691" />
      <trkpt lat="30.656058" lon="-98.010547" />
      <trkpt lat="30.656123" lon="-98.010293" />
      <trkpt lat="30.656168" lon="-98.010028" />
      <trkpt lat="30.656191" lon="-98.00979" />
      <trkpt lat="30.656202" lon="-98.009493" />
      <trkpt lat="30.65619" lon="-98.009189" />
      <trkpt lat="30.656166" lon="-98.008921" />
      <trkpt lat="30.656133" lon="-98.00871" />
      <trkpt lat="30.656091" lon="-98.00849" />
      <trkpt lat="30.656028" lon="-98.008263" />
      <trkpt lat="30.655765" lon="-98.007389" />
      <trkpt lat="30.655557" lon="-98.006681" />
      <trkpt lat="30.655355" lon="-98.00603" />
      <trkpt lat="30.655276" lon="-98.005776" />
      <trkpt lat="30.655068" lon="-98.005092" />
      <trkpt lat="30.654525" lon="-98.003282" />
      <trkpt lat="30.654433" lon="-98.002923" />
      <trkpt lat="30.65437" lon="-98.002532" />
      <trkpt lat="30.654346" lon="-98.002284" />
      <trkpt lat="30.654327" lon="-98.001949" />
      <trkpt lat="30.654332" lon="-98.001643" />
      <trkpt lat="30.654354" lon="-98.001375" />
      <trkpt lat="30.654374" lon="-98.001162" />
      <trkpt lat="30.654427" lon="-98.000869" />
      <trkpt lat="30.654738" lon="-97.999198" />
      <trkpt lat="30.654895" lon="-97.99837" />
      <trkpt lat="30.655209" lon="-97.996685" />
      <trkpt lat="30.655244" lon="-97.996387" />
      <trkpt lat="30.655266" lon="-97.996147" />
      <trkpt lat="30.655263" lon="-97.995856" />
      <trkpt lat="30.655261" lon="-97.995608" />
      <trkpt lat="30.655224" lon="-97.995338" />
      <trkpt lat="30.655157" lon="-97.995003" />
      <trkpt lat="30.655081" lon="-97.994698" />
      <trkpt lat="30.654951" lon="-97.99433" />
      <trkpt lat="30.654387" lon="-97.992844" />
      <trkpt lat="30.65302" lon="-97.989383" />
      <trkpt lat="30.65286" lon="-97.988999" />
      <trkpt lat="30.652646" lon="-97.988448" />
      <trkpt lat="30.652271" lon="-97.987484" />
      <trkpt lat="30.652238" lon="-97.987403" />
      <trkpt lat="30.651592" lon="-97.985746" />
      <trkpt lat="30.650796" lon="-97.983751" />
      <trkpt lat="30.650687" lon="-97.983418" />
      <trkpt lat="30.650543" lon="-97.982921" />
      <trkpt lat="30.650471" lon="-97.982571" />
      <trkpt lat="30.650416" lon="-97.98217" />
      <trkpt lat="30.650403" lon="-97.981808" />
      <trkpt lat="30.650432" lon="-97.981393" />
      <trkpt lat="30.650515" lon="-97.98078" />
      <trkpt lat="30.650708" lon="-97.979496" />
      <trkpt lat="30.652001" lon="-97.970803" />
      <trkpt lat="30.65238" lon="-97.968178" />
      <trkpt lat="30.652496" lon="-97.967468" />
      <trkpt lat="30.652537" lon="-97.967264" />
      <trkpt lat="30.652584" lon="-97.967087" />
      <trkpt lat="30.652717" lon="-97.966639" />
      <trkpt lat="30.652769" lon="-97.966497" />
      <trkpt lat="30.652873" lon="-97.96626" />
      <trkpt lat="30.653019" lon="-97.96598" />
      <trkpt lat="30.653188" lon="-97.965697" />
      <trkpt lat="30.653392" lon="-97.9654" />
      <trkpt lat="30.653646" lon="-97.965069" />
      <trkpt lat="30.653704" lon="-97.964985" />
      <trkpt lat="30.654367" lon="-97.964167" />
      <trkpt lat="30.654512" lon="-97.963955" />
      <trkpt lat="30.654705" lon="-97.963669" />
      <trkpt lat="30.656555" lon="-97.960347" />
      <trkpt lat="30.656785" lon="-97.959888" />
      <trkpt lat="30.656955" lon="-97.959489" />
      <trkpt lat="30.657088" lon="-97.959108" />
      <trkpt lat="30.657286" lon="-97.958469" />
      <trkpt lat="30.657698" lon="-97.957096" />
      <trkpt lat="30.657859" lon="-97.956567" />
      <trkpt lat="30.658607" lon="-97.954103" />
      <trkpt lat="30.659581" lon="-97.950823" />
      <trkpt lat="30.660208" lon="-97.948737" />
      <trkpt lat="30.660299" lon="-97.948408" />
      <trkpt lat="30.660366" lon="-97.948088" />
      <trkpt lat="30.660453" lon="-97.947554" />
      <trkpt lat="30.660468" lon="-97.947397" />
      <trkpt lat="30.660475" lon="-97.947252" />
      <trkpt lat="30.660472" lon="-97.947175" />
      <trkpt lat="30.660468" lon="-97.946867" />
      <trkpt lat="30.660441" lon="-97.946188" />
      <trkpt lat="30.660408" lon="-97.945659" />
      <trkpt lat="30.660378" lon="-97.945179" />
      <trkpt lat="30.660364" lon="-97.944953" />
      <trkpt lat="30.6603" lon="-97.943819" />
      <trkpt lat="30.660299" lon="-97.943528" />
      <trkpt lat="30.660265" lon="-97.942797" />
      <trkpt lat="30.660234" lon="-97.94224" />
      <trkpt lat="30.660209" lon="-97.941868" />
      <trkpt lat="30.660185" lon="-97.941413" />
      <trkpt lat="30.660152" lon="-97.941186" />
      <trkpt lat="30.659965" lon="-97.939919" />
      <trkpt lat="30.659939" lon="-97.939637" />
      <trkpt lat="30.659933" lon="-97.939291" />
      <trkpt lat="30.659966" lon="-97.938883" />
      <trkpt lat="30.66005" lon="-97.93826" />
      <trkpt lat="30.660143" lon="-97.937536" />
      <trkpt lat="30.660236" lon="-97.936769" />
      <trkpt lat="30.660286" lon="-97.936359" />
      <trkpt lat="30.660375" lon="-97.935887" />
      <trkpt lat="30.660608" lon="-97.935112" />
      <trkpt lat="30.660687" lon="-97.934871" />
      <trkpt lat="30.661047" lon="-97.933781" />
      <trkpt lat="30.661182" lon="-97.933428" />
      <trkpt lat="30.661246" lon="-97.933283" />
      <trkpt lat="30.66137" lon="-97.933002" />
      <trkpt lat="30.661526" lon="-97.932647" />
      <trkpt lat="30.661793" lon="-97.932075" />
      <trkpt lat="30.661877" lon="-97.931894" />
      <trkpt lat="30.661927" lon="-97.93177" />
      <trkpt lat="30.661962" lon="-97.931675" />
      <trkpt lat="30.661996" lon="-97.931588" />
      <trkpt lat="30.662139" lon="-97.931156" />
      <trkpt lat="30.662222" lon="-97.930856" />
      <trkpt lat="30.662293" lon="-97.930603" />
      <trkpt lat="30.662415" lon="-97.930154" />
      <trkpt lat="30.662561" lon="-97.929587" />
      <trkpt lat="30.662753" lon="-97.928791" />
      <trkpt lat="30.662972" lon="-97.928097" />
      <trkpt lat="30.663051" lon="-97.927909" />
      <trkpt lat="30.663076" lon="-97.92785" />
      <trkpt lat="30.663531" lon="-97.926816" />
      <trkpt lat="30.663694" lon="-97.926442" />
      <trkpt lat="30.663731" lon="-97.926339" />
      <trkpt lat="30.663872" lon="-97.925934" />
      <trkpt lat="30.664" lon="-97.925978" />
      <trkpt lat="30.664314" lon="-97.926099" />
      <trkpt lat="30.664348" lon="-97.92606" />
      <trkpt lat="30.664565" lon="-97.925974" />
      <trkpt lat="30.664645" lon="-97.925927" />
      <trkpt lat="30.664689" lon="-97.925807" />
      <trkpt lat="30.664824" lon="-97.925708" />
      <trkpt lat="30.665081" lon="-97.925612" />
      <trkpt lat="30.6651" lon="-97.9256" />
    </trkseg>
  </trk>
</gpx>