<?xml version="1.0" encoding="UTF-8"?>
<gpx version="1.1" creator="Antigravity Route Generator" xmlns="http://www.topografix.com/GPX/1/1">
  <trk>
    <name>Bertram, RM 1174 &amp; RM 963 Loop</name>
    <desc>Savannah &amp; Prairie Sweeps (54.6 mi) - TX 29 West -&gt; Bertram -&gt; RM 1174 North -&gt; RM 963 East -&gt; US 183 South</desc>
    <trkseg>
      <trkpt lat="30.654021" lon="-97.877436" />
      <trkpt lat="30.654053" lon="-97.877518" />
      <trkpt lat="30.654371" lon="-97.87838" />
      <trkpt lat="30.654578" lon="-97.878941" />
      <trkpt lat="30.654888" lon="-97.879757" />
      <trkpt lat="30.655451" lon="-97.881379" />
      <trkpt lat="30.655734" lon="-97.882196" />
      <trkpt lat="30.655913" lon="-97.882707" />
      <trkpt lat="30.656426" lon="-97.88417" />
      <trkpt lat="30.656709" lon="-97.884947" />
      <trkpt lat="30.657242" lon="-97.886513" />
      <trkpt lat="30.657376" lon="-97.886897" />
      <trkpt lat="30.657506" lon="-97.887273" />
      <trkpt lat="30.657781" lon="-97.888065" />
      <trkpt lat="30.657986" lon="-97.888655" />
      <trkpt lat="30.658013" lon="-97.888734" />
      <trkpt lat="30.658252" lon="-97.889362" />
      <trkpt lat="30.658303" lon="-97.889497" />
      <trkpt lat="30.658326" lon="-97.889555" />
      <trkpt lat="30.658511" lon="-97.890042" />
      <trkpt lat="30.65864" lon="-97.890381" />
      <trkpt lat="30.658827" lon="-97.890859" />
      <trkpt lat="30.65884" lon="-97.890893" />
      <trkpt lat="30.65886" lon="-97.890943" />
      <trkpt lat="30.659053" lon="-97.891423" />
      <trkpt lat="30.659675" lon="-97.892972" />
      <trkpt lat="30.660039" lon="-97.893877" />
      <trkpt lat="30.660194" lon="-97.894327" />
      <trkpt lat="30.660343" lon="-97.894732" />
      <trkpt lat="30.66054" lon="-97.895221" />
      <trkpt lat="30.660547" lon="-97.895239" />
      <trkpt lat="30.660585" lon="-97.895332" />
      <trkpt lat="30.660692" lon="-97.895584" />
      <trkpt lat="30.660928" lon="-97.896179" />
      <trkpt lat="30.660969" lon="-97.896287" />
      <trkpt lat="30.661182" lon="-97.896803" />
      <trkpt lat="30.661217" lon="-97.896889" />
      <trkpt lat="30.661321" lon="-97.897143" />
      <trkpt lat="30.66146" lon="-97.897485" />
      <trkpt lat="30.661587" lon="-97.897801" />
      <trkpt lat="30.661674" lon="-97.898001" />
      <trkpt lat="30.661901" lon="-97.898526" />
      <trkpt lat="30.662038" lon="-97.898854" />
      <trkpt lat="30.662537" lon="-97.900047" />
      <trkpt lat="30.662759" lon="-97.900565" />
      <trkpt lat="30.662898" lon="-97.900887" />
      <trkpt lat="30.662994" lon="-97.901112" />
      <trkpt lat="30.663144" lon="-97.901462" />
      <trkpt lat="30.663477" lon="-97.902171" />
      <trkpt lat="30.663721" lon="-97.90272" />
      <trkpt lat="30.664523" lon="-97.904461" />
      <trkpt lat="30.664826" lon="-97.905123" />
      <trkpt lat="30.664894" lon="-97.905256" />
      <trkpt lat="30.665102" lon="-97.905668" />
      <trkpt lat="30.665337" lon="-97.906135" />
      <trkpt lat="30.665441" lon="-97.906341" />
      <trkpt lat="30.665473" lon="-97.906403" />
      <trkpt lat="30.665572" lon="-97.906598" />
      <trkpt lat="30.665727" lon="-97.906903" />
      <trkpt lat="30.666108" lon="-97.907651" />
      <trkpt lat="30.666184" lon="-97.907799" />
      <trkpt lat="30.666596" lon="-97.908608" />
      <trkpt lat="30.666777" lon="-97.908964" />
      <trkpt lat="30.666874" lon="-97.909155" />
      <trkpt lat="30.667047" lon="-97.909495" />
      <trkpt lat="30.667268" lon="-97.909928" />
      <trkpt lat="30.667496" lon="-97.910376" />
      <trkpt lat="30.667693" lon="-97.910778" />
      <trkpt lat="30.667835" lon="-97.911067" />
      <trkpt lat="30.667855" lon="-97.911108" />
      <trkpt lat="30.668097" lon="-97.911569" />
      <trkpt lat="30.668322" lon="-97.912013" />
      <trkpt lat="30.668466" lon="-97.912297" />
      <trkpt lat="30.668505" lon="-97.912373" />
      <trkpt lat="30.668547" lon="-97.912455" />
      <trkpt lat="30.668644" lon="-97.912647" />
      <trkpt lat="30.668721" lon="-97.912799" />
      <trkpt lat="30.668783" lon="-97.912921" />
      <trkpt lat="30.668832" lon="-97.913017" />
      <trkpt lat="30.668906" lon="-97.913162" />
      <trkpt lat="30.669206" lon="-97.913753" />
      <trkpt lat="30.6695" lon="-97.914332" />
      <trkpt lat="30.669658" lon="-97.914646" />
      <trkpt lat="30.669742" lon="-97.91481" />
      <trkpt lat="30.6698" lon="-97.914924" />
      <trkpt lat="30.669886" lon="-97.915094" />
      <trkpt lat="30.669975" lon="-97.91527" />
      <trkpt lat="30.670138" lon="-97.915592" />
      <trkpt lat="30.670328" lon="-97.915965" />
      <trkpt lat="30.670368" lon="-97.916044" />
      <trkpt lat="30.670477" lon="-97.916259" />
      <trkpt lat="30.670797" lon="-97.916891" />
      <trkpt lat="30.670995" lon="-97.917281" />
      <trkpt lat="30.671049" lon="-97.917387" />
      <trkpt lat="30.671152" lon="-97.91759" />
      <trkpt lat="30.671329" lon="-97.917923" />
      <trkpt lat="30.671648" lon="-97.918524" />
      <trkpt lat="30.671678" lon="-97.918581" />
      <trkpt lat="30.671953" lon="-97.919149" />
      <trkpt lat="30.672237" lon="-97.919735" />
      <trkpt lat="30.672527" lon="-97.920333" />
      <trkpt lat="30.672554" lon="-97.920385" />
      <trkpt lat="30.672651" lon="-97.920571" />
      <trkpt lat="30.672891" lon="-97.921031" />
      <trkpt lat="30.672979" lon="-97.921199" />
      <trkpt lat="30.673202" lon="-97.921628" />
      <trkpt lat="30.67352" lon="-97.922256" />
      <trkpt lat="30.673824" lon="-97.922856" />
      <trkpt lat="30.673898" lon="-97.923004" />
      <trkpt lat="30.674057" lon="-97.923324" />
      <trkpt lat="30.674086" lon="-97.923382" />
      <trkpt lat="30.674264" lon="-97.923706" />
      <trkpt lat="30.674283" lon="-97.923744" />
      <trkpt lat="30.674531" lon="-97.924258" />
      <trkpt lat="30.674666" lon="-97.924596" />
      <trkpt lat="30.674779" lon="-97.92488" />
      <trkpt lat="30.674841" lon="-97.925111" />
      <trkpt lat="30.674862" lon="-97.925188" />
      <trkpt lat="30.674958" lon="-97.925541" />
      <trkpt lat="30.674984" lon="-97.925645" />
      <trkpt lat="30.675033" lon="-97.925843" />
      <trkpt lat="30.675049" lon="-97.925919" />
      <trkpt lat="30.675059" lon="-97.925969" />
      <trkpt lat="30.675114" lon="-97.926234" />
      <trkpt lat="30.675126" lon="-97.926292" />
      <trkpt lat="30.675146" lon="-97.926443" />
      <trkpt lat="30.675201" lon="-97.926867" />
      <trkpt lat="30.675217" lon="-97.927469" />
      <trkpt lat="30.675219" lon="-97.927614" />
      <trkpt lat="30.67522" lon="-97.92777" />
      <trkpt lat="30.67522" lon="-97.927788" />
      <trkpt lat="30.675221" lon="-97.927851" />
      <trkpt lat="30.675214" lon="-97.927962" />
      <trkpt lat="30.675183" lon="-97.928409" />
      <trkpt lat="30.675146" lon="-97.928742" />
      <trkpt lat="30.675123" lon="-97.92894" />
      <trkpt lat="30.67512" lon="-97.928969" />
      <trkpt lat="30.67511" lon="-97.929038" />
      <trkpt lat="30.674948" lon="-97.93014" />
      <trkpt lat="30.674811" lon="-97.931076" />
      <trkpt lat="30.674806" lon="-97.931116" />
      <trkpt lat="30.674691" lon="-97.931948" />
      <trkpt lat="30.674676" lon="-97.932138" />
      <trkpt lat="30.674653" lon="-97.93244" />
      <trkpt lat="30.674642" lon="-97.932586" />
      <trkpt lat="30.674637" lon="-97.932912" />
      <trkpt lat="30.674627" lon="-97.933269" />
      <trkpt lat="30.674628" lon="-97.933535" />
      <trkpt lat="30.674654" lon="-97.933914" />
      <trkpt lat="30.674676" lon="-97.934109" />
      <trkpt lat="30.674681" lon="-97.934148" />
      <trkpt lat="30.674725" lon="-97.934507" />
      <trkpt lat="30.67473" lon="-97.934551" />
      <trkpt lat="30.674796" lon="-97.934966" />
      <trkpt lat="30.674896" lon="-97.935598" />
      <trkpt lat="30.675015" lon="-97.936171" />
      <trkpt lat="30.675202" lon="-97.937068" />
      <trkpt lat="30.675268" lon="-97.937381" />
      <trkpt lat="30.675389" lon="-97.937963" />
      <trkpt lat="30.675447" lon="-97.938188" />
      <trkpt lat="30.675466" lon="-97.93826" />
      <trkpt lat="30.675596" lon="-97.938739" />
      <trkpt lat="30.675667" lon="-97.938984" />
      <trkpt lat="30.675711" lon="-97.939138" />
      <trkpt lat="30.675889" lon="-97.939714" />
      <trkpt lat="30.675961" lon="-97.939911" />
      <trkpt lat="30.67612" lon="-97.940342" />
      <trkpt lat="30.67615" lon="-97.940416" />
      <trkpt lat="30.676212" lon="-97.940568" />
      <trkpt lat="30.676448" lon="-97.941148" />
      <trkpt lat="30.676537" lon="-97.941364" />
      <trkpt lat="30.676664" lon="-97.94166" />
      <trkpt lat="30.676746" lon="-97.941852" />
      <trkpt lat="30.676908" lon="-97.942229" />
      <trkpt lat="30.677003" lon="-97.942452" />
      <trkpt lat="30.677174" lon="-97.94285" />
      <trkpt lat="30.677573" lon="-97.943781" />
      <trkpt lat="30.677995" lon="-97.944766" />
      <trkpt lat="30.678303" lon="-97.945485" />
      <trkpt lat="30.678572" lon="-97.946134" />
      <trkpt lat="30.678691" lon="-97.946444" />
      <trkpt lat="30.678802" lon="-97.946745" />
      <trkpt lat="30.678891" lon="-97.947012" />
      <trkpt lat="30.679006" lon="-97.947353" />
      <trkpt lat="30.679105" lon="-97.947736" />
      <trkpt lat="30.679225" lon="-97.948181" />
      <trkpt lat="30.679291" lon="-97.948469" />
      <trkpt lat="30.679386" lon="-97.948937" />
      <trkpt lat="30.679533" lon="-97.94967" />
      <trkpt lat="30.679582" lon="-97.949921" />
      <trkpt lat="30.679591" lon="-97.949968" />
      <trkpt lat="30.679703" lon="-97.950622" />
      <trkpt lat="30.679772" lon="-97.951001" />
      <trkpt lat="30.679826" lon="-97.951292" />
      <trkpt lat="30.679996" lon="-97.9522" />
      <trkpt lat="30.680045" lon="-97.95246" />
      <trkpt lat="30.680205" lon="-97.953284" />
      <trkpt lat="30.680291" lon="-97.953685" />
      <trkpt lat="30.680388" lon="-97.954079" />
      <trkpt lat="30.680407" lon="-97.954151" />
      <trkpt lat="30.68048" lon="-97.95442" />
      <trkpt lat="30.680739" lon="-97.955225" />
      <trkpt lat="30.680933" lon="-97.955749" />
      <trkpt lat="30.681129" lon="-97.956238" />
      <trkpt lat="30.681248" lon="-97.95652" />
      <trkpt lat="30.681486" lon="-97.957015" />
      <trkpt lat="30.681777" lon="-97.95758" />
      <trkpt lat="30.681916" lon="-97.957841" />
      <trkpt lat="30.681969" lon="-97.95794" />
      <trkpt lat="30.682296" lon="-97.958472" />
      <trkpt lat="30.682408" lon="-97.958646" />
      <trkpt lat="30.682932" lon="-97.959467" />
      <trkpt lat="30.683431" lon="-97.960246" />
      <trkpt lat="30.683633" lon="-97.960529" />
      <trkpt lat="30.684097" lon="-97.961261" />
      <trkpt lat="30.684653" lon="-97.962141" />
      <trkpt lat="30.684671" lon="-97.962169" />
      <trkpt lat="30.685151" lon="-97.96291" />
      <trkpt lat="30.685324" lon="-97.963177" />
      <trkpt lat="30.685351" lon="-97.96322" />
      <trkpt lat="30.685916" lon="-97.964087" />
      <trkpt lat="30.686224" lon="-97.964575" />
      <trkpt lat="30.686744" lon="-97.965375" />
      <trkpt lat="30.688017" lon="-97.967361" />
      <trkpt lat="30.688763" lon="-97.9685" />
      <trkpt lat="30.689073" lon="-97.969009" />
      <trkpt lat="30.689236" lon="-97.969277" />
      <trkpt lat="30.689417" lon="-97.969587" />
      <trkpt lat="30.689507" lon="-97.969738" />
      <trkpt lat="30.689767" lon="-97.970221" />
      <trkpt lat="30.690059" lon="-97.970811" />
      <trkpt lat="30.690332" lon="-97.971413" />
      <trkpt lat="30.690514" lon="-97.971817" />
      <trkpt lat="30.692237" lon="-97.975817" />
      <trkpt lat="30.692495" lon="-97.976405" />
      <trkpt lat="30.692504" lon="-97.976427" />
      <trkpt lat="30.692814" lon="-97.977081" />
      <trkpt lat="30.693822" lon="-97.979127" />
      <trkpt lat="30.693848" lon="-97.979182" />
      <trkpt lat="30.693887" lon="-97.979261" />
      <trkpt lat="30.694611" lon="-97.980749" />
      <trkpt lat="30.694992" lon="-97.981581" />
      <trkpt lat="30.695233" lon="-97.98214" />
      <trkpt lat="30.695335" lon="-97.982391" />
      <trkpt lat="30.695363" lon="-97.98246" />
      <trkpt lat="30.69569" lon="-97.983264" />
      <trkpt lat="30.695865" lon="-97.983694" />
      <trkpt lat="30.696521" lon="-97.985321" />
      <trkpt lat="30.697204" lon="-97.987016" />
      <trkpt lat="30.697256" lon="-97.987146" />
      <trkpt lat="30.6973" lon="-97.987246" />
      <trkpt lat="30.697548" lon="-97.987802" />
      <trkpt lat="30.697737" lon="-97.988175" />
      <trkpt lat="30.697885" lon="-97.988436" />
      <trkpt lat="30.697942" lon="-97.988537" />
      <trkpt lat="30.698163" lon="-97.988885" />
      <trkpt lat="30.698262" lon="-97.98903" />
      <trkpt lat="30.699055" lon="-97.990072" />
      <trkpt lat="30.699151" lon="-97.990193" />
      <trkpt lat="30.699838" lon="-97.991058" />
      <trkpt lat="30.700526" lon="-97.991922" />
      <trkpt lat="30.701646" lon="-97.99333" />
      <trkpt lat="30.702457" lon="-97.994419" />
      <trkpt lat="30.702542" lon="-97.994538" />
      <trkpt lat="30.703455" lon="-97.995787" />
      <trkpt lat="30.704497" lon="-97.997238" />
      <trkpt lat="30.705345" lon="-97.998443" />
      <trkpt lat="30.706006" lon="-97.999399" />
      <trkpt lat="30.706544" lon="-98.000151" />
      <trkpt lat="30.707055" lon="-98.000769" />
      <trkpt lat="30.707392" lon="-98.001158" />
      <trkpt lat="30.707744" lon="-98.001527" />
      <trkpt lat="30.708294" lon="-98.002065" />
      <trkpt lat="30.708444" lon="-98.002212" />
      <trkpt lat="30.7103" lon="-98.003741" />
      <trkpt lat="30.710883" lon="-98.004273" />
      <trkpt lat="30.711367" lon="-98.004714" />
      <trkpt lat="30.711746" lon="-98.005032" />
      <trkpt lat="30.71185" lon="-98.005119" />
      <trkpt lat="30.712548" lon="-98.005705" />
      <trkpt lat="30.712981" lon="-98.006068" />
      <trkpt lat="30.713475" lon="-98.006483" />
      <trkpt lat="30.71407" lon="-98.006981" />
      <trkpt lat="30.714539" lon="-98.007375" />
      <trkpt lat="30.714767" lon="-98.007566" />
      <trkpt lat="30.714825" lon="-98.007615" />
      <trkpt lat="30.714924" lon="-98.007698" />
      <trkpt lat="30.714954" lon="-98.007723" />
      <trkpt lat="30.71533" lon="-98.008041" />
      <trkpt lat="30.715999" lon="-98.008606" />
      <trkpt lat="30.716036" lon="-98.008638" />
      <trkpt lat="30.716093" lon="-98.008685" />
      <trkpt lat="30.716582" lon="-98.009093" />
      <trkpt lat="30.716902" lon="-98.00936" />
      <trkpt lat="30.717536" lon="-98.00989" />
      <trkpt lat="30.718521" lon="-98.010718" />
      <trkpt lat="30.719453" lon="-98.011512" />
      <trkpt lat="30.719541" lon="-98.011587" />
      <trkpt lat="30.71991" lon="-98.011926" />
      <trkpt lat="30.720019" lon="-98.012026" />
      <trkpt lat="30.720422" lon="-98.012448" />
      <trkpt lat="30.720635" lon="-98.012672" />
      <trkpt lat="30.720686" lon="-98.012725" />
      <trkpt lat="30.720882" lon="-98.012936" />
      <trkpt lat="30.721362" lon="-98.013475" />
      <trkpt lat="30.72143" lon="-98.013567" />
      <trkpt lat="30.722519" lon="-98.015037" />
      <trkpt lat="30.722978" lon="-98.015658" />
      <trkpt lat="30.723367" lon="-98.016195" />
      <trkpt lat="30.723852" lon="-98.016865" />
      <trkpt lat="30.724068" lon="-98.017161" />
      <trkpt lat="30.725448" lon="-98.019047" />
      <trkpt lat="30.725524" lon="-98.019157" />
      <trkpt lat="30.725631" lon="-98.019302" />
      <trkpt lat="30.725753" lon="-98.019458" />
      <trkpt lat="30.725837" lon="-98.019566" />
      <trkpt lat="30.726949" lon="-98.02112" />
      <trkpt lat="30.727565" lon="-98.021981" />
      <trkpt lat="30.729179" lon="-98.024237" />
      <trkpt lat="30.729288" lon="-98.024384" />
      <trkpt lat="30.729612" lon="-98.02482" />
      <trkpt lat="30.729938" lon="-98.025259" />
      <trkpt lat="30.730382" lon="-98.025862" />
      <trkpt lat="30.730836" lon="-98.026478" />
      <trkpt lat="30.731555" lon="-98.027455" />
      <trkpt lat="30.73218" lon="-98.028304" />
      <trkpt lat="30.73229" lon="-98.028452" />
      <trkpt lat="30.7325" lon="-98.028743" />
      <trkpt lat="30.732669" lon="-98.028969" />
      <trkpt lat="30.733154" lon="-98.029635" />
      <trkpt lat="30.733794" lon="-98.030533" />
      <trkpt lat="30.733997" lon="-98.030829" />
      <trkpt lat="30.734119" lon="-98.031031" />
      <trkpt lat="30.734296" lon="-98.031365" />
      <trkpt lat="30.734402" lon="-98.031606" />
      <trkpt lat="30.734512" lon="-98.031892" />
      <trkpt lat="30.734616" lon="-98.032224" />
      <trkpt lat="30.734699" lon="-98.032523" />
      <trkpt lat="30.734771" lon="-98.032842" />
      <trkpt lat="30.734811" lon="-98.033098" />
      <trkpt lat="30.73484" lon="-98.033329" />
      <trkpt lat="30.734861" lon="-98.033604" />
      <trkpt lat="30.734866" lon="-98.033863" />
      <trkpt lat="30.734865" lon="-98.033909" />
      <trkpt lat="30.734858" lon="-98.034195" />
      <trkpt lat="30.734849" lon="-98.034286" />
      <trkpt lat="30.734789" lon="-98.035258" />
      <trkpt lat="30.734772" lon="-98.035838" />
      <trkpt lat="30.734781" lon="-98.036141" />
      <trkpt lat="30.734785" lon="-98.036283" />
      <trkpt lat="30.734822" lon="-98.036783" />
      <trkpt lat="30.734857" lon="-98.037075" />
      <trkpt lat="30.734924" lon="-98.03743" />
      <trkpt lat="30.735027" lon="-98.037826" />
      <trkpt lat="30.735083" lon="-98.038008" />
      <trkpt lat="30.735126" lon="-98.038128" />
      <trkpt lat="30.735245" lon="-98.038461" />
      <trkpt lat="30.735471" lon="-98.038985" />
      <trkpt lat="30.735792" lon="-98.039692" />
      <trkpt lat="30.735961" lon="-98.04007" />
      <trkpt lat="30.736044" lon="-98.040242" />
      <trkpt lat="30.736473" lon="-98.041196" />
      <trkpt lat="30.736695" lon="-98.041683" />
      <trkpt lat="30.736968" lon="-98.042279" />
      <trkpt lat="30.73705" lon="-98.042459" />
      <trkpt lat="30.737275" lon="-98.042951" />
      <trkpt lat="30.737301" lon="-98.043005" />
      <trkpt lat="30.737463" lon="-98.043343" />
      <trkpt lat="30.737594" lon="-98.043637" />
      <trkpt lat="30.737859" lon="-98.044222" />
      <trkpt lat="30.738185" lon="-98.044981" />
      <trkpt lat="30.738427" lon="-98.045505" />
      <trkpt lat="30.739122" lon="-98.047008" />
      <trkpt lat="30.73933" lon="-98.047467" />
      <trkpt lat="30.73958" lon="-98.048016" />
      <trkpt lat="30.739659" lon="-98.04819" />
      <trkpt lat="30.739709" lon="-98.048301" />
      <trkpt lat="30.739975" lon="-98.048899" />
      <trkpt lat="30.740047" lon="-98.049043" />
      <trkpt lat="30.740134" lon="-98.049235" />
      <trkpt lat="30.740237" lon="-98.049461" />
      <trkpt lat="30.740352" lon="-98.049714" />
      <trkpt lat="30.740491" lon="-98.05002" />
      <trkpt lat="30.74057" lon="-98.050193" />
      <trkpt lat="30.740636" lon="-98.050333" />
      <trkpt lat="30.740717" lon="-98.050516" />
      <trkpt lat="30.740785" lon="-98.050649" />
      <trkpt lat="30.740837" lon="-98.050754" />
      <trkpt lat="30.740879" lon="-98.050829" />
      <trkpt lat="30.741078" lon="-98.05118" />
      <trkpt lat="30.741168" lon="-98.051321" />
      <trkpt lat="30.741338" lon="-98.051616" />
      <trkpt lat="30.741587" lon="-98.051972" />
      <trkpt lat="30.741796" lon="-98.052241" />
      <trkpt lat="30.742134" lon="-98.052667" />
      <trkpt lat="30.742306" lon="-98.052883" />
      <trkpt lat="30.742512" lon="-98.053132" />
      <trkpt lat="30.742562" lon="-98.053192" />
      <trkpt lat="30.742643" lon="-98.053291" />
      <trkpt lat="30.743097" lon="-98.053838" />
      <trkpt lat="30.743421" lon="-98.054231" />
      <trkpt lat="30.743628" lon="-98.054567" />
      <trkpt lat="30.743707" lon="-98.054702" />
      <trkpt lat="30.74398" lon="-98.055282" />
      <trkpt lat="30.744014" lon="-98.05536" />
      <trkpt lat="30.74427" lon="-98.055211" />
      <trkpt lat="30.744359" lon="-98.055148" />
      <trkpt lat="30.744518" lon="-98.055057" />
      <trkpt lat="30.744658" lon="-98.054965" />
      <trkpt lat="30.744785" lon="-98.054873" />
      <trkpt lat="30.744925" lon="-98.054785" />
      <trkpt lat="30.745341" lon="-98.054533" />
      <trkpt lat="30.745726" lon="-98.054286" />
      <trkpt lat="30.746077" lon="-98.054089" />
      <trkpt lat="30.746115" lon="-98.054056" />
      <trkpt lat="30.746215" lon="-98.053955" />
      <trkpt lat="30.746215" lon="-98.053955" />
      <trkpt lat="30.746287" lon="-98.053802" />
      <trkpt lat="30.746373" lon="-98.053604" />
      <trkpt lat="30.746456" lon="-98.053382" />
      <trkpt lat="30.746967" lon="-98.052007" />
      <trkpt lat="30.747563" lon="-98.0504" />
      <trkpt lat="30.747714" lon="-98.050121" />
      <trkpt lat="30.747973" lon="-98.050229" />
      <trkpt lat="30.748705" lon="-98.05054" />
      <trkpt lat="30.748915" lon="-98.050624" />
      <trkpt lat="30.748976" lon="-98.050649" />
      <trkpt lat="30.749771" lon="-98.050983" />
      <trkpt lat="30.750124" lon="-98.051132" />
      <trkpt lat="30.751187" lon="-98.051582" />
      <trkpt lat="30.751874" lon="-98.051884" />
      <trkpt lat="30.752609" lon="-98.052181" />
      <trkpt lat="30.752777" lon="-98.052249" />
      <trkpt lat="30.753202" lon="-98.052426" />
      <trkpt lat="30.753561" lon="-98.052575" />
      <trkpt lat="30.753961" lon="-98.052755" />
      <trkpt lat="30.755398" lon="-98.053348" />
      <trkpt lat="30.755684" lon="-98.053495" />
      <trkpt lat="30.756266" lon="-98.053714" />
      <trkpt lat="30.756877" lon="-98.05397" />
      <trkpt lat="30.759046" lon="-98.054879" />
      <trkpt lat="30.759067" lon="-98.054888" />
      <trkpt lat="30.759192" lon="-98.05495" />
      <trkpt lat="30.759688" lon="-98.05515" />
      <trkpt lat="30.762841" lon="-98.056506" />
      <trkpt lat="30.764493" lon="-98.057197" />
      <trkpt lat="30.765206" lon="-98.057508" />
      <trkpt lat="30.765253" lon="-98.057529" />
      <trkpt lat="30.765382" lon="-98.057585" />
      <trkpt lat="30.766283" lon="-98.057957" />
      <trkpt lat="30.76632" lon="-98.057973" />
      <trkpt lat="30.766748" lon="-98.058156" />
      <trkpt lat="30.767606" lon="-98.058525" />
      <trkpt lat="30.768354" lon="-98.058846" />
      <trkpt lat="30.768538" lon="-98.058925" />
      <trkpt lat="30.770381" lon="-98.059717" />
      <trkpt lat="30.771709" lon="-98.060287" />
      <trkpt lat="30.774388" lon="-98.061423" />
      <trkpt lat="30.774613" lon="-98.061519" />
      <trkpt lat="30.780162" lon="-98.063893" />
      <trkpt lat="30.781295" lon="-98.064378" />
      <trkpt lat="30.78147" lon="-98.064453" />
      <trkpt lat="30.782169" lon="-98.064752" />
      <trkpt lat="30.783117" lon="-98.06518" />
      <trkpt lat="30.783442" lon="-98.065327" />
      <trkpt lat="30.784733" lon="-98.06591" />
      <trkpt lat="30.785551" lon="-98.06628" />
      <trkpt lat="30.787006" lon="-98.066938" />
      <trkpt lat="30.787114" lon="-98.066987" />
      <trkpt lat="30.787658" lon="-98.067233" />
      <trkpt lat="30.788285" lon="-98.067516" />
      <trkpt lat="30.790371" lon="-98.068327" />
      <trkpt lat="30.791329" lon="-98.068696" />
      <trkpt lat="30.791361" lon="-98.068708" />
      <trkpt lat="30.791845" lon="-98.068899" />
      <trkpt lat="30.792294" lon="-98.069088" />
      <trkpt lat="30.792333" lon="-98.069103" />
      <trkpt lat="30.79342" lon="-98.06952" />
      <trkpt lat="30.79346" lon="-98.069535" />
      <trkpt lat="30.794726" lon="-98.070021" />
      <trkpt lat="30.795016" lon="-98.070127" />
      <trkpt lat="30.795504" lon="-98.070216" />
      <trkpt lat="30.795856" lon="-98.070211" />
      <trkpt lat="30.795996" lon="-98.0702" />
      <trkpt lat="30.796285" lon="-98.070177" />
      <trkpt lat="30.796906" lon="-98.069995" />
      <trkpt lat="30.797339" lon="-98.06974" />
      <trkpt lat="30.798336" lon="-98.069041" />
      <trkpt lat="30.798562" lon="-98.06888" />
      <trkpt lat="30.799554" lon="-98.068175" />
      <trkpt lat="30.801433" lon="-98.066839" />
      <trkpt lat="30.802027" lon="-98.066417" />
      <trkpt lat="30.802308" lon="-98.066257" />
      <trkpt lat="30.802846" lon="-98.066063" />
      <trkpt lat="30.803249" lon="-98.066021" />
      <trkpt lat="30.803833" lon="-98.066047" />
      <trkpt lat="30.804351" lon="-98.066262" />
      <trkpt lat="30.80521" lon="-98.066804" />
      <trkpt lat="30.805733" lon="-98.067158" />
      <trkpt lat="30.806117" lon="-98.067495" />
      <trkpt lat="30.806504" lon="-98.067827" />
      <trkpt lat="30.807197" lon="-98.068408" />
      <trkpt lat="30.807558" lon="-98.068648" />
      <trkpt lat="30.807967" lon="-98.068895" />
      <trkpt lat="30.809296" lon="-98.069579" />
      <trkpt lat="30.809777" lon="-98.069855" />
      <trkpt lat="30.810021" lon="-98.069996" />
      <trkpt lat="30.810809" lon="-98.07059" />
      <trkpt lat="30.811398" lon="-98.071035" />
      <trkpt lat="30.813469" lon="-98.072593" />
      <trkpt lat="30.813822" lon="-98.072947" />
      <trkpt lat="30.814061" lon="-98.073259" />
      <trkpt lat="30.814361" lon="-98.073743" />
      <trkpt lat="30.814581" lon="-98.074362" />
      <trkpt lat="30.815406" lon="-98.077357" />
      <trkpt lat="30.815641" lon="-98.07823" />
      <trkpt lat="30.815864" lon="-98.078711" />
      <trkpt lat="30.815889" lon="-98.078765" />
      <trkpt lat="30.815964" lon="-98.078927" />
      <trkpt lat="30.816411" lon="-98.07948" />
      <trkpt lat="30.817285" lon="-98.080054" />
      <trkpt lat="30.818245" lon="-98.080415" />
      <trkpt lat="30.821903" lon="-98.081985" />
      <trkpt lat="30.822798" lon="-98.082357" />
      <trkpt lat="30.823025" lon="-98.082457" />
      <trkpt lat="30.823258" lon="-98.082591" />
      <trkpt lat="30.823436" lon="-98.08271" />
      <trkpt lat="30.823651" lon="-98.082881" />
      <trkpt lat="30.823903" lon="-98.08311" />
      <trkpt lat="30.823942" lon="-98.083151" />
      <trkpt lat="30.824057" lon="-98.083273" />
      <trkpt lat="30.82409" lon="-98.083314" />
      <trkpt lat="30.824203" lon="-98.083455" />
      <trkpt lat="30.824333" lon="-98.083644" />
      <trkpt lat="30.824452" lon="-98.083848" />
      <trkpt lat="30.824612" lon="-98.084172" />
      <trkpt lat="30.825326" lon="-98.085715" />
      <trkpt lat="30.825378" lon="-98.085832" />
      <trkpt lat="30.825785" lon="-98.086739" />
      <trkpt lat="30.82614" lon="-98.08758" />
      <trkpt lat="30.82655" lon="-98.088432" />
      <trkpt lat="30.826729" lon="-98.088744" />
      <trkpt lat="30.826921" lon="-98.089038" />
      <trkpt lat="30.82713" lon="-98.089322" />
      <trkpt lat="30.827273" lon="-98.089491" />
      <trkpt lat="30.827452" lon="-98.089665" />
      <trkpt lat="30.827625" lon="-98.089812" />
      <trkpt lat="30.827795" lon="-98.089935" />
      <trkpt lat="30.827812" lon="-98.089948" />
      <trkpt lat="30.828006" lon="-98.090069" />
      <trkpt lat="30.828153" lon="-98.090147" />
      <trkpt lat="30.828408" lon="-98.090261" />
      <trkpt lat="30.828463" lon="-98.09028" />
      <trkpt lat="30.828619" lon="-98.090334" />
      <trkpt lat="30.828962" lon="-98.090427" />
      <trkpt lat="30.829975" lon="-98.090701" />
      <trkpt lat="30.830061" lon="-98.090723" />
      <trkpt lat="30.830419" lon="-98.090813" />
      <trkpt lat="30.83144" lon="-98.09109" />
      <trkpt lat="30.831935" lon="-98.091284" />
      <trkpt lat="30.832232" lon="-98.091424" />
      <trkpt lat="30.832843" lon="-98.091759" />
      <trkpt lat="30.834869" lon="-98.093168" />
      <trkpt lat="30.835108" lon="-98.093324" />
      <trkpt lat="30.836743" lon="-98.094391" />
      <trkpt lat="30.83685" lon="-98.094461" />
      <trkpt lat="30.83724" lon="-98.094722" />
      <trkpt lat="30.837587" lon="-98.094926" />
      <trkpt lat="30.837715" lon="-98.09499" />
      <trkpt lat="30.838244" lon="-98.095251" />
      <trkpt lat="30.838674" lon="-98.095423" />
      <trkpt lat="30.840118" lon="-98.095912" />
      <trkpt lat="30.841058" lon="-98.096235" />
      <trkpt lat="30.841596" lon="-98.096506" />
      <trkpt lat="30.841942" lon="-98.096765" />
      <trkpt lat="30.842106" lon="-98.096909" />
      <trkpt lat="30.8425" lon="-98.097255" />
      <trkpt lat="30.843085" lon="-98.09779" />
      <trkpt lat="30.84345" lon="-98.098096" />
      <trkpt lat="30.843503" lon="-98.09814" />
      <trkpt lat="30.84354" lon="-98.098166" />
      <trkpt lat="30.84369" lon="-98.09827" />
      <trkpt lat="30.843929" lon="-98.098412" />
      <trkpt lat="30.844608" lon="-98.098752" />
      <trkpt lat="30.845494" lon="-98.09921" />
      <trkpt lat="30.845855" lon="-98.099422" />
      <trkpt lat="30.846129" lon="-98.099594" />
      <trkpt lat="30.846214" lon="-98.099663" />
      <trkpt lat="30.84709" lon="-98.100424" />
      <trkpt lat="30.847847" lon="-98.10124" />
      <trkpt lat="30.848579" lon="-98.102011" />
      <trkpt lat="30.849849" lon="-98.103364" />
      <trkpt lat="30.85259" lon="-98.106249" />
      <trkpt lat="30.852933" lon="-98.106622" />
      <trkpt lat="30.853304" lon="-98.107027" />
      <trkpt lat="30.854041" lon="-98.10783" />
      <trkpt lat="30.854072" lon="-98.107868" />
      <trkpt lat="30.854129" lon="-98.107938" />
      <trkpt lat="30.854297" lon="-98.108159" />
      <trkpt lat="30.854503" lon="-98.108463" />
      <trkpt lat="30.854649" lon="-98.108707" />
      <trkpt lat="30.854676" lon="-98.108752" />
      <trkpt lat="30.854936" lon="-98.10915" />
      <trkpt lat="30.855172" lon="-98.109455" />
      <trkpt lat="30.855408" lon="-98.109729" />
      <trkpt lat="30.855471" lon="-98.109795" />
      <trkpt lat="30.855562" lon="-98.109892" />
      <trkpt lat="30.855592" lon="-98.10992" />
      <trkpt lat="30.855794" lon="-98.110105" />
      <trkpt lat="30.856031" lon="-98.11031" />
      <trkpt lat="30.856363" lon="-98.110551" />
      <trkpt lat="30.856896" lon="-98.110938" />
      <trkpt lat="30.85697" lon="-98.110992" />
      <trkpt lat="30.857635" lon="-98.111475" />
      <trkpt lat="30.858541" lon="-98.112095" />
      <trkpt lat="30.858542" lon="-98.112091" />
      <trkpt lat="30.859004" lon="-98.110694" />
      <trkpt lat="30.859034" lon="-98.110597" />
      <trkpt lat="30.859588" lon="-98.108709" />
      <trkpt lat="30.859855" lon="-98.107988" />
      <trkpt lat="30.859926" lon="-98.10774" />
      <trkpt lat="30.860024" lon="-98.107394" />
      <trkpt lat="30.860143" lon="-98.106879" />
      <trkpt lat="30.860167" lon="-98.106776" />
      <trkpt lat="30.860269" lon="-98.106289" />
      <trkpt lat="30.860295" lon="-98.106139" />
      <trkpt lat="30.860354" lon="-98.105806" />
      <trkpt lat="30.860406" lon="-98.105446" />
      <trkpt lat="30.860483" lon="-98.10493" />
      <trkpt lat="30.860516" lon="-98.104702" />
      <trkpt lat="30.860582" lon="-98.104067" />
      <trkpt lat="30.860629" lon="-98.103443" />
      <trkpt lat="30.860732" lon="-98.101141" />
      <trkpt lat="30.860803" lon="-98.099191" />
      <trkpt lat="30.86085" lon="-98.098083" />
      <trkpt lat="30.860903" lon="-98.09684" />
      <trkpt lat="30.860952" lon="-98.095698" />
      <trkpt lat="30.860954" lon="-98.095656" />
      <trkpt lat="30.861055" lon="-98.092954" />
      <trkpt lat="30.86108" lon="-98.092399" />
      <trkpt lat="30.861301" lon="-98.087357" />
      <trkpt lat="30.861483" lon="-98.082673" />
      <trkpt lat="30.861504" lon="-98.082117" />
      <trkpt lat="30.861733" lon="-98.076552" />
      <trkpt lat="30.861738" lon="-98.076419" />
      <trkpt lat="30.861849" lon="-98.07417" />
      <trkpt lat="30.861969" lon="-98.070974" />
      <trkpt lat="30.862026" lon="-98.069671" />
      <trkpt lat="30.862121" lon="-98.068327" />
      <trkpt lat="30.862253" lon="-98.067388" />
      <trkpt lat="30.862436" lon="-98.066363" />
      <trkpt lat="30.862535" lon="-98.065747" />
      <trkpt lat="30.86271" lon="-98.065074" />
      <trkpt lat="30.863071" lon="-98.063891" />
      <trkpt lat="30.863533" lon="-98.062437" />
      <trkpt lat="30.863814" lon="-98.061557" />
      <trkpt lat="30.864381" lon="-98.059723" />
      <trkpt lat="30.864624" lon="-98.05895" />
      <trkpt lat="30.865915" lon="-98.055012" />
      <trkpt lat="30.866664" lon="-98.052739" />
      <trkpt lat="30.867517" lon="-98.050234" />
      <trkpt lat="30.867815" lon="-98.049197" />
      <trkpt lat="30.867928" lon="-98.048922" />
      <trkpt lat="30.868034" lon="-98.048699" />
      <trkpt lat="30.868154" lon="-98.048486" />
      <trkpt lat="30.868288" lon="-98.048287" />
      <trkpt lat="30.868425" lon="-98.048102" />
      <trkpt lat="30.868584" lon="-98.04792" />
      <trkpt lat="30.868757" lon="-98.04775" />
      <trkpt lat="30.868917" lon="-98.047609" />
      <trkpt lat="30.869109" lon="-98.047464" />
      <trkpt lat="30.869286" lon="-98.047351" />
      <trkpt lat="30.869488" lon="-98.047238" />
      <trkpt lat="30.869695" lon="-98.047146" />
      <trkpt lat="30.8699" lon="-98.047075" />
      <trkpt lat="30.870113" lon="-98.047017" />
      <trkpt lat="30.87027" lon="-98.046984" />
      <trkpt lat="30.870643" lon="-98.046943" />
      <trkpt lat="30.870778" lon="-98.046948" />
      <trkpt lat="30.871155" lon="-98.046972" />
      <trkpt lat="30.871438" lon="-98.047035" />
      <trkpt lat="30.871666" lon="-98.04711" />
      <trkpt lat="30.871943" lon="-98.047225" />
      <trkpt lat="30.872104" lon="-98.04731" />
      <trkpt lat="30.87549" lon="-98.048776" />
      <trkpt lat="30.877908" lon="-98.049833" />
      <trkpt lat="30.879939" lon="-98.05072" />
      <trkpt lat="30.880236" lon="-98.050857" />
      <trkpt lat="30.880875" lon="-98.051029" />
      <trkpt lat="30.881719" lon="-98.05141" />
      <trkpt lat="30.882129" lon="-98.051584" />
      <trkpt lat="30.882533" lon="-98.051756" />
      <trkpt lat="30.882976" lon="-98.051928" />
      <trkpt lat="30.883367" lon="-98.052058" />
      <trkpt lat="30.883892" lon="-98.052191" />
      <trkpt lat="30.883953" lon="-98.052201" />
      <trkpt lat="30.884096" lon="-98.052225" />
      <trkpt lat="30.884553" lon="-98.052356" />
      <trkpt lat="30.88485" lon="-98.05238" />
      <trkpt lat="30.885084" lon="-98.052389" />
      <trkpt lat="30.885461" lon="-98.052387" />
      <trkpt lat="30.885496" lon="-98.052385" />
      <trkpt lat="30.885738" lon="-98.052372" />
      <trkpt lat="30.886098" lon="-98.05233" />
      <trkpt lat="30.886363" lon="-98.052279" />
      <trkpt lat="30.88652" lon="-98.052249" />
      <trkpt lat="30.886882" lon="-98.052167" />
      <trkpt lat="30.887245" lon="-98.05206" />
      <trkpt lat="30.88753" lon="-98.051968" />
      <trkpt lat="30.888019" lon="-98.051773" />
      <trkpt lat="30.888117" lon="-98.051727" />
      <trkpt lat="30.888376" lon="-98.051605" />
      <trkpt lat="30.888719" lon="-98.051419" />
      <trkpt lat="30.889157" lon="-98.051144" />
      <trkpt lat="30.889372" lon="-98.050997" />
      <trkpt lat="30.889687" lon="-98.050761" />
      <trkpt lat="30.889712" lon="-98.05074" />
      <trkpt lat="30.889872" lon="-98.050606" />
      <trkpt lat="30.890017" lon="-98.050485" />
      <trkpt lat="30.890304" lon="-98.050224" />
      <trkpt lat="30.890426" lon="-98.050099" />
      <trkpt lat="30.890466" lon="-98.050065" />
      <trkpt lat="30.890931" lon="-98.04967" />
      <trkpt lat="30.891276" lon="-98.049376" />
      <trkpt lat="30.891734" lon="-98.049002" />
      <trkpt lat="30.892052" lon="-98.048769" />
      <trkpt lat="30.892379" lon="-98.048567" />
      <trkpt lat="30.892719" lon="-98.048379" />
      <trkpt lat="30.893128" lon="-98.048183" />
      <trkpt lat="30.893301" lon="-98.048111" />
      <trkpt lat="30.893491" lon="-98.048033" />
      <trkpt lat="30.894462" lon="-98.0477" />
      <trkpt lat="30.896045" lon="-98.047172" />
      <trkpt lat="30.896424" lon="-98.047024" />
      <trkpt lat="30.896828" lon="-98.046847" />
      <trkpt lat="30.897068" lon="-98.046726" />
      <trkpt lat="30.89777" lon="-98.046295" />
      <trkpt lat="30.897929" lon="-98.04619" />
      <trkpt lat="30.898082" lon="-98.046089" />
      <trkpt lat="30.89959" lon="-98.045032" />
      <trkpt lat="30.89982" lon="-98.044884" />
      <trkpt lat="30.9003" lon="-98.044575" />
      <trkpt lat="30.900696" lon="-98.04432" />
      <trkpt lat="30.901257" lon="-98.043959" />
      <trkpt lat="30.902885" lon="-98.042904" />
      <trkpt lat="30.903279" lon="-98.042676" />
      <trkpt lat="30.903321" lon="-98.042652" />
      <trkpt lat="30.903401" lon="-98.04261" />
      <trkpt lat="30.904092" lon="-98.042251" />
      <trkpt lat="30.904304" lon="-98.042156" />
      <trkpt lat="30.905615" lon="-98.041566" />
      <trkpt lat="30.905934" lon="-98.041422" />
      <trkpt lat="30.906549" lon="-98.041069" />
      <trkpt lat="30.907311" lon="-98.040618" />
      <trkpt lat="30.907823" lon="-98.040315" />
      <trkpt lat="30.908548" lon="-98.039813" />
      <trkpt lat="30.908952" lon="-98.039528" />
      <trkpt lat="30.909105" lon="-98.03942" />
      <trkpt lat="30.909838" lon="-98.038715" />
      <trkpt lat="30.910034" lon="-98.038515" />
      <trkpt lat="30.911476" lon="-98.036976" />
      <trkpt lat="30.911822" lon="-98.036615" />
      <trkpt lat="30.91203" lon="-98.03641" />
      <trkpt lat="30.912441" lon="-98.036038" />
      <trkpt lat="30.912483" lon="-98.036002" />
      <trkpt lat="30.912599" lon="-98.035901" />
      <trkpt lat="30.912717" lon="-98.035798" />
      <trkpt lat="30.912997" lon="-98.035579" />
      <trkpt lat="30.914026" lon="-98.03484" />
      <trkpt lat="30.915961" lon="-98.033406" />
      <trkpt lat="30.918571" lon="-98.031493" />
      <trkpt lat="30.919086" lon="-98.031115" />
      <trkpt lat="30.919144" lon="-98.031069" />
      <trkpt lat="30.920111" lon="-98.030301" />
      <trkpt lat="30.92058" lon="-98.029881" />
      <trkpt lat="30.921051" lon="-98.029513" />
      <trkpt lat="30.922996" lon="-98.027856" />
      <trkpt lat="30.923406" lon="-98.027499" />
      <trkpt lat="30.924052" lon="-98.026936" />
      <trkpt lat="30.924724" lon="-98.026358" />
      <trkpt lat="30.925357" lon="-98.025814" />
      <trkpt lat="30.926045" lon="-98.02523" />
      <trkpt lat="30.926804" lon="-98.024596" />
      <trkpt lat="30.926945" lon="-98.024501" />
      <trkpt lat="30.927048" lon="-98.024416" />
      <trkpt lat="30.927192" lon="-98.024281" />
      <trkpt lat="30.927286" lon="-98.024169" />
      <trkpt lat="30.927388" lon="-98.024019" />
      <trkpt lat="30.927468" lon="-98.023879" />
      <trkpt lat="30.927525" lon="-98.023766" />
      <trkpt lat="30.927542" lon="-98.023734" />
      <trkpt lat="30.9277" lon="-98.023499" />
      <trkpt lat="30.927917" lon="-98.023135" />
      <trkpt lat="30.928531" lon="-98.022136" />
      <trkpt lat="30.928602" lon="-98.022014" />
      <trkpt lat="30.928758" lon="-98.021747" />
      <trkpt lat="30.929081" lon="-98.021225" />
      <trkpt lat="30.930521" lon="-98.018897" />
      <trkpt lat="30.930891" lon="-98.018299" />
      <trkpt lat="30.932072" lon="-98.01636" />
      <trkpt lat="30.932211" lon="-98.016158" />
      <trkpt lat="30.932372" lon="-98.015946" />
      <trkpt lat="30.932661" lon="-98.015619" />
      <trkpt lat="30.932871" lon="-98.015404" />
      <trkpt lat="30.932961" lon="-98.015326" />
      <trkpt lat="30.933082" lon="-98.015219" />
      <trkpt lat="30.933326" lon="-98.015032" />
      <trkpt lat="30.934321" lon="-98.014493" />
      <trkpt lat="30.934326" lon="-98.01449" />
      <trkpt lat="30.93399" lon="-98.013676" />
      <trkpt lat="30.930337" lon="-98.006946" />
      <trkpt lat="30.929973" lon="-98.006276" />
      <trkpt lat="30.92974" lon="-98.005846" />
      <trkpt lat="30.929318" lon="-98.005024" />
      <trkpt lat="30.928995" lon="-98.00417" />
      <trkpt lat="30.928826" lon="-98.003669" />
      <trkpt lat="30.928679" lon="-98.003155" />
      <trkpt lat="30.928499" lon="-98.002441" />
      <trkpt lat="30.928402" lon="-98.002037" />
      <trkpt lat="30.928287" lon="-98.001557" />
      <trkpt lat="30.928152" lon="-98.000924" />
      <trkpt lat="30.92799" lon="-97.999849" />
      <trkpt lat="30.927895" lon="-97.99903" />
      <trkpt lat="30.927885" lon="-97.998947" />
      <trkpt lat="30.92758" lon="-97.996452" />
      <trkpt lat="30.927572" lon="-97.996383" />
      <trkpt lat="30.927427" lon="-97.995285" />
      <trkpt lat="30.92741" lon="-97.995127" />
      <trkpt lat="30.927232" lon="-97.993665" />
      <trkpt lat="30.92721" lon="-97.993466" />
      <trkpt lat="30.927036" lon="-97.99201" />
      <trkpt lat="30.92692" lon="-97.991063" />
      <trkpt lat="30.926904" lon="-97.990909" />
      <trkpt lat="30.926771" lon="-97.990094" />
      <trkpt lat="30.926702" lon="-97.989772" />
      <trkpt lat="30.92664" lon="-97.989548" />
      <trkpt lat="30.926598" lon="-97.989419" />
      <trkpt lat="30.926529" lon="-97.989206" />
      <trkpt lat="30.926414" lon="-97.988922" />
      <trkpt lat="30.926294" lon="-97.988665" />
      <trkpt lat="30.926137" lon="-97.988379" />
      <trkpt lat="30.925979" lon="-97.988128" />
      <trkpt lat="30.925792" lon="-97.987869" />
      <trkpt lat="30.925621" lon="-97.987662" />
      <trkpt lat="30.925416" lon="-97.98744" />
      <trkpt lat="30.925055" lon="-97.987101" />
      <trkpt lat="30.924372" lon="-97.986459" />
      <trkpt lat="30.92343" lon="-97.9856" />
      <trkpt lat="30.922519" lon="-97.984762" />
      <trkpt lat="30.922361" lon="-97.984603" />
      <trkpt lat="30.921569" lon="-97.983872" />
      <trkpt lat="30.919745" lon="-97.982189" />
      <trkpt lat="30.919136" lon="-97.981627" />
      <trkpt lat="30.919041" lon="-97.981539" />
      <trkpt lat="30.917469" lon="-97.980119" />
      <trkpt lat="30.916233" lon="-97.978961" />
      <trkpt lat="30.915151" lon="-97.977958" />
      <trkpt lat="30.913358" lon="-97.976298" />
      <trkpt lat="30.913063" lon="-97.976025" />
      <trkpt lat="30.912809" lon="-97.97579" />
      <trkpt lat="30.912715" lon="-97.975709" />
      <trkpt lat="30.912407" lon="-97.975446" />
      <trkpt lat="30.912147" lon="-97.97524" />
      <trkpt lat="30.911743" lon="-97.974957" />
      <trkpt lat="30.907512" lon="-97.972359" />
      <trkpt lat="30.906208" lon="-97.971558" />
      <trkpt lat="30.905105" lon="-97.970926" />
      <trkpt lat="30.90396" lon="-97.970141" />
      <trkpt lat="30.903324" lon="-97.96965" />
      <trkpt lat="30.902477" lon="-97.968898" />
      <trkpt lat="30.895949" lon="-97.962698" />
      <trkpt lat="30.894595" lon="-97.961412" />
      <trkpt lat="30.89426" lon="-97.961054" />
      <trkpt lat="30.893896" lon="-97.960665" />
      <trkpt lat="30.893573" lon="-97.960295" />
      <trkpt lat="30.893153" lon="-97.959711" />
      <trkpt lat="30.892655" lon="-97.958816" />
      <trkpt lat="30.892573" lon="-97.958669" />
      <trkpt lat="30.892465" lon="-97.958415" />
      <trkpt lat="30.891678" lon="-97.956555" />
      <trkpt lat="30.890719" lon="-97.954064" />
      <trkpt lat="30.890582" lon="-97.953609" />
      <trkpt lat="30.89043" lon="-97.952995" />
      <trkpt lat="30.890339" lon="-97.952472" />
      <trkpt lat="30.89031" lon="-97.952305" />
      <trkpt lat="30.890237" lon="-97.951776" />
      <trkpt lat="30.890221" lon="-97.951658" />
      <trkpt lat="30.890194" lon="-97.950956" />
      <trkpt lat="30.890144" lon="-97.948969" />
      <trkpt lat="30.890077" lon="-97.945825" />
      <trkpt lat="30.889991" lon="-97.942349" />
      <trkpt lat="30.88995" lon="-97.940473" />
      <trkpt lat="30.889936" lon="-97.939831" />
      <trkpt lat="30.889933" lon="-97.935402" />
      <trkpt lat="30.889933" lon="-97.935303" />
      <trkpt lat="30.889931" lon="-97.935128" />
      <trkpt lat="30.889927" lon="-97.934541" />
      <trkpt lat="30.889923" lon="-97.934307" />
      <trkpt lat="30.889897" lon="-97.933898" />
      <trkpt lat="30.889865" lon="-97.933581" />
      <trkpt lat="30.889824" lon="-97.933295" />
      <trkpt lat="30.889773" lon="-97.933023" />
      <trkpt lat="30.889701" lon="-97.932717" />
      <trkpt lat="30.889607" lon="-97.932387" />
      <trkpt lat="30.889488" lon="-97.932045" />
      <trkpt lat="30.889436" lon="-97.931908" />
      <trkpt lat="30.88936" lon="-97.931709" />
      <trkpt lat="30.889205" lon="-97.931339" />
      <trkpt lat="30.889131" lon="-97.931163" />
      <trkpt lat="30.888659" lon="-97.930072" />
      <trkpt lat="30.888493" lon="-97.929688" />
      <trkpt lat="30.888326" lon="-97.92933" />
      <trkpt lat="30.888171" lon="-97.929019" />
      <trkpt lat="30.887973" lon="-97.928634" />
      <trkpt lat="30.887844" lon="-97.928393" />
      <trkpt lat="30.88745" lon="-97.927691" />
      <trkpt lat="30.887282" lon="-97.92739" />
      <trkpt lat="30.886739" lon="-97.926448" />
      <trkpt lat="30.886457" lon="-97.925935" />
      <trkpt lat="30.885907" lon="-97.924932" />
      <trkpt lat="30.885637" lon="-97.924447" />
      <trkpt lat="30.885041" lon="-97.923391" />
      <trkpt lat="30.884916" lon="-97.923177" />
      <trkpt lat="30.88488" lon="-97.923121" />
      <trkpt lat="30.884791" lon="-97.92298" />
      <trkpt lat="30.884636" lon="-97.922753" />
      <trkpt lat="30.884507" lon="-97.922571" />
      <trkpt lat="30.884361" lon="-97.922388" />
      <trkpt lat="30.884194" lon="-97.922196" />
      <trkpt lat="30.884029" lon="-97.92202" />
      <trkpt lat="30.883836" lon="-97.92183" />
      <trkpt lat="30.88368" lon="-97.921685" />
      <trkpt lat="30.883512" lon="-97.921549" />
      <trkpt lat="30.883351" lon="-97.921418" />
      <trkpt lat="30.88318" lon="-97.921304" />
      <trkpt lat="30.882898" lon="-97.921134" />
      <trkpt lat="30.882778" lon="-97.921069" />
      <trkpt lat="30.882657" lon="-97.921004" />
      <trkpt lat="30.882499" lon="-97.920925" />
      <trkpt lat="30.882176" lon="-97.920779" />
      <trkpt lat="30.881248" lon="-97.920382" />
      <trkpt lat="30.880551" lon="-97.920087" />
      <trkpt lat="30.880226" lon="-97.919949" />
      <trkpt lat="30.876273" lon="-97.918283" />
      <trkpt lat="30.868494" lon="-97.915151" />
      <trkpt lat="30.866731" lon="-97.914392" />
      <trkpt lat="30.866454" lon="-97.914273" />
      <trkpt lat="30.86075" lon="-97.911771" />
      <trkpt lat="30.860459" lon="-97.911638" />
      <trkpt lat="30.857428" lon="-97.910354" />
      <trkpt lat="30.852872" lon="-97.908503" />
      <trkpt lat="30.851546" lon="-97.907887" />
      <trkpt lat="30.84986" lon="-97.907201" />
      <trkpt lat="30.848391" lon="-97.906604" />
      <trkpt lat="30.848087" lon="-97.906477" />
      <trkpt lat="30.847001" lon="-97.906047" />
      <trkpt lat="30.844174" lon="-97.905153" />
      <trkpt lat="30.844009" lon="-97.905115" />
      <trkpt lat="30.843215" lon="-97.904881" />
      <trkpt lat="30.841719" lon="-97.904424" />
      <trkpt lat="30.84141" lon="-97.90432" />
      <trkpt lat="30.839911" lon="-97.903664" />
      <trkpt lat="30.838788" lon="-97.903188" />
      <trkpt lat="30.838757" lon="-97.903174" />
      <trkpt lat="30.838243" lon="-97.90297" />
      <trkpt lat="30.836445" lon="-97.902229" />
      <trkpt lat="30.835809" lon="-97.901956" />
      <trkpt lat="30.835125" lon="-97.901652" />
      <trkpt lat="30.832898" lon="-97.900753" />
      <trkpt lat="30.830648" lon="-97.899837" />
      <trkpt lat="30.828066" lon="-97.898746" />
      <trkpt lat="30.827671" lon="-97.898597" />
      <trkpt lat="30.827237" lon="-97.898417" />
      <trkpt lat="30.827197" lon="-97.898401" />
      <trkpt lat="30.826853" lon="-97.898259" />
      <trkpt lat="30.82544" lon="-97.897674" />
      <trkpt lat="30.82532" lon="-97.897625" />
      <trkpt lat="30.825159" lon="-97.897558" />
      <trkpt lat="30.824848" lon="-97.897429" />
      <trkpt lat="30.82472" lon="-97.897377" />
      <trkpt lat="30.824653" lon="-97.897349" />
      <trkpt lat="30.824627" lon="-97.897338" />
      <trkpt lat="30.824595" lon="-97.897325" />
      <trkpt lat="30.824108" lon="-97.897118" />
      <trkpt lat="30.823862" lon="-97.897017" />
      <trkpt lat="30.822903" lon="-97.896622" />
      <trkpt lat="30.822794" lon="-97.896577" />
      <trkpt lat="30.822228" lon="-97.896341" />
      <trkpt lat="30.821048" lon="-97.89585" />
      <trkpt lat="30.820991" lon="-97.895826" />
      <trkpt lat="30.820663" lon="-97.895692" />
      <trkpt lat="30.820073" lon="-97.895451" />
      <trkpt lat="30.819754" lon="-97.895317" />
      <trkpt lat="30.818649" lon="-97.894852" />
      <trkpt lat="30.818382" lon="-97.89474" />
      <trkpt lat="30.817945" lon="-97.894559" />
      <trkpt lat="30.817684" lon="-97.89445" />
      <trkpt lat="30.817593" lon="-97.894412" />
      <trkpt lat="30.817377" lon="-97.894322" />
      <trkpt lat="30.816797" lon="-97.894082" />
      <trkpt lat="30.810977" lon="-97.891667" />
      <trkpt lat="30.810924" lon="-97.891644" />
      <trkpt lat="30.810704" lon="-97.891553" />
      <trkpt lat="30.809703" lon="-97.891155" />
      <trkpt lat="30.805291" lon="-97.889321" />
      <trkpt lat="30.800168" lon="-97.887195" />
      <trkpt lat="30.797982" lon="-97.886289" />
      <trkpt lat="30.79655" lon="-97.885689" />
      <trkpt lat="30.795933" lon="-97.885434" />
      <trkpt lat="30.795411" lon="-97.885219" />
      <trkpt lat="30.791242" lon="-97.883497" />
      <trkpt lat="30.78917" lon="-97.882641" />
      <trkpt lat="30.788293" lon="-97.882279" />
      <trkpt lat="30.788094" lon="-97.882196" />
      <trkpt lat="30.783319" lon="-97.880215" />
      <trkpt lat="30.78325" lon="-97.880186" />
      <trkpt lat="30.779836" lon="-97.878768" />
      <trkpt lat="30.778857" lon="-97.878366" />
      <trkpt lat="30.778405" lon="-97.878181" />
      <trkpt lat="30.778023" lon="-97.87803" />
      <trkpt lat="30.776955" lon="-97.877607" />
      <trkpt lat="30.776478" lon="-97.877449" />
      <trkpt lat="30.775953" lon="-97.877297" />
      <trkpt lat="30.775423" lon="-97.877168" />
      <trkpt lat="30.774898" lon="-97.877077" />
      <trkpt lat="30.773845" lon="-97.87692" />
      <trkpt lat="30.773465" lon="-97.876887" />
      <trkpt lat="30.773091" lon="-97.876863" />
      <trkpt lat="30.771286" lon="-97.876825" />
      <trkpt lat="30.762107" lon="-97.876717" />
      <trkpt lat="30.761593" lon="-97.876711" />
      <trkpt lat="30.761391" lon="-97.876708" />
      <trkpt lat="30.760484" lon="-97.876696" />
      <trkpt lat="30.75714" lon="-97.876652" />
      <trkpt lat="30.756658" lon="-97.876647" />
      <trkpt lat="30.756185" lon="-97.876642" />
      <trkpt lat="30.754208" lon="-97.87662" />
      <trkpt lat="30.75114" lon="-97.876581" />
      <trkpt lat="30.750904" lon="-97.876578" />
      <trkpt lat="30.745822" lon="-97.876518" />
      <trkpt lat="30.741696" lon="-97.87646" />
      <trkpt lat="30.741436" lon="-97.876458" />
      <trkpt lat="30.740717" lon="-97.876452" />
      <trkpt lat="30.739896" lon="-97.876445" />
      <trkpt lat="30.738322" lon="-97.876421" />
      <trkpt lat="30.738078" lon="-97.876418" />
      <trkpt lat="30.737283" lon="-97.876409" />
      <trkpt lat="30.737174" lon="-97.876408" />
      <trkpt lat="30.736071" lon="-97.876387" />
      <trkpt lat="30.73514" lon="-97.876373" />
      <trkpt lat="30.734071" lon="-97.876365" />
      <trkpt lat="30.732675" lon="-97.876355" />
      <trkpt lat="30.732643" lon="-97.876354" />
      <trkpt lat="30.731769" lon="-97.876339" />
      <trkpt lat="30.729152" lon="-97.876294" />
      <trkpt lat="30.725945" lon="-97.876273" />
      <trkpt lat="30.725243" lon="-97.876283" />
      <trkpt lat="30.7228" lon="-97.876401" />
      <trkpt lat="30.722454" lon="-97.876418" />
      <trkpt lat="30.721721" lon="-97.87646" />
      <trkpt lat="30.721236" lon="-97.876488" />
      <trkpt lat="30.720851" lon="-97.876508" />
      <trkpt lat="30.720326" lon="-97.876541" />
      <trkpt lat="30.71936" lon="-97.876602" />
      <trkpt lat="30.71725" lon="-97.876736" />
      <trkpt lat="30.715822" lon="-97.876815" />
      <trkpt lat="30.714923" lon="-97.876865" />
      <trkpt lat="30.714277" lon="-97.876907" />
      <trkpt lat="30.714127" lon="-97.876917" />
      <trkpt lat="30.712197" lon="-97.877033" />
      <trkpt lat="30.711315" lon="-97.877086" />
      <trkpt lat="30.709984" lon="-97.877168" />
      <trkpt lat="30.708984" lon="-97.877231" />
      <trkpt lat="30.708236" lon="-97.877278" />
      <trkpt lat="30.707051" lon="-97.877352" />
      <trkpt lat="30.705744" lon="-97.877415" />
      <trkpt lat="30.705589" lon="-97.877423" />
      <trkpt lat="30.705231" lon="-97.877459" />
      <trkpt lat="30.705037" lon="-97.877479" />
      <trkpt lat="30.704513" lon="-97.877514" />
      <trkpt lat="30.703559" lon="-97.877566" />
      <trkpt lat="30.702511" lon="-97.877625" />
      <trkpt lat="30.701572" lon="-97.877673" />
      <trkpt lat="30.700192" lon="-97.877758" />
      <trkpt lat="30.699841" lon="-97.877778" />
      <trkpt lat="30.699465" lon="-97.877799" />
      <trkpt lat="30.698833" lon="-97.877835" />
      <trkpt lat="30.697649" lon="-97.87791" />
      <trkpt lat="30.697559" lon="-97.877916" />
      <trkpt lat="30.697187" lon="-97.877945" />
      <trkpt lat="30.697075" lon="-97.877959" />
      <trkpt lat="30.696559" lon="-97.878022" />
      <trkpt lat="30.696003" lon="-97.878112" />
      <trkpt lat="30.695263" lon="-97.878232" />
      <trkpt lat="30.69484" lon="-97.878301" />
      <trkpt lat="30.693689" lon="-97.878488" />
      <trkpt lat="30.692218" lon="-97.878726" />
      <trkpt lat="30.692195" lon="-97.87873" />
      <trkpt lat="30.69175" lon="-97.878802" />
      <trkpt lat="30.691341" lon="-97.878854" />
      <trkpt lat="30.690869" lon="-97.878914" />
      <trkpt lat="30.690542" lon="-97.878944" />
      <trkpt lat="30.690015" lon="-97.878967" />
      <trkpt lat="30.68957" lon="-97.878969" />
      <trkpt lat="30.689329" lon="-97.87897" />
      <trkpt lat="30.688846" lon="-97.878973" />
      <trkpt lat="30.687903" lon="-97.878986" />
      <trkpt lat="30.68707" lon="-97.878998" />
      <trkpt lat="30.686087" lon="-97.879012" />
      <trkpt lat="30.683509" lon="-97.879009" />
      <trkpt lat="30.68143" lon="-97.879007" />
      <trkpt lat="30.68117" lon="-97.879008" />
      <trkpt lat="30.681094" lon="-97.879009" />
      <trkpt lat="30.679828" lon="-97.879024" />
      <trkpt lat="30.679048" lon="-97.879034" />
      <trkpt lat="30.678659" lon="-97.879045" />
      <trkpt lat="30.678364" lon="-97.879053" />
      <trkpt lat="30.677999" lon="-97.879075" />
      <trkpt lat="30.677575" lon="-97.879104" />
      <trkpt lat="30.677497" lon="-97.879109" />
      <trkpt lat="30.677461" lon="-97.879114" />
      <trkpt lat="30.676959" lon="-97.879177" />
      <trkpt lat="30.675772" lon="-97.879327" />
      <trkpt lat="30.674103" lon="-97.879528" />
      <trkpt lat="30.672702" lon="-97.87969" />
      <trkpt lat="30.672663" lon="-97.879694" />
      <trkpt lat="30.672223" lon="-97.879748" />
      <trkpt lat="30.670327" lon="-97.879979" />
      <trkpt lat="30.670158" lon="-97.88" />
      <trkpt lat="30.669164" lon="-97.880123" />
      <trkpt lat="30.668364" lon="-97.880219" />
      <trkpt lat="30.667076" lon="-97.880382" />
      <trkpt lat="30.666803" lon="-97.880386" />
      <trkpt lat="30.66662" lon="-97.88039" />
      <trkpt lat="30.666108" lon="-97.880356" />
      <trkpt lat="30.66545" lon="-97.880251" />
      <trkpt lat="30.66464" lon="-97.880062" />
      <trkpt lat="30.664303" lon="-97.880007" />
      <trkpt lat="30.663872" lon="-97.879915" />
      <trkpt lat="30.663486" lon="-97.879825" />
      <trkpt lat="30.663255" lon="-97.879772" />
      <trkpt lat="30.662924" lon="-97.879696" />
      <trkpt lat="30.662351" lon="-97.879598" />
      <trkpt lat="30.660601" lon="-97.879322" />
      <trkpt lat="30.660144" lon="-97.879194" />
      <trkpt lat="30.659635" lon="-97.879041" />
      <trkpt lat="30.658562" lon="-97.878677" />
      <trkpt lat="30.657295" lon="-97.878141" />
      <trkpt lat="30.657152" lon="-97.878083" />
      <trkpt lat="30.656262" lon="-97.877723" />
      <trkpt lat="30.655889" lon="-97.877565" />
      <trkpt lat="30.655524" lon="-97.877411" />
      <trkpt lat="30.654866" lon="-97.877117" />
      <trkpt lat="30.654578" lon="-97.877012" />
      <trkpt lat="30.654499" lon="-97.876967" />
      <trkpt lat="30.653725" lon="-97.876652" />
      <trkpt lat="30.653993" lon="-97.877366" />
      <trkpt lat="30.654021" lon="-97.877436" />
    </trkseg>
  </trk>
</gpx>
