<?xml version='1.0' encoding='UTF-8'?>
<gpx version="1.1" creator="Antigravity Route Generator" xmlns="http://www.topografix.com/GPX/1/1">
  <trk>
    <name>Blanco River Valley &amp; FM 165 Loop</name>
    <desc>Lakes &amp; Rivers (70.6 mi) - FM 165 -&gt; Henly -&gt; Wimberley -&gt; RM 2325</desc>
    <trkseg>
      <trkpt lat="30.098672" lon="-98.421289" />
      <trkpt lat="30.098829" lon="-98.421805" />
      <trkpt lat="30.099686" lon="-98.421454" />
      <trkpt lat="30.100538" lon="-98.421106" />
      <trkpt lat="30.101419" lon="-98.420749" />
      <trkpt lat="30.102297" lon="-98.420384" />
      <trkpt lat="30.103162" lon="-98.420031" />
      <trkpt lat="30.104016" lon="-98.419684" />
      <trkpt lat="30.104551" lon="-98.419447" />
      <trkpt lat="30.104874" lon="-98.419303" />
      <trkpt lat="30.105183" lon="-98.419172" />
      <trkpt lat="30.105707" lon="-98.41895" />
      <trkpt lat="30.106548" lon="-98.418591" />
      <trkpt lat="30.106732" lon="-98.418512" />
      <trkpt lat="30.10756" lon="-98.418162" />
      <trkpt lat="30.107626" lon="-98.418133" />
      <trkpt lat="30.109127" lon="-98.417477" />
      <trkpt lat="30.109235" lon="-98.417431" />
      <trkpt lat="30.110274" lon="-98.416987" />
      <trkpt lat="30.110532" lon="-98.416877" />
      <trkpt lat="30.110747" lon="-98.416783" />
      <trkpt lat="30.111104" lon="-98.416628" />
      <trkpt lat="30.111839" lon="-98.41631" />
      <trkpt lat="30.112079" lon="-98.416206" />
      <trkpt lat="30.112371" lon="-98.416079" />
      <trkpt lat="30.113035" lon="-98.415792" />
      <trkpt lat="30.113422" lon="-98.415624" />
      <trkpt lat="30.113822" lon="-98.41546" />
      <trkpt lat="30.113896" lon="-98.415431" />
      <trkpt lat="30.11431" lon="-98.415271" />
      <trkpt lat="30.115548" lon="-98.414792" />
      <trkpt lat="30.116829" lon="-98.414296" />
      <trkpt lat="30.118537" lon="-98.413635" />
      <trkpt lat="30.122613" lon="-98.41201" />
      <trkpt lat="30.124286" lon="-98.411354" />
      <trkpt lat="30.12453" lon="-98.411245" />
      <trkpt lat="30.124735" lon="-98.411154" />
      <trkpt lat="30.125176" lon="-98.410934" />
      <trkpt lat="30.125563" lon="-98.41072" />
      <trkpt lat="30.125782" lon="-98.410599" />
      <trkpt lat="30.126012" lon="-98.410446" />
      <trkpt lat="30.126325" lon="-98.410226" />
      <trkpt lat="30.12669" lon="-98.409951" />
      <trkpt lat="30.127047" lon="-98.409659" />
      <trkpt lat="30.127693" lon="-98.409075" />
      <trkpt lat="30.129207" lon="-98.40766" />
      <trkpt lat="30.130046" lon="-98.406878" />
      <trkpt lat="30.130757" lon="-98.406215" />
      <trkpt lat="30.131979" lon="-98.405063" />
      <trkpt lat="30.132644" lon="-98.404454" />
      <trkpt lat="30.132831" lon="-98.40428" />
      <trkpt lat="30.133351" lon="-98.403843" />
      <trkpt lat="30.133707" lon="-98.403563" />
      <trkpt lat="30.134073" lon="-98.403301" />
      <trkpt lat="30.134449" lon="-98.403058" />
      <trkpt lat="30.134835" lon="-98.402835" />
      <trkpt lat="30.135539" lon="-98.402472" />
      <trkpt lat="30.136692" lon="-98.401918" />
      <trkpt lat="30.137621" lon="-98.401465" />
      <trkpt lat="30.139141" lon="-98.400724" />
      <trkpt lat="30.139163" lon="-98.400714" />
      <trkpt lat="30.140099" lon="-98.400271" />
      <trkpt lat="30.141074" lon="-98.399791" />
      <trkpt lat="30.142294" lon="-98.399191" />
      <trkpt lat="30.144478" lon="-98.398117" />
      <trkpt lat="30.145276" lon="-98.397727" />
      <trkpt lat="30.145489" lon="-98.397615" />
      <trkpt lat="30.145817" lon="-98.397442" />
      <trkpt lat="30.146348" lon="-98.397133" />
      <trkpt lat="30.146749" lon="-98.396881" />
      <trkpt lat="30.146781" lon="-98.396861" />
      <trkpt lat="30.147252" lon="-98.39654" />
      <trkpt lat="30.147714" lon="-98.3962" />
      <trkpt lat="30.148164" lon="-98.395839" />
      <trkpt lat="30.150845" lon="-98.393607" />
      <trkpt lat="30.151434" lon="-98.393117" />
      <trkpt lat="30.152337" lon="-98.392365" />
      <trkpt lat="30.152435" lon="-98.392284" />
      <trkpt lat="30.152664" lon="-98.392093" />
      <trkpt lat="30.153575" lon="-98.391334" />
      <trkpt lat="30.154957" lon="-98.390216" />
      <trkpt lat="30.157302" lon="-98.388255" />
      <trkpt lat="30.158772" lon="-98.387006" />
      <trkpt lat="30.160338" lon="-98.385702" />
      <trkpt lat="30.161106" lon="-98.38508" />
      <trkpt lat="30.161527" lon="-98.384793" />
      <trkpt lat="30.161952" lon="-98.384532" />
      <trkpt lat="30.162386" lon="-98.384291" />
      <trkpt lat="30.16283" lon="-98.38407" />
      <trkpt lat="30.163232" lon="-98.383892" />
      <trkpt lat="30.163641" lon="-98.383735" />
      <trkpt lat="30.164056" lon="-98.3836" />
      <trkpt lat="30.164265" lon="-98.383541" />
      <trkpt lat="30.16626" lon="-98.382947" />
      <trkpt lat="30.166882" lon="-98.382762" />
      <trkpt lat="30.169243" lon="-98.38206" />
      <trkpt lat="30.16929" lon="-98.382046" />
      <trkpt lat="30.169515" lon="-98.38198" />
      <trkpt lat="30.171825" lon="-98.381299" />
      <trkpt lat="30.172266" lon="-98.381178" />
      <trkpt lat="30.172334" lon="-98.381159" />
      <trkpt lat="30.173439" lon="-98.380857" />
      <trkpt lat="30.175055" lon="-98.380365" />
      <trkpt lat="30.175194" lon="-98.380349" />
      <trkpt lat="30.175682" lon="-98.380224" />
      <trkpt lat="30.176317" lon="-98.380082" />
      <trkpt lat="30.176713" lon="-98.380009" />
      <trkpt lat="30.176953" lon="-98.379964" />
      <trkpt lat="30.177957" lon="-98.379798" />
      <trkpt lat="30.181264" lon="-98.379251" />
      <trkpt lat="30.18187" lon="-98.379157" />
      <trkpt lat="30.182662" lon="-98.379033" />
      <trkpt lat="30.183433" lon="-98.378905" />
      <trkpt lat="30.184227" lon="-98.378773" />
      <trkpt lat="30.185087" lon="-98.378627" />
      <trkpt lat="30.186079" lon="-98.37847" />
      <trkpt lat="30.187703" lon="-98.378201" />
      <trkpt lat="30.188272" lon="-98.378085" />
      <trkpt lat="30.188717" lon="-98.377977" />
      <trkpt lat="30.18884" lon="-98.377947" />
      <trkpt lat="30.189302" lon="-98.377811" />
      <trkpt lat="30.190119" lon="-98.377528" />
      <trkpt lat="30.190732" lon="-98.3773" />
      <trkpt lat="30.191016" lon="-98.377194" />
      <trkpt lat="30.191073" lon="-98.377174" />
      <trkpt lat="30.192011" lon="-98.376847" />
      <trkpt lat="30.193418" lon="-98.376344" />
      <trkpt lat="30.194353" lon="-98.376009" />
      <trkpt lat="30.194678" lon="-98.375889" />
      <trkpt lat="30.195136" lon="-98.375735" />
      <trkpt lat="30.195347" lon="-98.375684" />
      <trkpt lat="30.195982" lon="-98.375572" />
      <trkpt lat="30.196515" lon="-98.375486" />
      <trkpt lat="30.197141" lon="-98.375426" />
      <trkpt lat="30.197369" lon="-98.375418" />
      <trkpt lat="30.197716" lon="-98.375422" />
      <trkpt lat="30.198659" lon="-98.375477" />
      <trkpt lat="30.199334" lon="-98.375598" />
      <trkpt lat="30.199816" lon="-98.375673" />
      <trkpt lat="30.200103" lon="-98.375614" />
      <trkpt lat="30.200269" lon="-98.375556" />
      <trkpt lat="30.200387" lon="-98.375502" />
      <trkpt lat="30.200529" lon="-98.375414" />
      <trkpt lat="30.200654" lon="-98.375326" />
      <trkpt lat="30.200866" lon="-98.37512" />
      <trkpt lat="30.200921" lon="-98.375059" />
      <trkpt lat="30.200998" lon="-98.374956" />
      <trkpt lat="30.201045" lon="-98.374878" />
      <trkpt lat="30.201131" lon="-98.374727" />
      <trkpt lat="30.201199" lon="-98.374563" />
      <trkpt lat="30.201258" lon="-98.374376" />
      <trkpt lat="30.201312" lon="-98.374127" />
      <trkpt lat="30.201334" lon="-98.373904" />
      <trkpt lat="30.201326" lon="-98.373655" />
      <trkpt lat="30.201263" lon="-98.373198" />
      <trkpt lat="30.201186" lon="-98.372502" />
      <trkpt lat="30.201137" lon="-98.371816" />
      <trkpt lat="30.201019" lon="-98.371009" />
      <trkpt lat="30.200235" lon="-98.366319" />
      <trkpt lat="30.199912" lon="-98.364382" />
      <trkpt lat="30.199494" lon="-98.36187" />
      <trkpt lat="30.199434" lon="-98.361362" />
      <trkpt lat="30.199403" lon="-98.360858" />
      <trkpt lat="30.199391" lon="-98.360513" />
      <trkpt lat="30.199396" lon="-98.360057" />
      <trkpt lat="30.199415" lon="-98.359749" />
      <trkpt lat="30.199457" lon="-98.359236" />
      <trkpt lat="30.199505" lon="-98.358858" />
      <trkpt lat="30.199572" lon="-98.358472" />
      <trkpt lat="30.199642" lon="-98.358125" />
      <trkpt lat="30.199729" lon="-98.35777" />
      <trkpt lat="30.199833" lon="-98.357426" />
      <trkpt lat="30.199953" lon="-98.357041" />
      <trkpt lat="30.200108" lon="-98.356589" />
      <trkpt lat="30.201694" lon="-98.351922" />
      <trkpt lat="30.201825" lon="-98.351503" />
      <trkpt lat="30.20194" lon="-98.351078" />
      <trkpt lat="30.202017" lon="-98.350707" />
      <trkpt lat="30.202071" lon="-98.35033" />
      <trkpt lat="30.202108" lon="-98.349935" />
      <trkpt lat="30.202121" lon="-98.349616" />
      <trkpt lat="30.202118" lon="-98.349332" />
      <trkpt lat="30.202109" lon="-98.349068" />
      <trkpt lat="30.202088" lon="-98.348783" />
      <trkpt lat="30.202052" lon="-98.348501" />
      <trkpt lat="30.202" lon="-98.348198" />
      <trkpt lat="30.201922" lon="-98.347851" />
      <trkpt lat="30.201829" lon="-98.347514" />
      <trkpt lat="30.201726" lon="-98.347205" />
      <trkpt lat="30.201583" lon="-98.346832" />
      <trkpt lat="30.201416" lon="-98.346471" />
      <trkpt lat="30.201247" lon="-98.346143" />
      <trkpt lat="30.196037" lon="-98.336181" />
      <trkpt lat="30.195957" lon="-98.336014" />
      <trkpt lat="30.195862" lon="-98.335819" />
      <trkpt lat="30.195778" lon="-98.335629" />
      <trkpt lat="30.195655" lon="-98.335314" />
      <trkpt lat="30.195566" lon="-98.335055" />
      <trkpt lat="30.195507" lon="-98.334846" />
      <trkpt lat="30.195387" lon="-98.334303" />
      <trkpt lat="30.195314" lon="-98.333815" />
      <trkpt lat="30.195289" lon="-98.33352" />
      <trkpt lat="30.195284" lon="-98.333306" />
      <trkpt lat="30.195281" lon="-98.333032" />
      <trkpt lat="30.19529" lon="-98.332834" />
      <trkpt lat="30.195321" lon="-98.332429" />
      <trkpt lat="30.195381" lon="-98.332038" />
      <trkpt lat="30.195469" lon="-98.331638" />
      <trkpt lat="30.195569" lon="-98.331258" />
      <trkpt lat="30.195656" lon="-98.331008" />
      <trkpt lat="30.195801" lon="-98.330615" />
      <trkpt lat="30.195981" lon="-98.330192" />
      <trkpt lat="30.197652" lon="-98.326223" />
      <trkpt lat="30.197867" lon="-98.325647" />
      <trkpt lat="30.198107" lon="-98.32492" />
      <trkpt lat="30.198289" lon="-98.324295" />
      <trkpt lat="30.198461" lon="-98.323624" />
      <trkpt lat="30.198464" lon="-98.323615" />
      <trkpt lat="30.199324" lon="-98.319997" />
      <trkpt lat="30.199452" lon="-98.319553" />
      <trkpt lat="30.199588" lon="-98.319165" />
      <trkpt lat="30.199733" lon="-98.318791" />
      <trkpt lat="30.199908" lon="-98.318396" />
      <trkpt lat="30.200089" lon="-98.318016" />
      <trkpt lat="30.199862" lon="-98.31673" />
      <trkpt lat="30.199943" lon="-98.316625" />
      <trkpt lat="30.20011" lon="-98.316375" />
      <trkpt lat="30.200185" lon="-98.316247" />
      <trkpt lat="30.200242" lon="-98.316139" />
      <trkpt lat="30.200287" lon="-98.316038" />
      <trkpt lat="30.200313" lon="-98.315964" />
      <trkpt lat="30.200331" lon="-98.315889" />
      <trkpt lat="30.200348" lon="-98.315775" />
      <trkpt lat="30.200361" lon="-98.315624" />
      <trkpt lat="30.200362" lon="-98.315371" />
      <trkpt lat="30.200377" lon="-98.315281" />
      <trkpt lat="30.200409" lon="-98.315173" />
      <trkpt lat="30.200445" lon="-98.315095" />
      <trkpt lat="30.200498" lon="-98.315029" />
      <trkpt lat="30.200542" lon="-98.314991" />
      <trkpt lat="30.200593" lon="-98.314957" />
      <trkpt lat="30.200654" lon="-98.314925" />
      <trkpt lat="30.200738" lon="-98.314889" />
      <trkpt lat="30.200884" lon="-98.314838" />
      <trkpt lat="30.20095" lon="-98.314823" />
      <trkpt lat="30.201102" lon="-98.314806" />
      <trkpt lat="30.201559" lon="-98.314784" />
      <trkpt lat="30.201674" lon="-98.314786" />
      <trkpt lat="30.201799" lon="-98.314795" />
      <trkpt lat="30.201906" lon="-98.314822" />
      <trkpt lat="30.202002" lon="-98.31489" />
      <trkpt lat="30.203343" lon="-98.312763" />
      <trkpt lat="30.205019" lon="-98.310078" />
      <trkpt lat="30.205268" lon="-98.309677" />
      <trkpt lat="30.206767" lon="-98.307319" />
      <trkpt lat="30.206878" lon="-98.307134" />
      <trkpt lat="30.206985" lon="-98.306942" />
      <trkpt lat="30.207111" lon="-98.306694" />
      <trkpt lat="30.207291" lon="-98.306305" />
      <trkpt lat="30.207429" lon="-98.305984" />
      <trkpt lat="30.207529" lon="-98.305722" />
      <trkpt lat="30.207674" lon="-98.305313" />
      <trkpt lat="30.207775" lon="-98.305" />
      <trkpt lat="30.207873" lon="-98.304647" />
      <trkpt lat="30.207965" lon="-98.30425" />
      <trkpt lat="30.208036" lon="-98.30386" />
      <trkpt lat="30.208101" lon="-98.303463" />
      <trkpt lat="30.208336" lon="-98.30173" />
      <trkpt lat="30.208546" lon="-98.30015" />
      <trkpt lat="30.209281" lon="-98.294698" />
      <trkpt lat="30.210522" lon="-98.28549" />
      <trkpt lat="30.210569" lon="-98.28513" />
      <trkpt lat="30.210854" lon="-98.283046" />
      <trkpt lat="30.210971" lon="-98.282137" />
      <trkpt lat="30.210981" lon="-98.282063" />
      <trkpt lat="30.211018" lon="-98.281715" />
      <trkpt lat="30.211043" lon="-98.281302" />
      <trkpt lat="30.211048" lon="-98.280841" />
      <trkpt lat="30.211038" lon="-98.280408" />
      <trkpt lat="30.210999" lon="-98.279808" />
      <trkpt lat="30.210947" lon="-98.279424" />
      <trkpt lat="30.210875" lon="-98.278957" />
      <trkpt lat="30.210775" lon="-98.278466" />
      <trkpt lat="30.210664" lon="-98.27806" />
      <trkpt lat="30.210558" lon="-98.277712" />
      <trkpt lat="30.210418" lon="-98.277304" />
      <trkpt lat="30.210301" lon="-98.277005" />
      <trkpt lat="30.210184" lon="-98.276739" />
      <trkpt lat="30.210028" lon="-98.276408" />
      <trkpt lat="30.209847" lon="-98.276047" />
      <trkpt lat="30.206108" lon="-98.268849" />
      <trkpt lat="30.20326" lon="-98.263588" />
      <trkpt lat="30.201391" lon="-98.260132" />
      <trkpt lat="30.201027" lon="-98.25946" />
      <trkpt lat="30.200196" lon="-98.257924" />
      <trkpt lat="30.199964" lon="-98.257506" />
      <trkpt lat="30.199767" lon="-98.257174" />
      <trkpt lat="30.199735" lon="-98.257121" />
      <trkpt lat="30.199464" lon="-98.256691" />
      <trkpt lat="30.199215" lon="-98.256318" />
      <trkpt lat="30.198872" lon="-98.255843" />
      <trkpt lat="30.197907" lon="-98.254565" />
      <trkpt lat="30.196995" lon="-98.25336" />
      <trkpt lat="30.196819" lon="-98.25311" />
      <trkpt lat="30.196561" lon="-98.252681" />
      <trkpt lat="30.196319" lon="-98.252255" />
      <trkpt lat="30.196142" lon="-98.251895" />
      <trkpt lat="30.196012" lon="-98.251599" />
      <trkpt lat="30.195874" lon="-98.251274" />
      <trkpt lat="30.195749" lon="-98.250928" />
      <trkpt lat="30.195609" lon="-98.250504" />
      <trkpt lat="30.195489" lon="-98.250055" />
      <trkpt lat="30.195393" lon="-98.249639" />
      <trkpt lat="30.195294" lon="-98.249095" />
      <trkpt lat="30.195231" lon="-98.248577" />
      <trkpt lat="30.195178" lon="-98.247997" />
      <trkpt lat="30.194937" lon="-98.244365" />
      <trkpt lat="30.194883" lon="-98.243704" />
      <trkpt lat="30.194819" lon="-98.243105" />
      <trkpt lat="30.194772" lon="-98.242746" />
      <trkpt lat="30.194717" lon="-98.242347" />
      <trkpt lat="30.194614" lon="-98.241727" />
      <trkpt lat="30.194555" lon="-98.241438" />
      <trkpt lat="30.194318" lon="-98.240391" />
      <trkpt lat="30.193978" lon="-98.238888" />
      <trkpt lat="30.193845" lon="-98.238296" />
      <trkpt lat="30.193569" lon="-98.237067" />
      <trkpt lat="30.1935" lon="-98.236764" />
      <trkpt lat="30.192639" lon="-98.232968" />
      <trkpt lat="30.192346" lon="-98.23157" />
      <trkpt lat="30.192263" lon="-98.23102" />
      <trkpt lat="30.192196" lon="-98.23047" />
      <trkpt lat="30.192146" lon="-98.229779" />
      <trkpt lat="30.192142" lon="-98.229208" />
      <trkpt lat="30.192141" lon="-98.229102" />
      <trkpt lat="30.19215" lon="-98.228628" />
      <trkpt lat="30.192172" lon="-98.228182" />
      <trkpt lat="30.192283" lon="-98.22651" />
      <trkpt lat="30.192409" lon="-98.224619" />
      <trkpt lat="30.192852" lon="-98.21818" />
      <trkpt lat="30.192895" lon="-98.217526" />
      <trkpt lat="30.192977" lon="-98.216836" />
      <trkpt lat="30.193078" lon="-98.216237" />
      <trkpt lat="30.193205" lon="-98.215652" />
      <trkpt lat="30.193335" lon="-98.215082" />
      <trkpt lat="30.193572" lon="-98.214357" />
      <trkpt lat="30.193729" lon="-98.213918" />
      <trkpt lat="30.193891" lon="-98.213511" />
      <trkpt lat="30.194536" lon="-98.212049" />
      <trkpt lat="30.195012" lon="-98.210963" />
      <trkpt lat="30.195075" lon="-98.210819" />
      <trkpt lat="30.195226" lon="-98.210474" />
      <trkpt lat="30.195347" lon="-98.210198" />
      <trkpt lat="30.196475" lon="-98.207625" />
      <trkpt lat="30.197451" lon="-98.205398" />
      <trkpt lat="30.197535" lon="-98.205205" />
      <trkpt lat="30.198044" lon="-98.204044" />
      <trkpt lat="30.198225" lon="-98.203632" />
      <trkpt lat="30.198538" lon="-98.202918" />
      <trkpt lat="30.199114" lon="-98.201604" />
      <trkpt lat="30.19967" lon="-98.200322" />
      <trkpt lat="30.199766" lon="-98.200102" />
      <trkpt lat="30.199954" lon="-98.199659" />
      <trkpt lat="30.200086" lon="-98.199314" />
      <trkpt lat="30.200213" lon="-98.198954" />
      <trkpt lat="30.200342" lon="-98.198476" />
      <trkpt lat="30.20044" lon="-98.198046" />
      <trkpt lat="30.200448" lon="-98.197998" />
      <trkpt lat="30.200509" lon="-98.197661" />
      <trkpt lat="30.200569" lon="-98.197273" />
      <trkpt lat="30.2006" lon="-98.19697" />
      <trkpt lat="30.200619" lon="-98.196775" />
      <trkpt lat="30.200633" lon="-98.196629" />
      <trkpt lat="30.200653" lon="-98.196069" />
      <trkpt lat="30.200644" lon="-98.195492" />
      <trkpt lat="30.2006" lon="-98.194691" />
      <trkpt lat="30.2006" lon="-98.194682" />
      <trkpt lat="30.200569" lon="-98.194171" />
      <trkpt lat="30.200541" lon="-98.193704" />
      <trkpt lat="30.20047" lon="-98.192502" />
      <trkpt lat="30.200352" lon="-98.190534" />
      <trkpt lat="30.200334" lon="-98.190258" />
      <trkpt lat="30.200243" lon="-98.188896" />
      <trkpt lat="30.200199" lon="-98.187935" />
      <trkpt lat="30.200185" lon="-98.187686" />
      <trkpt lat="30.200169" lon="-98.187379" />
      <trkpt lat="30.200131" lon="-98.186925" />
      <trkpt lat="30.200076" lon="-98.186406" />
      <trkpt lat="30.200032" lon="-98.186059" />
      <trkpt lat="30.19998" lon="-98.185693" />
      <trkpt lat="30.199929" lon="-98.185357" />
      <trkpt lat="30.199865" lon="-98.185006" />
      <trkpt lat="30.199774" lon="-98.184574" />
      <trkpt lat="30.199712" lon="-98.184259" />
      <trkpt lat="30.199704" lon="-98.184215" />
      <trkpt lat="30.199615" lon="-98.183842" />
      <trkpt lat="30.199506" lon="-98.183418" />
      <trkpt lat="30.19949" lon="-98.183366" />
      <trkpt lat="30.199378" lon="-98.182984" />
      <trkpt lat="30.199054" lon="-98.181955" />
      <trkpt lat="30.198502" lon="-98.180222" />
      <trkpt lat="30.198351" lon="-98.179762" />
      <trkpt lat="30.197852" lon="-98.178159" />
      <trkpt lat="30.197786" lon="-98.177872" />
      <trkpt lat="30.197726" lon="-98.177612" />
      <trkpt lat="30.197605" lon="-98.176935" />
      <trkpt lat="30.197555" lon="-98.17654" />
      <trkpt lat="30.197523" lon="-98.176111" />
      <trkpt lat="30.197506" lon="-98.175604" />
      <trkpt lat="30.197503" lon="-98.175164" />
      <trkpt lat="30.197507" lon="-98.174599" />
      <trkpt lat="30.197533" lon="-98.172038" />
      <trkpt lat="30.197538" lon="-98.171463" />
      <trkpt lat="30.197545" lon="-98.17066" />
      <trkpt lat="30.197564" lon="-98.168801" />
      <trkpt lat="30.197568" lon="-98.168348" />
      <trkpt lat="30.197598" lon="-98.165312" />
      <trkpt lat="30.197598" lon="-98.16528" />
      <trkpt lat="30.197616" lon="-98.164784" />
      <trkpt lat="30.19765" lon="-98.164384" />
      <trkpt lat="30.197698" lon="-98.164014" />
      <trkpt lat="30.197749" lon="-98.163685" />
      <trkpt lat="30.1978" lon="-98.163416" />
      <trkpt lat="30.197852" lon="-98.163183" />
      <trkpt lat="30.197916" lon="-98.162921" />
      <trkpt lat="30.197967" lon="-98.162736" />
      <trkpt lat="30.197974" lon="-98.162708" />
      <trkpt lat="30.198087" lon="-98.162337" />
      <trkpt lat="30.198183" lon="-98.162034" />
      <trkpt lat="30.198312" lon="-98.161682" />
      <trkpt lat="30.198447" lon="-98.161364" />
      <trkpt lat="30.198468" lon="-98.161316" />
      <trkpt lat="30.198546" lon="-98.16113" />
      <trkpt lat="30.198625" lon="-98.16093" />
      <trkpt lat="30.198694" lon="-98.160763" />
      <trkpt lat="30.199561" lon="-98.158799" />
      <trkpt lat="30.200551" lon="-98.156506" />
      <trkpt lat="30.201131" lon="-98.155174" />
      <trkpt lat="30.201274" lon="-98.154869" />
      <trkpt lat="30.201438" lon="-98.154558" />
      <trkpt lat="30.201634" lon="-98.154225" />
      <trkpt lat="30.201853" lon="-98.153888" />
      <trkpt lat="30.20213" lon="-98.153502" />
      <trkpt lat="30.202291" lon="-98.153291" />
      <trkpt lat="30.202598" lon="-98.152893" />
      <trkpt lat="30.203788" lon="-98.151345" />
      <trkpt lat="30.204014" lon="-98.151043" />
      <trkpt lat="30.204216" lon="-98.150739" />
      <trkpt lat="30.204238" lon="-98.150707" />
      <trkpt lat="30.204504" lon="-98.150263" />
      <trkpt lat="30.204671" lon="-98.149934" />
      <trkpt lat="30.204855" lon="-98.149526" />
      <trkpt lat="30.204989" lon="-98.149199" />
      <trkpt lat="30.205095" lon="-98.148915" />
      <trkpt lat="30.205183" lon="-98.148656" />
      <trkpt lat="30.205225" lon="-98.148533" />
      <trkpt lat="30.205316" lon="-98.148203" />
      <trkpt lat="30.205463" lon="-98.147653" />
      <trkpt lat="30.206493" lon="-98.143813" />
      <trkpt lat="30.206573" lon="-98.143439" />
      <trkpt lat="30.206642" lon="-98.14299" />
      <trkpt lat="30.206699" lon="-98.142421" />
      <trkpt lat="30.206735" lon="-98.14193" />
      <trkpt lat="30.206741" lon="-98.141587" />
      <trkpt lat="30.206734" lon="-98.141269" />
      <trkpt lat="30.206719" lon="-98.140965" />
      <trkpt lat="30.206709" lon="-98.140833" />
      <trkpt lat="30.206697" lon="-98.140673" />
      <trkpt lat="30.206658" lon="-98.140383" />
      <trkpt lat="30.206612" lon="-98.140036" />
      <trkpt lat="30.206551" lon="-98.139676" />
      <trkpt lat="30.206479" lon="-98.139366" />
      <trkpt lat="30.206401" lon="-98.13904" />
      <trkpt lat="30.206045" lon="-98.137772" />
      <trkpt lat="30.205992" lon="-98.137583" />
      <trkpt lat="30.205871" lon="-98.137154" />
      <trkpt lat="30.205789" lon="-98.136839" />
      <trkpt lat="30.205723" lon="-98.136539" />
      <trkpt lat="30.205696" lon="-98.136375" />
      <trkpt lat="30.205681" lon="-98.136285" />
      <trkpt lat="30.205663" lon="-98.136176" />
      <trkpt lat="30.205655" lon="-98.136114" />
      <trkpt lat="30.205598" lon="-98.135671" />
      <trkpt lat="30.205592" lon="-98.135568" />
      <trkpt lat="30.205573" lon="-98.135292" />
      <trkpt lat="30.205566" lon="-98.134965" />
      <trkpt lat="30.205576" lon="-98.134568" />
      <trkpt lat="30.205599" lon="-98.134091" />
      <trkpt lat="30.205639" lon="-98.133314" />
      <trkpt lat="30.205646" lon="-98.133184" />
      <trkpt lat="30.205693" lon="-98.132252" />
      <trkpt lat="30.205718" lon="-98.131777" />
      <trkpt lat="30.205764" lon="-98.130814" />
      <trkpt lat="30.205799" lon="-98.130079" />
      <trkpt lat="30.205825" lon="-98.12952" />
      <trkpt lat="30.20585" lon="-98.129022" />
      <trkpt lat="30.205858" lon="-98.128438" />
      <trkpt lat="30.205856" lon="-98.128352" />
      <trkpt lat="30.205848" lon="-98.127843" />
      <trkpt lat="30.205825" lon="-98.127446" />
      <trkpt lat="30.205797" lon="-98.12696" />
      <trkpt lat="30.205787" lon="-98.12683" />
      <trkpt lat="30.205763" lon="-98.126474" />
      <trkpt lat="30.205748" lon="-98.126335" />
      <trkpt lat="30.205699" lon="-98.125872" />
      <trkpt lat="30.205658" lon="-98.125549" />
      <trkpt lat="30.205633" lon="-98.125357" />
      <trkpt lat="30.205615" lon="-98.125218" />
      <trkpt lat="30.205609" lon="-98.125174" />
      <trkpt lat="30.205572" lon="-98.124888" />
      <trkpt lat="30.205544" lon="-98.124683" />
      <trkpt lat="30.205517" lon="-98.124489" />
      <trkpt lat="30.205474" lon="-98.124168" />
      <trkpt lat="30.20535" lon="-98.123259" />
      <trkpt lat="30.20532" lon="-98.123041" />
      <trkpt lat="30.205262" lon="-98.122614" />
      <trkpt lat="30.205045" lon="-98.120876" />
      <trkpt lat="30.204949" lon="-98.120196" />
      <trkpt lat="30.204833" lon="-98.119367" />
      <trkpt lat="30.204769" lon="-98.118914" />
      <trkpt lat="30.204673" lon="-98.11828" />
      <trkpt lat="30.204538" lon="-98.1176" />
      <trkpt lat="30.204518" lon="-98.117521" />
      <trkpt lat="30.204404" lon="-98.117078" />
      <trkpt lat="30.204252" lon="-98.116555" />
      <trkpt lat="30.204106" lon="-98.116131" />
      <trkpt lat="30.203989" lon="-98.115813" />
      <trkpt lat="30.203957" lon="-98.115726" />
      <trkpt lat="30.203787" lon="-98.115313" />
      <trkpt lat="30.203612" lon="-98.114919" />
      <trkpt lat="30.203339" lon="-98.114373" />
      <trkpt lat="30.20306" lon="-98.113853" />
      <trkpt lat="30.202297" lon="-98.112409" />
      <trkpt lat="30.202207" lon="-98.112246" />
      <trkpt lat="30.201947" lon="-98.111767" />
      <trkpt lat="30.201751" lon="-98.111417" />
      <trkpt lat="30.201664" lon="-98.111261" />
      <trkpt lat="30.201372" lon="-98.110794" />
      <trkpt lat="30.201161" lon="-98.110485" />
      <trkpt lat="30.200946" lon="-98.110193" />
      <trkpt lat="30.200785" lon="-98.109982" />
      <trkpt lat="30.200736" lon="-98.109921" />
      <trkpt lat="30.200622" lon="-98.109779" />
      <trkpt lat="30.200561" lon="-98.109708" />
      <trkpt lat="30.200398" lon="-98.109516" />
      <trkpt lat="30.200095" lon="-98.10916" />
      <trkpt lat="30.199758" lon="-98.108765" />
      <trkpt lat="30.199618" lon="-98.108601" />
      <trkpt lat="30.19956" lon="-98.108532" />
      <trkpt lat="30.199501" lon="-98.108458" />
      <trkpt lat="30.199436" lon="-98.108382" />
      <trkpt lat="30.199327" lon="-98.108255" />
      <trkpt lat="30.199143" lon="-98.108057" />
      <trkpt lat="30.199029" lon="-98.107923" />
      <trkpt lat="30.198581" lon="-98.107395" />
      <trkpt lat="30.198234" lon="-98.106987" />
      <trkpt lat="30.198193" lon="-98.106939" />
      <trkpt lat="30.197978" lon="-98.106691" />
      <trkpt lat="30.197869" lon="-98.106564" />
      <trkpt lat="30.197675" lon="-98.106337" />
      <trkpt lat="30.197249" lon="-98.105838" />
      <trkpt lat="30.196911" lon="-98.105442" />
      <trkpt lat="30.196875" lon="-98.105398" />
      <trkpt lat="30.196831" lon="-98.105344" />
      <trkpt lat="30.195784" lon="-98.10407" />
      <trkpt lat="30.195731" lon="-98.103995" />
      <trkpt lat="30.195633" lon="-98.103855" />
      <trkpt lat="30.195527" lon="-98.103697" />
      <trkpt lat="30.195322" lon="-98.103391" />
      <trkpt lat="30.195137" lon="-98.103111" />
      <trkpt lat="30.194861" lon="-98.102677" />
      <trkpt lat="30.194444" lon="-98.101955" />
      <trkpt lat="30.193409" lon="-98.100102" />
      <trkpt lat="30.193149" lon="-98.099588" />
      <trkpt lat="30.193036" lon="-98.09932" />
      <trkpt lat="30.192909" lon="-98.099022" />
      <trkpt lat="30.19285" lon="-98.098879" />
      <trkpt lat="30.192764" lon="-98.098672" />
      <trkpt lat="30.192626" lon="-98.09829" />
      <trkpt lat="30.192526" lon="-98.097975" />
      <trkpt lat="30.192472" lon="-98.097804" />
      <trkpt lat="30.192431" lon="-98.097673" />
      <trkpt lat="30.192386" lon="-98.097533" />
      <trkpt lat="30.192357" lon="-98.097423" />
      <trkpt lat="30.192305" lon="-98.097228" />
      <trkpt lat="30.192258" lon="-98.09703" />
      <trkpt lat="30.192233" lon="-98.096925" />
      <trkpt lat="30.19221" lon="-98.096808" />
      <trkpt lat="30.192175" lon="-98.096637" />
      <trkpt lat="30.192135" lon="-98.096442" />
      <trkpt lat="30.192058" lon="-98.096059" />
      <trkpt lat="30.19205" lon="-98.096019" />
      <trkpt lat="30.192041" lon="-98.095974" />
      <trkpt lat="30.191936" lon="-98.09545" />
      <trkpt lat="30.191838" lon="-98.094913" />
      <trkpt lat="30.191745" lon="-98.094358" />
      <trkpt lat="30.191725" lon="-98.09421" />
      <trkpt lat="30.191685" lon="-98.093945" />
      <trkpt lat="30.191653" lon="-98.093679" />
      <trkpt lat="30.191582" lon="-98.092932" />
      <trkpt lat="30.191533" lon="-98.092185" />
      <trkpt lat="30.191515" lon="-98.091481" />
      <trkpt lat="30.191511" lon="-98.091291" />
      <trkpt lat="30.191512" lon="-98.091139" />
      <trkpt lat="30.191515" lon="-98.090854" />
      <trkpt lat="30.191521" lon="-98.090104" />
      <trkpt lat="30.191524" lon="-98.089743" />
      <trkpt lat="30.191527" lon="-98.089428" />
      <trkpt lat="30.191531" lon="-98.088961" />
      <trkpt lat="30.191534" lon="-98.088616" />
      <trkpt lat="30.191539" lon="-98.087661" />
      <trkpt lat="30.19154" lon="-98.087495" />
      <trkpt lat="30.191389" lon="-98.087497" />
      <trkpt lat="30.190887" lon="-98.087505" />
      <trkpt lat="30.190694" lon="-98.087508" />
      <trkpt lat="30.190105" lon="-98.087485" />
      <trkpt lat="30.190051" lon="-98.08748" />
      <trkpt lat="30.189866" lon="-98.087463" />
      <trkpt lat="30.189615" lon="-98.087409" />
      <trkpt lat="30.189395" lon="-98.087332" />
      <trkpt lat="30.189314" lon="-98.087294" />
      <trkpt lat="30.189232" lon="-98.087252" />
      <trkpt lat="30.188741" lon="-98.087066" />
      <trkpt lat="30.18843" lon="-98.087012" />
      <trkpt lat="30.18827" lon="-98.087005" />
      <trkpt lat="30.188084" lon="-98.087019" />
      <trkpt lat="30.187936" lon="-98.087033" />
      <trkpt lat="30.187281" lon="-98.087096" />
      <trkpt lat="30.187169" lon="-98.087091" />
      <trkpt lat="30.187122" lon="-98.087089" />
      <trkpt lat="30.186962" lon="-98.087066" />
      <trkpt lat="30.186829" lon="-98.08703" />
      <trkpt lat="30.186653" lon="-98.086982" />
      <trkpt lat="30.186454" lon="-98.086906" />
      <trkpt lat="30.185829" lon="-98.086677" />
      <trkpt lat="30.185478" lon="-98.086549" />
      <trkpt lat="30.185254" lon="-98.086462" />
      <trkpt lat="30.185202" lon="-98.086442" />
      <trkpt lat="30.184614" lon="-98.086215" />
      <trkpt lat="30.18415" lon="-98.086036" />
      <trkpt lat="30.183913" lon="-98.085944" />
      <trkpt lat="30.183848" lon="-98.085918" />
      <trkpt lat="30.1838" lon="-98.085898" />
      <trkpt lat="30.183736" lon="-98.085869" />
      <trkpt lat="30.183478" lon="-98.085759" />
      <trkpt lat="30.183262" lon="-98.085638" />
      <trkpt lat="30.183005" lon="-98.08548" />
      <trkpt lat="30.182862" lon="-98.08538" />
      <trkpt lat="30.182607" lon="-98.085182" />
      <trkpt lat="30.182416" lon="-98.085023" />
      <trkpt lat="30.182025" lon="-98.084696" />
      <trkpt lat="30.181803" lon="-98.08451" />
      <trkpt lat="30.181482" lon="-98.084312" />
      <trkpt lat="30.181218" lon="-98.084222" />
      <trkpt lat="30.181201" lon="-98.084216" />
      <trkpt lat="30.181124" lon="-98.08419" />
      <trkpt lat="30.180962" lon="-98.084175" />
      <trkpt lat="30.1808" lon="-98.084174" />
      <trkpt lat="30.180511" lon="-98.084208" />
      <trkpt lat="30.180473" lon="-98.084212" />
      <trkpt lat="30.180313" lon="-98.084251" />
      <trkpt lat="30.180279" lon="-98.084261" />
      <trkpt lat="30.180157" lon="-98.084297" />
      <trkpt lat="30.179513" lon="-98.084573" />
      <trkpt lat="30.179387" lon="-98.084618" />
      <trkpt lat="30.178808" lon="-98.084823" />
      <trkpt lat="30.178465" lon="-98.08494" />
      <trkpt lat="30.178322" lon="-98.084979" />
      <trkpt lat="30.17802" lon="-98.08506" />
      <trkpt lat="30.177767" lon="-98.085113" />
      <trkpt lat="30.177696" lon="-98.085128" />
      <trkpt lat="30.17766" lon="-98.085132" />
      <trkpt lat="30.177589" lon="-98.085139" />
      <trkpt lat="30.176493" lon="-98.08522" />
      <trkpt lat="30.176027" lon="-98.085249" />
      <trkpt lat="30.175608" lon="-98.085262" />
      <trkpt lat="30.175365" lon="-98.085281" />
      <trkpt lat="30.174853" lon="-98.085335" />
      <trkpt lat="30.174233" lon="-98.085399" />
      <trkpt lat="30.174181" lon="-98.085403" />
      <trkpt lat="30.173439" lon="-98.085469" />
      <trkpt lat="30.173173" lon="-98.085502" />
      <trkpt lat="30.172824" lon="-98.085581" />
      <trkpt lat="30.172517" lon="-98.08565" />
      <trkpt lat="30.172306" lon="-98.08569" />
      <trkpt lat="30.171931" lon="-98.085753" />
      <trkpt lat="30.17173" lon="-98.085791" />
      <trkpt lat="30.171615" lon="-98.085823" />
      <trkpt lat="30.171495" lon="-98.085856" />
      <trkpt lat="30.171243" lon="-98.085943" />
      <trkpt lat="30.171118" lon="-98.085997" />
      <trkpt lat="30.170987" lon="-98.086053" />
      <trkpt lat="30.170881" lon="-98.086105" />
      <trkpt lat="30.170569" lon="-98.086274" />
      <trkpt lat="30.17021" lon="-98.086469" />
      <trkpt lat="30.17002" lon="-98.086548" />
      <trkpt lat="30.169749" lon="-98.086661" />
      <trkpt lat="30.169458" lon="-98.086722" />
      <trkpt lat="30.169312" lon="-98.08673" />
      <trkpt lat="30.16911" lon="-98.086733" />
      <trkpt lat="30.16904" lon="-98.086734" />
      <trkpt lat="30.168834" lon="-98.086737" />
      <trkpt lat="30.168405" lon="-98.086768" />
      <trkpt lat="30.168078" lon="-98.086837" />
      <trkpt lat="30.16767" lon="-98.086995" />
      <trkpt lat="30.167571" lon="-98.087043" />
      <trkpt lat="30.167284" lon="-98.087189" />
      <trkpt lat="30.166898" lon="-98.087464" />
      <trkpt lat="30.166581" lon="-98.087704" />
      <trkpt lat="30.166334" lon="-98.087905" />
      <trkpt lat="30.166252" lon="-98.087971" />
      <trkpt lat="30.165628" lon="-98.088562" />
      <trkpt lat="30.164977" lon="-98.089262" />
      <trkpt lat="30.164841" lon="-98.089409" />
      <trkpt lat="30.164324" lon="-98.089937" />
      <trkpt lat="30.164153" lon="-98.090109" />
      <trkpt lat="30.163916" lon="-98.090345" />
      <trkpt lat="30.163617" lon="-98.090644" />
      <trkpt lat="30.163192" lon="-98.090949" />
      <trkpt lat="30.162792" lon="-98.091147" />
      <trkpt lat="30.16234" lon="-98.091285" />
      <trkpt lat="30.161699" lon="-98.091344" />
      <trkpt lat="30.161046" lon="-98.091343" />
      <trkpt lat="30.160422" lon="-98.091312" />
      <trkpt lat="30.1596" lon="-98.091271" />
      <trkpt lat="30.158642" lon="-98.091223" />
      <trkpt lat="30.158368" lon="-98.091211" />
      <trkpt lat="30.157802" lon="-98.091178" />
      <trkpt lat="30.157386" lon="-98.091118" />
      <trkpt lat="30.156957" lon="-98.09102" />
      <trkpt lat="30.156604" lon="-98.090903" />
      <trkpt lat="30.156165" lon="-98.090694" />
      <trkpt lat="30.155357" lon="-98.090281" />
      <trkpt lat="30.154792" lon="-98.090069" />
      <trkpt lat="30.154379" lon="-98.090008" />
      <trkpt lat="30.154002" lon="-98.090031" />
      <trkpt lat="30.153742" lon="-98.090089" />
      <trkpt lat="30.153678" lon="-98.090103" />
      <trkpt lat="30.152368" lon="-98.090576" />
      <trkpt lat="30.152282" lon="-98.090607" />
      <trkpt lat="30.151507" lon="-98.090893" />
      <trkpt lat="30.151472" lon="-98.090906" />
      <trkpt lat="30.151338" lon="-98.090956" />
      <trkpt lat="30.151327" lon="-98.090962" />
      <trkpt lat="30.150975" lon="-98.091147" />
      <trkpt lat="30.150697" lon="-98.091293" />
      <trkpt lat="30.150295" lon="-98.091514" />
      <trkpt lat="30.150046" lon="-98.091602" />
      <trkpt lat="30.149996" lon="-98.09162" />
      <trkpt lat="30.14952" lon="-98.091651" />
      <trkpt lat="30.149198" lon="-98.091582" />
      <trkpt lat="30.148803" lon="-98.091399" />
      <trkpt lat="30.147791" lon="-98.090843" />
      <trkpt lat="30.147208" lon="-98.090547" />
      <trkpt lat="30.146361" lon="-98.090148" />
      <trkpt lat="30.146113" lon="-98.090044" />
      <trkpt lat="30.145612" lon="-98.089853" />
      <trkpt lat="30.145493" lon="-98.089812" />
      <trkpt lat="30.145214" lon="-98.089728" />
      <trkpt lat="30.145187" lon="-98.08972" />
      <trkpt lat="30.144162" lon="-98.089431" />
      <trkpt lat="30.143378" lon="-98.089206" />
      <trkpt lat="30.14182" lon="-98.088759" />
      <trkpt lat="30.141315" lon="-98.088626" />
      <trkpt lat="30.141135" lon="-98.088579" />
      <trkpt lat="30.140562" lon="-98.088416" />
      <trkpt lat="30.139891" lon="-98.088231" />
      <trkpt lat="30.13954" lon="-98.088143" />
      <trkpt lat="30.139099" lon="-98.088065" />
      <trkpt lat="30.138664" lon="-98.088011" />
      <trkpt lat="30.138224" lon="-98.087996" />
      <trkpt lat="30.137784" lon="-98.087996" />
      <trkpt lat="30.137705" lon="-98.087998" />
      <trkpt lat="30.137562" lon="-98.088001" />
      <trkpt lat="30.137457" lon="-98.088004" />
      <trkpt lat="30.13724" lon="-98.088019" />
      <trkpt lat="30.136705" lon="-98.088084" />
      <trkpt lat="30.136531" lon="-98.088104" />
      <trkpt lat="30.136215" lon="-98.088153" />
      <trkpt lat="30.136086" lon="-98.088177" />
      <trkpt lat="30.13557" lon="-98.088301" />
      <trkpt lat="30.135447" lon="-98.088343" />
      <trkpt lat="30.134698" lon="-98.088594" />
      <trkpt lat="30.134281" lon="-98.088767" />
      <trkpt lat="30.133864" lon="-98.088979" />
      <trkpt lat="30.133286" lon="-98.089247" />
      <trkpt lat="30.133146" lon="-98.089298" />
      <trkpt lat="30.132926" lon="-98.08937" />
      <trkpt lat="30.132756" lon="-98.089426" />
      <trkpt lat="30.131546" lon="-98.089776" />
      <trkpt lat="30.131241" lon="-98.089864" />
      <trkpt lat="30.130822" lon="-98.089995" />
      <trkpt lat="30.130349" lon="-98.090041" />
      <trkpt lat="30.130265" lon="-98.090038" />
      <trkpt lat="30.130085" lon="-98.090031" />
      <trkpt lat="30.129829" lon="-98.089995" />
      <trkpt lat="30.129625" lon="-98.089911" />
      <trkpt lat="30.129369" lon="-98.089812" />
      <trkpt lat="30.129311" lon="-98.089789" />
      <trkpt lat="30.129206" lon="-98.089743" />
      <trkpt lat="30.128995" lon="-98.089684" />
      <trkpt lat="30.128691" lon="-98.089598" />
      <trkpt lat="30.128159" lon="-98.089515" />
      <trkpt lat="30.127891" lon="-98.08951" />
      <trkpt lat="30.127739" lon="-98.089507" />
      <trkpt lat="30.127676" lon="-98.089511" />
      <trkpt lat="30.127617" lon="-98.089515" />
      <trkpt lat="30.127106" lon="-98.089547" />
      <trkpt lat="30.126295" lon="-98.089598" />
      <trkpt lat="30.126037" lon="-98.089614" />
      <trkpt lat="30.125652" lon="-98.089598" />
      <trkpt lat="30.125272" lon="-98.089536" />
      <trkpt lat="30.124901" lon="-98.089453" />
      <trkpt lat="30.124584" lon="-98.0894" />
      <trkpt lat="30.12421" lon="-98.089362" />
      <trkpt lat="30.123706" lon="-98.089354" />
      <trkpt lat="30.122809" lon="-98.089209" />
      <trkpt lat="30.122225" lon="-98.088933" />
      <trkpt lat="30.122017" lon="-98.088835" />
      <trkpt lat="30.121874" lon="-98.088767" />
      <trkpt lat="30.121673" lon="-98.08869" />
      <trkpt lat="30.121163" lon="-98.088545" />
      <trkpt lat="30.120802" lon="-98.088462" />
      <trkpt lat="30.120681" lon="-98.088441" />
      <trkpt lat="30.120224" lon="-98.088384" />
      <trkpt lat="30.119651" lon="-98.08834" />
      <trkpt lat="30.119536" lon="-98.088331" />
      <trkpt lat="30.119345" lon="-98.088322" />
      <trkpt lat="30.119178" lon="-98.088313" />
      <trkpt lat="30.118618" lon="-98.088286" />
      <trkpt lat="30.117983" lon="-98.088309" />
      <trkpt lat="30.117722" lon="-98.088355" />
      <trkpt lat="30.117332" lon="-98.088457" />
      <trkpt lat="30.116237" lon="-98.088805" />
      <trkpt lat="30.115872" lon="-98.088904" />
      <trkpt lat="30.115224" lon="-98.089035" />
      <trkpt lat="30.114689" lon="-98.089155" />
      <trkpt lat="30.114539" lon="-98.089195" />
      <trkpt lat="30.114373" lon="-98.08924" />
      <trkpt lat="30.113759" lon="-98.089468" />
      <trkpt lat="30.112363" lon="-98.090116" />
      <trkpt lat="30.110722" lon="-98.090888" />
      <trkpt lat="30.110272" lon="-98.0911" />
      <trkpt lat="30.110118" lon="-98.091159" />
      <trkpt lat="30.108954" lon="-98.091653" />
      <trkpt lat="30.108271" lon="-98.091919" />
      <trkpt lat="30.107751" lon="-98.092115" />
      <trkpt lat="30.10734" lon="-98.092257" />
      <trkpt lat="30.107115" lon="-98.092339" />
      <trkpt lat="30.106808" lon="-98.092501" />
      <trkpt lat="30.106291" lon="-98.09281" />
      <trkpt lat="30.105469" lon="-98.093544" />
      <trkpt lat="30.104921" lon="-98.093928" />
      <trkpt lat="30.103911" lon="-98.094714" />
      <trkpt lat="30.103414" lon="-98.09515" />
      <trkpt lat="30.102958" lon="-98.095536" />
      <trkpt lat="30.10283" lon="-98.095613" />
      <trkpt lat="30.102618" lon="-98.095739" />
      <trkpt lat="30.102214" lon="-98.095915" />
      <trkpt lat="30.102041" lon="-98.095995" />
      <trkpt lat="30.101283" lon="-98.096253" />
      <trkpt lat="30.100952" lon="-98.096369" />
      <trkpt lat="30.100577" lon="-98.096491" />
      <trkpt lat="30.100215" lon="-98.096586" />
      <trkpt lat="30.099773" lon="-98.096663" />
      <trkpt lat="30.099478" lon="-98.096684" />
      <trkpt lat="30.099212" lon="-98.096671" />
      <trkpt lat="30.098938" lon="-98.096612" />
      <trkpt lat="30.09865" lon="-98.096501" />
      <trkpt lat="30.098152" lon="-98.096299" />
      <trkpt lat="30.097839" lon="-98.096172" />
      <trkpt lat="30.097614" lon="-98.096101" />
      <trkpt lat="30.097459" lon="-98.096077" />
      <trkpt lat="30.097279" lon="-98.096065" />
      <trkpt lat="30.097093" lon="-98.096074" />
      <trkpt lat="30.096934" lon="-98.096105" />
      <trkpt lat="30.096731" lon="-98.096157" />
      <trkpt lat="30.096141" lon="-98.096372" />
      <trkpt lat="30.095021" lon="-98.096826" />
      <trkpt lat="30.093757" lon="-98.097372" />
      <trkpt lat="30.092734" lon="-98.097839" />
      <trkpt lat="30.092225" lon="-98.098064" />
      <trkpt lat="30.091496" lon="-98.098351" />
      <trkpt lat="30.091215" lon="-98.098468" />
      <trkpt lat="30.091019" lon="-98.098552" />
      <trkpt lat="30.090774" lon="-98.098692" />
      <trkpt lat="30.090428" lon="-98.098925" />
      <trkpt lat="30.089797" lon="-98.099413" />
      <trkpt lat="30.089582" lon="-98.099561" />
      <trkpt lat="30.089303" lon="-98.099703" />
      <trkpt lat="30.089021" lon="-98.099826" />
      <trkpt lat="30.087301" lon="-98.100443" />
      <trkpt lat="30.086916" lon="-98.10055" />
      <trkpt lat="30.08669" lon="-98.100595" />
      <trkpt lat="30.086371" lon="-98.100592" />
      <trkpt lat="30.086242" lon="-98.100575" />
      <trkpt lat="30.085796" lon="-98.100516" />
      <trkpt lat="30.08532" lon="-98.100409" />
      <trkpt lat="30.084777" lon="-98.100302" />
      <trkpt lat="30.084254" lon="-98.10021" />
      <trkpt lat="30.084009" lon="-98.100172" />
      <trkpt lat="30.083562" lon="-98.100043" />
      <trkpt lat="30.083505" lon="-98.100027" />
      <trkpt lat="30.083042" lon="-98.099814" />
      <trkpt lat="30.081511" lon="-98.098889" />
      <trkpt lat="30.081093" lon="-98.098636" />
      <trkpt lat="30.081021" lon="-98.098593" />
      <trkpt lat="30.08027" lon="-98.098126" />
      <trkpt lat="30.079952" lon="-98.09794" />
      <trkpt lat="30.079452" lon="-98.09764" />
      <trkpt lat="30.079044" lon="-98.09738" />
      <trkpt lat="30.078776" lon="-98.097182" />
      <trkpt lat="30.078653" lon="-98.097013" />
      <trkpt lat="30.078562" lon="-98.096911" />
      <trkpt lat="30.078514" lon="-98.096858" />
      <trkpt lat="30.078277" lon="-98.096594" />
      <trkpt lat="30.078052" lon="-98.096334" />
      <trkpt lat="30.077588" lon="-98.095765" />
      <trkpt lat="30.077205" lon="-98.095212" />
      <trkpt lat="30.076942" lon="-98.094828" />
      <trkpt lat="30.076553" lon="-98.094373" />
      <trkpt lat="30.076131" lon="-98.093993" />
      <trkpt lat="30.075489" lon="-98.093451" />
      <trkpt lat="30.075046" lon="-98.093031" />
      <trkpt lat="30.07488" lon="-98.092802" />
      <trkpt lat="30.074519" lon="-98.09223" />
      <trkpt lat="30.074241" lon="-98.091871" />
      <trkpt lat="30.07407" lon="-98.091711" />
      <trkpt lat="30.073595" lon="-98.091482" />
      <trkpt lat="30.073163" lon="-98.09136" />
      <trkpt lat="30.072684" lon="-98.091276" />
      <trkpt lat="30.072185" lon="-98.091139" />
      <trkpt lat="30.071959" lon="-98.09107" />
      <trkpt lat="30.071341" lon="-98.090848" />
      <trkpt lat="30.070752" lon="-98.090643" />
      <trkpt lat="30.070512" lon="-98.090552" />
      <trkpt lat="30.070126" lon="-98.090422" />
      <trkpt lat="30.06958" lon="-98.090246" />
      <trkpt lat="30.069121" lon="-98.090276" />
      <trkpt lat="30.068904" lon="-98.09033" />
      <trkpt lat="30.068532" lon="-98.090536" />
      <trkpt lat="30.067472" lon="-98.091171" />
      <trkpt lat="30.067121" lon="-98.091382" />
      <trkpt lat="30.066988" lon="-98.091458" />
      <trkpt lat="30.06688" lon="-98.09152" />
      <trkpt lat="30.066665" lon="-98.091649" />
      <trkpt lat="30.066583" lon="-98.091698" />
      <trkpt lat="30.066333" lon="-98.091848" />
      <trkpt lat="30.065859" lon="-98.092138" />
      <trkpt lat="30.065163" lon="-98.092535" />
      <trkpt lat="30.064656" lon="-98.092718" />
      <trkpt lat="30.064139" lon="-98.092726" />
      <trkpt lat="30.063643" lon="-98.092672" />
      <trkpt lat="30.063194" lon="-98.092614" />
      <trkpt lat="30.062127" lon="-98.092443" />
      <trkpt lat="30.061799" lon="-98.092389" />
      <trkpt lat="30.061458" lon="-98.092321" />
      <trkpt lat="30.060848" lon="-98.092132" />
      <trkpt lat="30.060818" lon="-98.092122" />
      <trkpt lat="30.060325" lon="-98.091924" />
      <trkpt lat="30.059842" lon="-98.091696" />
      <trkpt lat="30.059619" lon="-98.091596" />
      <trkpt lat="30.059078" lon="-98.091398" />
      <trkpt lat="30.05858" lon="-98.091352" />
      <trkpt lat="30.058388" lon="-98.091382" />
      <trkpt lat="30.058091" lon="-98.091428" />
      <trkpt lat="30.057923" lon="-98.091496" />
      <trkpt lat="30.05762" lon="-98.091619" />
      <trkpt lat="30.057132" lon="-98.091864" />
      <trkpt lat="30.056882" lon="-98.091985" />
      <trkpt lat="30.055985" lon="-98.092483" />
      <trkpt lat="30.055941" lon="-98.092516" />
      <trkpt lat="30.055304" lon="-98.092952" />
      <trkpt lat="30.053857" lon="-98.094127" />
      <trkpt lat="30.053087" lon="-98.094744" />
      <trkpt lat="30.052875" lon="-98.094909" />
      <trkpt lat="30.052551" lon="-98.095137" />
      <trkpt lat="30.051381" lon="-98.096022" />
      <trkpt lat="30.050458" lon="-98.096758" />
      <trkpt lat="30.050395" lon="-98.096813" />
      <trkpt lat="30.049886" lon="-98.097198" />
      <trkpt lat="30.049461" lon="-98.09749" />
      <trkpt lat="30.049297" lon="-98.097608" />
      <trkpt lat="30.049074" lon="-98.097781" />
      <trkpt lat="30.048795" lon="-98.098046" />
      <trkpt lat="30.048417" lon="-98.098531" />
      <trkpt lat="30.048205" lon="-98.098857" />
      <trkpt lat="30.047879" lon="-98.099314" />
      <trkpt lat="30.047522" lon="-98.099768" />
      <trkpt lat="30.047364" lon="-98.09998" />
      <trkpt lat="30.046079" lon="-98.101647" />
      <trkpt lat="30.045648" lon="-98.102056" />
      <trkpt lat="30.045243" lon="-98.102316" />
      <trkpt lat="30.045147" lon="-98.102361" />
      <trkpt lat="30.044826" lon="-98.102514" />
      <trkpt lat="30.044512" lon="-98.102661" />
      <trkpt lat="30.044382" lon="-98.102713" />
      <trkpt lat="30.044094" lon="-98.102827" />
      <trkpt lat="30.04331" lon="-98.103155" />
      <trkpt lat="30.042783" lon="-98.103361" />
      <trkpt lat="30.042264" lon="-98.103468" />
      <trkpt lat="30.042204" lon="-98.103479" />
      <trkpt lat="30.041916" lon="-98.103529" />
      <trkpt lat="30.041437" lon="-98.10359" />
      <trkpt lat="30.041265" lon="-98.103584" />
      <trkpt lat="30.040951" lon="-98.103574" />
      <trkpt lat="30.040701" lon="-98.103506" />
      <trkpt lat="30.040471" lon="-98.103443" />
      <trkpt lat="30.040034" lon="-98.103304" />
      <trkpt lat="30.039154" lon="-98.103025" />
      <trkpt lat="30.03878" lon="-98.10293" />
      <trkpt lat="30.038705" lon="-98.102911" />
      <trkpt lat="30.038461" lon="-98.102832" />
      <trkpt lat="30.038234" lon="-98.102758" />
      <trkpt lat="30.037837" lon="-98.102644" />
      <trkpt lat="30.037487" lon="-98.102537" />
      <trkpt lat="30.03691" lon="-98.102368" />
      <trkpt lat="30.03687" lon="-98.102354" />
      <trkpt lat="30.036283" lon="-98.10214" />
      <trkpt lat="30.036065" lon="-98.102024" />
      <trkpt lat="30.035831" lon="-98.101899" />
      <trkpt lat="30.035736" lon="-98.101849" />
      <trkpt lat="30.035604" lon="-98.101781" />
      <trkpt lat="30.03535" lon="-98.101638" />
      <trkpt lat="30.035214" lon="-98.101555" />
      <trkpt lat="30.034997" lon="-98.101436" />
      <trkpt lat="30.034986" lon="-98.10143" />
      <trkpt lat="30.034668" lon="-98.101291" />
      <trkpt lat="30.034559" lon="-98.101257" />
      <trkpt lat="30.034384" lon="-98.101235" />
      <trkpt lat="30.034131" lon="-98.101241" />
      <trkpt lat="30.03348" lon="-98.101357" />
      <trkpt lat="30.033154" lon="-98.101397" />
      <trkpt lat="30.032703" lon="-98.101428" />
      <trkpt lat="30.032424" lon="-98.101424" />
      <trkpt lat="30.03197" lon="-98.101412" />
      <trkpt lat="30.031071" lon="-98.101396" />
      <trkpt lat="30.030426" lon="-98.101384" />
      <trkpt lat="30.030373" lon="-98.101383" />
      <trkpt lat="30.028629" lon="-98.101352" />
      <trkpt lat="30.027731" lon="-98.101369" />
      <trkpt lat="30.027224" lon="-98.101381" />
      <trkpt lat="30.027138" lon="-98.101381" />
      <trkpt lat="30.026208" lon="-98.101417" />
      <trkpt lat="30.025919" lon="-98.101416" />
      <trkpt lat="30.025518" lon="-98.101414" />
      <trkpt lat="30.024918" lon="-98.101445" />
      <trkpt lat="30.024478" lon="-98.101469" />
      <trkpt lat="30.024028" lon="-98.101531" />
      <trkpt lat="30.023936" lon="-98.101552" />
      <trkpt lat="30.023751" lon="-98.101586" />
      <trkpt lat="30.023281" lon="-98.101676" />
      <trkpt lat="30.022841" lon="-98.101771" />
      <trkpt lat="30.021699" lon="-98.102041" />
      <trkpt lat="30.021576" lon="-98.102069" />
      <trkpt lat="30.021389" lon="-98.102111" />
      <trkpt lat="30.021123" lon="-98.102173" />
      <trkpt lat="30.020431" lon="-98.102332" />
      <trkpt lat="30.019529" lon="-98.102539" />
      <trkpt lat="30.019017" lon="-98.102661" />
      <trkpt lat="30.018694" lon="-98.102731" />
      <trkpt lat="30.018561" lon="-98.102765" />
      <trkpt lat="30.018208" lon="-98.102846" />
      <trkpt lat="30.017252" lon="-98.103073" />
      <trkpt lat="30.017115" lon="-98.103099" />
      <trkpt lat="30.016496" lon="-98.103228" />
      <trkpt lat="30.016022" lon="-98.103327" />
      <trkpt lat="30.015164" lon="-98.103511" />
      <trkpt lat="30.01447" lon="-98.103652" />
      <trkpt lat="30.013921" lon="-98.103775" />
      <trkpt lat="30.013417" lon="-98.103882" />
      <trkpt lat="30.013177" lon="-98.10395" />
      <trkpt lat="30.01274" lon="-98.10403" />
      <trkpt lat="30.012171" lon="-98.104137" />
      <trkpt lat="30.011931" lon="-98.104184" />
      <trkpt lat="30.011563" lon="-98.10424" />
      <trkpt lat="30.011282" lon="-98.104234" />
      <trkpt lat="30.011067" lon="-98.104207" />
      <trkpt lat="30.010672" lon="-98.104128" />
      <trkpt lat="30.009992" lon="-98.103831" />
      <trkpt lat="30.009981" lon="-98.103826" />
      <trkpt lat="30.009624" lon="-98.103684" />
      <trkpt lat="30.009195" lon="-98.103513" />
      <trkpt lat="30.009063" lon="-98.103453" />
      <trkpt lat="30.008991" lon="-98.103421" />
      <trkpt lat="30.00858" lon="-98.103253" />
      <trkpt lat="30.008045" lon="-98.103086" />
      <trkpt lat="30.007524" lon="-98.102958" />
      <trkpt lat="30.006882" lon="-98.1028" />
      <trkpt lat="30.006541" lon="-98.102717" />
      <trkpt lat="30.006166" lon="-98.102634" />
      <trkpt lat="30.006081" lon="-98.102615" />
      <trkpt lat="30.005851" lon="-98.102572" />
      <trkpt lat="30.00561" lon="-98.10254" />
      <trkpt lat="30.005494" lon="-98.102529" />
      <trkpt lat="30.005059" lon="-98.102508" />
      <trkpt lat="30.004915" lon="-98.102504" />
      <trkpt lat="30.004796" lon="-98.102495" />
      <trkpt lat="30.004576" lon="-98.102476" />
      <trkpt lat="30.004354" lon="-98.102445" />
      <trkpt lat="30.004241" lon="-98.102429" />
      <trkpt lat="30.003852" lon="-98.102334" />
      <trkpt lat="30.003806" lon="-98.102323" />
      <trkpt lat="30.003636" lon="-98.102269" />
      <trkpt lat="30.00342" lon="-98.102212" />
      <trkpt lat="30.003208" lon="-98.102157" />
      <trkpt lat="30.003077" lon="-98.10212" />
      <trkpt lat="30.002923" lon="-98.102076" />
      <trkpt lat="30.002743" lon="-98.102021" />
      <trkpt lat="30.002671" lon="-98.101999" />
      <trkpt lat="30.002443" lon="-98.10194" />
      <trkpt lat="30.00225" lon="-98.10189" />
      <trkpt lat="30.001994" lon="-98.101833" />
      <trkpt lat="30.001749" lon="-98.101777" />
      <trkpt lat="30.001549" lon="-98.101741" />
      <trkpt lat="30.001402" lon="-98.10171" />
      <trkpt lat="30.00109" lon="-98.101655" />
      <trkpt lat="30.000546" lon="-98.101561" />
      <trkpt lat="30.000492" lon="-98.101557" />
      <trkpt lat="30.000415" lon="-98.101544" />
      <trkpt lat="30.000115" lon="-98.101489" />
      <trkpt lat="29.999913" lon="-98.101452" />
      <trkpt lat="29.999831" lon="-98.101437" />
      <trkpt lat="29.99972" lon="-98.101392" />
      <trkpt lat="29.999583" lon="-98.101337" />
      <trkpt lat="29.999513" lon="-98.101303" />
      <trkpt lat="29.999354" lon="-98.101224" />
      <trkpt lat="29.999211" lon="-98.101107" />
      <trkpt lat="29.999158" lon="-98.101064" />
      <trkpt lat="29.999115" lon="-98.101026" />
      <trkpt lat="29.999047" lon="-98.100965" />
      <trkpt lat="29.998801" lon="-98.100654" />
      <trkpt lat="29.998675" lon="-98.100497" />
      <trkpt lat="29.998589" lon="-98.100386" />
      <trkpt lat="29.99854" lon="-98.100324" />
      <trkpt lat="29.998334" lon="-98.100042" />
      <trkpt lat="29.998321" lon="-98.100024" />
      <trkpt lat="29.998257" lon="-98.099931" />
      <trkpt lat="29.997843" lon="-98.099262" />
      <trkpt lat="29.997787" lon="-98.099172" />
      <trkpt lat="29.99771" lon="-98.099039" />
      <trkpt lat="29.997632" lon="-98.098921" />
      <trkpt lat="29.99759" lon="-98.098854" />
      <trkpt lat="29.997456" lon="-98.098636" />
      <trkpt lat="29.997356" lon="-98.098475" />
      <trkpt lat="29.997239" lon="-98.098286" />
      <trkpt lat="29.997062" lon="-98.098" />
      <trkpt lat="29.996934" lon="-98.097771" />
      <trkpt lat="29.996649" lon="-98.097242" />
      <trkpt lat="29.99658" lon="-98.097123" />
      <trkpt lat="29.996546" lon="-98.097064" />
      <trkpt lat="29.996438" lon="-98.096925" />
      <trkpt lat="29.996309" lon="-98.096757" />
      <trkpt lat="29.996279" lon="-98.096677" />
      <trkpt lat="29.996274" lon="-98.096602" />
      <trkpt lat="29.996276" lon="-98.096586" />
      <trkpt lat="29.996286" lon="-98.096509" />
      <trkpt lat="29.996328" lon="-98.096351" />
      <trkpt lat="29.996379" lon="-98.096205" />
      <trkpt lat="29.99635" lon="-98.095998" />
      <trkpt lat="29.996165" lon="-98.09542" />
      <trkpt lat="29.996124" lon="-98.095293" />
      <trkpt lat="29.996062" lon="-98.095098" />
      <trkpt lat="29.996" lon="-98.094906" />
      <trkpt lat="29.995877" lon="-98.094517" />
      <trkpt lat="29.995864" lon="-98.094476" />
      <trkpt lat="29.995771" lon="-98.094185" />
      <trkpt lat="29.995765" lon="-98.094167" />
      <trkpt lat="29.995719" lon="-98.094031" />
      <trkpt lat="29.99558" lon="-98.093625" />
      <trkpt lat="29.995417" lon="-98.093107" />
      <trkpt lat="29.995336" lon="-98.09287" />
      <trkpt lat="29.995161" lon="-98.09232" />
      <trkpt lat="29.995105" lon="-98.09214" />
      <trkpt lat="29.995014" lon="-98.091813" />
      <trkpt lat="29.994843" lon="-98.091282" />
      <trkpt lat="29.994721" lon="-98.090901" />
      <trkpt lat="29.994694" lon="-98.090814" />
      <trkpt lat="29.994594" lon="-98.090498" />
      <trkpt lat="29.994582" lon="-98.090459" />
      <trkpt lat="29.994516" lon="-98.090256" />
      <trkpt lat="29.994489" lon="-98.090172" />
      <trkpt lat="29.994454" lon="-98.090064" />
      <trkpt lat="29.994436" lon="-98.090009" />
      <trkpt lat="29.994405" lon="-98.089924" />
      <trkpt lat="29.994392" lon="-98.089892" />
      <trkpt lat="29.99426" lon="-98.089577" />
      <trkpt lat="29.994164" lon="-98.089392" />
      <trkpt lat="29.99405" lon="-98.089217" />
      <trkpt lat="29.993921" lon="-98.089047" />
      <trkpt lat="29.993796" lon="-98.088901" />
      <trkpt lat="29.993588" lon="-98.088656" />
      <trkpt lat="29.993353" lon="-98.08844" />
      <trkpt lat="29.992972" lon="-98.088174" />
      <trkpt lat="29.992781" lon="-98.088048" />
      <trkpt lat="29.992366" lon="-98.087895" />
      <trkpt lat="29.992175" lon="-98.087841" />
      <trkpt lat="29.991901" lon="-98.0878" />
      <trkpt lat="29.991568" lon="-98.087784" />
      <trkpt lat="29.991116" lon="-98.087825" />
      <trkpt lat="29.990776" lon="-98.087854" />
      <trkpt lat="29.990665" lon="-98.08788" />
      <trkpt lat="29.989881" lon="-98.088099" />
      <trkpt lat="29.989134" lon="-98.088312" />
      <trkpt lat="29.988319" lon="-98.088528" />
      <trkpt lat="29.98713" lon="-98.088879" />
      <trkpt lat="29.986675" lon="-98.089047" />
      <trkpt lat="29.986242" lon="-98.089268" />
      <trkpt lat="29.985927" lon="-98.089474" />
      <trkpt lat="29.985824" lon="-98.089565" />
      <trkpt lat="29.985724" lon="-98.089654" />
      <trkpt lat="29.985438" lon="-98.089909" />
      <trkpt lat="29.985371" lon="-98.089985" />
      <trkpt lat="29.984644" lon="-98.09081" />
      <trkpt lat="29.984458" lon="-98.091011" />
      <trkpt lat="29.984225" lon="-98.091277" />
      <trkpt lat="29.983634" lon="-98.091951" />
      <trkpt lat="29.98333" lon="-98.092299" />
      <trkpt lat="29.983012" lon="-98.092633" />
      <trkpt lat="29.982643" lon="-98.092984" />
      <trkpt lat="29.982265" lon="-98.093259" />
      <trkpt lat="29.982041" lon="-98.093384" />
      <trkpt lat="29.981772" lon="-98.093533" />
      <trkpt lat="29.981342" lon="-98.093724" />
      <trkpt lat="29.980875" lon="-98.093854" />
      <trkpt lat="29.980433" lon="-98.093908" />
      <trkpt lat="29.979985" lon="-98.093923" />
      <trkpt lat="29.979382" lon="-98.093854" />
      <trkpt lat="29.979304" lon="-98.093822" />
      <trkpt lat="29.979091" lon="-98.093783" />
      <trkpt lat="29.978847" lon="-98.093724" />
      <trkpt lat="29.978702" lon="-98.093688" />
      <trkpt lat="29.978296" lon="-98.093586" />
      <trkpt lat="29.978123" lon="-98.093543" />
      <trkpt lat="29.977773" lon="-98.093455" />
      <trkpt lat="29.977173" lon="-98.093312" />
      <trkpt lat="29.975785" lon="-98.092971" />
      <trkpt lat="29.975429" lon="-98.092892" />
      <trkpt lat="29.974568" lon="-98.092771" />
      <trkpt lat="29.974312" lon="-98.092755" />
      <trkpt lat="29.973822" lon="-98.092749" />
      <trkpt lat="29.973652" lon="-98.092747" />
      <trkpt lat="29.972394" lon="-98.092788" />
      <trkpt lat="29.972002" lon="-98.092801" />
      <trkpt lat="29.971316" lon="-98.092773" />
      <trkpt lat="29.970448" lon="-98.092732" />
      <trkpt lat="29.970283" lon="-98.0927" />
      <trkpt lat="29.969947" lon="-98.092633" />
      <trkpt lat="29.96944" lon="-98.092504" />
      <trkpt lat="29.968966" lon="-98.092389" />
      <trkpt lat="29.966406" lon="-98.091741" />
      <trkpt lat="29.966343" lon="-98.091725" />
      <trkpt lat="29.966303" lon="-98.091715" />
      <trkpt lat="29.966162" lon="-98.091679" />
      <trkpt lat="29.965702" lon="-98.091588" />
      <trkpt lat="29.965639" lon="-98.091586" />
      <trkpt lat="29.965416" lon="-98.09158" />
      <trkpt lat="29.965012" lon="-98.091628" />
      <trkpt lat="29.964707" lon="-98.091692" />
      <trkpt lat="29.964036" lon="-98.09197" />
      <trkpt lat="29.963568" lon="-98.092329" />
      <trkpt lat="29.963355" lon="-98.092506" />
      <trkpt lat="29.963169" lon="-98.09266" />
      <trkpt lat="29.962723" lon="-98.093045" />
      <trkpt lat="29.962277" lon="-98.093382" />
      <trkpt lat="29.961709" lon="-98.093903" />
      <trkpt lat="29.961668" lon="-98.09394" />
      <trkpt lat="29.96117" lon="-98.09435" />
      <trkpt lat="29.960941" lon="-98.094525" />
      <trkpt lat="29.960781" lon="-98.094647" />
      <trkpt lat="29.960562" lon="-98.0948" />
      <trkpt lat="29.960318" lon="-98.094934" />
      <trkpt lat="29.960198" lon="-98.095" />
      <trkpt lat="29.959892" lon="-98.095171" />
      <trkpt lat="29.95968" lon="-98.095231" />
      <trkpt lat="29.95933" lon="-98.095288" />
      <trkpt lat="29.95899" lon="-98.095296" />
      <trkpt lat="29.958734" lon="-98.095269" />
      <trkpt lat="29.958205" lon="-98.095151" />
      <trkpt lat="29.958106" lon="-98.095143" />
      <trkpt lat="29.957778" lon="-98.095006" />
      <trkpt lat="29.957625" lon="-98.094937" />
      <trkpt lat="29.957273" lon="-98.094777" />
      <trkpt lat="29.956692" lon="-98.094563" />
      <trkpt lat="29.956408" lon="-98.094487" />
      <trkpt lat="29.955849" lon="-98.094418" />
      <trkpt lat="29.955548" lon="-98.09443" />
      <trkpt lat="29.955266" lon="-98.094441" />
      <trkpt lat="29.95495" lon="-98.094487" />
      <trkpt lat="29.95436" lon="-98.094548" />
      <trkpt lat="29.953961" lon="-98.094555" />
      <trkpt lat="29.953657" lon="-98.094517" />
      <trkpt lat="29.953347" lon="-98.094479" />
      <trkpt lat="29.953099" lon="-98.094418" />
      <trkpt lat="29.952826" lon="-98.094324" />
      <trkpt lat="29.952702" lon="-98.094281" />
      <trkpt lat="29.952116" lon="-98.09406" />
      <trkpt lat="29.951062" lon="-98.093663" />
      <trkpt lat="29.950712" lon="-98.093548" />
      <trkpt lat="29.95047" lon="-98.093519" />
      <trkpt lat="29.950214" lon="-98.093487" />
      <trkpt lat="29.949878" lon="-98.093464" />
      <trkpt lat="29.949435" lon="-98.093539" />
      <trkpt lat="29.949032" lon="-98.09357" />
      <trkpt lat="29.948789" lon="-98.093618" />
      <trkpt lat="29.948299" lon="-98.093623" />
      <trkpt lat="29.947801" lon="-98.093606" />
      <trkpt lat="29.947555" lon="-98.093577" />
      <trkpt lat="29.947069" lon="-98.093473" />
      <trkpt lat="29.946596" lon="-98.093329" />
      <trkpt lat="29.946515" lon="-98.093307" />
      <trkpt lat="29.946415" lon="-98.093281" />
      <trkpt lat="29.944886" lon="-98.092887" />
      <trkpt lat="29.944081" lon="-98.09268" />
      <trkpt lat="29.943597" lon="-98.092552" />
      <trkpt lat="29.943067" lon="-98.092345" />
      <trkpt lat="29.942942" lon="-98.092273" />
      <trkpt lat="29.942797" lon="-98.092189" />
      <trkpt lat="29.94247" lon="-98.091964" />
      <trkpt lat="29.942307" lon="-98.09224" />
      <trkpt lat="29.942219" lon="-98.092383" />
      <trkpt lat="29.942148" lon="-98.0925" />
      <trkpt lat="29.942016" lon="-98.09272" />
      <trkpt lat="29.941878" lon="-98.092977" />
      <trkpt lat="29.941726" lon="-98.09337" />
      <trkpt lat="29.941666" lon="-98.093543" />
      <trkpt lat="29.941611" lon="-98.093701" />
      <trkpt lat="29.941577" lon="-98.093957" />
      <trkpt lat="29.941574" lon="-98.094387" />
      <trkpt lat="29.94162" lon="-98.094648" />
      <trkpt lat="29.941674" lon="-98.094951" />
      <trkpt lat="29.941702" lon="-98.095417" />
      <trkpt lat="29.941742" lon="-98.095982" />
      <trkpt lat="29.941759" lon="-98.096531" />
      <trkpt lat="29.941755" lon="-98.096885" />
      <trkpt lat="29.941749" lon="-98.097112" />
      <trkpt lat="29.941701" lon="-98.097729" />
      <trkpt lat="29.941657" lon="-98.09808" />
      <trkpt lat="29.941508" lon="-98.098813" />
      <trkpt lat="29.941487" lon="-98.098896" />
      <trkpt lat="29.941374" lon="-98.099354" />
      <trkpt lat="29.941196" lon="-98.09995" />
      <trkpt lat="29.941157" lon="-98.100093" />
      <trkpt lat="29.940844" lon="-98.101226" />
      <trkpt lat="29.94074" lon="-98.101604" />
      <trkpt lat="29.940718" lon="-98.101682" />
      <trkpt lat="29.940692" lon="-98.10179" />
      <trkpt lat="29.94045" lon="-98.102592" />
      <trkpt lat="29.940433" lon="-98.10265" />
      <trkpt lat="29.940106" lon="-98.103803" />
      <trkpt lat="29.940044" lon="-98.104032" />
      <trkpt lat="29.94003" lon="-98.104085" />
      <trkpt lat="29.939942" lon="-98.104406" />
      <trkpt lat="29.939876" lon="-98.104636" />
      <trkpt lat="29.939641" lon="-98.105455" />
      <trkpt lat="29.93952" lon="-98.105878" />
      <trkpt lat="29.939403" lon="-98.106302" />
      <trkpt lat="29.93928" lon="-98.106748" />
      <trkpt lat="29.939182" lon="-98.107102" />
      <trkpt lat="29.939156" lon="-98.107196" />
      <trkpt lat="29.938738" lon="-98.108708" />
      <trkpt lat="29.938588" lon="-98.10925" />
      <trkpt lat="29.938132" lon="-98.110894" />
      <trkpt lat="29.937954" lon="-98.111537" />
      <trkpt lat="29.93786" lon="-98.111875" />
      <trkpt lat="29.93781" lon="-98.11206" />
      <trkpt lat="29.937696" lon="-98.112477" />
      <trkpt lat="29.937597" lon="-98.112805" />
      <trkpt lat="29.937455" lon="-98.1133" />
      <trkpt lat="29.937422" lon="-98.113416" />
      <trkpt lat="29.93737" lon="-98.113609" />
      <trkpt lat="29.937245" lon="-98.114072" />
      <trkpt lat="29.937222" lon="-98.114148" />
      <trkpt lat="29.93714" lon="-98.114415" />
      <trkpt lat="29.936786" lon="-98.115695" />
      <trkpt lat="29.936432" lon="-98.116976" />
      <trkpt lat="29.936125" lon="-98.118085" />
      <trkpt lat="29.936045" lon="-98.118505" />
      <trkpt lat="29.935808" lon="-98.119214" />
      <trkpt lat="29.935603" lon="-98.119943" />
      <trkpt lat="29.935552" lon="-98.120122" />
      <trkpt lat="29.935219" lon="-98.121343" />
      <trkpt lat="29.935053" lon="-98.121938" />
      <trkpt lat="29.934561" lon="-98.123663" />
      <trkpt lat="29.934555" lon="-98.123684" />
      <trkpt lat="29.934458" lon="-98.124005" />
      <trkpt lat="29.934286" lon="-98.124608" />
      <trkpt lat="29.934241" lon="-98.124774" />
      <trkpt lat="29.934117" lon="-98.125226" />
      <trkpt lat="29.934007" lon="-98.125669" />
      <trkpt lat="29.933936" lon="-98.126009" />
      <trkpt lat="29.933874" lon="-98.126302" />
      <trkpt lat="29.933771" lon="-98.126816" />
      <trkpt lat="29.933749" lon="-98.126928" />
      <trkpt lat="29.933726" lon="-98.127057" />
      <trkpt lat="29.933632" lon="-98.127576" />
      <trkpt lat="29.933611" lon="-98.127759" />
      <trkpt lat="29.933523" lon="-98.128538" />
      <trkpt lat="29.933472" lon="-98.129255" />
      <trkpt lat="29.933446" lon="-98.129926" />
      <trkpt lat="29.933437" lon="-98.130117" />
      <trkpt lat="29.933436" lon="-98.130834" />
      <trkpt lat="29.93344" lon="-98.131022" />
      <trkpt lat="29.933464" lon="-98.132261" />
      <trkpt lat="29.93347" lon="-98.132471" />
      <trkpt lat="29.933504" lon="-98.133664" />
      <trkpt lat="29.9335" lon="-98.133819" />
      <trkpt lat="29.933506" lon="-98.134001" />
      <trkpt lat="29.93352" lon="-98.134453" />
      <trkpt lat="29.933524" lon="-98.134588" />
      <trkpt lat="29.933536" lon="-98.134979" />
      <trkpt lat="29.933548" lon="-98.135351" />
      <trkpt lat="29.933568" lon="-98.136144" />
      <trkpt lat="29.933592" lon="-98.137075" />
      <trkpt lat="29.933617" lon="-98.137934" />
      <trkpt lat="29.933628" lon="-98.138283" />
      <trkpt lat="29.933641" lon="-98.138731" />
      <trkpt lat="29.933654" lon="-98.139333" />
      <trkpt lat="29.933668" lon="-98.139982" />
      <trkpt lat="29.933693" lon="-98.140778" />
      <trkpt lat="29.933702" lon="-98.141058" />
      <trkpt lat="29.933722" lon="-98.141995" />
      <trkpt lat="29.933726" lon="-98.142187" />
      <trkpt lat="29.933766" lon="-98.143189" />
      <trkpt lat="29.933772" lon="-98.143339" />
      <trkpt lat="29.933814" lon="-98.143957" />
      <trkpt lat="29.933837" lon="-98.144163" />
      <trkpt lat="29.933848" lon="-98.144263" />
      <trkpt lat="29.933852" lon="-98.144301" />
      <trkpt lat="29.933967" lon="-98.145256" />
      <trkpt lat="29.934003" lon="-98.145557" />
      <trkpt lat="29.934009" lon="-98.145605" />
      <trkpt lat="29.934057" lon="-98.145947" />
      <trkpt lat="29.934144" lon="-98.14656" />
      <trkpt lat="29.934159" lon="-98.146665" />
      <trkpt lat="29.934234" lon="-98.147238" />
      <trkpt lat="29.934266" lon="-98.147535" />
      <trkpt lat="29.934292" lon="-98.147732" />
      <trkpt lat="29.934331" lon="-98.148029" />
      <trkpt lat="29.934341" lon="-98.148107" />
      <trkpt lat="29.934409" lon="-98.148764" />
      <trkpt lat="29.934416" lon="-98.148848" />
      <trkpt lat="29.934441" lon="-98.149137" />
      <trkpt lat="29.934462" lon="-98.149718" />
      <trkpt lat="29.93444" lon="-98.150236" />
      <trkpt lat="29.934407" lon="-98.150671" />
      <trkpt lat="29.934378" lon="-98.150946" />
      <trkpt lat="29.934371" lon="-98.151007" />
      <trkpt lat="29.934348" lon="-98.151281" />
      <trkpt lat="29.934318" lon="-98.151587" />
      <trkpt lat="29.934267" lon="-98.152182" />
      <trkpt lat="29.93422" lon="-98.152719" />
      <trkpt lat="29.934117" lon="-98.153587" />
      <trkpt lat="29.934106" lon="-98.153681" />
      <trkpt lat="29.933895" lon="-98.154766" />
      <trkpt lat="29.93366" lon="-98.155882" />
      <trkpt lat="29.933566" lon="-98.15638" />
      <trkpt lat="29.933503" lon="-98.157055" />
      <trkpt lat="29.933497" lon="-98.157413" />
      <trkpt lat="29.933546" lon="-98.158094" />
      <trkpt lat="29.933588" lon="-98.158427" />
      <trkpt lat="29.93365" lon="-98.158792" />
      <trkpt lat="29.933668" lon="-98.158876" />
      <trkpt lat="29.93381" lon="-98.159549" />
      <trkpt lat="29.933849" lon="-98.15985" />
      <trkpt lat="29.933857" lon="-98.160169" />
      <trkpt lat="29.933839" lon="-98.160458" />
      <trkpt lat="29.933795" lon="-98.160731" />
      <trkpt lat="29.933746" lon="-98.160957" />
      <trkpt lat="29.933647" lon="-98.161245" />
      <trkpt lat="29.933504" lon="-98.161688" />
      <trkpt lat="29.933451" lon="-98.161851" />
      <trkpt lat="29.933364" lon="-98.162157" />
      <trkpt lat="29.933335" lon="-98.162352" />
      <trkpt lat="29.933318" lon="-98.162577" />
      <trkpt lat="29.933303" lon="-98.162896" />
      <trkpt lat="29.933289" lon="-98.163404" />
      <trkpt lat="29.933275" lon="-98.163629" />
      <trkpt lat="29.933232" lon="-98.163909" />
      <trkpt lat="29.933173" lon="-98.164142" />
      <trkpt lat="29.933098" lon="-98.164366" />
      <trkpt lat="29.932932" lon="-98.164751" />
      <trkpt lat="29.93286" lon="-98.164958" />
      <trkpt lat="29.932777" lon="-98.165194" />
      <trkpt lat="29.932699" lon="-98.165519" />
      <trkpt lat="29.932666" lon="-98.165808" />
      <trkpt lat="29.932651" lon="-98.166014" />
      <trkpt lat="29.932682" lon="-98.166419" />
      <trkpt lat="29.932712" lon="-98.166635" />
      <trkpt lat="29.932768" lon="-98.166946" />
      <trkpt lat="29.932802" lon="-98.167137" />
      <trkpt lat="29.932841" lon="-98.167421" />
      <trkpt lat="29.93285" lon="-98.167682" />
      <trkpt lat="29.93283" lon="-98.16792" />
      <trkpt lat="29.932787" lon="-98.168163" />
      <trkpt lat="29.93275" lon="-98.168312" />
      <trkpt lat="29.932669" lon="-98.168529" />
      <trkpt lat="29.932594" lon="-98.168669" />
      <trkpt lat="29.932204" lon="-98.169252" />
      <trkpt lat="29.931937" lon="-98.169662" />
      <trkpt lat="29.931775" lon="-98.170125" />
      <trkpt lat="29.93172" lon="-98.170384" />
      <trkpt lat="29.931676" lon="-98.170663" />
      <trkpt lat="29.931643" lon="-98.170978" />
      <trkpt lat="29.931619" lon="-98.171207" />
      <trkpt lat="29.931585" lon="-98.171479" />
      <trkpt lat="29.93154" lon="-98.171753" />
      <trkpt lat="29.931509" lon="-98.171891" />
      <trkpt lat="29.931488" lon="-98.171984" />
      <trkpt lat="29.931414" lon="-98.172212" />
      <trkpt lat="29.930665" lon="-98.174115" />
      <trkpt lat="29.930592" lon="-98.174383" />
      <trkpt lat="29.930558" lon="-98.174554" />
      <trkpt lat="29.930526" lon="-98.17479" />
      <trkpt lat="29.930521" lon="-98.175004" />
      <trkpt lat="29.930526" lon="-98.175238" />
      <trkpt lat="29.930552" lon="-98.17545" />
      <trkpt lat="29.930608" lon="-98.175783" />
      <trkpt lat="29.930683" lon="-98.176087" />
      <trkpt lat="29.930936" lon="-98.176878" />
      <trkpt lat="29.931115" lon="-98.177728" />
      <trkpt lat="29.931155" lon="-98.177944" />
      <trkpt lat="29.931213" lon="-98.178417" />
      <trkpt lat="29.931246" lon="-98.178844" />
      <trkpt lat="29.931266" lon="-98.179379" />
      <trkpt lat="29.931262" lon="-98.179757" />
      <trkpt lat="29.931239" lon="-98.180227" />
      <trkpt lat="29.931182" lon="-98.180821" />
      <trkpt lat="29.931119" lon="-98.181267" />
      <trkpt lat="29.930928" lon="-98.18227" />
      <trkpt lat="29.93062" lon="-98.183876" />
      <trkpt lat="29.930577" lon="-98.184143" />
      <trkpt lat="29.930518" lon="-98.184635" />
      <trkpt lat="29.930494" lon="-98.184971" />
      <trkpt lat="29.930475" lon="-98.185576" />
      <trkpt lat="29.930485" lon="-98.18597" />
      <trkpt lat="29.930492" lon="-98.186084" />
      <trkpt lat="29.930519" lon="-98.186509" />
      <trkpt lat="29.930576" lon="-98.187003" />
      <trkpt lat="29.930644" lon="-98.18744" />
      <trkpt lat="29.930711" lon="-98.187762" />
      <trkpt lat="29.930741" lon="-98.187908" />
      <trkpt lat="29.930827" lon="-98.188242" />
      <trkpt lat="29.930939" lon="-98.188627" />
      <trkpt lat="29.931084" lon="-98.189062" />
      <trkpt lat="29.931108" lon="-98.189113" />
      <trkpt lat="29.931194" lon="-98.189344" />
      <trkpt lat="29.931347" lon="-98.189697" />
      <trkpt lat="29.931439" lon="-98.189899" />
      <trkpt lat="29.931519" lon="-98.190074" />
      <trkpt lat="29.931551" lon="-98.190137" />
      <trkpt lat="29.931667" lon="-98.190361" />
      <trkpt lat="29.93184" lon="-98.190649" />
      <trkpt lat="29.932065" lon="-98.191042" />
      <trkpt lat="29.932299" lon="-98.191416" />
      <trkpt lat="29.932466" lon="-98.191682" />
      <trkpt lat="29.932756" lon="-98.192161" />
      <trkpt lat="29.933017" lon="-98.192509" />
      <trkpt lat="29.933781" lon="-98.19385" />
      <trkpt lat="29.934278" lon="-98.194782" />
      <trkpt lat="29.934732" lon="-98.195927" />
      <trkpt lat="29.93513" lon="-98.197279" />
      <trkpt lat="29.93526" lon="-98.197714" />
      <trkpt lat="29.936123" lon="-98.200503" />
      <trkpt lat="29.93613" lon="-98.200525" />
      <trkpt lat="29.936315" lon="-98.201084" />
      <trkpt lat="29.936492" lon="-98.201515" />
      <trkpt lat="29.936631" lon="-98.201818" />
      <trkpt lat="29.93674" lon="-98.202054" />
      <trkpt lat="29.936972" lon="-98.202488" />
      <trkpt lat="29.937184" lon="-98.202846" />
      <trkpt lat="29.93743" lon="-98.203217" />
      <trkpt lat="29.937746" lon="-98.20364" />
      <trkpt lat="29.937914" lon="-98.203858" />
      <trkpt lat="29.938297" lon="-98.204354" />
      <trkpt lat="29.938713" lon="-98.2049" />
      <trkpt lat="29.939635" lon="-98.206111" />
      <trkpt lat="29.939688" lon="-98.20618" />
      <trkpt lat="29.94005" lon="-98.206655" />
      <trkpt lat="29.940981" lon="-98.207878" />
      <trkpt lat="29.941063" lon="-98.207985" />
      <trkpt lat="29.941187" lon="-98.208148" />
      <trkpt lat="29.941421" lon="-98.208475" />
      <trkpt lat="29.941613" lon="-98.208744" />
      <trkpt lat="29.942599" lon="-98.210037" />
      <trkpt lat="29.943883" lon="-98.211721" />
      <trkpt lat="29.943934" lon="-98.211788" />
      <trkpt lat="29.944564" lon="-98.212614" />
      <trkpt lat="29.944979" lon="-98.213159" />
      <trkpt lat="29.945183" lon="-98.21342" />
      <trkpt lat="29.945491" lon="-98.213847" />
      <trkpt lat="29.945551" lon="-98.213931" />
      <trkpt lat="29.94568" lon="-98.214133" />
      <trkpt lat="29.945803" lon="-98.214308" />
      <trkpt lat="29.946292" lon="-98.215079" />
      <trkpt lat="29.946756" lon="-98.215934" />
      <trkpt lat="29.946843" lon="-98.216104" />
      <trkpt lat="29.947768" lon="-98.21791" />
      <trkpt lat="29.948042" lon="-98.218408" />
      <trkpt lat="29.948222" lon="-98.218741" />
      <trkpt lat="29.948515" lon="-98.219284" />
      <trkpt lat="29.949047" lon="-98.220282" />
      <trkpt lat="29.950699" lon="-98.223406" />
      <trkpt lat="29.950986" lon="-98.223957" />
      <trkpt lat="29.951108" lon="-98.224192" />
      <trkpt lat="29.951648" lon="-98.225191" />
      <trkpt lat="29.951879" lon="-98.225612" />
      <trkpt lat="29.952158" lon="-98.226041" />
      <trkpt lat="29.952389" lon="-98.22635" />
      <trkpt lat="29.952488" lon="-98.226473" />
      <trkpt lat="29.952767" lon="-98.226781" />
      <trkpt lat="29.953001" lon="-98.227019" />
      <trkpt lat="29.95314" lon="-98.227144" />
      <trkpt lat="29.953394" lon="-98.227364" />
      <trkpt lat="29.953537" lon="-98.227481" />
      <trkpt lat="29.953886" lon="-98.227723" />
      <trkpt lat="29.954063" lon="-98.227838" />
      <trkpt lat="29.954466" lon="-98.228064" />
      <trkpt lat="29.954878" lon="-98.22825" />
      <trkpt lat="29.955108" lon="-98.228343" />
      <trkpt lat="29.956555" lon="-98.228898" />
      <trkpt lat="29.956657" lon="-98.228937" />
      <trkpt lat="29.956763" lon="-98.228976" />
      <trkpt lat="29.957177" lon="-98.22913" />
      <trkpt lat="29.958377" lon="-98.229587" />
      <trkpt lat="29.95986" lon="-98.230152" />
      <trkpt lat="29.96001" lon="-98.230207" />
      <trkpt lat="29.960062" lon="-98.230226" />
      <trkpt lat="29.960249" lon="-98.230294" />
      <trkpt lat="29.962288" lon="-98.23108" />
      <trkpt lat="29.963411" lon="-98.231512" />
      <trkpt lat="29.964506" lon="-98.231934" />
      <trkpt lat="29.964934" lon="-98.232131" />
      <trkpt lat="29.965003" lon="-98.232171" />
      <trkpt lat="29.965372" lon="-98.232383" />
      <trkpt lat="29.965763" lon="-98.232627" />
      <trkpt lat="29.966391" lon="-98.23302" />
      <trkpt lat="29.966774" lon="-98.233259" />
      <trkpt lat="29.967082" lon="-98.233461" />
      <trkpt lat="29.967679" lon="-98.233853" />
      <trkpt lat="29.968147" lon="-98.234206" />
      <trkpt lat="29.968414" lon="-98.234466" />
      <trkpt lat="29.968513" lon="-98.234574" />
      <trkpt lat="29.968883" lon="-98.235005" />
      <trkpt lat="29.969068" lon="-98.235249" />
      <trkpt lat="29.969325" lon="-98.235679" />
      <trkpt lat="29.969601" lon="-98.236236" />
      <trkpt lat="29.969743" lon="-98.236523" />
      <trkpt lat="29.969799" lon="-98.236664" />
      <trkpt lat="29.96993" lon="-98.23708" />
      <trkpt lat="29.969993" lon="-98.237314" />
      <trkpt lat="29.970071" lon="-98.237671" />
      <trkpt lat="29.970132" lon="-98.237916" />
      <trkpt lat="29.970161" lon="-98.23825" />
      <trkpt lat="29.970165" lon="-98.238288" />
      <trkpt lat="29.970188" lon="-98.238526" />
      <trkpt lat="29.970201" lon="-98.238803" />
      <trkpt lat="29.970204" lon="-98.239023" />
      <trkpt lat="29.970201" lon="-98.239223" />
      <trkpt lat="29.970182" lon="-98.239558" />
      <trkpt lat="29.970138" lon="-98.239908" />
      <trkpt lat="29.970112" lon="-98.240103" />
      <trkpt lat="29.970074" lon="-98.240381" />
      <trkpt lat="29.96998" lon="-98.241078" />
      <trkpt lat="29.969967" lon="-98.241174" />
      <trkpt lat="29.969907" lon="-98.241574" />
      <trkpt lat="29.969876" lon="-98.241889" />
      <trkpt lat="29.969851" lon="-98.24214" />
      <trkpt lat="29.969826" lon="-98.242673" />
      <trkpt lat="29.96983" lon="-98.243422" />
      <trkpt lat="29.96984" lon="-98.243578" />
      <trkpt lat="29.969848" lon="-98.243669" />
      <trkpt lat="29.969867" lon="-98.243886" />
      <trkpt lat="29.969956" lon="-98.244565" />
      <trkpt lat="29.970034" lon="-98.244988" />
      <trkpt lat="29.970095" lon="-98.245277" />
      <trkpt lat="29.970112" lon="-98.24534" />
      <trkpt lat="29.970217" lon="-98.245732" />
      <trkpt lat="29.970287" lon="-98.245953" />
      <trkpt lat="29.970362" lon="-98.246239" />
      <trkpt lat="29.970479" lon="-98.246594" />
      <trkpt lat="29.971096" lon="-98.248584" />
      <trkpt lat="29.971139" lon="-98.248723" />
      <trkpt lat="29.971368" lon="-98.249479" />
      <trkpt lat="29.972234" lon="-98.25227" />
      <trkpt lat="29.972421" lon="-98.252906" />
      <trkpt lat="29.972547" lon="-98.253284" />
      <trkpt lat="29.972633" lon="-98.253759" />
      <trkpt lat="29.972677" lon="-98.253998" />
      <trkpt lat="29.972799" lon="-98.254503" />
      <trkpt lat="29.973099" lon="-98.255856" />
      <trkpt lat="29.973363" lon="-98.256969" />
      <trkpt lat="29.973373" lon="-98.257012" />
      <trkpt lat="29.9734" lon="-98.257134" />
      <trkpt lat="29.97344" lon="-98.257313" />
      <trkpt lat="29.973667" lon="-98.258333" />
      <trkpt lat="29.974352" lon="-98.261411" />
      <trkpt lat="29.974558" lon="-98.262265" />
      <trkpt lat="29.974595" lon="-98.262438" />
      <trkpt lat="29.974696" lon="-98.26291" />
      <trkpt lat="29.974744" lon="-98.263131" />
      <trkpt lat="29.974846" lon="-98.263608" />
      <trkpt lat="29.974998" lon="-98.264257" />
      <trkpt lat="29.975068" lon="-98.264557" />
      <trkpt lat="29.97526" lon="-98.265397" />
      <trkpt lat="29.975543" lon="-98.266639" />
      <trkpt lat="29.975715" lon="-98.267417" />
      <trkpt lat="29.97598" lon="-98.268614" />
      <trkpt lat="29.976175" lon="-98.26939" />
      <trkpt lat="29.976596" lon="-98.271274" />
      <trkpt lat="29.976844" lon="-98.272353" />
      <trkpt lat="29.976896" lon="-98.27258" />
      <trkpt lat="29.977066" lon="-98.273352" />
      <trkpt lat="29.977142" lon="-98.273687" />
      <trkpt lat="29.977378" lon="-98.274718" />
      <trkpt lat="29.977589" lon="-98.275437" />
      <trkpt lat="29.977737" lon="-98.275854" />
      <trkpt lat="29.977747" lon="-98.275883" />
      <trkpt lat="29.977833" lon="-98.276088" />
      <trkpt lat="29.978005" lon="-98.276473" />
      <trkpt lat="29.978147" lon="-98.276787" />
      <trkpt lat="29.978179" lon="-98.27684" />
      <trkpt lat="29.978347" lon="-98.277148" />
      <trkpt lat="29.978549" lon="-98.277484" />
      <trkpt lat="29.978613" lon="-98.27758" />
      <trkpt lat="29.978782" lon="-98.277835" />
      <trkpt lat="29.979009" lon="-98.278157" />
      <trkpt lat="29.979075" lon="-98.278249" />
      <trkpt lat="29.979133" lon="-98.278329" />
      <trkpt lat="29.979614" lon="-98.278995" />
      <trkpt lat="29.980019" lon="-98.279574" />
      <trkpt lat="29.980117" lon="-98.27972" />
      <trkpt lat="29.980132" lon="-98.279743" />
      <trkpt lat="29.980235" lon="-98.279914" />
      <trkpt lat="29.980392" lon="-98.28016" />
      <trkpt lat="29.980811" lon="-98.280885" />
      <trkpt lat="29.981087" lon="-98.281397" />
      <trkpt lat="29.981207" lon="-98.281614" />
      <trkpt lat="29.981465" lon="-98.282127" />
      <trkpt lat="29.982315" lon="-98.283804" />
      <trkpt lat="29.98284" lon="-98.284841" />
      <trkpt lat="29.982953" lon="-98.285064" />
      <trkpt lat="29.982975" lon="-98.285107" />
      <trkpt lat="29.98343" lon="-98.286014" />
      <trkpt lat="29.983966" lon="-98.287058" />
      <trkpt lat="29.984164" lon="-98.287456" />
      <trkpt lat="29.984307" lon="-98.287744" />
      <trkpt lat="29.986822" lon="-98.292692" />
      <trkpt lat="29.987355" lon="-98.293738" />
      <trkpt lat="29.988774" lon="-98.296522" />
      <trkpt lat="29.988911" lon="-98.296798" />
      <trkpt lat="29.989149" lon="-98.297275" />
      <trkpt lat="29.990648" lon="-98.300208" />
      <trkpt lat="29.990751" lon="-98.300412" />
      <trkpt lat="29.991132" lon="-98.301167" />
      <trkpt lat="29.991194" lon="-98.301283" />
      <trkpt lat="29.991406" lon="-98.301678" />
      <trkpt lat="29.991696" lon="-98.302168" />
      <trkpt lat="29.991925" lon="-98.302509" />
      <trkpt lat="29.99207" lon="-98.30271" />
      <trkpt lat="29.992167" lon="-98.302845" />
      <trkpt lat="29.992308" lon="-98.303021" />
      <trkpt lat="29.992405" lon="-98.303141" />
      <trkpt lat="29.992592" lon="-98.30335" />
      <trkpt lat="29.992719" lon="-98.303502" />
      <trkpt lat="29.993257" lon="-98.304004" />
      <trkpt lat="29.993844" lon="-98.304492" />
      <trkpt lat="29.993969" lon="-98.304561" />
      <trkpt lat="29.994308" lon="-98.304784" />
      <trkpt lat="29.994841" lon="-98.305137" />
      <trkpt lat="29.994886" lon="-98.305166" />
      <trkpt lat="29.99525" lon="-98.305407" />
      <trkpt lat="29.995435" lon="-98.305529" />
      <trkpt lat="29.995796" lon="-98.305767" />
      <trkpt lat="29.996587" lon="-98.306287" />
      <trkpt lat="29.997684" lon="-98.30701" />
      <trkpt lat="29.997843" lon="-98.307115" />
      <trkpt lat="29.997925" lon="-98.307169" />
      <trkpt lat="29.999318" lon="-98.308098" />
      <trkpt lat="29.999869" lon="-98.308452" />
      <trkpt lat="30.000117" lon="-98.308597" />
      <trkpt lat="30.000726" lon="-98.308992" />
      <trkpt lat="30.000807" lon="-98.309056" />
      <trkpt lat="30.000938" lon="-98.309159" />
      <trkpt lat="30.001063" lon="-98.309251" />
      <trkpt lat="30.00127" lon="-98.309424" />
      <trkpt lat="30.001422" lon="-98.309559" />
      <trkpt lat="30.001844" lon="-98.309981" />
      <trkpt lat="30.002158" lon="-98.310334" />
      <trkpt lat="30.002364" lon="-98.310586" />
      <trkpt lat="30.002575" lon="-98.310864" />
      <trkpt lat="30.002777" lon="-98.311119" />
      <trkpt lat="30.002847" lon="-98.311201" />
      <trkpt lat="30.003339" lon="-98.311866" />
      <trkpt lat="30.003354" lon="-98.311887" />
      <trkpt lat="30.003569" lon="-98.312157" />
      <trkpt lat="30.004166" lon="-98.312958" />
      <trkpt lat="30.004257" lon="-98.313084" />
      <trkpt lat="30.004338" lon="-98.313196" />
      <trkpt lat="30.004625" lon="-98.313594" />
      <trkpt lat="30.006262" lon="-98.31574" />
      <trkpt lat="30.006727" lon="-98.316344" />
      <trkpt lat="30.006859" lon="-98.316517" />
      <trkpt lat="30.008933" lon="-98.319229" />
      <trkpt lat="30.00933" lon="-98.319748" />
      <trkpt lat="30.009673" lon="-98.320197" />
      <trkpt lat="30.010096" lon="-98.320732" />
      <trkpt lat="30.010127" lon="-98.320771" />
      <trkpt lat="30.010431" lon="-98.321133" />
      <trkpt lat="30.010728" lon="-98.321473" />
      <trkpt lat="30.010805" lon="-98.321554" />
      <trkpt lat="30.011111" lon="-98.321876" />
      <trkpt lat="30.011775" lon="-98.322542" />
      <trkpt lat="30.012177" lon="-98.322936" />
      <trkpt lat="30.01264" lon="-98.323401" />
      <trkpt lat="30.012735" lon="-98.323497" />
      <trkpt lat="30.01344" lon="-98.324188" />
      <trkpt lat="30.014073" lon="-98.324817" />
      <trkpt lat="30.014194" lon="-98.324933" />
      <trkpt lat="30.015571" lon="-98.326315" />
      <trkpt lat="30.016137" lon="-98.326901" />
      <trkpt lat="30.016609" lon="-98.327375" />
      <trkpt lat="30.016978" lon="-98.32773" />
      <trkpt lat="30.017688" lon="-98.32841" />
      <trkpt lat="30.018019" lon="-98.328698" />
      <trkpt lat="30.018361" lon="-98.328966" />
      <trkpt lat="30.018625" lon="-98.329153" />
      <trkpt lat="30.020513" lon="-98.330419" />
      <trkpt lat="30.02069" lon="-98.330539" />
      <trkpt lat="30.020722" lon="-98.330561" />
      <trkpt lat="30.020758" lon="-98.330585" />
      <trkpt lat="30.020939" lon="-98.330704" />
      <trkpt lat="30.021501" lon="-98.331073" />
      <trkpt lat="30.021542" lon="-98.331101" />
      <trkpt lat="30.021647" lon="-98.33117" />
      <trkpt lat="30.023221" lon="-98.332187" />
      <trkpt lat="30.023835" lon="-98.332591" />
      <trkpt lat="30.024917" lon="-98.333305" />
      <trkpt lat="30.026008" lon="-98.334025" />
      <trkpt lat="30.026041" lon="-98.334046" />
      <trkpt lat="30.026689" lon="-98.334474" />
      <trkpt lat="30.02742" lon="-98.334956" />
      <trkpt lat="30.027494" lon="-98.335005" />
      <trkpt lat="30.027942" lon="-98.3353" />
      <trkpt lat="30.028528" lon="-98.335687" />
      <trkpt lat="30.029171" lon="-98.336111" />
      <trkpt lat="30.029723" lon="-98.336475" />
      <trkpt lat="30.029866" lon="-98.33657" />
      <trkpt lat="30.030394" lon="-98.336918" />
      <trkpt lat="30.030682" lon="-98.337108" />
      <trkpt lat="30.030994" lon="-98.337313" />
      <trkpt lat="30.031117" lon="-98.337394" />
      <trkpt lat="30.031778" lon="-98.33783" />
      <trkpt lat="30.031841" lon="-98.337872" />
      <trkpt lat="30.031906" lon="-98.337914" />
      <trkpt lat="30.032561" lon="-98.338342" />
      <trkpt lat="30.032723" lon="-98.338447" />
      <trkpt lat="30.032857" lon="-98.338537" />
      <trkpt lat="30.033251" lon="-98.338802" />
      <trkpt lat="30.033751" lon="-98.33913" />
      <trkpt lat="30.037802" lon="-98.341787" />
      <trkpt lat="30.038461" lon="-98.342219" />
      <trkpt lat="30.040037" lon="-98.34326" />
      <trkpt lat="30.040498" lon="-98.343591" />
      <trkpt lat="30.040948" lon="-98.343943" />
      <trkpt lat="30.040961" lon="-98.343954" />
      <trkpt lat="30.041386" lon="-98.344313" />
      <trkpt lat="30.041812" lon="-98.344703" />
      <trkpt lat="30.042224" lon="-98.34511" />
      <trkpt lat="30.043619" lon="-98.346548" />
      <trkpt lat="30.04434" lon="-98.347302" />
      <trkpt lat="30.045949" lon="-98.348985" />
      <trkpt lat="30.04687" lon="-98.349941" />
      <trkpt lat="30.047035" lon="-98.350134" />
      <trkpt lat="30.047139" lon="-98.350257" />
      <trkpt lat="30.047394" lon="-98.350589" />
      <trkpt lat="30.047634" lon="-98.350934" />
      <trkpt lat="30.047858" lon="-98.351294" />
      <trkpt lat="30.048003" lon="-98.351553" />
      <trkpt lat="30.048355" lon="-98.352219" />
      <trkpt lat="30.048815" lon="-98.353147" />
      <trkpt lat="30.049012" lon="-98.353546" />
      <trkpt lat="30.049232" lon="-98.353989" />
      <trkpt lat="30.050155" lon="-98.355827" />
      <trkpt lat="30.050944" lon="-98.357401" />
      <trkpt lat="30.052132" lon="-98.359772" />
      <trkpt lat="30.052667" lon="-98.360835" />
      <trkpt lat="30.053269" lon="-98.362032" />
      <trkpt lat="30.053872" lon="-98.363241" />
      <trkpt lat="30.053965" lon="-98.363426" />
      <trkpt lat="30.054861" lon="-98.365205" />
      <trkpt lat="30.055628" lon="-98.366752" />
      <trkpt lat="30.055892" lon="-98.367283" />
      <trkpt lat="30.055942" lon="-98.367383" />
      <trkpt lat="30.056646" lon="-98.368791" />
      <trkpt lat="30.056952" lon="-98.369398" />
      <trkpt lat="30.058078" lon="-98.371635" />
      <trkpt lat="30.058504" lon="-98.37248" />
      <trkpt lat="30.058759" lon="-98.372987" />
      <trkpt lat="30.058875" lon="-98.373208" />
      <trkpt lat="30.059113" lon="-98.373663" />
      <trkpt lat="30.059417" lon="-98.374287" />
      <trkpt lat="30.059538" lon="-98.374534" />
      <trkpt lat="30.05997" lon="-98.375397" />
      <trkpt lat="30.060367" lon="-98.37619" />
      <trkpt lat="30.060641" lon="-98.376738" />
      <trkpt lat="30.060726" lon="-98.376908" />
      <trkpt lat="30.061013" lon="-98.377467" />
      <trkpt lat="30.061065" lon="-98.377585" />
      <trkpt lat="30.061381" lon="-98.37821" />
      <trkpt lat="30.061952" lon="-98.379352" />
      <trkpt lat="30.062652" lon="-98.380751" />
      <trkpt lat="30.062949" lon="-98.381345" />
      <trkpt lat="30.062955" lon="-98.381359" />
      <trkpt lat="30.063161" lon="-98.381805" />
      <trkpt lat="30.063338" lon="-98.38225" />
      <trkpt lat="30.063466" lon="-98.382614" />
      <trkpt lat="30.063497" lon="-98.382703" />
      <trkpt lat="30.063637" lon="-98.383165" />
      <trkpt lat="30.063779" lon="-98.383676" />
      <trkpt lat="30.063871" lon="-98.38402" />
      <trkpt lat="30.064024" lon="-98.384682" />
      <trkpt lat="30.064237" lon="-98.385712" />
      <trkpt lat="30.064387" lon="-98.386444" />
      <trkpt lat="30.064432" lon="-98.386655" />
      <trkpt lat="30.064605" lon="-98.387564" />
      <trkpt lat="30.065133" lon="-98.390185" />
      <trkpt lat="30.065247" lon="-98.390777" />
      <trkpt lat="30.065274" lon="-98.390899" />
      <trkpt lat="30.065448" lon="-98.391674" />
      <trkpt lat="30.065649" lon="-98.39269" />
      <trkpt lat="30.065752" lon="-98.393169" />
      <trkpt lat="30.065773" lon="-98.393265" />
      <trkpt lat="30.065874" lon="-98.393724" />
      <trkpt lat="30.066045" lon="-98.394372" />
      <trkpt lat="30.066127" lon="-98.394649" />
      <trkpt lat="30.066239" lon="-98.395028" />
      <trkpt lat="30.066551" lon="-98.395998" />
      <trkpt lat="30.066928" lon="-98.397168" />
      <trkpt lat="30.067211" lon="-98.398047" />
      <trkpt lat="30.067667" lon="-98.399462" />
      <trkpt lat="30.068109" lon="-98.40085" />
      <trkpt lat="30.068133" lon="-98.400924" />
      <trkpt lat="30.068249" lon="-98.401289" />
      <trkpt lat="30.068594" lon="-98.40235" />
      <trkpt lat="30.068672" lon="-98.40259" />
      <trkpt lat="30.068769" lon="-98.402896" />
      <trkpt lat="30.069075" lon="-98.403844" />
      <trkpt lat="30.069641" lon="-98.40562" />
      <trkpt lat="30.069832" lon="-98.406217" />
      <trkpt lat="30.069967" lon="-98.406641" />
      <trkpt lat="30.070039" lon="-98.406868" />
      <trkpt lat="30.070298" lon="-98.407728" />
      <trkpt lat="30.070422" lon="-98.40821" />
      <trkpt lat="30.070524" lon="-98.4087" />
      <trkpt lat="30.070661" lon="-98.40936" />
      <trkpt lat="30.070733" lon="-98.409623" />
      <trkpt lat="30.070868" lon="-98.410212" />
      <trkpt lat="30.070853" lon="-98.410485" />
      <trkpt lat="30.07086" lon="-98.410608" />
      <trkpt lat="30.070866" lon="-98.410715" />
      <trkpt lat="30.071577" lon="-98.410693" />
      <trkpt lat="30.071814" lon="-98.410686" />
      <trkpt lat="30.072083" lon="-98.41067" />
      <trkpt lat="30.072352" lon="-98.410674" />
      <trkpt lat="30.072621" lon="-98.410696" />
      <trkpt lat="30.072888" lon="-98.410736" />
      <trkpt lat="30.073153" lon="-98.410794" />
      <trkpt lat="30.073257" lon="-98.410822" />
      <trkpt lat="30.073555" lon="-98.410939" />
      <trkpt lat="30.073862" lon="-98.411061" />
      <trkpt lat="30.073973" lon="-98.411106" />
      <trkpt lat="30.074416" lon="-98.411283" />
      <trkpt lat="30.074738" lon="-98.411447" />
      <trkpt lat="30.075013" lon="-98.411589" />
      <trkpt lat="30.075301" lon="-98.411769" />
      <trkpt lat="30.075548" lon="-98.411944" />
      <trkpt lat="30.075793" lon="-98.412124" />
      <trkpt lat="30.076446" lon="-98.412676" />
      <trkpt lat="30.076512" lon="-98.412732" />
      <trkpt lat="30.076921" lon="-98.413078" />
      <trkpt lat="30.077169" lon="-98.413287" />
      <trkpt lat="30.077273" lon="-98.413375" />
      <trkpt lat="30.077371" lon="-98.413458" />
      <trkpt lat="30.077894" lon="-98.4139" />
      <trkpt lat="30.078682" lon="-98.414592" />
      <trkpt lat="30.07924" lon="-98.415075" />
      <trkpt lat="30.079354" lon="-98.415173" />
      <trkpt lat="30.079682" lon="-98.415455" />
      <trkpt lat="30.082038" lon="-98.417478" />
      <trkpt lat="30.082452" lon="-98.417816" />
      <trkpt lat="30.082513" lon="-98.417865" />
      <trkpt lat="30.082885" lon="-98.41814" />
      <trkpt lat="30.083185" lon="-98.418361" />
      <trkpt lat="30.083304" lon="-98.41844" />
      <trkpt lat="30.083608" lon="-98.418643" />
      <trkpt lat="30.083995" lon="-98.418887" />
      <trkpt lat="30.084174" lon="-98.418986" />
      <trkpt lat="30.084463" lon="-98.419158" />
      <trkpt lat="30.08599" lon="-98.419925" />
      <trkpt lat="30.086904" lon="-98.420375" />
      <trkpt lat="30.087045" lon="-98.420444" />
      <trkpt lat="30.087856" lon="-98.42084" />
      <trkpt lat="30.08787" lon="-98.420847" />
      <trkpt lat="30.088457" lon="-98.421133" />
      <trkpt lat="30.09012" lon="-98.421944" />
      <trkpt lat="30.091483" lon="-98.422637" />
      <trkpt lat="30.092721" lon="-98.423262" />
      <trkpt lat="30.092954" lon="-98.423355" />
      <trkpt lat="30.093161" lon="-98.423428" />
      <trkpt lat="30.093371" lon="-98.423485" />
      <trkpt lat="30.093584" lon="-98.423525" />
      <trkpt lat="30.093852" lon="-98.423552" />
      <trkpt lat="30.094043" lon="-98.423554" />
      <trkpt lat="30.09431" lon="-98.42354" />
      <trkpt lat="30.094528" lon="-98.423508" />
      <trkpt lat="30.094636" lon="-98.423485" />
      <trkpt lat="30.094676" lon="-98.423474" />
      <trkpt lat="30.094844" lon="-98.423429" />
      <trkpt lat="30.095049" lon="-98.423356" />
      <trkpt lat="30.095198" lon="-98.42329" />
      <trkpt lat="30.096093" lon="-98.422918" />
      <trkpt lat="30.096217" lon="-98.422869" />
      <trkpt lat="30.096387" lon="-98.422802" />
      <trkpt lat="30.097014" lon="-98.422547" />
      <trkpt lat="30.097937" lon="-98.422186" />
      <trkpt lat="30.098829" lon="-98.421805" />
      <trkpt lat="30.098672" lon="-98.421289" />
    </trkseg>
  </trk>
</gpx>