<?xml version="1.0" encoding="UTF-8"?>
<gpx version="1.1" creator="Antigravity Route Generator" xmlns="http://www.topografix.com/GPX/1/1">
  <trk>
    <name>Briggs, Oakalla &amp; RM 963 Loop</name>
    <desc>Savannah &amp; Prairie Sweeps (23.1 mi) - US 183 -&gt; Briggs -&gt; FM 2657 North -&gt; Oakalla -&gt; RM 963 West -&gt; Watson -&gt; US 183 South</desc>
    <trkseg>
      <trkpt lat="30.885713" lon="-97.924583" />
      <trkpt lat="30.885907" lon="-97.924932" />
      <trkpt lat="30.886457" lon="-97.925935" />
      <trkpt lat="30.886739" lon="-97.926448" />
      <trkpt lat="30.887282" lon="-97.92739" />
      <trkpt lat="30.88745" lon="-97.9274" />
      <trkpt lat="30.887544" lon="-97.927398" />
      <trkpt lat="30.887628" lon="-97.92744" />
      <trkpt lat="30.889015" lon="-97.927986" />
      <trkpt lat="30.889192" lon="-97.927438" />
      <trkpt lat="30.889407" lon="-97.926739" />
      <trkpt lat="30.889796" lon="-97.925558" />
      <trkpt lat="30.889838" lon="-97.925431" />
      <trkpt lat="30.889877" lon="-97.925276" />
      <trkpt lat="30.889924" lon="-97.925155" />
      <trkpt lat="30.889955" lon="-97.925076" />
      <trkpt lat="30.890034" lon="-97.924816" />
      <trkpt lat="30.890645" lon="-97.922888" />
      <trkpt lat="30.890971" lon="-97.921794" />
      <trkpt lat="30.891222" lon="-97.921015" />
      <trkpt lat="30.891401" lon="-97.920449" />
      <trkpt lat="30.891591" lon="-97.919847" />
      <trkpt lat="30.891687" lon="-97.919534" />
      <trkpt lat="30.892075" lon="-97.918267" />
      <trkpt lat="30.892495" lon="-97.916905" />
      <trkpt lat="30.892983" lon="-97.915334" />
      <trkpt lat="30.893393" lon="-97.914029" />
      <trkpt lat="30.893734" lon="-97.912935" />
      <trkpt lat="30.893824" lon="-97.912645" />
      <trkpt lat="30.893885" lon="-97.912449" />
      <trkpt lat="30.894101" lon="-97.911752" />
      <trkpt lat="30.894311" lon="-97.911079" />
      <trkpt lat="30.894419" lon="-97.910723" />
      <trkpt lat="30.894552" lon="-97.910295" />
      <trkpt lat="30.894602" lon="-97.910133" />
      <trkpt lat="30.89495" lon="-97.908995" />
      <trkpt lat="30.895312" lon="-97.907831" />
      <trkpt lat="30.895464" lon="-97.907333" />
      <trkpt lat="30.895724" lon="-97.906478" />
      <trkpt lat="30.895902" lon="-97.905895" />
      <trkpt lat="30.896188" lon="-97.905005" />
      <trkpt lat="30.896444" lon="-97.904136" />
      <trkpt lat="30.896544" lon="-97.903872" />
      <trkpt lat="30.89667" lon="-97.903591" />
      <trkpt lat="30.896806" lon="-97.903338" />
      <trkpt lat="30.896967" lon="-97.903096" />
      <trkpt lat="30.897132" lon="-97.902863" />
      <trkpt lat="30.897304" lon="-97.902694" />
      <trkpt lat="30.897484" lon="-97.902509" />
      <trkpt lat="30.897611" lon="-97.902441" />
      <trkpt lat="30.89776" lon="-97.902328" />
      <trkpt lat="30.897986" lon="-97.902176" />
      <trkpt lat="30.898321" lon="-97.902015" />
      <trkpt lat="30.898717" lon="-97.901858" />
      <trkpt lat="30.899083" lon="-97.901726" />
      <trkpt lat="30.89985" lon="-97.901449" />
      <trkpt lat="30.902022" lon="-97.900652" />
      <trkpt lat="30.902424" lon="-97.900518" />
      <trkpt lat="30.902786" lon="-97.900411" />
      <trkpt lat="30.903187" lon="-97.900336" />
      <trkpt lat="30.903566" lon="-97.900284" />
      <trkpt lat="30.903757" lon="-97.900273" />
      <trkpt lat="30.904761" lon="-97.900214" />
      <trkpt lat="30.904871" lon="-97.900208" />
      <trkpt lat="30.906772" lon="-97.900119" />
      <trkpt lat="30.907888" lon="-97.900037" />
      <trkpt lat="30.90897" lon="-97.899987" />
      <trkpt lat="30.909297" lon="-97.899971" />
      <trkpt lat="30.909547" lon="-97.899931" />
      <trkpt lat="30.909793" lon="-97.899882" />
      <trkpt lat="30.910017" lon="-97.899811" />
      <trkpt lat="30.910239" lon="-97.899718" />
      <trkpt lat="30.910539" lon="-97.899563" />
      <trkpt lat="30.910824" lon="-97.899366" />
      <trkpt lat="30.91104" lon="-97.899178" />
      <trkpt lat="30.911203" lon="-97.899006" />
      <trkpt lat="30.911451" lon="-97.898714" />
      <trkpt lat="30.912135" lon="-97.897801" />
      <trkpt lat="30.912522" lon="-97.897297" />
      <trkpt lat="30.912674" lon="-97.897097" />
      <trkpt lat="30.912911" lon="-97.896799" />
      <trkpt lat="30.91308" lon="-97.896592" />
      <trkpt lat="30.913278" lon="-97.896393" />
      <trkpt lat="30.913433" lon="-97.896243" />
      <trkpt lat="30.913583" lon="-97.896136" />
      <trkpt lat="30.913755" lon="-97.896021" />
      <trkpt lat="30.913932" lon="-97.89592" />
      <trkpt lat="30.914112" lon="-97.895833" />
      <trkpt lat="30.914337" lon="-97.895745" />
      <trkpt lat="30.914611" lon="-97.895672" />
      <trkpt lat="30.91488" lon="-97.895625" />
      <trkpt lat="30.915064" lon="-97.895608" />
      <trkpt lat="30.915312" lon="-97.895595" />
      <trkpt lat="30.915518" lon="-97.895606" />
      <trkpt lat="30.915748" lon="-97.895643" />
      <trkpt lat="30.915891" lon="-97.895674" />
      <trkpt lat="30.916107" lon="-97.895751" />
      <trkpt lat="30.916297" lon="-97.895813" />
      <trkpt lat="30.916369" lon="-97.895848" />
      <trkpt lat="30.918157" lon="-97.896608" />
      <trkpt lat="30.918298" lon="-97.896666" />
      <trkpt lat="30.920127" lon="-97.897494" />
      <trkpt lat="30.920487" lon="-97.897657" />
      <trkpt lat="30.922608" lon="-97.898573" />
      <trkpt lat="30.925432" lon="-97.899798" />
      <trkpt lat="30.92661" lon="-97.900306" />
      <trkpt lat="30.926679" lon="-97.900336" />
      <trkpt lat="30.928492" lon="-97.901119" />
      <trkpt lat="30.929138" lon="-97.901397" />
      <trkpt lat="30.929267" lon="-97.901453" />
      <trkpt lat="30.929764" lon="-97.901667" />
      <trkpt lat="30.931042" lon="-97.902197" />
      <trkpt lat="30.931887" lon="-97.902578" />
      <trkpt lat="30.932558" lon="-97.902858" />
      <trkpt lat="30.938869" lon="-97.905443" />
      <trkpt lat="30.939703" lon="-97.905813" />
      <trkpt lat="30.940003" lon="-97.905915" />
      <trkpt lat="30.94024" lon="-97.905966" />
      <trkpt lat="30.940586" lon="-97.906" />
      <trkpt lat="30.940781" lon="-97.906008" />
      <trkpt lat="30.940884" lon="-97.906013" />
      <trkpt lat="30.940911" lon="-97.906011" />
      <trkpt lat="30.941243" lon="-97.905985" />
      <trkpt lat="30.941631" lon="-97.905907" />
      <trkpt lat="30.942003" lon="-97.905736" />
      <trkpt lat="30.942347" lon="-97.905539" />
      <trkpt lat="30.942646" lon="-97.905294" />
      <trkpt lat="30.943007" lon="-97.904939" />
      <trkpt lat="30.943386" lon="-97.904463" />
      <trkpt lat="30.943483" lon="-97.904266" />
      <trkpt lat="30.943613" lon="-97.904" />
      <trkpt lat="30.944047" lon="-97.902737" />
      <trkpt lat="30.944071" lon="-97.902667" />
      <trkpt lat="30.944155" lon="-97.902425" />
      <trkpt lat="30.944399" lon="-97.901606" />
      <trkpt lat="30.944409" lon="-97.901573" />
      <trkpt lat="30.944862" lon="-97.900116" />
      <trkpt lat="30.945127" lon="-97.899316" />
      <trkpt lat="30.94527" lon="-97.898883" />
      <trkpt lat="30.945521" lon="-97.898126" />
      <trkpt lat="30.945607" lon="-97.897884" />
      <trkpt lat="30.945681" lon="-97.897711" />
      <trkpt lat="30.945796" lon="-97.897503" />
      <trkpt lat="30.945996" lon="-97.897188" />
      <trkpt lat="30.946005" lon="-97.897173" />
      <trkpt lat="30.94619" lon="-97.896957" />
      <trkpt lat="30.946252" lon="-97.896886" />
      <trkpt lat="30.946404" lon="-97.89671" />
      <trkpt lat="30.946718" lon="-97.896445" />
      <trkpt lat="30.947015" lon="-97.896263" />
      <trkpt lat="30.947503" lon="-97.896027" />
      <trkpt lat="30.947953" lon="-97.895906" />
      <trkpt lat="30.948297" lon="-97.895869" />
      <trkpt lat="30.948641" lon="-97.895869" />
      <trkpt lat="30.948927" lon="-97.895891" />
      <trkpt lat="30.949245" lon="-97.895965" />
      <trkpt lat="30.949549" lon="-97.896078" />
      <trkpt lat="30.950081" lon="-97.896294" />
      <trkpt lat="30.95362" lon="-97.897814" />
      <trkpt lat="30.955829" lon="-97.898738" />
      <trkpt lat="30.956832" lon="-97.899158" />
      <trkpt lat="30.956946" lon="-97.899219" />
      <trkpt lat="30.957229" lon="-97.899358" />
      <trkpt lat="30.957548" lon="-97.89955" />
      <trkpt lat="30.957935" lon="-97.899861" />
      <trkpt lat="30.958403" lon="-97.900315" />
      <trkpt lat="30.958817" lon="-97.900817" />
      <trkpt lat="30.959102" lon="-97.901251" />
      <trkpt lat="30.959147" lon="-97.901319" />
      <trkpt lat="30.959175" lon="-97.901363" />
      <trkpt lat="30.960149" lon="-97.903085" />
      <trkpt lat="30.960342" lon="-97.903412" />
      <trkpt lat="30.960525" lon="-97.903708" />
      <trkpt lat="30.960719" lon="-97.903994" />
      <trkpt lat="30.960937" lon="-97.90428" />
      <trkpt lat="30.961119" lon="-97.904488" />
      <trkpt lat="30.96136" lon="-97.904729" />
      <trkpt lat="30.96163" lon="-97.904986" />
      <trkpt lat="30.961936" lon="-97.905217" />
      <trkpt lat="30.962197" lon="-97.905398" />
      <trkpt lat="30.962562" lon="-97.90563" />
      <trkpt lat="30.963271" lon="-97.906052" />
      <trkpt lat="30.964629" lon="-97.90689" />
      <trkpt lat="30.965541" lon="-97.907426" />
      <trkpt lat="30.965758" lon="-97.907553" />
      <trkpt lat="30.966342" lon="-97.907905" />
      <trkpt lat="30.966732" lon="-97.908144" />
      <trkpt lat="30.967633" lon="-97.908675" />
      <trkpt lat="30.968503" lon="-97.909187" />
      <trkpt lat="30.969296" lon="-97.909746" />
      <trkpt lat="30.970322" lon="-97.910563" />
      <trkpt lat="30.970829" lon="-97.911052" />
      <trkpt lat="30.971915" lon="-97.912137" />
      <trkpt lat="30.973206" lon="-97.913454" />
      <trkpt lat="30.973525" lon="-97.913779" />
      <trkpt lat="30.974139" lon="-97.914403" />
      <trkpt lat="30.975404" lon="-97.915689" />
      <trkpt lat="30.975464" lon="-97.915749" />
      <trkpt lat="30.975505" lon="-97.915792" />
      <trkpt lat="30.975588" lon="-97.915876" />
      <trkpt lat="30.977333" lon="-97.91765" />
      <trkpt lat="30.977887" lon="-97.918148" />
      <trkpt lat="30.978346" lon="-97.91844" />
      <trkpt lat="30.978936" lon="-97.918795" />
      <trkpt lat="30.979726" lon="-97.919222" />
      <trkpt lat="30.980152" lon="-97.919452" />
      <trkpt lat="30.98016" lon="-97.919456" />
      <trkpt lat="30.980656" lon="-97.919691" />
      <trkpt lat="30.980676" lon="-97.919697" />
      <trkpt lat="30.981277" lon="-97.919894" />
      <trkpt lat="30.981256" lon="-97.919997" />
      <trkpt lat="30.981246" lon="-97.920109" />
      <trkpt lat="30.981256" lon="-97.920199" />
      <trkpt lat="30.981288" lon="-97.920279" />
      <trkpt lat="30.981403" lon="-97.920401" />
      <trkpt lat="30.981528" lon="-97.920466" />
      <trkpt lat="30.981725" lon="-97.920578" />
      <trkpt lat="30.981751" lon="-97.920589" />
      <trkpt lat="30.982428" lon="-97.920892" />
      <trkpt lat="30.982646" lon="-97.92099" />
      <trkpt lat="30.98285" lon="-97.921077" />
      <trkpt lat="30.983186" lon="-97.92122" />
      <trkpt lat="30.98337" lon="-97.921333" />
      <trkpt lat="30.983549" lon="-97.921492" />
      <trkpt lat="30.983644" lon="-97.9216" />
      <trkpt lat="30.983797" lon="-97.92181" />
      <trkpt lat="30.983982" lon="-97.922029" />
      <trkpt lat="30.984198" lon="-97.922219" />
      <trkpt lat="30.984348" lon="-97.922329" />
      <trkpt lat="30.984624" lon="-97.922495" />
      <trkpt lat="30.985147" lon="-97.922834" />
      <trkpt lat="30.985442" lon="-97.923042" />
      <trkpt lat="30.985816" lon="-97.923344" />
      <trkpt lat="30.98592" lon="-97.923427" />
      <trkpt lat="30.986136" lon="-97.923636" />
      <trkpt lat="30.986199" lon="-97.923696" />
      <trkpt lat="30.986267" lon="-97.923783" />
      <trkpt lat="30.986357" lon="-97.923909" />
      <trkpt lat="30.986426" lon="-97.924084" />
      <trkpt lat="30.986448" lon="-97.92415" />
      <trkpt lat="30.986466" lon="-97.924296" />
      <trkpt lat="30.986471" lon="-97.92446" />
      <trkpt lat="30.98647" lon="-97.924586" />
      <trkpt lat="30.986456" lon="-97.924703" />
      <trkpt lat="30.986431" lon="-97.924871" />
      <trkpt lat="30.986399" lon="-97.925021" />
      <trkpt lat="30.986358" lon="-97.925162" />
      <trkpt lat="30.986336" lon="-97.925236" />
      <trkpt lat="30.98631" lon="-97.925305" />
      <trkpt lat="30.986282" lon="-97.925379" />
      <trkpt lat="30.986226" lon="-97.925517" />
      <trkpt lat="30.986167" lon="-97.92564" />
      <trkpt lat="30.98583" lon="-97.926165" />
      <trkpt lat="30.985636" lon="-97.926437" />
      <trkpt lat="30.985143" lon="-97.927168" />
      <trkpt lat="30.984977" lon="-97.92742" />
      <trkpt lat="30.983708" lon="-97.929302" />
      <trkpt lat="30.983547" lon="-97.929521" />
      <trkpt lat="30.983331" lon="-97.929752" />
      <trkpt lat="30.983219" lon="-97.929867" />
      <trkpt lat="30.982429" lon="-97.930602" />
      <trkpt lat="30.982212" lon="-97.930837" />
      <trkpt lat="30.981859" lon="-97.931276" />
      <trkpt lat="30.981121" lon="-97.932332" />
      <trkpt lat="30.980856" lon="-97.932653" />
      <trkpt lat="30.980729" lon="-97.932801" />
      <trkpt lat="30.980595" lon="-97.932936" />
      <trkpt lat="30.980396" lon="-97.9331" />
      <trkpt lat="30.98025" lon="-97.933196" />
      <trkpt lat="30.979998" lon="-97.933331" />
      <trkpt lat="30.979844" lon="-97.933397" />
      <trkpt lat="30.978664" lon="-97.93382" />
      <trkpt lat="30.977693" lon="-97.934177" />
      <trkpt lat="30.977424" lon="-97.934301" />
      <trkpt lat="30.97728" lon="-97.934375" />
      <trkpt lat="30.977016" lon="-97.93454" />
      <trkpt lat="30.976785" lon="-97.934703" />
      <trkpt lat="30.976523" lon="-97.93493" />
      <trkpt lat="30.976012" lon="-97.935429" />
      <trkpt lat="30.975875" lon="-97.935572" />
      <trkpt lat="30.97538" lon="-97.936086" />
      <trkpt lat="30.975246" lon="-97.936225" />
      <trkpt lat="30.975095" lon="-97.93641" />
      <trkpt lat="30.974927" lon="-97.936688" />
      <trkpt lat="30.974781" lon="-97.936975" />
      <trkpt lat="30.974673" lon="-97.93724" />
      <trkpt lat="30.974593" lon="-97.937497" />
      <trkpt lat="30.974524" lon="-97.937809" />
      <trkpt lat="30.974428" lon="-97.938415" />
      <trkpt lat="30.974204" lon="-97.939836" />
      <trkpt lat="30.974153" lon="-97.940153" />
      <trkpt lat="30.973859" lon="-97.941966" />
      <trkpt lat="30.973542" lon="-97.943997" />
      <trkpt lat="30.973224" lon="-97.945998" />
      <trkpt lat="30.973109" lon="-97.946344" />
      <trkpt lat="30.973047" lon="-97.94653" />
      <trkpt lat="30.972923" lon="-97.946827" />
      <trkpt lat="30.972784" lon="-97.947064" />
      <trkpt lat="30.972749" lon="-97.947119" />
      <trkpt lat="30.972659" lon="-97.947262" />
      <trkpt lat="30.972123" lon="-97.948025" />
      <trkpt lat="30.971742" lon="-97.948576" />
      <trkpt lat="30.971517" lon="-97.948873" />
      <trkpt lat="30.971119" lon="-97.949383" />
      <trkpt lat="30.970871" lon="-97.949655" />
      <trkpt lat="30.970597" lon="-97.949899" />
      <trkpt lat="30.970384" lon="-97.950089" />
      <trkpt lat="30.970126" lon="-97.950273" />
      <trkpt lat="30.969634" lon="-97.950643" />
      <trkpt lat="30.967929" lon="-97.951925" />
      <trkpt lat="30.967494" lon="-97.952257" />
      <trkpt lat="30.966541" lon="-97.952985" />
      <trkpt lat="30.965686" lon="-97.953637" />
      <trkpt lat="30.964738" lon="-97.954349" />
      <trkpt lat="30.964683" lon="-97.95439" />
      <trkpt lat="30.963533" lon="-97.955267" />
      <trkpt lat="30.96238" lon="-97.956129" />
      <trkpt lat="30.96235" lon="-97.956154" />
      <trkpt lat="30.962226" lon="-97.956258" />
      <trkpt lat="30.962204" lon="-97.956277" />
      <trkpt lat="30.962025" lon="-97.956444" />
      <trkpt lat="30.961977" lon="-97.956513" />
      <trkpt lat="30.961921" lon="-97.956592" />
      <trkpt lat="30.96183" lon="-97.956727" />
      <trkpt lat="30.961729" lon="-97.956902" />
      <trkpt lat="30.961636" lon="-97.957103" />
      <trkpt lat="30.961158" lon="-97.958024" />
      <trkpt lat="30.961026" lon="-97.958325" />
      <trkpt lat="30.960967" lon="-97.958426" />
      <trkpt lat="30.9609" lon="-97.958523" />
      <trkpt lat="30.960771" lon="-97.958661" />
      <trkpt lat="30.96074" lon="-97.95869" />
      <trkpt lat="30.960628" lon="-97.958794" />
      <trkpt lat="30.960404" lon="-97.958906" />
      <trkpt lat="30.960095" lon="-97.958998" />
      <trkpt lat="30.959837" lon="-97.959023" />
      <trkpt lat="30.959661" lon="-97.959031" />
      <trkpt lat="30.959232" lon="-97.959012" />
      <trkpt lat="30.958481" lon="-97.958996" />
      <trkpt lat="30.958165" lon="-97.959048" />
      <trkpt lat="30.958053" lon="-97.959078" />
      <trkpt lat="30.957857" lon="-97.959173" />
      <trkpt lat="30.957664" lon="-97.959306" />
      <trkpt lat="30.957486" lon="-97.959478" />
      <trkpt lat="30.957362" lon="-97.959635" />
      <trkpt lat="30.956873" lon="-97.960544" />
      <trkpt lat="30.956622" lon="-97.960969" />
      <trkpt lat="30.956049" lon="-97.961805" />
      <trkpt lat="30.955725" lon="-97.962295" />
      <trkpt lat="30.955643" lon="-97.962432" />
      <trkpt lat="30.955549" lon="-97.962564" />
      <trkpt lat="30.955414" lon="-97.962717" />
      <trkpt lat="30.955221" lon="-97.962861" />
      <trkpt lat="30.954961" lon="-97.962977" />
      <trkpt lat="30.954902" lon="-97.963004" />
      <trkpt lat="30.954683" lon="-97.963051" />
      <trkpt lat="30.954419" lon="-97.963056" />
      <trkpt lat="30.953928" lon="-97.962946" />
      <trkpt lat="30.952831" lon="-97.962673" />
      <trkpt lat="30.95261" lon="-97.962652" />
      <trkpt lat="30.952393" lon="-97.962667" />
      <trkpt lat="30.95216" lon="-97.962754" />
      <trkpt lat="30.952098" lon="-97.962777" />
      <trkpt lat="30.952009" lon="-97.962832" />
      <trkpt lat="30.951862" lon="-97.962924" />
      <trkpt lat="30.951632" lon="-97.963149" />
      <trkpt lat="30.951507" lon="-97.963353" />
      <trkpt lat="30.951411" lon="-97.963569" />
      <trkpt lat="30.951385" lon="-97.963628" />
      <trkpt lat="30.951224" lon="-97.964132" />
      <trkpt lat="30.950977" lon="-97.965051" />
      <trkpt lat="30.950327" lon="-97.967404" />
      <trkpt lat="30.950011" lon="-97.968556" />
      <trkpt lat="30.949796" lon="-97.969325" />
      <trkpt lat="30.949142" lon="-97.971623" />
      <trkpt lat="30.948852" lon="-97.972625" />
      <trkpt lat="30.948766" lon="-97.972847" />
      <trkpt lat="30.94867" lon="-97.973059" />
      <trkpt lat="30.948511" lon="-97.973352" />
      <trkpt lat="30.948299" lon="-97.973651" />
      <trkpt lat="30.947571" lon="-97.97461" />
      <trkpt lat="30.947422" lon="-97.974867" />
      <trkpt lat="30.947316" lon="-97.975078" />
      <trkpt lat="30.947192" lon="-97.975374" />
      <trkpt lat="30.947062" lon="-97.975784" />
      <trkpt lat="30.946912" lon="-97.976456" />
      <trkpt lat="30.946869" lon="-97.976686" />
      <trkpt lat="30.946814" lon="-97.976975" />
      <trkpt lat="30.946755" lon="-97.977204" />
      <trkpt lat="30.946644" lon="-97.977879" />
      <trkpt lat="30.946517" lon="-97.978486" />
      <trkpt lat="30.946181" lon="-97.980095" />
      <trkpt lat="30.946111" lon="-97.980331" />
      <trkpt lat="30.945971" lon="-97.980633" />
      <trkpt lat="30.945834" lon="-97.980848" />
      <trkpt lat="30.945308" lon="-97.981559" />
      <trkpt lat="30.944606" lon="-97.982573" />
      <trkpt lat="30.944516" lon="-97.982755" />
      <trkpt lat="30.944435" lon="-97.983" />
      <trkpt lat="30.9444" lon="-97.983212" />
      <trkpt lat="30.944379" lon="-97.9834" />
      <trkpt lat="30.944392" lon="-97.983644" />
      <trkpt lat="30.944418" lon="-97.983882" />
      <trkpt lat="30.944461" lon="-97.984062" />
      <trkpt lat="30.944477" lon="-97.984113" />
      <trkpt lat="30.944507" lon="-97.984206" />
      <trkpt lat="30.944598" lon="-97.984401" />
      <trkpt lat="30.944658" lon="-97.984498" />
      <trkpt lat="30.944821" lon="-97.984688" />
      <trkpt lat="30.945671" lon="-97.98547" />
      <trkpt lat="30.946597" lon="-97.986474" />
      <trkpt lat="30.946687" lon="-97.986583" />
      <trkpt lat="30.946814" lon="-97.986766" />
      <trkpt lat="30.946908" lon="-97.98694" />
      <trkpt lat="30.946991" lon="-97.98711" />
      <trkpt lat="30.947103" lon="-97.98739" />
      <trkpt lat="30.947148" lon="-97.987582" />
      <trkpt lat="30.94718" lon="-97.987853" />
      <trkpt lat="30.947199" lon="-97.988315" />
      <trkpt lat="30.947127" lon="-97.988735" />
      <trkpt lat="30.947024" lon="-97.989104" />
      <trkpt lat="30.946977" lon="-97.989244" />
      <trkpt lat="30.946754" lon="-97.989831" />
      <trkpt lat="30.946368" lon="-97.990845" />
      <trkpt lat="30.946246" lon="-97.99109" />
      <trkpt lat="30.946074" lon="-97.991309" />
      <trkpt lat="30.945923" lon="-97.991462" />
      <trkpt lat="30.945735" lon="-97.991582" />
      <trkpt lat="30.94556" lon="-97.991654" />
      <trkpt lat="30.945463" lon="-97.991676" />
      <trkpt lat="30.945289" lon="-97.991716" />
      <trkpt lat="30.944995" lon="-97.991728" />
      <trkpt lat="30.944501" lon="-97.991741" />
      <trkpt lat="30.944274" lon="-97.991816" />
      <trkpt lat="30.944064" lon="-97.991926" />
      <trkpt lat="30.943909" lon="-97.992053" />
      <trkpt lat="30.943785" lon="-97.992176" />
      <trkpt lat="30.94367" lon="-97.992326" />
      <trkpt lat="30.943544" lon="-97.992553" />
      <trkpt lat="30.942953" lon="-97.994207" />
      <trkpt lat="30.942923" lon="-97.994298" />
      <trkpt lat="30.942715" lon="-97.994905" />
      <trkpt lat="30.942605" lon="-97.995262" />
      <trkpt lat="30.942413" lon="-97.995908" />
      <trkpt lat="30.942258" lon="-97.996541" />
      <trkpt lat="30.942017" lon="-97.99735" />
      <trkpt lat="30.941651" lon="-97.998402" />
      <trkpt lat="30.94148" lon="-97.998841" />
      <trkpt lat="30.941377" lon="-97.999043" />
      <trkpt lat="30.941273" lon="-97.999236" />
      <trkpt lat="30.941133" lon="-97.999423" />
      <trkpt lat="30.941009" lon="-97.999573" />
      <trkpt lat="30.94091" lon="-97.999675" />
      <trkpt lat="30.940793" lon="-97.999765" />
      <trkpt lat="30.940502" lon="-97.99995" />
      <trkpt lat="30.940399" lon="-97.999989" />
      <trkpt lat="30.940341" lon="-98.00001" />
      <trkpt lat="30.939758" lon="-98.000305" />
      <trkpt lat="30.939633" lon="-98.000415" />
      <trkpt lat="30.9395" lon="-98.000532" />
      <trkpt lat="30.939256" lon="-98.000831" />
      <trkpt lat="30.939211" lon="-98.0009" />
      <trkpt lat="30.939133" lon="-98.001019" />
      <trkpt lat="30.939045" lon="-98.001203" />
      <trkpt lat="30.938903" lon="-98.001543" />
      <trkpt lat="30.938857" lon="-98.001687" />
      <trkpt lat="30.938848" lon="-98.001715" />
      <trkpt lat="30.938794" lon="-98.001915" />
      <trkpt lat="30.937887" lon="-98.004819" />
      <trkpt lat="30.937822" lon="-98.005028" />
      <trkpt lat="30.937791" lon="-98.005128" />
      <trkpt lat="30.937113" lon="-98.007318" />
      <trkpt lat="30.936951" lon="-98.007841" />
      <trkpt lat="30.936651" lon="-98.008729" />
      <trkpt lat="30.936174" lon="-98.010313" />
      <trkpt lat="30.936158" lon="-98.010366" />
      <trkpt lat="30.93558" lon="-98.012195" />
      <trkpt lat="30.935316" lon="-98.013127" />
      <trkpt lat="30.935154" lon="-98.013561" />
      <trkpt lat="30.93492" lon="-98.013985" />
      <trkpt lat="30.934752" lon="-98.014185" />
      <trkpt lat="30.934596" lon="-98.014306" />
      <trkpt lat="30.934326" lon="-98.01449" />
      <trkpt lat="30.934326" lon="-98.01449" />
      <trkpt lat="30.93399" lon="-98.013676" />
      <trkpt lat="30.930337" lon="-98.006946" />
      <trkpt lat="30.929973" lon="-98.006276" />
      <trkpt lat="30.92974" lon="-98.005846" />
      <trkpt lat="30.929318" lon="-98.005024" />
      <trkpt lat="30.928995" lon="-98.00417" />
      <trkpt lat="30.928826" lon="-98.003669" />
      <trkpt lat="30.928679" lon="-98.003155" />
      <trkpt lat="30.928499" lon="-98.002441" />
      <trkpt lat="30.928402" lon="-98.002037" />
      <trkpt lat="30.928287" lon="-98.001557" />
      <trkpt lat="30.928152" lon="-98.000924" />
      <trkpt lat="30.92799" lon="-97.999849" />
      <trkpt lat="30.927895" lon="-97.99903" />
      <trkpt lat="30.927885" lon="-97.998947" />
      <trkpt lat="30.92758" lon="-97.996452" />
      <trkpt lat="30.927572" lon="-97.996383" />
      <trkpt lat="30.927427" lon="-97.995285" />
      <trkpt lat="30.92741" lon="-97.995127" />
      <trkpt lat="30.927232" lon="-97.993665" />
      <trkpt lat="30.92721" lon="-97.993466" />
      <trkpt lat="30.927036" lon="-97.99201" />
      <trkpt lat="30.92692" lon="-97.991063" />
      <trkpt lat="30.926904" lon="-97.990909" />
      <trkpt lat="30.926771" lon="-97.990094" />
      <trkpt lat="30.926702" lon="-97.989772" />
      <trkpt lat="30.92664" lon="-97.989548" />
      <trkpt lat="30.926598" lon="-97.989419" />
      <trkpt lat="30.926529" lon="-97.989206" />
      <trkpt lat="30.926414" lon="-97.988922" />
      <trkpt lat="30.926294" lon="-97.988665" />
      <trkpt lat="30.926137" lon="-97.988379" />
      <trkpt lat="30.925979" lon="-97.988128" />
      <trkpt lat="30.925792" lon="-97.987869" />
      <trkpt lat="30.925621" lon="-97.987662" />
      <trkpt lat="30.925416" lon="-97.98744" />
      <trkpt lat="30.925055" lon="-97.987101" />
      <trkpt lat="30.924372" lon="-97.986459" />
      <trkpt lat="30.92343" lon="-97.9856" />
      <trkpt lat="30.922519" lon="-97.984762" />
      <trkpt lat="30.922361" lon="-97.984603" />
      <trkpt lat="30.921569" lon="-97.983872" />
      <trkpt lat="30.919745" lon="-97.982189" />
      <trkpt lat="30.919136" lon="-97.981627" />
      <trkpt lat="30.919041" lon="-97.981539" />
      <trkpt lat="30.917469" lon="-97.980119" />
      <trkpt lat="30.916233" lon="-97.978961" />
      <trkpt lat="30.915151" lon="-97.977958" />
      <trkpt lat="30.913358" lon="-97.976298" />
      <trkpt lat="30.913063" lon="-97.976025" />
      <trkpt lat="30.912809" lon="-97.97579" />
      <trkpt lat="30.912715" lon="-97.975709" />
      <trkpt lat="30.912407" lon="-97.975446" />
      <trkpt lat="30.912147" lon="-97.97524" />
      <trkpt lat="30.911743" lon="-97.974957" />
      <trkpt lat="30.907512" lon="-97.972359" />
      <trkpt lat="30.906208" lon="-97.971558" />
      <trkpt lat="30.905105" lon="-97.970926" />
      <trkpt lat="30.90396" lon="-97.970141" />
      <trkpt lat="30.903324" lon="-97.96965" />
      <trkpt lat="30.902477" lon="-97.968898" />
      <trkpt lat="30.895949" lon="-97.962698" />
      <trkpt lat="30.894595" lon="-97.961412" />
      <trkpt lat="30.89426" lon="-97.961054" />
      <trkpt lat="30.893896" lon="-97.960665" />
      <trkpt lat="30.893573" lon="-97.960295" />
      <trkpt lat="30.893153" lon="-97.959711" />
      <trkpt lat="30.892655" lon="-97.958816" />
      <trkpt lat="30.892573" lon="-97.958669" />
      <trkpt lat="30.892465" lon="-97.958415" />
      <trkpt lat="30.891678" lon="-97.956555" />
      <trkpt lat="30.890719" lon="-97.954064" />
      <trkpt lat="30.890582" lon="-97.953609" />
      <trkpt lat="30.89043" lon="-97.952995" />
      <trkpt lat="30.890339" lon="-97.952472" />
      <trkpt lat="30.89031" lon="-97.952305" />
      <trkpt lat="30.890237" lon="-97.951776" />
      <trkpt lat="30.890221" lon="-97.951658" />
      <trkpt lat="30.890194" lon="-97.950956" />
      <trkpt lat="30.890144" lon="-97.948969" />
      <trkpt lat="30.890077" lon="-97.945825" />
      <trkpt lat="30.889991" lon="-97.942349" />
      <trkpt lat="30.88995" lon="-97.940473" />
      <trkpt lat="30.889936" lon="-97.939831" />
      <trkpt lat="30.889933" lon="-97.935402" />
      <trkpt lat="30.889933" lon="-97.935303" />
      <trkpt lat="30.889931" lon="-97.935128" />
      <trkpt lat="30.889927" lon="-97.934541" />
      <trkpt lat="30.889923" lon="-97.934307" />
      <trkpt lat="30.889897" lon="-97.933898" />
      <trkpt lat="30.889865" lon="-97.933581" />
      <trkpt lat="30.889824" lon="-97.933295" />
      <trkpt lat="30.889773" lon="-97.933023" />
      <trkpt lat="30.889701" lon="-97.932717" />
      <trkpt lat="30.889607" lon="-97.932387" />
      <trkpt lat="30.889488" lon="-97.932045" />
      <trkpt lat="30.889436" lon="-97.931908" />
      <trkpt lat="30.88936" lon="-97.931709" />
      <trkpt lat="30.889205" lon="-97.931339" />
      <trkpt lat="30.889131" lon="-97.931163" />
      <trkpt lat="30.888659" lon="-97.930072" />
      <trkpt lat="30.888493" lon="-97.929688" />
      <trkpt lat="30.888326" lon="-97.92933" />
      <trkpt lat="30.888171" lon="-97.929019" />
      <trkpt lat="30.887973" lon="-97.928634" />
      <trkpt lat="30.887844" lon="-97.928393" />
      <trkpt lat="30.88745" lon="-97.927691" />
      <trkpt lat="30.887282" lon="-97.92739" />
      <trkpt lat="30.886739" lon="-97.926448" />
      <trkpt lat="30.886457" lon="-97.925935" />
      <trkpt lat="30.885907" lon="-97.924932" />
      <trkpt lat="30.885713" lon="-97.924583" />
    </trkseg>
  </trk>
</gpx>
