<?xml version='1.0' encoding='UTF-8'?>
<gpx version="1.1" creator="Antigravity Route Generator" xmlns="http://www.topografix.com/GPX/1/1">
  <trk>
    <name>Devil's Backbone Scenic Ridge</name>
    <desc>Twisties &amp; Canyons (34.3 mi) - RM 12 -&gt; RM 32 -&gt; US 281</desc>
    <trkseg>
      <trkpt lat="29.997456" lon="-98.098636" />
      <trkpt lat="29.997356" lon="-98.098475" />
      <trkpt lat="29.997239" lon="-98.098286" />
      <trkpt lat="29.997062" lon="-98.098" />
      <trkpt lat="29.996934" lon="-98.097771" />
      <trkpt lat="29.996649" lon="-98.097242" />
      <trkpt lat="29.99658" lon="-98.097123" />
      <trkpt lat="29.996546" lon="-98.097064" />
      <trkpt lat="29.996438" lon="-98.096925" />
      <trkpt lat="29.996309" lon="-98.096757" />
      <trkpt lat="29.996279" lon="-98.096677" />
      <trkpt lat="29.996274" lon="-98.096602" />
      <trkpt lat="29.996276" lon="-98.096586" />
      <trkpt lat="29.996286" lon="-98.096509" />
      <trkpt lat="29.996328" lon="-98.096351" />
      <trkpt lat="29.996379" lon="-98.096205" />
      <trkpt lat="29.99635" lon="-98.095998" />
      <trkpt lat="29.996165" lon="-98.09542" />
      <trkpt lat="29.996124" lon="-98.095293" />
      <trkpt lat="29.996062" lon="-98.095098" />
      <trkpt lat="29.996" lon="-98.094906" />
      <trkpt lat="29.995877" lon="-98.094517" />
      <trkpt lat="29.995864" lon="-98.094476" />
      <trkpt lat="29.995771" lon="-98.094185" />
      <trkpt lat="29.995765" lon="-98.094167" />
      <trkpt lat="29.995719" lon="-98.094031" />
      <trkpt lat="29.99558" lon="-98.093625" />
      <trkpt lat="29.995417" lon="-98.093107" />
      <trkpt lat="29.995336" lon="-98.09287" />
      <trkpt lat="29.995161" lon="-98.09232" />
      <trkpt lat="29.995105" lon="-98.09214" />
      <trkpt lat="29.995014" lon="-98.091813" />
      <trkpt lat="29.994843" lon="-98.091282" />
      <trkpt lat="29.994721" lon="-98.090901" />
      <trkpt lat="29.994694" lon="-98.090814" />
      <trkpt lat="29.994594" lon="-98.090498" />
      <trkpt lat="29.994582" lon="-98.090459" />
      <trkpt lat="29.994516" lon="-98.090256" />
      <trkpt lat="29.994489" lon="-98.090172" />
      <trkpt lat="29.994454" lon="-98.090064" />
      <trkpt lat="29.994436" lon="-98.090009" />
      <trkpt lat="29.994405" lon="-98.089924" />
      <trkpt lat="29.994392" lon="-98.089892" />
      <trkpt lat="29.99426" lon="-98.089577" />
      <trkpt lat="29.994164" lon="-98.089392" />
      <trkpt lat="29.99405" lon="-98.089217" />
      <trkpt lat="29.993921" lon="-98.089047" />
      <trkpt lat="29.993796" lon="-98.088901" />
      <trkpt lat="29.993588" lon="-98.088656" />
      <trkpt lat="29.993353" lon="-98.08844" />
      <trkpt lat="29.992972" lon="-98.088174" />
      <trkpt lat="29.992781" lon="-98.088048" />
      <trkpt lat="29.992366" lon="-98.087895" />
      <trkpt lat="29.992175" lon="-98.087841" />
      <trkpt lat="29.991901" lon="-98.0878" />
      <trkpt lat="29.991568" lon="-98.087784" />
      <trkpt lat="29.991116" lon="-98.087825" />
      <trkpt lat="29.990776" lon="-98.087854" />
      <trkpt lat="29.990665" lon="-98.08788" />
      <trkpt lat="29.989881" lon="-98.088099" />
      <trkpt lat="29.989134" lon="-98.088312" />
      <trkpt lat="29.988319" lon="-98.088528" />
      <trkpt lat="29.98713" lon="-98.088879" />
      <trkpt lat="29.986675" lon="-98.089047" />
      <trkpt lat="29.986242" lon="-98.089268" />
      <trkpt lat="29.985927" lon="-98.089474" />
      <trkpt lat="29.985824" lon="-98.089565" />
      <trkpt lat="29.985724" lon="-98.089654" />
      <trkpt lat="29.985438" lon="-98.089909" />
      <trkpt lat="29.985371" lon="-98.089985" />
      <trkpt lat="29.984644" lon="-98.09081" />
      <trkpt lat="29.984458" lon="-98.091011" />
      <trkpt lat="29.984225" lon="-98.091277" />
      <trkpt lat="29.983634" lon="-98.091951" />
      <trkpt lat="29.98333" lon="-98.092299" />
      <trkpt lat="29.983012" lon="-98.092633" />
      <trkpt lat="29.982643" lon="-98.092984" />
      <trkpt lat="29.982265" lon="-98.093259" />
      <trkpt lat="29.982041" lon="-98.093384" />
      <trkpt lat="29.981772" lon="-98.093533" />
      <trkpt lat="29.981342" lon="-98.093724" />
      <trkpt lat="29.980875" lon="-98.093854" />
      <trkpt lat="29.980433" lon="-98.093908" />
      <trkpt lat="29.979985" lon="-98.093923" />
      <trkpt lat="29.979382" lon="-98.093854" />
      <trkpt lat="29.979304" lon="-98.093822" />
      <trkpt lat="29.979091" lon="-98.093783" />
      <trkpt lat="29.978847" lon="-98.093724" />
      <trkpt lat="29.978702" lon="-98.093688" />
      <trkpt lat="29.978296" lon="-98.093586" />
      <trkpt lat="29.978123" lon="-98.093543" />
      <trkpt lat="29.977773" lon="-98.093455" />
      <trkpt lat="29.977173" lon="-98.093312" />
      <trkpt lat="29.975785" lon="-98.092971" />
      <trkpt lat="29.975429" lon="-98.092892" />
      <trkpt lat="29.974568" lon="-98.092771" />
      <trkpt lat="29.974312" lon="-98.092755" />
      <trkpt lat="29.973822" lon="-98.092749" />
      <trkpt lat="29.973652" lon="-98.092747" />
      <trkpt lat="29.972394" lon="-98.092788" />
      <trkpt lat="29.972002" lon="-98.092801" />
      <trkpt lat="29.971316" lon="-98.092773" />
      <trkpt lat="29.970448" lon="-98.092732" />
      <trkpt lat="29.970283" lon="-98.0927" />
      <trkpt lat="29.969947" lon="-98.092633" />
      <trkpt lat="29.96944" lon="-98.092504" />
      <trkpt lat="29.968966" lon="-98.092389" />
      <trkpt lat="29.966406" lon="-98.091741" />
      <trkpt lat="29.966343" lon="-98.091725" />
      <trkpt lat="29.966303" lon="-98.091715" />
      <trkpt lat="29.966162" lon="-98.091679" />
      <trkpt lat="29.965702" lon="-98.091588" />
      <trkpt lat="29.965639" lon="-98.091586" />
      <trkpt lat="29.965416" lon="-98.09158" />
      <trkpt lat="29.965012" lon="-98.091628" />
      <trkpt lat="29.964707" lon="-98.091692" />
      <trkpt lat="29.964036" lon="-98.09197" />
      <trkpt lat="29.963568" lon="-98.092329" />
      <trkpt lat="29.963355" lon="-98.092506" />
      <trkpt lat="29.963169" lon="-98.09266" />
      <trkpt lat="29.962723" lon="-98.093045" />
      <trkpt lat="29.962277" lon="-98.093382" />
      <trkpt lat="29.961709" lon="-98.093903" />
      <trkpt lat="29.961668" lon="-98.09394" />
      <trkpt lat="29.96117" lon="-98.09435" />
      <trkpt lat="29.960941" lon="-98.094525" />
      <trkpt lat="29.960781" lon="-98.094647" />
      <trkpt lat="29.960562" lon="-98.0948" />
      <trkpt lat="29.960318" lon="-98.094934" />
      <trkpt lat="29.960198" lon="-98.095" />
      <trkpt lat="29.959892" lon="-98.095171" />
      <trkpt lat="29.95968" lon="-98.095231" />
      <trkpt lat="29.95933" lon="-98.095288" />
      <trkpt lat="29.95899" lon="-98.095296" />
      <trkpt lat="29.958734" lon="-98.095269" />
      <trkpt lat="29.958205" lon="-98.095151" />
      <trkpt lat="29.958106" lon="-98.095143" />
      <trkpt lat="29.957778" lon="-98.095006" />
      <trkpt lat="29.957625" lon="-98.094937" />
      <trkpt lat="29.957273" lon="-98.094777" />
      <trkpt lat="29.956692" lon="-98.094563" />
      <trkpt lat="29.956408" lon="-98.094487" />
      <trkpt lat="29.955849" lon="-98.094418" />
      <trkpt lat="29.955548" lon="-98.09443" />
      <trkpt lat="29.955266" lon="-98.094441" />
      <trkpt lat="29.95495" lon="-98.094487" />
      <trkpt lat="29.95436" lon="-98.094548" />
      <trkpt lat="29.953961" lon="-98.094555" />
      <trkpt lat="29.953657" lon="-98.094517" />
      <trkpt lat="29.953347" lon="-98.094479" />
      <trkpt lat="29.953099" lon="-98.094418" />
      <trkpt lat="29.952826" lon="-98.094324" />
      <trkpt lat="29.952702" lon="-98.094281" />
      <trkpt lat="29.952116" lon="-98.09406" />
      <trkpt lat="29.951062" lon="-98.093663" />
      <trkpt lat="29.950712" lon="-98.093548" />
      <trkpt lat="29.95047" lon="-98.093519" />
      <trkpt lat="29.950214" lon="-98.093487" />
      <trkpt lat="29.949878" lon="-98.093464" />
      <trkpt lat="29.949435" lon="-98.093539" />
      <trkpt lat="29.949032" lon="-98.09357" />
      <trkpt lat="29.948789" lon="-98.093618" />
      <trkpt lat="29.948299" lon="-98.093623" />
      <trkpt lat="29.947801" lon="-98.093606" />
      <trkpt lat="29.947555" lon="-98.093577" />
      <trkpt lat="29.947069" lon="-98.093473" />
      <trkpt lat="29.946596" lon="-98.093329" />
      <trkpt lat="29.946515" lon="-98.093307" />
      <trkpt lat="29.946415" lon="-98.093281" />
      <trkpt lat="29.944886" lon="-98.092887" />
      <trkpt lat="29.944081" lon="-98.09268" />
      <trkpt lat="29.943597" lon="-98.092552" />
      <trkpt lat="29.943067" lon="-98.092345" />
      <trkpt lat="29.942942" lon="-98.092273" />
      <trkpt lat="29.942797" lon="-98.092189" />
      <trkpt lat="29.94247" lon="-98.091964" />
      <trkpt lat="29.942307" lon="-98.09224" />
      <trkpt lat="29.942219" lon="-98.092383" />
      <trkpt lat="29.942148" lon="-98.0925" />
      <trkpt lat="29.942016" lon="-98.09272" />
      <trkpt lat="29.941878" lon="-98.092977" />
      <trkpt lat="29.941726" lon="-98.09337" />
      <trkpt lat="29.941666" lon="-98.093543" />
      <trkpt lat="29.941611" lon="-98.093701" />
      <trkpt lat="29.941577" lon="-98.093957" />
      <trkpt lat="29.941574" lon="-98.094387" />
      <trkpt lat="29.94162" lon="-98.094648" />
      <trkpt lat="29.941674" lon="-98.094951" />
      <trkpt lat="29.941702" lon="-98.095417" />
      <trkpt lat="29.941742" lon="-98.095982" />
      <trkpt lat="29.941759" lon="-98.096531" />
      <trkpt lat="29.941755" lon="-98.096885" />
      <trkpt lat="29.941749" lon="-98.097112" />
      <trkpt lat="29.941701" lon="-98.097729" />
      <trkpt lat="29.941657" lon="-98.09808" />
      <trkpt lat="29.941508" lon="-98.098813" />
      <trkpt lat="29.941487" lon="-98.098896" />
      <trkpt lat="29.941374" lon="-98.099354" />
      <trkpt lat="29.941196" lon="-98.09995" />
      <trkpt lat="29.941157" lon="-98.100093" />
      <trkpt lat="29.940844" lon="-98.101226" />
      <trkpt lat="29.94074" lon="-98.101604" />
      <trkpt lat="29.940718" lon="-98.101682" />
      <trkpt lat="29.940692" lon="-98.10179" />
      <trkpt lat="29.94045" lon="-98.102592" />
      <trkpt lat="29.940433" lon="-98.10265" />
      <trkpt lat="29.940106" lon="-98.103803" />
      <trkpt lat="29.940044" lon="-98.104032" />
      <trkpt lat="29.94003" lon="-98.104085" />
      <trkpt lat="29.939942" lon="-98.104406" />
      <trkpt lat="29.939876" lon="-98.104636" />
      <trkpt lat="29.939641" lon="-98.105455" />
      <trkpt lat="29.93952" lon="-98.105878" />
      <trkpt lat="29.939403" lon="-98.106302" />
      <trkpt lat="29.93928" lon="-98.106748" />
      <trkpt lat="29.939182" lon="-98.107102" />
      <trkpt lat="29.939156" lon="-98.107196" />
      <trkpt lat="29.938738" lon="-98.108708" />
      <trkpt lat="29.938588" lon="-98.10925" />
      <trkpt lat="29.938132" lon="-98.110894" />
      <trkpt lat="29.937954" lon="-98.111537" />
      <trkpt lat="29.93786" lon="-98.111875" />
      <trkpt lat="29.93781" lon="-98.11206" />
      <trkpt lat="29.937696" lon="-98.112477" />
      <trkpt lat="29.937597" lon="-98.112805" />
      <trkpt lat="29.937455" lon="-98.1133" />
      <trkpt lat="29.937422" lon="-98.113416" />
      <trkpt lat="29.93737" lon="-98.113609" />
      <trkpt lat="29.937245" lon="-98.114072" />
      <trkpt lat="29.937222" lon="-98.114148" />
      <trkpt lat="29.93714" lon="-98.114415" />
      <trkpt lat="29.936786" lon="-98.115695" />
      <trkpt lat="29.936432" lon="-98.116976" />
      <trkpt lat="29.936125" lon="-98.118085" />
      <trkpt lat="29.936045" lon="-98.118505" />
      <trkpt lat="29.935808" lon="-98.119214" />
      <trkpt lat="29.935603" lon="-98.119943" />
      <trkpt lat="29.935552" lon="-98.120122" />
      <trkpt lat="29.935219" lon="-98.121343" />
      <trkpt lat="29.935053" lon="-98.121938" />
      <trkpt lat="29.934561" lon="-98.123663" />
      <trkpt lat="29.934555" lon="-98.123684" />
      <trkpt lat="29.934458" lon="-98.124005" />
      <trkpt lat="29.934286" lon="-98.124608" />
      <trkpt lat="29.934241" lon="-98.124774" />
      <trkpt lat="29.934117" lon="-98.125226" />
      <trkpt lat="29.934007" lon="-98.125669" />
      <trkpt lat="29.933936" lon="-98.126009" />
      <trkpt lat="29.933874" lon="-98.126302" />
      <trkpt lat="29.933771" lon="-98.126816" />
      <trkpt lat="29.933749" lon="-98.126928" />
      <trkpt lat="29.933726" lon="-98.127057" />
      <trkpt lat="29.933632" lon="-98.127576" />
      <trkpt lat="29.933611" lon="-98.127759" />
      <trkpt lat="29.933523" lon="-98.128538" />
      <trkpt lat="29.933472" lon="-98.129255" />
      <trkpt lat="29.933446" lon="-98.129926" />
      <trkpt lat="29.933437" lon="-98.130117" />
      <trkpt lat="29.933436" lon="-98.130834" />
      <trkpt lat="29.93344" lon="-98.131022" />
      <trkpt lat="29.933464" lon="-98.132261" />
      <trkpt lat="29.93347" lon="-98.132471" />
      <trkpt lat="29.933504" lon="-98.133664" />
      <trkpt lat="29.9335" lon="-98.133819" />
      <trkpt lat="29.933506" lon="-98.134001" />
      <trkpt lat="29.93352" lon="-98.134453" />
      <trkpt lat="29.933524" lon="-98.134588" />
      <trkpt lat="29.933536" lon="-98.134979" />
      <trkpt lat="29.933548" lon="-98.135351" />
      <trkpt lat="29.933568" lon="-98.136144" />
      <trkpt lat="29.933592" lon="-98.137075" />
      <trkpt lat="29.933617" lon="-98.137934" />
      <trkpt lat="29.933628" lon="-98.138283" />
      <trkpt lat="29.933641" lon="-98.138731" />
      <trkpt lat="29.933654" lon="-98.139333" />
      <trkpt lat="29.933668" lon="-98.139982" />
      <trkpt lat="29.933693" lon="-98.140778" />
      <trkpt lat="29.933702" lon="-98.141058" />
      <trkpt lat="29.933722" lon="-98.141995" />
      <trkpt lat="29.933726" lon="-98.142187" />
      <trkpt lat="29.933766" lon="-98.143189" />
      <trkpt lat="29.933772" lon="-98.143339" />
      <trkpt lat="29.933814" lon="-98.143957" />
      <trkpt lat="29.933837" lon="-98.144163" />
      <trkpt lat="29.933848" lon="-98.144263" />
      <trkpt lat="29.933852" lon="-98.144301" />
      <trkpt lat="29.933967" lon="-98.145256" />
      <trkpt lat="29.934003" lon="-98.145557" />
      <trkpt lat="29.934009" lon="-98.145605" />
      <trkpt lat="29.934057" lon="-98.145947" />
      <trkpt lat="29.934144" lon="-98.14656" />
      <trkpt lat="29.934159" lon="-98.146665" />
      <trkpt lat="29.934234" lon="-98.147238" />
      <trkpt lat="29.934266" lon="-98.147535" />
      <trkpt lat="29.934292" lon="-98.147732" />
      <trkpt lat="29.934331" lon="-98.148029" />
      <trkpt lat="29.934341" lon="-98.148107" />
      <trkpt lat="29.934409" lon="-98.148764" />
      <trkpt lat="29.934416" lon="-98.148848" />
      <trkpt lat="29.934441" lon="-98.149137" />
      <trkpt lat="29.934462" lon="-98.149718" />
      <trkpt lat="29.93444" lon="-98.150236" />
      <trkpt lat="29.934407" lon="-98.150671" />
      <trkpt lat="29.934378" lon="-98.150946" />
      <trkpt lat="29.934371" lon="-98.151007" />
      <trkpt lat="29.934348" lon="-98.151281" />
      <trkpt lat="29.934318" lon="-98.151587" />
      <trkpt lat="29.934267" lon="-98.152182" />
      <trkpt lat="29.93422" lon="-98.152719" />
      <trkpt lat="29.934117" lon="-98.153587" />
      <trkpt lat="29.934106" lon="-98.153681" />
      <trkpt lat="29.933895" lon="-98.154766" />
      <trkpt lat="29.93366" lon="-98.155882" />
      <trkpt lat="29.933566" lon="-98.15638" />
      <trkpt lat="29.933503" lon="-98.157055" />
      <trkpt lat="29.933497" lon="-98.157413" />
      <trkpt lat="29.933546" lon="-98.158094" />
      <trkpt lat="29.933588" lon="-98.158427" />
      <trkpt lat="29.93365" lon="-98.158792" />
      <trkpt lat="29.933668" lon="-98.158876" />
      <trkpt lat="29.93381" lon="-98.159549" />
      <trkpt lat="29.933849" lon="-98.15985" />
      <trkpt lat="29.933857" lon="-98.160169" />
      <trkpt lat="29.933839" lon="-98.160458" />
      <trkpt lat="29.933795" lon="-98.160731" />
      <trkpt lat="29.933746" lon="-98.160957" />
      <trkpt lat="29.933647" lon="-98.161245" />
      <trkpt lat="29.933504" lon="-98.161688" />
      <trkpt lat="29.933451" lon="-98.161851" />
      <trkpt lat="29.933364" lon="-98.162157" />
      <trkpt lat="29.933335" lon="-98.162352" />
      <trkpt lat="29.933318" lon="-98.162577" />
      <trkpt lat="29.933303" lon="-98.162896" />
      <trkpt lat="29.933289" lon="-98.163404" />
      <trkpt lat="29.933275" lon="-98.163629" />
      <trkpt lat="29.933232" lon="-98.163909" />
      <trkpt lat="29.933173" lon="-98.164142" />
      <trkpt lat="29.933098" lon="-98.164366" />
      <trkpt lat="29.932932" lon="-98.164751" />
      <trkpt lat="29.93286" lon="-98.164958" />
      <trkpt lat="29.932777" lon="-98.165194" />
      <trkpt lat="29.932699" lon="-98.165519" />
      <trkpt lat="29.932666" lon="-98.165808" />
      <trkpt lat="29.932651" lon="-98.166014" />
      <trkpt lat="29.932682" lon="-98.166419" />
      <trkpt lat="29.932712" lon="-98.166635" />
      <trkpt lat="29.932768" lon="-98.166946" />
      <trkpt lat="29.932802" lon="-98.167137" />
      <trkpt lat="29.932841" lon="-98.167421" />
      <trkpt lat="29.93285" lon="-98.167682" />
      <trkpt lat="29.93283" lon="-98.16792" />
      <trkpt lat="29.932787" lon="-98.168163" />
      <trkpt lat="29.93275" lon="-98.168312" />
      <trkpt lat="29.932669" lon="-98.168529" />
      <trkpt lat="29.932594" lon="-98.168669" />
      <trkpt lat="29.932204" lon="-98.169252" />
      <trkpt lat="29.931937" lon="-98.169662" />
      <trkpt lat="29.931775" lon="-98.170125" />
      <trkpt lat="29.93172" lon="-98.170384" />
      <trkpt lat="29.931676" lon="-98.170663" />
      <trkpt lat="29.931643" lon="-98.170978" />
      <trkpt lat="29.931619" lon="-98.171207" />
      <trkpt lat="29.931585" lon="-98.171479" />
      <trkpt lat="29.93154" lon="-98.171753" />
      <trkpt lat="29.931509" lon="-98.171891" />
      <trkpt lat="29.931488" lon="-98.171984" />
      <trkpt lat="29.931414" lon="-98.172212" />
      <trkpt lat="29.930665" lon="-98.174115" />
      <trkpt lat="29.930592" lon="-98.174383" />
      <trkpt lat="29.930558" lon="-98.174554" />
      <trkpt lat="29.930526" lon="-98.17479" />
      <trkpt lat="29.930521" lon="-98.175004" />
      <trkpt lat="29.930526" lon="-98.175238" />
      <trkpt lat="29.930552" lon="-98.17545" />
      <trkpt lat="29.930608" lon="-98.175783" />
      <trkpt lat="29.930683" lon="-98.176087" />
      <trkpt lat="29.930936" lon="-98.176878" />
      <trkpt lat="29.931115" lon="-98.177728" />
      <trkpt lat="29.931155" lon="-98.177944" />
      <trkpt lat="29.931213" lon="-98.178417" />
      <trkpt lat="29.931246" lon="-98.178844" />
      <trkpt lat="29.931266" lon="-98.179379" />
      <trkpt lat="29.931262" lon="-98.179757" />
      <trkpt lat="29.931239" lon="-98.180227" />
      <trkpt lat="29.931182" lon="-98.180821" />
      <trkpt lat="29.931119" lon="-98.181267" />
      <trkpt lat="29.930928" lon="-98.18227" />
      <trkpt lat="29.93062" lon="-98.183876" />
      <trkpt lat="29.930577" lon="-98.184143" />
      <trkpt lat="29.930518" lon="-98.184635" />
      <trkpt lat="29.930494" lon="-98.184971" />
      <trkpt lat="29.930475" lon="-98.185576" />
      <trkpt lat="29.930485" lon="-98.18597" />
      <trkpt lat="29.930492" lon="-98.186084" />
      <trkpt lat="29.930519" lon="-98.186509" />
      <trkpt lat="29.930576" lon="-98.187003" />
      <trkpt lat="29.930644" lon="-98.18744" />
      <trkpt lat="29.930711" lon="-98.187762" />
      <trkpt lat="29.930741" lon="-98.187908" />
      <trkpt lat="29.930827" lon="-98.188242" />
      <trkpt lat="29.930939" lon="-98.188627" />
      <trkpt lat="29.931084" lon="-98.189062" />
      <trkpt lat="29.931108" lon="-98.189113" />
      <trkpt lat="29.931194" lon="-98.189344" />
      <trkpt lat="29.931347" lon="-98.189697" />
      <trkpt lat="29.931439" lon="-98.189899" />
      <trkpt lat="29.931519" lon="-98.190074" />
      <trkpt lat="29.931551" lon="-98.190137" />
      <trkpt lat="29.931667" lon="-98.190361" />
      <trkpt lat="29.93184" lon="-98.190649" />
      <trkpt lat="29.932065" lon="-98.191042" />
      <trkpt lat="29.932299" lon="-98.191416" />
      <trkpt lat="29.932466" lon="-98.191682" />
      <trkpt lat="29.932756" lon="-98.192161" />
      <trkpt lat="29.933017" lon="-98.192509" />
      <trkpt lat="29.933781" lon="-98.19385" />
      <trkpt lat="29.934278" lon="-98.194782" />
      <trkpt lat="29.934732" lon="-98.195927" />
      <trkpt lat="29.93513" lon="-98.197279" />
      <trkpt lat="29.93526" lon="-98.197714" />
      <trkpt lat="29.936123" lon="-98.200503" />
      <trkpt lat="29.93613" lon="-98.200525" />
      <trkpt lat="29.936315" lon="-98.201084" />
      <trkpt lat="29.936492" lon="-98.201515" />
      <trkpt lat="29.936631" lon="-98.201818" />
      <trkpt lat="29.93674" lon="-98.202054" />
      <trkpt lat="29.936972" lon="-98.202488" />
      <trkpt lat="29.937184" lon="-98.202846" />
      <trkpt lat="29.93743" lon="-98.203217" />
      <trkpt lat="29.937746" lon="-98.20364" />
      <trkpt lat="29.937914" lon="-98.203858" />
      <trkpt lat="29.938297" lon="-98.204354" />
      <trkpt lat="29.938713" lon="-98.2049" />
      <trkpt lat="29.939635" lon="-98.206111" />
      <trkpt lat="29.939688" lon="-98.20618" />
      <trkpt lat="29.94005" lon="-98.206655" />
      <trkpt lat="29.940981" lon="-98.207878" />
      <trkpt lat="29.941063" lon="-98.207985" />
      <trkpt lat="29.941187" lon="-98.208148" />
      <trkpt lat="29.941421" lon="-98.208475" />
      <trkpt lat="29.941613" lon="-98.208744" />
      <trkpt lat="29.942599" lon="-98.210037" />
      <trkpt lat="29.943883" lon="-98.211721" />
      <trkpt lat="29.943934" lon="-98.211788" />
      <trkpt lat="29.944564" lon="-98.212614" />
      <trkpt lat="29.944979" lon="-98.213159" />
      <trkpt lat="29.945183" lon="-98.21342" />
      <trkpt lat="29.945491" lon="-98.213847" />
      <trkpt lat="29.945551" lon="-98.213931" />
      <trkpt lat="29.94568" lon="-98.214133" />
      <trkpt lat="29.945803" lon="-98.214308" />
      <trkpt lat="29.946292" lon="-98.215079" />
      <trkpt lat="29.946756" lon="-98.215934" />
      <trkpt lat="29.946843" lon="-98.216104" />
      <trkpt lat="29.947768" lon="-98.21791" />
      <trkpt lat="29.948042" lon="-98.218408" />
      <trkpt lat="29.948222" lon="-98.218741" />
      <trkpt lat="29.948515" lon="-98.219284" />
      <trkpt lat="29.949047" lon="-98.220282" />
      <trkpt lat="29.950699" lon="-98.223406" />
      <trkpt lat="29.950986" lon="-98.223957" />
      <trkpt lat="29.951108" lon="-98.224192" />
      <trkpt lat="29.951648" lon="-98.225191" />
      <trkpt lat="29.951879" lon="-98.225612" />
      <trkpt lat="29.952158" lon="-98.226041" />
      <trkpt lat="29.952389" lon="-98.22635" />
      <trkpt lat="29.952488" lon="-98.226473" />
      <trkpt lat="29.952767" lon="-98.226781" />
      <trkpt lat="29.953001" lon="-98.227019" />
      <trkpt lat="29.95314" lon="-98.227144" />
      <trkpt lat="29.953394" lon="-98.227364" />
      <trkpt lat="29.953537" lon="-98.227481" />
      <trkpt lat="29.953886" lon="-98.227723" />
      <trkpt lat="29.954063" lon="-98.227838" />
      <trkpt lat="29.954466" lon="-98.228064" />
      <trkpt lat="29.954878" lon="-98.22825" />
      <trkpt lat="29.955108" lon="-98.228343" />
      <trkpt lat="29.956555" lon="-98.228898" />
      <trkpt lat="29.956657" lon="-98.228937" />
      <trkpt lat="29.956763" lon="-98.228976" />
      <trkpt lat="29.957177" lon="-98.22913" />
      <trkpt lat="29.958377" lon="-98.229587" />
      <trkpt lat="29.95986" lon="-98.230152" />
      <trkpt lat="29.96001" lon="-98.230207" />
      <trkpt lat="29.960062" lon="-98.230226" />
      <trkpt lat="29.960249" lon="-98.230294" />
      <trkpt lat="29.962288" lon="-98.23108" />
      <trkpt lat="29.963411" lon="-98.231512" />
      <trkpt lat="29.964506" lon="-98.231934" />
      <trkpt lat="29.964934" lon="-98.232131" />
      <trkpt lat="29.965003" lon="-98.232171" />
      <trkpt lat="29.965372" lon="-98.232383" />
      <trkpt lat="29.965763" lon="-98.232627" />
      <trkpt lat="29.966391" lon="-98.23302" />
      <trkpt lat="29.966774" lon="-98.233259" />
      <trkpt lat="29.967082" lon="-98.233461" />
      <trkpt lat="29.967679" lon="-98.233853" />
      <trkpt lat="29.968147" lon="-98.234206" />
      <trkpt lat="29.968414" lon="-98.234466" />
      <trkpt lat="29.968513" lon="-98.234574" />
      <trkpt lat="29.968883" lon="-98.235005" />
      <trkpt lat="29.969068" lon="-98.235249" />
      <trkpt lat="29.969325" lon="-98.235679" />
      <trkpt lat="29.969601" lon="-98.236236" />
      <trkpt lat="29.969743" lon="-98.236523" />
      <trkpt lat="29.969799" lon="-98.236664" />
      <trkpt lat="29.96993" lon="-98.23708" />
      <trkpt lat="29.969993" lon="-98.237314" />
      <trkpt lat="29.970071" lon="-98.237671" />
      <trkpt lat="29.970132" lon="-98.237916" />
      <trkpt lat="29.970161" lon="-98.23825" />
      <trkpt lat="29.970165" lon="-98.238288" />
      <trkpt lat="29.970188" lon="-98.238526" />
      <trkpt lat="29.970201" lon="-98.238803" />
      <trkpt lat="29.970204" lon="-98.239023" />
      <trkpt lat="29.970201" lon="-98.239223" />
      <trkpt lat="29.970182" lon="-98.239558" />
      <trkpt lat="29.970138" lon="-98.239908" />
      <trkpt lat="29.970112" lon="-98.240103" />
      <trkpt lat="29.970074" lon="-98.240381" />
      <trkpt lat="29.96998" lon="-98.241078" />
      <trkpt lat="29.969967" lon="-98.241174" />
      <trkpt lat="29.969907" lon="-98.241574" />
      <trkpt lat="29.969876" lon="-98.241889" />
      <trkpt lat="29.969851" lon="-98.24214" />
      <trkpt lat="29.969826" lon="-98.242673" />
      <trkpt lat="29.96983" lon="-98.243422" />
      <trkpt lat="29.96984" lon="-98.243578" />
      <trkpt lat="29.969848" lon="-98.243669" />
      <trkpt lat="29.969867" lon="-98.243886" />
      <trkpt lat="29.969956" lon="-98.244565" />
      <trkpt lat="29.970034" lon="-98.244988" />
      <trkpt lat="29.970095" lon="-98.245277" />
      <trkpt lat="29.970112" lon="-98.24534" />
      <trkpt lat="29.970217" lon="-98.245732" />
      <trkpt lat="29.970287" lon="-98.245953" />
      <trkpt lat="29.970362" lon="-98.246239" />
      <trkpt lat="29.970479" lon="-98.246594" />
      <trkpt lat="29.971096" lon="-98.248584" />
      <trkpt lat="29.971139" lon="-98.248723" />
      <trkpt lat="29.971368" lon="-98.249479" />
      <trkpt lat="29.972234" lon="-98.25227" />
      <trkpt lat="29.972547" lon="-98.253284" />
      <trkpt lat="29.972633" lon="-98.253759" />
      <trkpt lat="29.972677" lon="-98.253998" />
      <trkpt lat="29.972799" lon="-98.254503" />
      <trkpt lat="29.973099" lon="-98.255856" />
      <trkpt lat="29.973363" lon="-98.256969" />
      <trkpt lat="29.973373" lon="-98.257012" />
      <trkpt lat="29.9734" lon="-98.257134" />
      <trkpt lat="29.97344" lon="-98.257313" />
      <trkpt lat="29.973667" lon="-98.258333" />
      <trkpt lat="29.974352" lon="-98.261411" />
      <trkpt lat="29.974558" lon="-98.262265" />
      <trkpt lat="29.974595" lon="-98.262438" />
      <trkpt lat="29.974696" lon="-98.26291" />
      <trkpt lat="29.974744" lon="-98.263131" />
      <trkpt lat="29.974846" lon="-98.263608" />
      <trkpt lat="29.974998" lon="-98.264257" />
      <trkpt lat="29.975068" lon="-98.264557" />
      <trkpt lat="29.97526" lon="-98.265397" />
      <trkpt lat="29.975543" lon="-98.266639" />
      <trkpt lat="29.975715" lon="-98.267417" />
      <trkpt lat="29.97598" lon="-98.268614" />
      <trkpt lat="29.976175" lon="-98.26939" />
      <trkpt lat="29.976596" lon="-98.271274" />
      <trkpt lat="29.976844" lon="-98.272353" />
      <trkpt lat="29.976896" lon="-98.27258" />
      <trkpt lat="29.977066" lon="-98.273352" />
      <trkpt lat="29.977142" lon="-98.273687" />
      <trkpt lat="29.977378" lon="-98.274718" />
      <trkpt lat="29.977589" lon="-98.275437" />
      <trkpt lat="29.977737" lon="-98.275854" />
      <trkpt lat="29.977747" lon="-98.275883" />
      <trkpt lat="29.977833" lon="-98.276088" />
      <trkpt lat="29.978005" lon="-98.276473" />
      <trkpt lat="29.978147" lon="-98.276787" />
      <trkpt lat="29.978179" lon="-98.27684" />
      <trkpt lat="29.978347" lon="-98.277148" />
      <trkpt lat="29.978549" lon="-98.277484" />
      <trkpt lat="29.978613" lon="-98.27758" />
      <trkpt lat="29.978782" lon="-98.277835" />
      <trkpt lat="29.979009" lon="-98.278157" />
      <trkpt lat="29.979075" lon="-98.278249" />
      <trkpt lat="29.979133" lon="-98.278329" />
      <trkpt lat="29.979614" lon="-98.278995" />
      <trkpt lat="29.980019" lon="-98.279574" />
      <trkpt lat="29.980117" lon="-98.27972" />
      <trkpt lat="29.980132" lon="-98.279743" />
      <trkpt lat="29.980235" lon="-98.279914" />
      <trkpt lat="29.980392" lon="-98.28016" />
      <trkpt lat="29.980811" lon="-98.280885" />
      <trkpt lat="29.981087" lon="-98.281397" />
      <trkpt lat="29.981207" lon="-98.281614" />
      <trkpt lat="29.981465" lon="-98.282127" />
      <trkpt lat="29.982315" lon="-98.283804" />
      <trkpt lat="29.98284" lon="-98.284841" />
      <trkpt lat="29.982953" lon="-98.285064" />
      <trkpt lat="29.982975" lon="-98.285107" />
      <trkpt lat="29.98343" lon="-98.286014" />
      <trkpt lat="29.983966" lon="-98.287058" />
      <trkpt lat="29.984164" lon="-98.287456" />
      <trkpt lat="29.984307" lon="-98.287744" />
      <trkpt lat="29.986822" lon="-98.292692" />
      <trkpt lat="29.987355" lon="-98.293738" />
      <trkpt lat="29.988774" lon="-98.296522" />
      <trkpt lat="29.988911" lon="-98.296798" />
      <trkpt lat="29.989149" lon="-98.297275" />
      <trkpt lat="29.990648" lon="-98.300208" />
      <trkpt lat="29.990751" lon="-98.300412" />
      <trkpt lat="29.991132" lon="-98.301167" />
      <trkpt lat="29.991194" lon="-98.301283" />
      <trkpt lat="29.991406" lon="-98.301678" />
      <trkpt lat="29.991696" lon="-98.302168" />
      <trkpt lat="29.991925" lon="-98.302509" />
      <trkpt lat="29.99207" lon="-98.30271" />
      <trkpt lat="29.992167" lon="-98.302845" />
      <trkpt lat="29.992308" lon="-98.303021" />
      <trkpt lat="29.992405" lon="-98.303141" />
      <trkpt lat="29.992592" lon="-98.30335" />
      <trkpt lat="29.992719" lon="-98.303502" />
      <trkpt lat="29.993257" lon="-98.304004" />
      <trkpt lat="29.993844" lon="-98.304492" />
      <trkpt lat="29.993969" lon="-98.304561" />
      <trkpt lat="29.994308" lon="-98.304784" />
      <trkpt lat="29.994841" lon="-98.305137" />
      <trkpt lat="29.994886" lon="-98.305166" />
      <trkpt lat="29.99525" lon="-98.305407" />
      <trkpt lat="29.995435" lon="-98.305529" />
      <trkpt lat="29.995796" lon="-98.305767" />
      <trkpt lat="29.996587" lon="-98.306287" />
      <trkpt lat="29.997684" lon="-98.30701" />
      <trkpt lat="29.997843" lon="-98.307115" />
      <trkpt lat="29.997925" lon="-98.307169" />
      <trkpt lat="29.999318" lon="-98.308098" />
      <trkpt lat="29.999869" lon="-98.308452" />
      <trkpt lat="30.000117" lon="-98.308597" />
      <trkpt lat="30.000726" lon="-98.308992" />
      <trkpt lat="30.000807" lon="-98.309056" />
      <trkpt lat="30.000938" lon="-98.309159" />
      <trkpt lat="30.001063" lon="-98.309251" />
      <trkpt lat="30.00127" lon="-98.309424" />
      <trkpt lat="30.001422" lon="-98.309559" />
      <trkpt lat="30.001844" lon="-98.309981" />
      <trkpt lat="30.002158" lon="-98.310334" />
      <trkpt lat="30.002364" lon="-98.310586" />
      <trkpt lat="30.002575" lon="-98.310864" />
      <trkpt lat="30.002777" lon="-98.311119" />
      <trkpt lat="30.002847" lon="-98.311201" />
      <trkpt lat="30.003339" lon="-98.311866" />
      <trkpt lat="30.003354" lon="-98.311887" />
      <trkpt lat="30.003569" lon="-98.312157" />
      <trkpt lat="30.004166" lon="-98.312958" />
      <trkpt lat="30.004257" lon="-98.313084" />
      <trkpt lat="30.004338" lon="-98.313196" />
      <trkpt lat="30.004625" lon="-98.313594" />
      <trkpt lat="30.006262" lon="-98.31574" />
      <trkpt lat="30.006727" lon="-98.316344" />
      <trkpt lat="30.006859" lon="-98.316517" />
      <trkpt lat="30.008933" lon="-98.319229" />
      <trkpt lat="30.00933" lon="-98.319748" />
      <trkpt lat="30.009673" lon="-98.320197" />
      <trkpt lat="30.010096" lon="-98.320732" />
      <trkpt lat="30.010127" lon="-98.320771" />
      <trkpt lat="30.010431" lon="-98.321133" />
      <trkpt lat="30.010728" lon="-98.321473" />
      <trkpt lat="30.010805" lon="-98.321554" />
      <trkpt lat="30.011111" lon="-98.321876" />
      <trkpt lat="30.011775" lon="-98.322542" />
      <trkpt lat="30.012177" lon="-98.322936" />
      <trkpt lat="30.01264" lon="-98.323401" />
      <trkpt lat="30.012735" lon="-98.323497" />
      <trkpt lat="30.01344" lon="-98.324188" />
      <trkpt lat="30.014073" lon="-98.324817" />
      <trkpt lat="30.014194" lon="-98.324933" />
      <trkpt lat="30.015571" lon="-98.326315" />
      <trkpt lat="30.016137" lon="-98.326901" />
      <trkpt lat="30.016609" lon="-98.327375" />
      <trkpt lat="30.016978" lon="-98.32773" />
      <trkpt lat="30.017688" lon="-98.32841" />
      <trkpt lat="30.018019" lon="-98.328698" />
      <trkpt lat="30.018361" lon="-98.328966" />
      <trkpt lat="30.018625" lon="-98.329153" />
      <trkpt lat="30.020513" lon="-98.330419" />
      <trkpt lat="30.02069" lon="-98.330539" />
      <trkpt lat="30.020722" lon="-98.330561" />
      <trkpt lat="30.020758" lon="-98.330585" />
      <trkpt lat="30.020939" lon="-98.330704" />
      <trkpt lat="30.021501" lon="-98.331073" />
      <trkpt lat="30.021542" lon="-98.331101" />
      <trkpt lat="30.021647" lon="-98.33117" />
      <trkpt lat="30.023221" lon="-98.332187" />
      <trkpt lat="30.023145" lon="-98.332264" />
      <trkpt lat="30.022086" lon="-98.333334" />
      <trkpt lat="30.021931" lon="-98.333508" />
      <trkpt lat="30.021788" lon="-98.333694" />
      <trkpt lat="30.021656" lon="-98.333892" />
      <trkpt lat="30.021537" lon="-98.334098" />
      <trkpt lat="30.02143" lon="-98.334314" />
      <trkpt lat="30.021336" lon="-98.334539" />
      <trkpt lat="30.021256" lon="-98.334769" />
      <trkpt lat="30.021189" lon="-98.335006" />
      <trkpt lat="30.021138" lon="-98.335247" />
      <trkpt lat="30.021119" lon="-98.335374" />
      <trkpt lat="30.021081" lon="-98.335633" />
      <trkpt lat="30.020987" lon="-98.336264" />
      <trkpt lat="30.020903" lon="-98.336823" />
      <trkpt lat="30.020837" lon="-98.337269" />
      <trkpt lat="30.020798" lon="-98.337641" />
      <trkpt lat="30.020783" lon="-98.337876" />
      <trkpt lat="30.020755" lon="-98.338963" />
      <trkpt lat="30.020709" lon="-98.339821" />
      <trkpt lat="30.020664" lon="-98.340317" />
      <trkpt lat="30.020599" lon="-98.340811" />
      <trkpt lat="30.020538" lon="-98.341168" />
      <trkpt lat="30.020515" lon="-98.3413" />
      <trkpt lat="30.020413" lon="-98.341785" />
      <trkpt lat="30.020292" lon="-98.342264" />
      <trkpt lat="30.020138" lon="-98.342794" />
      <trkpt lat="30.019984" lon="-98.343256" />
      <trkpt lat="30.019922" lon="-98.34342" />
      <trkpt lat="30.019813" lon="-98.343711" />
      <trkpt lat="30.019626" lon="-98.344158" />
      <trkpt lat="30.019194" lon="-98.345084" />
      <trkpt lat="30.019121" lon="-98.345241" />
      <trkpt lat="30.018887" lon="-98.345743" />
      <trkpt lat="30.017126" lon="-98.349557" />
      <trkpt lat="30.016342" lon="-98.351226" />
      <trkpt lat="30.016074" lon="-98.351836" />
      <trkpt lat="30.016025" lon="-98.351947" />
      <trkpt lat="30.015759" lon="-98.352522" />
      <trkpt lat="30.015353" lon="-98.353386" />
      <trkpt lat="30.015156" lon="-98.35376" />
      <trkpt lat="30.014943" lon="-98.354125" />
      <trkpt lat="30.014716" lon="-98.354478" />
      <trkpt lat="30.014393" lon="-98.354926" />
      <trkpt lat="30.014271" lon="-98.355095" />
      <trkpt lat="30.012705" lon="-98.357197" />
      <trkpt lat="30.012108" lon="-98.357998" />
      <trkpt lat="30.011398" lon="-98.358974" />
      <trkpt lat="30.011273" lon="-98.359171" />
      <trkpt lat="30.01116" lon="-98.359378" />
      <trkpt lat="30.01106" lon="-98.359594" />
      <trkpt lat="30.010975" lon="-98.359817" />
      <trkpt lat="30.010942" lon="-98.359929" />
      <trkpt lat="30.010871" lon="-98.360211" />
      <trkpt lat="30.010835" lon="-98.360382" />
      <trkpt lat="30.010789" lon="-98.360669" />
      <trkpt lat="30.010759" lon="-98.36096" />
      <trkpt lat="30.010741" lon="-98.361776" />
      <trkpt lat="30.010641" lon="-98.366408" />
      <trkpt lat="30.010632" lon="-98.367145" />
      <trkpt lat="30.010613" lon="-98.367444" />
      <trkpt lat="30.010573" lon="-98.36774" />
      <trkpt lat="30.010525" lon="-98.367977" />
      <trkpt lat="30.010446" lon="-98.368272" />
      <trkpt lat="30.010413" lon="-98.368377" />
      <trkpt lat="30.010302" lon="-98.368683" />
      <trkpt lat="30.010169" lon="-98.368949" />
      <trkpt lat="30.010021" lon="-98.369205" />
      <trkpt lat="30.009859" lon="-98.369448" />
      <trkpt lat="30.009673" lon="-98.369673" />
      <trkpt lat="30.00947" lon="-98.369881" />
      <trkpt lat="30.009254" lon="-98.370068" />
      <trkpt lat="30.009033" lon="-98.370228" />
      <trkpt lat="30.008801" lon="-98.370367" />
      <trkpt lat="30.008559" lon="-98.370484" />
      <trkpt lat="30.008314" lon="-98.370578" />
      <trkpt lat="30.008117" lon="-98.370635" />
      <trkpt lat="30.007916" lon="-98.370675" />
      <trkpt lat="30.007808" lon="-98.370689" />
      <trkpt lat="30.007592" lon="-98.370702" />
      <trkpt lat="30.006089" lon="-98.370652" />
      <trkpt lat="30.005891" lon="-98.37065" />
      <trkpt lat="30.005167" lon="-98.370641" />
      <trkpt lat="30.00426" lon="-98.370608" />
      <trkpt lat="30.001881" lon="-98.370546" />
      <trkpt lat="30.001412" lon="-98.370533" />
      <trkpt lat="30.000756" lon="-98.37051" />
      <trkpt lat="30.000422" lon="-98.370506" />
      <trkpt lat="30.000102" lon="-98.370538" />
      <trkpt lat="29.999868" lon="-98.370582" />
      <trkpt lat="29.999696" lon="-98.370632" />
      <trkpt lat="29.999387" lon="-98.370754" />
      <trkpt lat="29.999139" lon="-98.37088" />
      <trkpt lat="29.998948" lon="-98.370997" />
      <trkpt lat="29.99872" lon="-98.371165" />
      <trkpt lat="29.998504" lon="-98.371354" />
      <trkpt lat="29.998343" lon="-98.371519" />
      <trkpt lat="29.998157" lon="-98.371742" />
      <trkpt lat="29.997988" lon="-98.371982" />
      <trkpt lat="29.997837" lon="-98.372237" />
      <trkpt lat="29.997734" lon="-98.372447" />
      <trkpt lat="29.997645" lon="-98.372663" />
      <trkpt lat="29.997569" lon="-98.372886" />
      <trkpt lat="29.997462" lon="-98.373292" />
      <trkpt lat="29.997416" lon="-98.373532" />
      <trkpt lat="29.997385" lon="-98.373776" />
      <trkpt lat="29.99737" lon="-98.374021" />
      <trkpt lat="29.997371" lon="-98.374267" />
      <trkpt lat="29.997404" lon="-98.375012" />
      <trkpt lat="29.997445" lon="-98.37641" />
      <trkpt lat="29.997469" lon="-98.377393" />
      <trkpt lat="29.997463" lon="-98.377578" />
      <trkpt lat="29.997443" lon="-98.377824" />
      <trkpt lat="29.997407" lon="-98.378068" />
      <trkpt lat="29.997356" lon="-98.378309" />
      <trkpt lat="29.997291" lon="-98.378544" />
      <trkpt lat="29.997211" lon="-98.378774" />
      <trkpt lat="29.997117" lon="-98.378996" />
      <trkpt lat="29.997011" lon="-98.379212" />
      <trkpt lat="29.996836" lon="-98.379539" />
      <trkpt lat="29.99677" lon="-98.379663" />
      <trkpt lat="29.995418" lon="-98.381857" />
      <trkpt lat="29.994172" lon="-98.38392" />
      <trkpt lat="29.994054" lon="-98.384125" />
      <trkpt lat="29.993951" lon="-98.384338" />
      <trkpt lat="29.993862" lon="-98.38456" />
      <trkpt lat="29.993787" lon="-98.384787" />
      <trkpt lat="29.993725" lon="-98.385021" />
      <trkpt lat="29.993678" lon="-98.385258" />
      <trkpt lat="29.993636" lon="-98.385557" />
      <trkpt lat="29.993614" lon="-98.385858" />
      <trkpt lat="29.993612" lon="-98.38616" />
      <trkpt lat="29.993631" lon="-98.386462" />
      <trkpt lat="29.993867" lon="-98.390847" />
      <trkpt lat="29.993937" lon="-98.392195" />
      <trkpt lat="29.99397" lon="-98.392484" />
      <trkpt lat="29.994011" lon="-98.392713" />
      <trkpt lat="29.994054" lon="-98.392926" />
      <trkpt lat="29.994087" lon="-98.393006" />
      <trkpt lat="29.994152" lon="-98.393229" />
      <trkpt lat="29.994268" lon="-98.393511" />
      <trkpt lat="29.994341" lon="-98.393661" />
      <trkpt lat="29.9944" lon="-98.393783" />
      <trkpt lat="29.99444" lon="-98.393853" />
      <trkpt lat="29.994548" lon="-98.394043" />
      <trkpt lat="29.995093" lon="-98.394915" />
      <trkpt lat="29.995438" lon="-98.395424" />
      <trkpt lat="29.99568" lon="-98.395738" />
      <trkpt lat="29.995887" lon="-98.39598" />
      <trkpt lat="29.995941" lon="-98.396045" />
      <trkpt lat="29.996215" lon="-98.396337" />
      <trkpt lat="29.996461" lon="-98.396572" />
      <trkpt lat="29.998591" lon="-98.398507" />
      <trkpt lat="29.998787" lon="-98.398715" />
      <trkpt lat="29.998969" lon="-98.39894" />
      <trkpt lat="29.999136" lon="-98.39918" />
      <trkpt lat="30.001963" lon="-98.404006" />
      <trkpt lat="30.002038" lon="-98.404166" />
      <trkpt lat="30.002104" lon="-98.404331" />
      <trkpt lat="30.002159" lon="-98.404501" />
      <trkpt lat="30.002203" lon="-98.404675" />
      <trkpt lat="30.002235" lon="-98.404854" />
      <trkpt lat="30.002257" lon="-98.405033" />
      <trkpt lat="30.002261" lon="-98.405093" />
      <trkpt lat="30.002265" lon="-98.405374" />
      <trkpt lat="30.002267" lon="-98.405527" />
      <trkpt lat="30.002689" lon="-98.405527" />
      <trkpt lat="30.004691" lon="-98.405542" />
      <trkpt lat="30.005423" lon="-98.405539" />
      <trkpt lat="30.006351" lon="-98.405543" />
      <trkpt lat="30.007479" lon="-98.405555" />
      <trkpt lat="30.007842" lon="-98.405559" />
      <trkpt lat="30.009801" lon="-98.405573" />
      <trkpt lat="30.010846" lon="-98.405591" />
      <trkpt lat="30.012703" lon="-98.405623" />
      <trkpt lat="30.012996" lon="-98.405628" />
      <trkpt lat="30.013433" lon="-98.40566" />
      <trkpt lat="30.013868" lon="-98.405712" />
      <trkpt lat="30.014301" lon="-98.405785" />
      <trkpt lat="30.014516" lon="-98.405831" />
      <trkpt lat="30.015455" lon="-98.406075" />
      <trkpt lat="30.015918" lon="-98.406203" />
      <trkpt lat="30.016767" lon="-98.406432" />
      <trkpt lat="30.019173" lon="-98.407082" />
      <trkpt lat="30.020183" lon="-98.407361" />
      <trkpt lat="30.024133" lon="-98.408435" />
      <trkpt lat="30.025321" lon="-98.408751" />
      <trkpt lat="30.028687" lon="-98.409666" />
      <trkpt lat="30.028964" lon="-98.409742" />
      <trkpt lat="30.029852" lon="-98.409983" />
      <trkpt lat="30.030676" lon="-98.41021" />
      <trkpt lat="30.031768" lon="-98.410503" />
      <trkpt lat="30.032341" lon="-98.41066" />
      <trkpt lat="30.033222" lon="-98.410901" />
      <trkpt lat="30.033453" lon="-98.410964" />
      <trkpt lat="30.03468" lon="-98.411285" />
      <trkpt lat="30.035367" lon="-98.411454" />
      <trkpt lat="30.035797" lon="-98.411536" />
      <trkpt lat="30.036005" lon="-98.411564" />
      <trkpt lat="30.03623" lon="-98.411594" />
      <trkpt lat="30.036687" lon="-98.411629" />
      <trkpt lat="30.036774" lon="-98.411636" />
      <trkpt lat="30.037261" lon="-98.411652" />
      <trkpt lat="30.037587" lon="-98.411651" />
      <trkpt lat="30.037621" lon="-98.41165" />
      <trkpt lat="30.037946" lon="-98.411641" />
      <trkpt lat="30.038575" lon="-98.411624" />
      <trkpt lat="30.039465" lon="-98.411599" />
      <trkpt lat="30.040312" lon="-98.411593" />
      <trkpt lat="30.040733" lon="-98.411582" />
      <trkpt lat="30.041189" lon="-98.411572" />
      <trkpt lat="30.041806" lon="-98.411559" />
      <trkpt lat="30.044141" lon="-98.411537" />
      <trkpt lat="30.044937" lon="-98.411528" />
      <trkpt lat="30.045851" lon="-98.4115" />
      <trkpt lat="30.04697" lon="-98.411483" />
      <trkpt lat="30.047281" lon="-98.411478" />
      <trkpt lat="30.047846" lon="-98.411464" />
      <trkpt lat="30.047901" lon="-98.411463" />
      <trkpt lat="30.049711" lon="-98.411421" />
      <trkpt lat="30.050289" lon="-98.411405" />
      <trkpt lat="30.050664" lon="-98.411395" />
      <trkpt lat="30.051083" lon="-98.411389" />
      <trkpt lat="30.051266" lon="-98.411386" />
      <trkpt lat="30.053479" lon="-98.411331" />
      <trkpt lat="30.053911" lon="-98.411324" />
      <trkpt lat="30.054931" lon="-98.411306" />
      <trkpt lat="30.055447" lon="-98.411297" />
      <trkpt lat="30.055706" lon="-98.411293" />
      <trkpt lat="30.056525" lon="-98.411274" />
      <trkpt lat="30.056867" lon="-98.411234" />
      <trkpt lat="30.058175" lon="-98.411232" />
      <trkpt lat="30.059497" lon="-98.41121" />
      <trkpt lat="30.059953" lon="-98.411202" />
      <trkpt lat="30.060561" lon="-98.411185" />
      <trkpt lat="30.06226" lon="-98.411139" />
      <trkpt lat="30.063232" lon="-98.411102" />
      <trkpt lat="30.063819" lon="-98.411079" />
      <trkpt lat="30.064063" lon="-98.411069" />
      <trkpt lat="30.064134" lon="-98.411066" />
      <trkpt lat="30.064151" lon="-98.411065" />
      <trkpt lat="30.064201" lon="-98.411063" />
      <trkpt lat="30.064498" lon="-98.411051" />
      <trkpt lat="30.065144" lon="-98.41103" />
      <trkpt lat="30.065291" lon="-98.411025" />
      <trkpt lat="30.065731" lon="-98.411011" />
      <trkpt lat="30.066599" lon="-98.410982" />
      <trkpt lat="30.067076" lon="-98.410967" />
      <trkpt lat="30.067374" lon="-98.410957" />
      <trkpt lat="30.068974" lon="-98.410798" />
      <trkpt lat="30.069522" lon="-98.410765" />
      <trkpt lat="30.070164" lon="-98.410741" />
      <trkpt lat="30.070866" lon="-98.410715" />
      <trkpt lat="30.071577" lon="-98.410693" />
      <trkpt lat="30.071814" lon="-98.410686" />
      <trkpt lat="30.072083" lon="-98.41067" />
      <trkpt lat="30.072352" lon="-98.410674" />
      <trkpt lat="30.072621" lon="-98.410696" />
      <trkpt lat="30.072888" lon="-98.410736" />
      <trkpt lat="30.073153" lon="-98.410794" />
      <trkpt lat="30.073257" lon="-98.410822" />
      <trkpt lat="30.073555" lon="-98.410939" />
      <trkpt lat="30.073862" lon="-98.411061" />
      <trkpt lat="30.073973" lon="-98.411106" />
      <trkpt lat="30.074416" lon="-98.411283" />
      <trkpt lat="30.074738" lon="-98.411447" />
      <trkpt lat="30.075013" lon="-98.411589" />
      <trkpt lat="30.075301" lon="-98.411769" />
      <trkpt lat="30.075548" lon="-98.411944" />
      <trkpt lat="30.075793" lon="-98.412124" />
      <trkpt lat="30.076446" lon="-98.412676" />
      <trkpt lat="30.076512" lon="-98.412732" />
      <trkpt lat="30.076921" lon="-98.413078" />
      <trkpt lat="30.077169" lon="-98.413287" />
      <trkpt lat="30.077273" lon="-98.413375" />
      <trkpt lat="30.077371" lon="-98.413458" />
      <trkpt lat="30.077894" lon="-98.4139" />
      <trkpt lat="30.078682" lon="-98.414592" />
      <trkpt lat="30.07924" lon="-98.415075" />
      <trkpt lat="30.079354" lon="-98.415173" />
      <trkpt lat="30.079682" lon="-98.415455" />
      <trkpt lat="30.082038" lon="-98.417478" />
      <trkpt lat="30.082452" lon="-98.417816" />
      <trkpt lat="30.082513" lon="-98.417865" />
      <trkpt lat="30.082885" lon="-98.41814" />
      <trkpt lat="30.083185" lon="-98.418361" />
      <trkpt lat="30.083304" lon="-98.41844" />
      <trkpt lat="30.083608" lon="-98.418643" />
      <trkpt lat="30.083995" lon="-98.418887" />
      <trkpt lat="30.084174" lon="-98.418986" />
      <trkpt lat="30.084463" lon="-98.419158" />
      <trkpt lat="30.08599" lon="-98.419925" />
      <trkpt lat="30.086904" lon="-98.420375" />
      <trkpt lat="30.087045" lon="-98.420444" />
      <trkpt lat="30.087856" lon="-98.42084" />
      <trkpt lat="30.08787" lon="-98.420847" />
      <trkpt lat="30.088457" lon="-98.421133" />
      <trkpt lat="30.09012" lon="-98.421944" />
      <trkpt lat="30.091483" lon="-98.422637" />
      <trkpt lat="30.092721" lon="-98.423262" />
      <trkpt lat="30.092954" lon="-98.423355" />
      <trkpt lat="30.093161" lon="-98.423428" />
      <trkpt lat="30.093371" lon="-98.423485" />
      <trkpt lat="30.093584" lon="-98.423525" />
      <trkpt lat="30.093852" lon="-98.423552" />
      <trkpt lat="30.094043" lon="-98.423554" />
      <trkpt lat="30.09431" lon="-98.42354" />
      <trkpt lat="30.094528" lon="-98.423508" />
      <trkpt lat="30.094636" lon="-98.423485" />
      <trkpt lat="30.094676" lon="-98.423474" />
      <trkpt lat="30.094844" lon="-98.423429" />
      <trkpt lat="30.095049" lon="-98.423356" />
      <trkpt lat="30.095198" lon="-98.42329" />
      <trkpt lat="30.096093" lon="-98.422918" />
      <trkpt lat="30.096217" lon="-98.422869" />
      <trkpt lat="30.096387" lon="-98.422802" />
      <trkpt lat="30.097014" lon="-98.422547" />
      <trkpt lat="30.097937" lon="-98.422186" />
      <trkpt lat="30.098829" lon="-98.421805" />
      <trkpt lat="30.098672" lon="-98.421289" />
    </trkseg>
  </trk>
</gpx>