<?xml version='1.0' encoding='UTF-8'?>
<gpx version="1.1" creator="Antigravity Route Generator" xmlns="http://www.topografix.com/GPX/1/1">
  <trk>
    <name>Fitzhugh &amp; Hamilton Pool Craft Beverage Run</name>
    <desc>German Towns &amp; Culture (15.9 mi) - Hamilton Pool Rd -&gt; Fitzhugh Rd -&gt; Dripping Springs</desc>
    <trkseg>
      <trkpt lat="30.306081" lon="-97.939957" />
      <trkpt lat="30.306391" lon="-97.940733" />
      <trkpt lat="30.305816" lon="-97.941055" />
      <trkpt lat="30.3059" lon="-97.94124" />
      <trkpt lat="30.306037" lon="-97.941108" />
      <trkpt lat="30.306796" lon="-97.940711" />
      <trkpt lat="30.306972" lon="-97.940609" />
      <trkpt lat="30.307009" lon="-97.940712" />
      <trkpt lat="30.308015" lon="-97.943378" />
      <trkpt lat="30.308113" lon="-97.943638" />
      <trkpt lat="30.308254" lon="-97.944063" />
      <trkpt lat="30.308284" lon="-97.944156" />
      <trkpt lat="30.308378" lon="-97.944519" />
      <trkpt lat="30.308396" lon="-97.944605" />
      <trkpt lat="30.308454" lon="-97.94489" />
      <trkpt lat="30.308502" lon="-97.945395" />
      <trkpt lat="30.308528" lon="-97.945678" />
      <trkpt lat="30.308542" lon="-97.945935" />
      <trkpt lat="30.308541" lon="-97.945972" />
      <trkpt lat="30.308539" lon="-97.94606" />
      <trkpt lat="30.308534" lon="-97.946328" />
      <trkpt lat="30.30846" lon="-97.947843" />
      <trkpt lat="30.3084" lon="-97.948607" />
      <trkpt lat="30.308314" lon="-97.949029" />
      <trkpt lat="30.308286" lon="-97.949448" />
      <trkpt lat="30.308263" lon="-97.949826" />
      <trkpt lat="30.308233" lon="-97.950302" />
      <trkpt lat="30.308205" lon="-97.950781" />
      <trkpt lat="30.308184" lon="-97.951137" />
      <trkpt lat="30.308118" lon="-97.952255" />
      <trkpt lat="30.308079" lon="-97.95281" />
      <trkpt lat="30.308" lon="-97.9541" />
      <trkpt lat="30.307996" lon="-97.954623" />
      <trkpt lat="30.308003" lon="-97.955105" />
      <trkpt lat="30.308026" lon="-97.955562" />
      <trkpt lat="30.308093" lon="-97.956194" />
      <trkpt lat="30.308157" lon="-97.956616" />
      <trkpt lat="30.308295" lon="-97.957347" />
      <trkpt lat="30.308751" lon="-97.959462" />
      <trkpt lat="30.308833" lon="-97.959839" />
      <trkpt lat="30.308913" lon="-97.960211" />
      <trkpt lat="30.30899" lon="-97.960567" />
      <trkpt lat="30.309094" lon="-97.961058" />
      <trkpt lat="30.309129" lon="-97.961222" />
      <trkpt lat="30.30919" lon="-97.961512" />
      <trkpt lat="30.309201" lon="-97.961562" />
      <trkpt lat="30.3093" lon="-97.962032" />
      <trkpt lat="30.309395" lon="-97.962482" />
      <trkpt lat="30.309498" lon="-97.962968" />
      <trkpt lat="30.30951" lon="-97.963023" />
      <trkpt lat="30.309543" lon="-97.96319" />
      <trkpt lat="30.30958" lon="-97.963377" />
      <trkpt lat="30.309642" lon="-97.963693" />
      <trkpt lat="30.309681" lon="-97.963875" />
      <trkpt lat="30.309687" lon="-97.963904" />
      <trkpt lat="30.30986" lon="-97.964731" />
      <trkpt lat="30.309987" lon="-97.965311" />
      <trkpt lat="30.310014" lon="-97.965452" />
      <trkpt lat="30.30976" lon="-97.965679" />
      <trkpt lat="30.309585" lon="-97.965836" />
      <trkpt lat="30.309433" lon="-97.965943" />
      <trkpt lat="30.309386" lon="-97.965976" />
      <trkpt lat="30.309257" lon="-97.96613" />
      <trkpt lat="30.309069" lon="-97.966408" />
      <trkpt lat="30.308951" lon="-97.966621" />
      <trkpt lat="30.308859" lon="-97.96681" />
      <trkpt lat="30.307722" lon="-97.969143" />
      <trkpt lat="30.307405" lon="-97.969778" />
      <trkpt lat="30.307299" lon="-97.970052" />
      <trkpt lat="30.307239" lon="-97.970237" />
      <trkpt lat="30.30723" lon="-97.970265" />
      <trkpt lat="30.307155" lon="-97.970608" />
      <trkpt lat="30.307091" lon="-97.970923" />
      <trkpt lat="30.307064" lon="-97.971183" />
      <trkpt lat="30.307048" lon="-97.971464" />
      <trkpt lat="30.307042" lon="-97.971581" />
      <trkpt lat="30.307071" lon="-97.971919" />
      <trkpt lat="30.307087" lon="-97.972097" />
      <trkpt lat="30.307119" lon="-97.972331" />
      <trkpt lat="30.307184" lon="-97.972813" />
      <trkpt lat="30.307232" lon="-97.97316" />
      <trkpt lat="30.307295" lon="-97.973626" />
      <trkpt lat="30.307328" lon="-97.974168" />
      <trkpt lat="30.307326" lon="-97.974773" />
      <trkpt lat="30.307315" lon="-97.974905" />
      <trkpt lat="30.307276" lon="-97.975359" />
      <trkpt lat="30.307189" lon="-97.975912" />
      <trkpt lat="30.30706" lon="-97.97639" />
      <trkpt lat="30.306938" lon="-97.976761" />
      <trkpt lat="30.3069" lon="-97.976877" />
      <trkpt lat="30.30665" lon="-97.97744" />
      <trkpt lat="30.30651" lon="-97.977771" />
      <trkpt lat="30.306366" lon="-97.978199" />
      <trkpt lat="30.306271" lon="-97.978716" />
      <trkpt lat="30.306227" lon="-97.979245" />
      <trkpt lat="30.306229" lon="-97.979349" />
      <trkpt lat="30.306238" lon="-97.979795" />
      <trkpt lat="30.306307" lon="-97.980304" />
      <trkpt lat="30.306405" lon="-97.980793" />
      <trkpt lat="30.306567" lon="-97.981271" />
      <trkpt lat="30.306573" lon="-97.981281" />
      <trkpt lat="30.306822" lon="-97.981731" />
      <trkpt lat="30.307088" lon="-97.98212" />
      <trkpt lat="30.307373" lon="-97.982601" />
      <trkpt lat="30.307515" lon="-97.982896" />
      <trkpt lat="30.307616" lon="-97.983184" />
      <trkpt lat="30.307636" lon="-97.983242" />
      <trkpt lat="30.307659" lon="-97.983319" />
      <trkpt lat="30.307723" lon="-97.983536" />
      <trkpt lat="30.307787" lon="-97.983946" />
      <trkpt lat="30.307815" lon="-97.984465" />
      <trkpt lat="30.30782" lon="-97.984688" />
      <trkpt lat="30.307834" lon="-97.985111" />
      <trkpt lat="30.307852" lon="-97.985675" />
      <trkpt lat="30.307863" lon="-97.985986" />
      <trkpt lat="30.307858" lon="-97.986131" />
      <trkpt lat="30.30786" lon="-97.986451" />
      <trkpt lat="30.307853" lon="-97.986608" />
      <trkpt lat="30.30787" lon="-97.986789" />
      <trkpt lat="30.307854" lon="-97.986989" />
      <trkpt lat="30.307864" lon="-97.987155" />
      <trkpt lat="30.307889" lon="-97.987956" />
      <trkpt lat="30.307892" lon="-97.988034" />
      <trkpt lat="30.307904" lon="-97.988402" />
      <trkpt lat="30.307933" lon="-97.989183" />
      <trkpt lat="30.307944" lon="-97.989415" />
      <trkpt lat="30.307953" lon="-97.989622" />
      <trkpt lat="30.307967" lon="-97.989925" />
      <trkpt lat="30.30799" lon="-97.990421" />
      <trkpt lat="30.307991" lon="-97.990999" />
      <trkpt lat="30.307942" lon="-97.991358" />
      <trkpt lat="30.307861" lon="-97.99172" />
      <trkpt lat="30.307714" lon="-97.992166" />
      <trkpt lat="30.307623" lon="-97.992371" />
      <trkpt lat="30.307551" lon="-97.992533" />
      <trkpt lat="30.307468" lon="-97.992696" />
      <trkpt lat="30.3073" lon="-97.993026" />
      <trkpt lat="30.307125" lon="-97.99337" />
      <trkpt lat="30.307107" lon="-97.993407" />
      <trkpt lat="30.30688" lon="-97.993869" />
      <trkpt lat="30.306425" lon="-97.994793" />
      <trkpt lat="30.30628" lon="-97.995091" />
      <trkpt lat="30.306103" lon="-97.995453" />
      <trkpt lat="30.306064" lon="-97.995567" />
      <trkpt lat="30.30588" lon="-97.995912" />
      <trkpt lat="30.305784" lon="-97.996109" />
      <trkpt lat="30.305631" lon="-97.996407" />
      <trkpt lat="30.305523" lon="-97.996584" />
      <trkpt lat="30.305415" lon="-97.99676" />
      <trkpt lat="30.305268" lon="-97.996932" />
      <trkpt lat="30.305102" lon="-97.997126" />
      <trkpt lat="30.304931" lon="-97.997267" />
      <trkpt lat="30.304737" lon="-97.997427" />
      <trkpt lat="30.304461" lon="-97.997613" />
      <trkpt lat="30.304053" lon="-97.997811" />
      <trkpt lat="30.303555" lon="-97.998054" />
      <trkpt lat="30.302647" lon="-97.998463" />
      <trkpt lat="30.302518" lon="-97.998522" />
      <trkpt lat="30.30197" lon="-97.998769" />
      <trkpt lat="30.30183" lon="-97.998846" />
      <trkpt lat="30.301641" lon="-97.998949" />
      <trkpt lat="30.301386" lon="-97.999125" />
      <trkpt lat="30.301265" lon="-97.999209" />
      <trkpt lat="30.301024" lon="-97.999424" />
      <trkpt lat="30.300716" lon="-97.999739" />
      <trkpt lat="30.300494" lon="-97.999983" />
      <trkpt lat="30.300414" lon="-98.000092" />
      <trkpt lat="30.300311" lon="-98.000224" />
      <trkpt lat="30.300188" lon="-98.000407" />
      <trkpt lat="30.300068" lon="-98.000595" />
      <trkpt lat="30.299966" lon="-98.000772" />
      <trkpt lat="30.299876" lon="-98.00094" />
      <trkpt lat="30.299778" lon="-98.001166" />
      <trkpt lat="30.299685" lon="-98.001392" />
      <trkpt lat="30.299603" lon="-98.00162" />
      <trkpt lat="30.299543" lon="-98.001814" />
      <trkpt lat="30.299492" lon="-98.00199" />
      <trkpt lat="30.299451" lon="-98.002162" />
      <trkpt lat="30.299412" lon="-98.002325" />
      <trkpt lat="30.299023" lon="-98.004154" />
      <trkpt lat="30.298769" lon="-98.005327" />
      <trkpt lat="30.298722" lon="-98.005535" />
      <trkpt lat="30.298656" lon="-98.005739" />
      <trkpt lat="30.298593" lon="-98.005929" />
      <trkpt lat="30.298505" lon="-98.006136" />
      <trkpt lat="30.298405" lon="-98.006346" />
      <trkpt lat="30.2983" lon="-98.006525" />
      <trkpt lat="30.298192" lon="-98.006683" />
      <trkpt lat="30.298074" lon="-98.006858" />
      <trkpt lat="30.297961" lon="-98.006994" />
      <trkpt lat="30.29784" lon="-98.007121" />
      <trkpt lat="30.297611" lon="-98.007345" />
      <trkpt lat="30.297415" lon="-98.007507" />
      <trkpt lat="30.29724" lon="-98.007659" />
      <trkpt lat="30.297085" lon="-98.007813" />
      <trkpt lat="30.296908" lon="-98.008022" />
      <trkpt lat="30.296779" lon="-98.008192" />
      <trkpt lat="30.296663" lon="-98.008375" />
      <trkpt lat="30.296579" lon="-98.00852" />
      <trkpt lat="30.29648" lon="-98.008708" />
      <trkpt lat="30.296383" lon="-98.008914" />
      <trkpt lat="30.296307" lon="-98.009129" />
      <trkpt lat="30.296236" lon="-98.009355" />
      <trkpt lat="30.296176" lon="-98.009594" />
      <trkpt lat="30.296125" lon="-98.009853" />
      <trkpt lat="30.296088" lon="-98.010178" />
      <trkpt lat="30.296044" lon="-98.010709" />
      <trkpt lat="30.295857" lon="-98.01321" />
      <trkpt lat="30.295814" lon="-98.013746" />
      <trkpt lat="30.295797" lon="-98.013872" />
      <trkpt lat="30.295776" lon="-98.014022" />
      <trkpt lat="30.295739" lon="-98.01421" />
      <trkpt lat="30.295701" lon="-98.01436" />
      <trkpt lat="30.295667" lon="-98.014478" />
      <trkpt lat="30.295618" lon="-98.014633" />
      <trkpt lat="30.295535" lon="-98.014833" />
      <trkpt lat="30.295467" lon="-98.014987" />
      <trkpt lat="30.295402" lon="-98.015126" />
      <trkpt lat="30.295311" lon="-98.015294" />
      <trkpt lat="30.295215" lon="-98.015455" />
      <trkpt lat="30.295136" lon="-98.015576" />
      <trkpt lat="30.295034" lon="-98.015707" />
      <trkpt lat="30.294919" lon="-98.015845" />
      <trkpt lat="30.294788" lon="-98.015985" />
      <trkpt lat="30.294657" lon="-98.016116" />
      <trkpt lat="30.294516" lon="-98.016236" />
      <trkpt lat="30.294309" lon="-98.016383" />
      <trkpt lat="30.294182" lon="-98.016467" />
      <trkpt lat="30.294056" lon="-98.016544" />
      <trkpt lat="30.293916" lon="-98.016618" />
      <trkpt lat="30.293449" lon="-98.016831" />
      <trkpt lat="30.292764" lon="-98.017126" />
      <trkpt lat="30.292608" lon="-98.017202" />
      <trkpt lat="30.292439" lon="-98.017292" />
      <trkpt lat="30.292272" lon="-98.017394" />
      <trkpt lat="30.292121" lon="-98.01751" />
      <trkpt lat="30.291981" lon="-98.017632" />
      <trkpt lat="30.291857" lon="-98.017749" />
      <trkpt lat="30.291736" lon="-98.01788" />
      <trkpt lat="30.291614" lon="-98.018018" />
      <trkpt lat="30.291494" lon="-98.018171" />
      <trkpt lat="30.291372" lon="-98.018352" />
      <trkpt lat="30.291275" lon="-98.018513" />
      <trkpt lat="30.291175" lon="-98.018706" />
      <trkpt lat="30.291085" lon="-98.018894" />
      <trkpt lat="30.291009" lon="-98.019075" />
      <trkpt lat="30.290961" lon="-98.019219" />
      <trkpt lat="30.290913" lon="-98.019374" />
      <trkpt lat="30.290866" lon="-98.01955" />
      <trkpt lat="30.290828" lon="-98.019738" />
      <trkpt lat="30.290789" lon="-98.019946" />
      <trkpt lat="30.290758" lon="-98.02018" />
      <trkpt lat="30.290739" lon="-98.020405" />
      <trkpt lat="30.290727" lon="-98.020605" />
      <trkpt lat="30.29072" lon="-98.020805" />
      <trkpt lat="30.290722" lon="-98.021031" />
      <trkpt lat="30.290732" lon="-98.021306" />
      <trkpt lat="30.290748" lon="-98.021617" />
      <trkpt lat="30.290787" lon="-98.021976" />
      <trkpt lat="30.290847" lon="-98.022341" />
      <trkpt lat="30.290916" lon="-98.022722" />
      <trkpt lat="30.291023" lon="-98.023264" />
      <trkpt lat="30.291079" lon="-98.023547" />
      <trkpt lat="30.291329" lon="-98.024822" />
      <trkpt lat="30.292004" lon="-98.02825" />
      <trkpt lat="30.292088" lon="-98.02868" />
      <trkpt lat="30.292195" lon="-98.029173" />
      <trkpt lat="30.292247" lon="-98.029618" />
      <trkpt lat="30.292262" lon="-98.029986" />
      <trkpt lat="30.292213" lon="-98.030639" />
      <trkpt lat="30.29208" lon="-98.031857" />
      <trkpt lat="30.291998" lon="-98.032452" />
      <trkpt lat="30.291716" lon="-98.034494" />
      <trkpt lat="30.291694" lon="-98.034615" />
      <trkpt lat="30.291595" lon="-98.035434" />
      <trkpt lat="30.29149" lon="-98.036309" />
      <trkpt lat="30.291365" lon="-98.037132" />
      <trkpt lat="30.291283" lon="-98.038004" />
      <trkpt lat="30.291263" lon="-98.038377" />
      <trkpt lat="30.291259" lon="-98.038435" />
      <trkpt lat="30.291266" lon="-98.038559" />
      <trkpt lat="30.291283" lon="-98.038879" />
      <trkpt lat="30.291285" lon="-98.038937" />
      <trkpt lat="30.29129" lon="-98.039083" />
      <trkpt lat="30.291339" lon="-98.039426" />
      <trkpt lat="30.291473" lon="-98.040364" />
      <trkpt lat="30.291514" lon="-98.040965" />
      <trkpt lat="30.291517" lon="-98.041118" />
      <trkpt lat="30.291521" lon="-98.041424" />
      <trkpt lat="30.291488" lon="-98.041906" />
      <trkpt lat="30.291428" lon="-98.042349" />
      <trkpt lat="30.291328" lon="-98.04289" />
      <trkpt lat="30.291195" lon="-98.043604" />
      <trkpt lat="30.290984" lon="-98.04474" />
      <trkpt lat="30.290855" lon="-98.045292" />
      <trkpt lat="30.290734" lon="-98.045739" />
      <trkpt lat="30.290287" lon="-98.046784" />
      <trkpt lat="30.289423" lon="-98.048359" />
      <trkpt lat="30.289015" lon="-98.049103" />
      <trkpt lat="30.288963" lon="-98.049198" />
      <trkpt lat="30.288684" lon="-98.049707" />
      <trkpt lat="30.288634" lon="-98.049798" />
      <trkpt lat="30.288499" lon="-98.050045" />
      <trkpt lat="30.288412" lon="-98.050202" />
      <trkpt lat="30.287885" lon="-98.051202" />
      <trkpt lat="30.287856" lon="-98.05127" />
      <trkpt lat="30.287644" lon="-98.051768" />
      <trkpt lat="30.287494" lon="-98.052277" />
      <trkpt lat="30.28745" lon="-98.052514" />
      <trkpt lat="30.287388" lon="-98.052847" />
      <trkpt lat="30.287353" lon="-98.053508" />
      <trkpt lat="30.287244" lon="-98.055131" />
      <trkpt lat="30.287114" lon="-98.056137" />
      <trkpt lat="30.287053" lon="-98.056464" />
      <trkpt lat="30.286915" lon="-98.057208" />
      <trkpt lat="30.286843" lon="-98.057511" />
      <trkpt lat="30.286726" lon="-98.058003" />
      <trkpt lat="30.286526" lon="-98.058843" />
      <trkpt lat="30.286494" lon="-98.058977" />
      <trkpt lat="30.286255" lon="-98.059998" />
      <trkpt lat="30.285968" lon="-98.061307" />
      <trkpt lat="30.285867" lon="-98.061869" />
      <trkpt lat="30.285842" lon="-98.062424" />
      <trkpt lat="30.285857" lon="-98.062608" />
      <trkpt lat="30.285882" lon="-98.062919" />
      <trkpt lat="30.285974" lon="-98.063452" />
      <trkpt lat="30.285978" lon="-98.063478" />
      <trkpt lat="30.286078" lon="-98.063837" />
      <trkpt lat="30.286484" lon="-98.064724" />
      <trkpt lat="30.286556" lon="-98.06488" />
      <trkpt lat="30.285599" lon="-98.065043" />
      <trkpt lat="30.285238" lon="-98.065104" />
      <trkpt lat="30.284546" lon="-98.065222" />
      <trkpt lat="30.282071" lon="-98.065654" />
      <trkpt lat="30.281034" lon="-98.065845" />
      <trkpt lat="30.280021" lon="-98.066033" />
      <trkpt lat="30.278524" lon="-98.066441" />
      <trkpt lat="30.278087" lon="-98.066554" />
      <trkpt lat="30.277446" lon="-98.06678" />
      <trkpt lat="30.276821" lon="-98.067029" />
      <trkpt lat="30.276218" lon="-98.067269" />
      <trkpt lat="30.275707" lon="-98.067464" />
      <trkpt lat="30.275625" lon="-98.067501" />
      <trkpt lat="30.274537" lon="-98.067927" />
      <trkpt lat="30.273689" lon="-98.068259" />
      <trkpt lat="30.273415" lon="-98.068374" />
      <trkpt lat="30.273343" lon="-98.0684" />
      <trkpt lat="30.273267" lon="-98.068427" />
      <trkpt lat="30.273242" lon="-98.068436" />
      <trkpt lat="30.272978" lon="-98.068504" />
      <trkpt lat="30.272803" lon="-98.068544" />
      <trkpt lat="30.272737" lon="-98.068554" />
      <trkpt lat="30.272399" lon="-98.068604" />
      <trkpt lat="30.27218" lon="-98.068623" />
      <trkpt lat="30.272135" lon="-98.068627" />
      <trkpt lat="30.271819" lon="-98.068618" />
      <trkpt lat="30.271461" lon="-98.068568" />
      <trkpt lat="30.27137" lon="-98.068555" />
      <trkpt lat="30.271224" lon="-98.068535" />
      <trkpt lat="30.270902" lon="-98.068459" />
      <trkpt lat="30.270323" lon="-98.068242" />
      <trkpt lat="30.269917" lon="-98.068004" />
      <trkpt lat="30.269154" lon="-98.067422" />
      <trkpt lat="30.266739" lon="-98.065219" />
      <trkpt lat="30.266445" lon="-98.064951" />
      <trkpt lat="30.26623" lon="-98.064755" />
      <trkpt lat="30.265925" lon="-98.064477" />
      <trkpt lat="30.26538" lon="-98.06398" />
      <trkpt lat="30.264536" lon="-98.063194" />
      <trkpt lat="30.264009" lon="-98.06266" />
      <trkpt lat="30.263499" lon="-98.062006" />
      <trkpt lat="30.262764" lon="-98.061088" />
      <trkpt lat="30.262149" lon="-98.060352" />
      <trkpt lat="30.26185" lon="-98.060035" />
      <trkpt lat="30.261484" lon="-98.059732" />
      <trkpt lat="30.261095" lon="-98.059509" />
      <trkpt lat="30.260716" lon="-98.059336" />
      <trkpt lat="30.260699" lon="-98.059328" />
      <trkpt lat="30.260318" lon="-98.059194" />
      <trkpt lat="30.259861" lon="-98.059112" />
      <trkpt lat="30.259729" lon="-98.0591" />
      <trkpt lat="30.259593" lon="-98.059088" />
      <trkpt lat="30.259519" lon="-98.059082" />
      <trkpt lat="30.259085" lon="-98.059101" />
      <trkpt lat="30.259006" lon="-98.059105" />
      <trkpt lat="30.257738" lon="-98.059169" />
      <trkpt lat="30.25733" lon="-98.059156" />
      <trkpt lat="30.256927" lon="-98.059089" />
      <trkpt lat="30.256888" lon="-98.059078" />
      <trkpt lat="30.256078" lon="-98.058842" />
      <trkpt lat="30.255687" lon="-98.058728" />
      <trkpt lat="30.25535" lon="-98.058624" />
      <trkpt lat="30.254497" lon="-98.058362" />
      <trkpt lat="30.25397" lon="-98.058199" />
      <trkpt lat="30.252633" lon="-98.057788" />
      <trkpt lat="30.252279" lon="-98.057678" />
      <trkpt lat="30.25219" lon="-98.057651" />
      <trkpt lat="30.251846" lon="-98.05755" />
      <trkpt lat="30.25148" lon="-98.057502" />
      <trkpt lat="30.25144" lon="-98.057502" />
      <trkpt lat="30.251262" lon="-98.057502" />
      <trkpt lat="30.251045" lon="-98.057517" />
      <trkpt lat="30.251026" lon="-98.05752" />
      <trkpt lat="30.250831" lon="-98.057548" />
      <trkpt lat="30.250565" lon="-98.057609" />
      <trkpt lat="30.250312" lon="-98.057685" />
      <trkpt lat="30.249504" lon="-98.058128" />
      <trkpt lat="30.248553" lon="-98.058747" />
      <trkpt lat="30.248391" lon="-98.058853" />
      <trkpt lat="30.248299" lon="-98.058913" />
      <trkpt lat="30.248127" lon="-98.059025" />
      <trkpt lat="30.247579" lon="-98.059382" />
      <trkpt lat="30.24748" lon="-98.059446" />
      <trkpt lat="30.246266" lon="-98.060237" />
      <trkpt lat="30.245578" lon="-98.060685" />
      <trkpt lat="30.245078" lon="-98.061011" />
      <trkpt lat="30.244268" lon="-98.061527" />
      <trkpt lat="30.243738" lon="-98.061874" />
      <trkpt lat="30.242393" lon="-98.062747" />
      <trkpt lat="30.241282" lon="-98.063468" />
      <trkpt lat="30.241048" lon="-98.063617" />
      <trkpt lat="30.240723" lon="-98.063824" />
      <trkpt lat="30.240083" lon="-98.064255" />
      <trkpt lat="30.239541" lon="-98.06462" />
      <trkpt lat="30.239141" lon="-98.064961" />
      <trkpt lat="30.238624" lon="-98.065534" />
      <trkpt lat="30.238314" lon="-98.065965" />
      <trkpt lat="30.238114" lon="-98.066311" />
      <trkpt lat="30.237953" lon="-98.066609" />
      <trkpt lat="30.237815" lon="-98.066899" />
      <trkpt lat="30.237602" lon="-98.06746" />
      <trkpt lat="30.237475" lon="-98.067943" />
      <trkpt lat="30.237052" lon="-98.069651" />
      <trkpt lat="30.236925" lon="-98.07002" />
      <trkpt lat="30.236723" lon="-98.070393" />
      <trkpt lat="30.236469" lon="-98.070752" />
      <trkpt lat="30.236182" lon="-98.071121" />
      <trkpt lat="30.235851" lon="-98.07141" />
      <trkpt lat="30.235575" lon="-98.071599" />
      <trkpt lat="30.234967" lon="-98.072015" />
      <trkpt lat="30.234742" lon="-98.072163" />
      <trkpt lat="30.23429" lon="-98.07246" />
      <trkpt lat="30.23379" lon="-98.072788" />
      <trkpt lat="30.233136" lon="-98.073231" />
      <trkpt lat="30.233021" lon="-98.073309" />
      <trkpt lat="30.232948" lon="-98.073359" />
      <trkpt lat="30.23104" lon="-98.074667" />
      <trkpt lat="30.229915" lon="-98.0755" />
      <trkpt lat="30.22945" lon="-98.076034" />
      <trkpt lat="30.229225" lon="-98.076293" />
      <trkpt lat="30.228727" lon="-98.077044" />
      <trkpt lat="30.228436" lon="-98.077483" />
      <trkpt lat="30.227891" lon="-98.078171" />
      <trkpt lat="30.227134" lon="-98.078834" />
      <trkpt lat="30.226975" lon="-98.078948" />
      <trkpt lat="30.225995" lon="-98.079581" />
      <trkpt lat="30.225614" lon="-98.079832" />
      <trkpt lat="30.22384" lon="-98.080998" />
      <trkpt lat="30.223156" lon="-98.08144" />
      <trkpt lat="30.221808" lon="-98.082082" />
      <trkpt lat="30.220894" lon="-98.082382" />
      <trkpt lat="30.220555" lon="-98.082488" />
      <trkpt lat="30.219561" lon="-98.0828" />
      <trkpt lat="30.219084" lon="-98.082948" />
      <trkpt lat="30.217215" lon="-98.083527" />
      <trkpt lat="30.216927" lon="-98.083617" />
      <trkpt lat="30.216614" lon="-98.083715" />
      <trkpt lat="30.216031" lon="-98.083913" />
      <trkpt lat="30.215953" lon="-98.083939" />
      <trkpt lat="30.215837" lon="-98.083978" />
      <trkpt lat="30.215802" lon="-98.08399" />
      <trkpt lat="30.215527" lon="-98.084083" />
      <trkpt lat="30.215345" lon="-98.084167" />
      <trkpt lat="30.215004" lon="-98.084324" />
      <trkpt lat="30.21488" lon="-98.084381" />
      <trkpt lat="30.214629" lon="-98.084534" />
      <trkpt lat="30.21376" lon="-98.085065" />
      <trkpt lat="30.213555" lon="-98.085223" />
      <trkpt lat="30.21291" lon="-98.085718" />
      <trkpt lat="30.21183" lon="-98.086685" />
      <trkpt lat="30.211729" lon="-98.086777" />
      <trkpt lat="30.211379" lon="-98.087081" />
      <trkpt lat="30.211304" lon="-98.087145" />
      <trkpt lat="30.211114" lon="-98.08731" />
      <trkpt lat="30.210641" lon="-98.087646" />
      <trkpt lat="30.210375" lon="-98.087776" />
      <trkpt lat="30.210128" lon="-98.087875" />
      <trkpt lat="30.20987" lon="-98.087951" />
      <trkpt lat="30.209794" lon="-98.087965" />
      <trkpt lat="30.209612" lon="-98.087997" />
      <trkpt lat="30.209348" lon="-98.088027" />
      <trkpt lat="30.208512" lon="-98.087997" />
      <trkpt lat="30.207893" lon="-98.087949" />
      <trkpt lat="30.20746" lon="-98.087921" />
      <trkpt lat="30.207357" lon="-98.087914" />
      <trkpt lat="30.206899" lon="-98.087884" />
      <trkpt lat="30.206716" lon="-98.087872" />
      <trkpt lat="30.205951" lon="-98.087831" />
      <trkpt lat="30.205838" lon="-98.087825" />
      <trkpt lat="30.2057" lon="-98.087817" />
      <trkpt lat="30.205376" lon="-98.0878" />
      <trkpt lat="30.205295" lon="-98.087797" />
      <trkpt lat="30.205079" lon="-98.087789" />
      <trkpt lat="30.205063" lon="-98.087788" />
      <trkpt lat="30.20455" lon="-98.087768" />
      <trkpt lat="30.203976" lon="-98.087745" />
      <trkpt lat="30.203105" lon="-98.087707" />
      <trkpt lat="30.202679" lon="-98.0877" />
      <trkpt lat="30.202624" lon="-98.087695" />
      <trkpt lat="30.202477" lon="-98.087682" />
      <trkpt lat="30.202262" lon="-98.087652" />
      <trkpt lat="30.202063" lon="-98.0876" />
      <trkpt lat="30.201694" lon="-98.087463" />
      <trkpt lat="30.201437" lon="-98.087361" />
      <trkpt lat="30.201179" lon="-98.087265" />
      <trkpt lat="30.201113" lon="-98.08724" />
      <trkpt lat="30.200997" lon="-98.087197" />
      <trkpt lat="30.200621" lon="-98.087055" />
      <trkpt lat="30.200215" lon="-98.086982" />
      <trkpt lat="30.200028" lon="-98.086964" />
      <trkpt lat="30.199629" lon="-98.086982" />
      <trkpt lat="30.199477" lon="-98.086993" />
      <trkpt lat="30.199073" lon="-98.087022" />
      <trkpt lat="30.198785" lon="-98.087043" />
      <trkpt lat="30.198384" lon="-98.087071" />
      <trkpt lat="30.198005" lon="-98.087097" />
      <trkpt lat="30.197628" lon="-98.087123" />
      <trkpt lat="30.197042" lon="-98.08715" />
      <trkpt lat="30.196382" lon="-98.087212" />
      <trkpt lat="30.196171" lon="-98.087227" />
      <trkpt lat="30.195353" lon="-98.087287" />
      <trkpt lat="30.194706" lon="-98.087334" />
      <trkpt lat="30.193764" lon="-98.087402" />
      <trkpt lat="30.193329" lon="-98.087428" />
      <trkpt lat="30.192811" lon="-98.08746" />
      <trkpt lat="30.192646" lon="-98.08747" />
      <trkpt lat="30.192511" lon="-98.087474" />
      <trkpt lat="30.192188" lon="-98.087483" />
      <trkpt lat="30.192093" lon="-98.087486" />
      <trkpt lat="30.191695" lon="-98.087492" />
      <trkpt lat="30.19154" lon="-98.087495" />
      <trkpt lat="30.191389" lon="-98.087497" />
      <trkpt lat="30.190887" lon="-98.087505" />
      <trkpt lat="30.190036" lon="-98.087479" />
    </trkseg>
  </trk>
</gpx>