<?xml version='1.0' encoding='UTF-8'?>
<gpx version="1.1" creator="Antigravity Route Generator" xmlns="http://www.topografix.com/GPX/1/1">
  <trk>
    <name>German Heritage Trail</name>
    <desc>German Towns &amp; Culture (61.2 mi) - Old San Antonio Rd -&gt; FM 473 -&gt; Blanco</desc>
    <trkseg>
      <trkpt lat="30.275297" lon="-98.872096" />
      <trkpt lat="30.275204" lon="-98.872187" />
      <trkpt lat="30.275091" lon="-98.872296" />
      <trkpt lat="30.274995" lon="-98.872162" />
      <trkpt lat="30.273934" lon="-98.870677" />
      <trkpt lat="30.273873" lon="-98.870592" />
      <trkpt lat="30.273808" lon="-98.870502" />
      <trkpt lat="30.272724" lon="-98.869006" />
      <trkpt lat="30.272677" lon="-98.868941" />
      <trkpt lat="30.272611" lon="-98.868848" />
      <trkpt lat="30.271905" lon="-98.867861" />
      <trkpt lat="30.271548" lon="-98.867361" />
      <trkpt lat="30.27149" lon="-98.867279" />
      <trkpt lat="30.271423" lon="-98.867183" />
      <trkpt lat="30.270715" lon="-98.86617" />
      <trkpt lat="30.270584" lon="-98.865985" />
      <trkpt lat="30.270388" lon="-98.865705" />
      <trkpt lat="30.270335" lon="-98.865629" />
      <trkpt lat="30.270268" lon="-98.865531" />
      <trkpt lat="30.270089" lon="-98.865269" />
      <trkpt lat="30.269967" lon="-98.86509" />
      <trkpt lat="30.269888" lon="-98.864974" />
      <trkpt lat="30.269703" lon="-98.864704" />
      <trkpt lat="30.269505" lon="-98.864414" />
      <trkpt lat="30.269378" lon="-98.864228" />
      <trkpt lat="30.269163" lon="-98.863914" />
      <trkpt lat="30.268831" lon="-98.863447" />
      <trkpt lat="30.268702" lon="-98.863264" />
      <trkpt lat="30.268474" lon="-98.862943" />
      <trkpt lat="30.268433" lon="-98.862887" />
      <trkpt lat="30.268333" lon="-98.862746" />
      <trkpt lat="30.268054" lon="-98.862353" />
      <trkpt lat="30.267635" lon="-98.861754" />
      <trkpt lat="30.267224" lon="-98.86116" />
      <trkpt lat="30.266654" lon="-98.86035" />
      <trkpt lat="30.266598" lon="-98.860271" />
      <trkpt lat="30.265992" lon="-98.85941" />
      <trkpt lat="30.265354" lon="-98.858509" />
      <trkpt lat="30.265206" lon="-98.858294" />
      <trkpt lat="30.265109" lon="-98.858156" />
      <trkpt lat="30.264985" lon="-98.857975" />
      <trkpt lat="30.264686" lon="-98.857572" />
      <trkpt lat="30.264503" lon="-98.857394" />
      <trkpt lat="30.264485" lon="-98.857381" />
      <trkpt lat="30.264329" lon="-98.85727" />
      <trkpt lat="30.264207" lon="-98.857211" />
      <trkpt lat="30.264132" lon="-98.857175" />
      <trkpt lat="30.264053" lon="-98.857145" />
      <trkpt lat="30.263839" lon="-98.857061" />
      <trkpt lat="30.263682" lon="-98.857009" />
      <trkpt lat="30.263461" lon="-98.856937" />
      <trkpt lat="30.263223" lon="-98.856859" />
      <trkpt lat="30.263181" lon="-98.856845" />
      <trkpt lat="30.262881" lon="-98.856735" />
      <trkpt lat="30.262064" lon="-98.856465" />
      <trkpt lat="30.261674" lon="-98.856336" />
      <trkpt lat="30.261584" lon="-98.856306" />
      <trkpt lat="30.261505" lon="-98.856279" />
      <trkpt lat="30.261228" lon="-98.856187" />
      <trkpt lat="30.260825" lon="-98.856053" />
      <trkpt lat="30.260626" lon="-98.855965" />
      <trkpt lat="30.260368" lon="-98.855835" />
      <trkpt lat="30.260271" lon="-98.855768" />
      <trkpt lat="30.260159" lon="-98.855691" />
      <trkpt lat="30.260074" lon="-98.855626" />
      <trkpt lat="30.259983" lon="-98.855557" />
      <trkpt lat="30.259811" lon="-98.855399" />
      <trkpt lat="30.259712" lon="-98.855308" />
      <trkpt lat="30.259455" lon="-98.854997" />
      <trkpt lat="30.259123" lon="-98.854527" />
      <trkpt lat="30.25904" lon="-98.854402" />
      <trkpt lat="30.258717" lon="-98.853922" />
      <trkpt lat="30.258698" lon="-98.853894" />
      <trkpt lat="30.258138" lon="-98.85306" />
      <trkpt lat="30.258091" lon="-98.85299" />
      <trkpt lat="30.257866" lon="-98.852655" />
      <trkpt lat="30.257163" lon="-98.85159" />
      <trkpt lat="30.256864" lon="-98.851137" />
      <trkpt lat="30.25648" lon="-98.85066" />
      <trkpt lat="30.256063" lon="-98.850222" />
      <trkpt lat="30.255753" lon="-98.84997" />
      <trkpt lat="30.255436" lon="-98.849739" />
      <trkpt lat="30.255187" lon="-98.849587" />
      <trkpt lat="30.255056" lon="-98.849506" />
      <trkpt lat="30.254683" lon="-98.849325" />
      <trkpt lat="30.254499" lon="-98.84925" />
      <trkpt lat="30.253718" lon="-98.848988" />
      <trkpt lat="30.25362" lon="-98.848955" />
      <trkpt lat="30.25238" lon="-98.848534" />
      <trkpt lat="30.250878" lon="-98.848024" />
      <trkpt lat="30.250478" lon="-98.847871" />
      <trkpt lat="30.250009" lon="-98.847735" />
      <trkpt lat="30.249779" lon="-98.847669" />
      <trkpt lat="30.249557" lon="-98.847604" />
      <trkpt lat="30.249499" lon="-98.847588" />
      <trkpt lat="30.24925" lon="-98.847516" />
      <trkpt lat="30.248543" lon="-98.847268" />
      <trkpt lat="30.24812" lon="-98.847131" />
      <trkpt lat="30.247759" lon="-98.847021" />
      <trkpt lat="30.247679" lon="-98.846997" />
      <trkpt lat="30.247643" lon="-98.846986" />
      <trkpt lat="30.247597" lon="-98.846971" />
      <trkpt lat="30.246857" lon="-98.846726" />
      <trkpt lat="30.246537" lon="-98.846596" />
      <trkpt lat="30.246221" lon="-98.846441" />
      <trkpt lat="30.245948" lon="-98.84627" />
      <trkpt lat="30.245656" lon="-98.846065" />
      <trkpt lat="30.245394" lon="-98.845839" />
      <trkpt lat="30.244668" lon="-98.845177" />
      <trkpt lat="30.243523" lon="-98.844161" />
      <trkpt lat="30.242637" lon="-98.843375" />
      <trkpt lat="30.242304" lon="-98.843087" />
      <trkpt lat="30.242243" lon="-98.843162" />
      <trkpt lat="30.242161" lon="-98.843211" />
      <trkpt lat="30.242007" lon="-98.843244" />
      <trkpt lat="30.241686" lon="-98.843249" />
      <trkpt lat="30.241065" lon="-98.84321" />
      <trkpt lat="30.240186" lon="-98.8431" />
      <trkpt lat="30.239592" lon="-98.843066" />
      <trkpt lat="30.23794" lon="-98.842985" />
      <trkpt lat="30.237726" lon="-98.84301" />
      <trkpt lat="30.237547" lon="-98.84306" />
      <trkpt lat="30.237383" lon="-98.843132" />
      <trkpt lat="30.237195" lon="-98.843253" />
      <trkpt lat="30.237071" lon="-98.843384" />
      <trkpt lat="30.236703" lon="-98.843839" />
      <trkpt lat="30.23651" lon="-98.843985" />
      <trkpt lat="30.236391" lon="-98.844073" />
      <trkpt lat="30.236235" lon="-98.844143" />
      <trkpt lat="30.236079" lon="-98.844193" />
      <trkpt lat="30.234571" lon="-98.84468" />
      <trkpt lat="30.23364" lon="-98.844952" />
      <trkpt lat="30.233222" lon="-98.845095" />
      <trkpt lat="30.233056" lon="-98.845126" />
      <trkpt lat="30.232892" lon="-98.845114" />
      <trkpt lat="30.232715" lon="-98.845041" />
      <trkpt lat="30.231322" lon="-98.843988" />
      <trkpt lat="30.230547" lon="-98.843403" />
      <trkpt lat="30.230294" lon="-98.843247" />
      <trkpt lat="30.230187" lon="-98.843201" />
      <trkpt lat="30.230082" lon="-98.843155" />
      <trkpt lat="30.229869" lon="-98.843108" />
      <trkpt lat="30.229653" lon="-98.843085" />
      <trkpt lat="30.229159" lon="-98.843067" />
      <trkpt lat="30.228111" lon="-98.84303" />
      <trkpt lat="30.22652" lon="-98.843059" />
      <trkpt lat="30.224463" lon="-98.843047" />
      <trkpt lat="30.224014" lon="-98.84306" />
      <trkpt lat="30.223787" lon="-98.843074" />
      <trkpt lat="30.22364" lon="-98.843101" />
      <trkpt lat="30.223478" lon="-98.843153" />
      <trkpt lat="30.22332" lon="-98.843249" />
      <trkpt lat="30.22317" lon="-98.843397" />
      <trkpt lat="30.222816" lon="-98.84385" />
      <trkpt lat="30.222674" lon="-98.844" />
      <trkpt lat="30.222495" lon="-98.844117" />
      <trkpt lat="30.222341" lon="-98.844156" />
      <trkpt lat="30.222204" lon="-98.844166" />
      <trkpt lat="30.222084" lon="-98.844141" />
      <trkpt lat="30.221966" lon="-98.844102" />
      <trkpt lat="30.221843" lon="-98.84402" />
      <trkpt lat="30.221673" lon="-98.84389" />
      <trkpt lat="30.221386" lon="-98.843634" />
      <trkpt lat="30.221097" lon="-98.843278" />
      <trkpt lat="30.220577" lon="-98.842701" />
      <trkpt lat="30.220427" lon="-98.842621" />
      <trkpt lat="30.220121" lon="-98.842508" />
      <trkpt lat="30.219937" lon="-98.842483" />
      <trkpt lat="30.213874" lon="-98.842455" />
      <trkpt lat="30.212701" lon="-98.842452" />
      <trkpt lat="30.211421" lon="-98.842435" />
      <trkpt lat="30.211238" lon="-98.842423" />
      <trkpt lat="30.211121" lon="-98.842364" />
      <trkpt lat="30.211031" lon="-98.842294" />
      <trkpt lat="30.210909" lon="-98.842153" />
      <trkpt lat="30.210828" lon="-98.841948" />
      <trkpt lat="30.210298" lon="-98.840414" />
      <trkpt lat="30.210184" lon="-98.840182" />
      <trkpt lat="30.210049" lon="-98.840018" />
      <trkpt lat="30.209802" lon="-98.839842" />
      <trkpt lat="30.206063" lon="-98.837757" />
      <trkpt lat="30.205817" lon="-98.83757" />
      <trkpt lat="30.20558" lon="-98.837336" />
      <trkpt lat="30.205359" lon="-98.837063" />
      <trkpt lat="30.20518" lon="-98.836818" />
      <trkpt lat="30.205053" lon="-98.836587" />
      <trkpt lat="30.204935" lon="-98.836257" />
      <trkpt lat="30.203824" lon="-98.832758" />
      <trkpt lat="30.203732" lon="-98.832521" />
      <trkpt lat="30.203624" lon="-98.832286" />
      <trkpt lat="30.202997" lon="-98.83123" />
      <trkpt lat="30.202766" lon="-98.830954" />
      <trkpt lat="30.202489" lon="-98.830733" />
      <trkpt lat="30.202257" lon="-98.830607" />
      <trkpt lat="30.202126" lon="-98.83056" />
      <trkpt lat="30.201853" lon="-98.830501" />
      <trkpt lat="30.201529" lon="-98.830432" />
      <trkpt lat="30.201407" lon="-98.830399" />
      <trkpt lat="30.201267" lon="-98.830335" />
      <trkpt lat="30.201061" lon="-98.830229" />
      <trkpt lat="30.199628" lon="-98.82941" />
      <trkpt lat="30.197904" lon="-98.828408" />
      <trkpt lat="30.197599" lon="-98.828234" />
      <trkpt lat="30.1973" lon="-98.828045" />
      <trkpt lat="30.196255" lon="-98.82733" />
      <trkpt lat="30.195241" lon="-98.826608" />
      <trkpt lat="30.194568" lon="-98.826106" />
      <trkpt lat="30.194494" lon="-98.826049" />
      <trkpt lat="30.193879" lon="-98.825575" />
      <trkpt lat="30.193678" lon="-98.825379" />
      <trkpt lat="30.193485" lon="-98.825153" />
      <trkpt lat="30.193244" lon="-98.824793" />
      <trkpt lat="30.192561" lon="-98.823619" />
      <trkpt lat="30.192366" lon="-98.823319" />
      <trkpt lat="30.192212" lon="-98.823125" />
      <trkpt lat="30.19203" lon="-98.822924" />
      <trkpt lat="30.19145" lon="-98.822484" />
      <trkpt lat="30.191128" lon="-98.822274" />
      <trkpt lat="30.190747" lon="-98.822026" />
      <trkpt lat="30.190496" lon="-98.821914" />
      <trkpt lat="30.189512" lon="-98.821574" />
      <trkpt lat="30.189093" lon="-98.821429" />
      <trkpt lat="30.188764" lon="-98.821284" />
      <trkpt lat="30.188414" lon="-98.821072" />
      <trkpt lat="30.188212" lon="-98.820931" />
      <trkpt lat="30.187063" lon="-98.820127" />
      <trkpt lat="30.186767" lon="-98.819967" />
      <trkpt lat="30.186602" lon="-98.819917" />
      <trkpt lat="30.186457" lon="-98.819913" />
      <trkpt lat="30.186332" lon="-98.819942" />
      <trkpt lat="30.186208" lon="-98.820007" />
      <trkpt lat="30.185935" lon="-98.820181" />
      <trkpt lat="30.182929" lon="-98.822131" />
      <trkpt lat="30.18275" lon="-98.822231" />
      <trkpt lat="30.182563" lon="-98.822278" />
      <trkpt lat="30.182369" lon="-98.822317" />
      <trkpt lat="30.182197" lon="-98.822337" />
      <trkpt lat="30.181198" lon="-98.822373" />
      <trkpt lat="30.180957" lon="-98.822397" />
      <trkpt lat="30.180723" lon="-98.822433" />
      <trkpt lat="30.179227" lon="-98.822785" />
      <trkpt lat="30.178486" lon="-98.823008" />
      <trkpt lat="30.176825" lon="-98.823478" />
      <trkpt lat="30.176257" lon="-98.823588" />
      <trkpt lat="30.17585" lon="-98.823629" />
      <trkpt lat="30.175531" lon="-98.823645" />
      <trkpt lat="30.174035" lon="-98.823661" />
      <trkpt lat="30.173738" lon="-98.823682" />
      <trkpt lat="30.172907" lon="-98.82373" />
      <trkpt lat="30.17227" lon="-98.823779" />
      <trkpt lat="30.171624" lon="-98.823796" />
      <trkpt lat="30.170529" lon="-98.823755" />
      <trkpt lat="30.170096" lon="-98.823736" />
      <trkpt lat="30.169916" lon="-98.823702" />
      <trkpt lat="30.169732" lon="-98.823641" />
      <trkpt lat="30.169555" lon="-98.82355" />
      <trkpt lat="30.169291" lon="-98.82337" />
      <trkpt lat="30.169112" lon="-98.82327" />
      <trkpt lat="30.168912" lon="-98.823193" />
      <trkpt lat="30.168732" lon="-98.823149" />
      <trkpt lat="30.168366" lon="-98.823095" />
      <trkpt lat="30.16543" lon="-98.822629" />
      <trkpt lat="30.165109" lon="-98.822546" />
      <trkpt lat="30.163721" lon="-98.822045" />
      <trkpt lat="30.163356" lon="-98.821836" />
      <trkpt lat="30.162287" lon="-98.820893" />
      <trkpt lat="30.162135" lon="-98.820776" />
      <trkpt lat="30.16202" lon="-98.820695" />
      <trkpt lat="30.16178" lon="-98.82057" />
      <trkpt lat="30.161364" lon="-98.82042" />
      <trkpt lat="30.161169" lon="-98.82036" />
      <trkpt lat="30.161119" lon="-98.820349" />
      <trkpt lat="30.160797" lon="-98.820252" />
      <trkpt lat="30.160533" lon="-98.82023" />
      <trkpt lat="30.156734" lon="-98.820183" />
      <trkpt lat="30.155455" lon="-98.820167" />
      <trkpt lat="30.153566" lon="-98.820172" />
      <trkpt lat="30.15341" lon="-98.82015" />
      <trkpt lat="30.153272" lon="-98.820123" />
      <trkpt lat="30.153171" lon="-98.82008" />
      <trkpt lat="30.153139" lon="-98.815107" />
      <trkpt lat="30.153117" lon="-98.813618" />
      <trkpt lat="30.153083" lon="-98.811711" />
      <trkpt lat="30.153048" lon="-98.810301" />
      <trkpt lat="30.153017" lon="-98.809597" />
      <trkpt lat="30.153024" lon="-98.809097" />
      <trkpt lat="30.153047" lon="-98.808614" />
      <trkpt lat="30.153061" lon="-98.808179" />
      <trkpt lat="30.153067" lon="-98.807666" />
      <trkpt lat="30.153057" lon="-98.807049" />
      <trkpt lat="30.153023" lon="-98.805729" />
      <trkpt lat="30.153015" lon="-98.804853" />
      <trkpt lat="30.153022" lon="-98.8046" />
      <trkpt lat="30.153034" lon="-98.804474" />
      <trkpt lat="30.153062" lon="-98.804348" />
      <trkpt lat="30.153313" lon="-98.803787" />
      <trkpt lat="30.153381" lon="-98.803644" />
      <trkpt lat="30.153434" lon="-98.803441" />
      <trkpt lat="30.153452" lon="-98.803179" />
      <trkpt lat="30.153425" lon="-98.803012" />
      <trkpt lat="30.15336" lon="-98.802699" />
      <trkpt lat="30.153176" lon="-98.802211" />
      <trkpt lat="30.153029" lon="-98.80183" />
      <trkpt lat="30.152955" lon="-98.801399" />
      <trkpt lat="30.152893" lon="-98.79988" />
      <trkpt lat="30.152919" lon="-98.798899" />
      <trkpt lat="30.153569" lon="-98.797986" />
      <trkpt lat="30.154058" lon="-98.797709" />
      <trkpt lat="30.154938" lon="-98.797191" />
      <trkpt lat="30.156308" lon="-98.796257" />
      <trkpt lat="30.157398" lon="-98.795539" />
      <trkpt lat="30.157994" lon="-98.795128" />
      <trkpt lat="30.158375" lon="-98.794936" />
      <trkpt lat="30.159021" lon="-98.794683" />
      <trkpt lat="30.159477" lon="-98.794444" />
      <trkpt lat="30.159936" lon="-98.794155" />
      <trkpt lat="30.160379" lon="-98.793699" />
      <trkpt lat="30.160442" lon="-98.793609" />
      <trkpt lat="30.16095" lon="-98.793126" />
      <trkpt lat="30.161458" lon="-98.792608" />
      <trkpt lat="30.161833" lon="-98.79209" />
      <trkpt lat="30.161939" lon="-98.791847" />
      <trkpt lat="30.162153" lon="-98.791374" />
      <trkpt lat="30.16238" lon="-98.790784" />
      <trkpt lat="30.162428" lon="-98.790464" />
      <trkpt lat="30.162435" lon="-98.789679" />
      <trkpt lat="30.162412" lon="-98.789103" />
      <trkpt lat="30.162374" lon="-98.788863" />
      <trkpt lat="30.162306" lon="-98.788597" />
      <trkpt lat="30.162284" lon="-98.788288" />
      <trkpt lat="30.162324" lon="-98.78803" />
      <trkpt lat="30.162417" lon="-98.787506" />
      <trkpt lat="30.162432" lon="-98.786484" />
      <trkpt lat="30.162424" lon="-98.785375" />
      <trkpt lat="30.162447" lon="-98.78491" />
      <trkpt lat="30.162553" lon="-98.784597" />
      <trkpt lat="30.162782" lon="-98.784162" />
      <trkpt lat="30.163213" lon="-98.783538" />
      <trkpt lat="30.163419" lon="-98.783193" />
      <trkpt lat="30.163495" lon="-98.782952" />
      <trkpt lat="30.163556" lon="-98.782678" />
      <trkpt lat="30.163613" lon="-98.782222" />
      <trkpt lat="30.163615" lon="-98.781329" />
      <trkpt lat="30.163659" lon="-98.781115" />
      <trkpt lat="30.163747" lon="-98.780834" />
      <trkpt lat="30.16393" lon="-98.780397" />
      <trkpt lat="30.16438" lon="-98.779405" />
      <trkpt lat="30.164544" lon="-98.778915" />
      <trkpt lat="30.164762" lon="-98.778178" />
      <trkpt lat="30.164945" lon="-98.777658" />
      <trkpt lat="30.165366" lon="-98.776876" />
      <trkpt lat="30.165564" lon="-98.776475" />
      <trkpt lat="30.165879" lon="-98.775924" />
      <trkpt lat="30.166443" lon="-98.775041" />
      <trkpt lat="30.166711" lon="-98.774709" />
      <trkpt lat="30.16714" lon="-98.774143" />
      <trkpt lat="30.16731" lon="-98.773832" />
      <trkpt lat="30.167373" lon="-98.773643" />
      <trkpt lat="30.167412" lon="-98.773419" />
      <trkpt lat="30.167472" lon="-98.773134" />
      <trkpt lat="30.167486" lon="-98.772857" />
      <trkpt lat="30.16746" lon="-98.772084" />
      <trkpt lat="30.167481" lon="-98.771814" />
      <trkpt lat="30.16754" lon="-98.7716" />
      <trkpt lat="30.167665" lon="-98.771247" />
      <trkpt lat="30.168096" lon="-98.770179" />
      <trkpt lat="30.168416" lon="-98.769369" />
      <trkpt lat="30.168511" lon="-98.769146" />
      <trkpt lat="30.16865" lon="-98.768879" />
      <trkpt lat="30.168927" lon="-98.768524" />
      <trkpt lat="30.169141" lon="-98.768279" />
      <trkpt lat="30.169408" lon="-98.767889" />
      <trkpt lat="30.169724" lon="-98.767608" />
      <trkpt lat="30.17012" lon="-98.767284" />
      <trkpt lat="30.170486" lon="-98.767057" />
      <trkpt lat="30.170713" lon="-98.766976" />
      <trkpt lat="30.171097" lon="-98.766962" />
      <trkpt lat="30.17191" lon="-98.767021" />
      <trkpt lat="30.174523" lon="-98.766987" />
      <trkpt lat="30.17601" lon="-98.766964" />
      <trkpt lat="30.176733" lon="-98.766947" />
      <trkpt lat="30.177058" lon="-98.766935" />
      <trkpt lat="30.17751" lon="-98.766882" />
      <trkpt lat="30.178003" lon="-98.766806" />
      <trkpt lat="30.178793" lon="-98.766669" />
      <trkpt lat="30.178994" lon="-98.766647" />
      <trkpt lat="30.179244" lon="-98.766638" />
      <trkpt lat="30.180051" lon="-98.766634" />
      <trkpt lat="30.180271" lon="-98.766633" />
      <trkpt lat="30.181332" lon="-98.766631" />
      <trkpt lat="30.1817" lon="-98.766606" />
      <trkpt lat="30.181918" lon="-98.76655" />
      <trkpt lat="30.182025" lon="-98.766497" />
      <trkpt lat="30.182116" lon="-98.766438" />
      <trkpt lat="30.182234" lon="-98.766339" />
      <trkpt lat="30.182361" lon="-98.766194" />
      <trkpt lat="30.182436" lon="-98.766049" />
      <trkpt lat="30.182493" lon="-98.765911" />
      <trkpt lat="30.182538" lon="-98.765733" />
      <trkpt lat="30.182565" lon="-98.765534" />
      <trkpt lat="30.182586" lon="-98.765395" />
      <trkpt lat="30.182606" lon="-98.765267" />
      <trkpt lat="30.182653" lon="-98.765137" />
      <trkpt lat="30.182763" lon="-98.764912" />
      <trkpt lat="30.182925" lon="-98.764636" />
      <trkpt lat="30.183028" lon="-98.764507" />
      <trkpt lat="30.183155" lon="-98.764381" />
      <trkpt lat="30.183237" lon="-98.764326" />
      <trkpt lat="30.183334" lon="-98.764287" />
      <trkpt lat="30.183484" lon="-98.764263" />
      <trkpt lat="30.183943" lon="-98.764236" />
      <trkpt lat="30.184066" lon="-98.764206" />
      <trkpt lat="30.184213" lon="-98.764152" />
      <trkpt lat="30.184128" lon="-98.764057" />
      <trkpt lat="30.18385" lon="-98.763696" />
      <trkpt lat="30.183659" lon="-98.763387" />
      <trkpt lat="30.183549" lon="-98.763173" />
      <trkpt lat="30.18342" lon="-98.762864" />
      <trkpt lat="30.183342" lon="-98.762624" />
      <trkpt lat="30.183261" lon="-98.762292" />
      <trkpt lat="30.183203" lon="-98.761944" />
      <trkpt lat="30.183177" lon="-98.761671" />
      <trkpt lat="30.183154" lon="-98.760749" />
      <trkpt lat="30.18313" lon="-98.760406" />
      <trkpt lat="30.183096" lon="-98.760152" />
      <trkpt lat="30.183053" lon="-98.759973" />
      <trkpt lat="30.183037" lon="-98.759873" />
      <trkpt lat="30.182926" lon="-98.759473" />
      <trkpt lat="30.18279" lon="-98.75914" />
      <trkpt lat="30.182622" lon="-98.758816" />
      <trkpt lat="30.182434" lon="-98.758553" />
      <trkpt lat="30.181753" lon="-98.757634" />
      <trkpt lat="30.181597" lon="-98.757375" />
      <trkpt lat="30.181398" lon="-98.756953" />
      <trkpt lat="30.181247" lon="-98.756489" />
      <trkpt lat="30.181072" lon="-98.756015" />
      <trkpt lat="30.180999" lon="-98.755823" />
      <trkpt lat="30.180616" lon="-98.754809" />
      <trkpt lat="30.180569" lon="-98.754685" />
      <trkpt lat="30.180227" lon="-98.75373" />
      <trkpt lat="30.179908" lon="-98.752791" />
      <trkpt lat="30.179752" lon="-98.752206" />
      <trkpt lat="30.17964" lon="-98.751758" />
      <trkpt lat="30.17954" lon="-98.751285" />
      <trkpt lat="30.17948" lon="-98.750999" />
      <trkpt lat="30.179165" lon="-98.749484" />
      <trkpt lat="30.179086" lon="-98.749174" />
      <trkpt lat="30.178984" lon="-98.748866" />
      <trkpt lat="30.178761" lon="-98.748371" />
      <trkpt lat="30.178537" lon="-98.748008" />
      <trkpt lat="30.178276" lon="-98.747677" />
      <trkpt lat="30.178126" lon="-98.74753" />
      <trkpt lat="30.177723" lon="-98.747186" />
      <trkpt lat="30.177379" lon="-98.746956" />
      <trkpt lat="30.176258" lon="-98.746222" />
      <trkpt lat="30.175423" lon="-98.745663" />
      <trkpt lat="30.175083" lon="-98.745446" />
      <trkpt lat="30.173111" lon="-98.744183" />
      <trkpt lat="30.172819" lon="-98.743992" />
      <trkpt lat="30.171826" lon="-98.743343" />
      <trkpt lat="30.171574" lon="-98.743193" />
      <trkpt lat="30.171365" lon="-98.743082" />
      <trkpt lat="30.170884" lon="-98.74288" />
      <trkpt lat="30.170728" lon="-98.742819" />
      <trkpt lat="30.170517" lon="-98.742756" />
      <trkpt lat="30.17014" lon="-98.742658" />
      <trkpt lat="30.169899" lon="-98.742624" />
      <trkpt lat="30.169589" lon="-98.742599" />
      <trkpt lat="30.166321" lon="-98.742463" />
      <trkpt lat="30.164882" lon="-98.742411" />
      <trkpt lat="30.163708" lon="-98.742368" />
      <trkpt lat="30.163362" lon="-98.74233" />
      <trkpt lat="30.163243" lon="-98.742321" />
      <trkpt lat="30.162861" lon="-98.742234" />
      <trkpt lat="30.162486" lon="-98.742106" />
      <trkpt lat="30.162163" lon="-98.741954" />
      <trkpt lat="30.160688" lon="-98.741083" />
      <trkpt lat="30.160317" lon="-98.740877" />
      <trkpt lat="30.159998" lon="-98.740722" />
      <trkpt lat="30.15768" lon="-98.739729" />
      <trkpt lat="30.151118" lon="-98.736917" />
      <trkpt lat="30.150759" lon="-98.736777" />
      <trkpt lat="30.150601" lon="-98.736716" />
      <trkpt lat="30.150373" lon="-98.736656" />
      <trkpt lat="30.150189" lon="-98.736624" />
      <trkpt lat="30.149974" lon="-98.7366" />
      <trkpt lat="30.149433" lon="-98.736556" />
      <trkpt lat="30.148321" lon="-98.736499" />
      <trkpt lat="30.147749" lon="-98.736433" />
      <trkpt lat="30.14758" lon="-98.736393" />
      <trkpt lat="30.147301" lon="-98.736327" />
      <trkpt lat="30.146873" lon="-98.736176" />
      <trkpt lat="30.146564" lon="-98.736029" />
      <trkpt lat="30.146256" lon="-98.735854" />
      <trkpt lat="30.145784" lon="-98.735513" />
      <trkpt lat="30.142667" lon="-98.732856" />
      <trkpt lat="30.142015" lon="-98.732323" />
      <trkpt lat="30.141854" lon="-98.732192" />
      <trkpt lat="30.141306" lon="-98.731756" />
      <trkpt lat="30.14094" lon="-98.731506" />
      <trkpt lat="30.14023" lon="-98.731069" />
      <trkpt lat="30.138591" lon="-98.730047" />
      <trkpt lat="30.138541" lon="-98.730019" />
      <trkpt lat="30.138481" lon="-98.729987" />
      <trkpt lat="30.137893" lon="-98.729639" />
      <trkpt lat="30.137434" lon="-98.729418" />
      <trkpt lat="30.136793" lon="-98.72917" />
      <trkpt lat="30.136167" lon="-98.728993" />
      <trkpt lat="30.135828" lon="-98.728943" />
      <trkpt lat="30.135454" lon="-98.72887" />
      <trkpt lat="30.134799" lon="-98.728827" />
      <trkpt lat="30.134256" lon="-98.728865" />
      <trkpt lat="30.133688" lon="-98.728971" />
      <trkpt lat="30.133254" lon="-98.729108" />
      <trkpt lat="30.13268" lon="-98.729356" />
      <trkpt lat="30.132268" lon="-98.729591" />
      <trkpt lat="30.131611" lon="-98.730067" />
      <trkpt lat="30.130587" lon="-98.73085" />
      <trkpt lat="30.128646" lon="-98.732333" />
      <trkpt lat="30.128243" lon="-98.732583" />
      <trkpt lat="30.127914" lon="-98.732765" />
      <trkpt lat="30.127431" lon="-98.732957" />
      <trkpt lat="30.127003" lon="-98.733075" />
      <trkpt lat="30.126769" lon="-98.733122" />
      <trkpt lat="30.122701" lon="-98.733682" />
      <trkpt lat="30.121821" lon="-98.733852" />
      <trkpt lat="30.121332" lon="-98.733999" />
      <trkpt lat="30.120686" lon="-98.734252" />
      <trkpt lat="30.120054" lon="-98.734573" />
      <trkpt lat="30.119591" lon="-98.734859" />
      <trkpt lat="30.11913" lon="-98.735191" />
      <trkpt lat="30.118823" lon="-98.735439" />
      <trkpt lat="30.112631" lon="-98.740658" />
      <trkpt lat="30.112127" lon="-98.741149" />
      <trkpt lat="30.111774" lon="-98.74154" />
      <trkpt lat="30.111401" lon="-98.742018" />
      <trkpt lat="30.111134" lon="-98.742409" />
      <trkpt lat="30.110883" lon="-98.742818" />
      <trkpt lat="30.11057" lon="-98.743404" />
      <trkpt lat="30.107539" lon="-98.750212" />
      <trkpt lat="30.107273" lon="-98.750759" />
      <trkpt lat="30.107072" lon="-98.751084" />
      <trkpt lat="30.106725" lon="-98.751511" />
      <trkpt lat="30.106465" lon="-98.751755" />
      <trkpt lat="30.106188" lon="-98.751965" />
      <trkpt lat="30.105892" lon="-98.752139" />
      <trkpt lat="30.105584" lon="-98.752277" />
      <trkpt lat="30.105091" lon="-98.752409" />
      <trkpt lat="30.104964" lon="-98.752434" />
      <trkpt lat="30.104742" lon="-98.752449" />
      <trkpt lat="30.104383" lon="-98.752443" />
      <trkpt lat="30.104209" lon="-98.752429" />
      <trkpt lat="30.104025" lon="-98.752388" />
      <trkpt lat="30.103918" lon="-98.752359" />
      <trkpt lat="30.103668" lon="-98.752297" />
      <trkpt lat="30.101097" lon="-98.751452" />
      <trkpt lat="30.099858" lon="-98.751093" />
      <trkpt lat="30.09896" lon="-98.750881" />
      <trkpt lat="30.098581" lon="-98.750821" />
      <trkpt lat="30.098194" lon="-98.750781" />
      <trkpt lat="30.097802" lon="-98.750767" />
      <trkpt lat="30.097411" lon="-98.750775" />
      <trkpt lat="30.096828" lon="-98.750828" />
      <trkpt lat="30.092671" lon="-98.751529" />
      <trkpt lat="30.092109" lon="-98.751601" />
      <trkpt lat="30.091741" lon="-98.751609" />
      <trkpt lat="30.091568" lon="-98.751595" />
      <trkpt lat="30.091376" lon="-98.751579" />
      <trkpt lat="30.091221" lon="-98.751548" />
      <trkpt lat="30.091016" lon="-98.751506" />
      <trkpt lat="30.09074" lon="-98.751426" />
      <trkpt lat="30.090493" lon="-98.751328" />
      <trkpt lat="30.090181" lon="-98.751173" />
      <trkpt lat="30.089702" lon="-98.750879" />
      <trkpt lat="30.089383" lon="-98.7506" />
      <trkpt lat="30.089213" lon="-98.75043" />
      <trkpt lat="30.088933" lon="-98.750106" />
      <trkpt lat="30.088184" lon="-98.749015" />
      <trkpt lat="30.08787" lon="-98.748596" />
      <trkpt lat="30.087531" lon="-98.748182" />
      <trkpt lat="30.086924" lon="-98.747504" />
      <trkpt lat="30.086538" lon="-98.747123" />
      <trkpt lat="30.086147" lon="-98.746767" />
      <trkpt lat="30.086112" lon="-98.746737" />
      <trkpt lat="30.085588" lon="-98.746299" />
      <trkpt lat="30.085139" lon="-98.745963" />
      <trkpt lat="30.084444" lon="-98.745495" />
      <trkpt lat="30.083225" lon="-98.744637" />
      <trkpt lat="30.081218" lon="-98.743251" />
      <trkpt lat="30.080069" lon="-98.742484" />
      <trkpt lat="30.079725" lon="-98.742288" />
      <trkpt lat="30.079373" lon="-98.742116" />
      <trkpt lat="30.078833" lon="-98.741896" />
      <trkpt lat="30.076942" lon="-98.741284" />
      <trkpt lat="30.076572" lon="-98.741141" />
      <trkpt lat="30.076213" lon="-98.740976" />
      <trkpt lat="30.075698" lon="-98.740693" />
      <trkpt lat="30.073784" lon="-98.739458" />
      <trkpt lat="30.073298" lon="-98.739166" />
      <trkpt lat="30.073092" lon="-98.739065" />
      <trkpt lat="30.072796" lon="-98.73892" />
      <trkpt lat="30.072449" lon="-98.738797" />
      <trkpt lat="30.072098" lon="-98.738699" />
      <trkpt lat="30.071742" lon="-98.738632" />
      <trkpt lat="30.071627" lon="-98.738619" />
      <trkpt lat="30.071388" lon="-98.738593" />
      <trkpt lat="30.070192" lon="-98.738546" />
      <trkpt lat="30.068927" lon="-98.738497" />
      <trkpt lat="30.067968" lon="-98.738466" />
      <trkpt lat="30.067574" lon="-98.738452" />
      <trkpt lat="30.066675" lon="-98.738423" />
      <trkpt lat="30.066269" lon="-98.738438" />
      <trkpt lat="30.065865" lon="-98.738478" />
      <trkpt lat="30.065188" lon="-98.738594" />
      <trkpt lat="30.064963" lon="-98.738657" />
      <trkpt lat="30.064574" lon="-98.738764" />
      <trkpt lat="30.064101" lon="-98.738944" />
      <trkpt lat="30.06367" lon="-98.739128" />
      <trkpt lat="30.063139" lon="-98.739353" />
      <trkpt lat="30.062121" lon="-98.739703" />
      <trkpt lat="30.060308" lon="-98.740172" />
      <trkpt lat="30.058846" lon="-98.740526" />
      <trkpt lat="30.05819" lon="-98.740657" />
      <trkpt lat="30.057689" lon="-98.740695" />
      <trkpt lat="30.057181" lon="-98.740696" />
      <trkpt lat="30.056501" lon="-98.740619" />
      <trkpt lat="30.056008" lon="-98.740511" />
      <trkpt lat="30.055691" lon="-98.740416" />
      <trkpt lat="30.055286" lon="-98.740266" />
      <trkpt lat="30.054068" lon="-98.739814" />
      <trkpt lat="30.053939" lon="-98.739766" />
      <trkpt lat="30.053798" lon="-98.739702" />
      <trkpt lat="30.053457" lon="-98.739548" />
      <trkpt lat="30.051386" lon="-98.738522" />
      <trkpt lat="30.05132" lon="-98.738489" />
      <trkpt lat="30.050754" lon="-98.738205" />
      <trkpt lat="30.05055" lon="-98.738115" />
      <trkpt lat="30.050115" lon="-98.737922" />
      <trkpt lat="30.050034" lon="-98.737893" />
      <trkpt lat="30.049223" lon="-98.737599" />
      <trkpt lat="30.048468" lon="-98.737371" />
      <trkpt lat="30.044477" lon="-98.736291" />
      <trkpt lat="30.043261" lon="-98.735962" />
      <trkpt lat="30.039609" lon="-98.73496" />
      <trkpt lat="30.038911" lon="-98.734768" />
      <trkpt lat="30.037105" lon="-98.734281" />
      <trkpt lat="30.036725" lon="-98.734161" />
      <trkpt lat="30.036361" lon="-98.73402" />
      <trkpt lat="30.036009" lon="-98.733861" />
      <trkpt lat="30.035813" lon="-98.733743" />
      <trkpt lat="30.035514" lon="-98.733597" />
      <trkpt lat="30.035171" lon="-98.73339" />
      <trkpt lat="30.034923" lon="-98.73322" />
      <trkpt lat="30.034073" lon="-98.732559" />
      <trkpt lat="30.032697" lon="-98.731454" />
      <trkpt lat="30.032127" lon="-98.730996" />
      <trkpt lat="30.031518" lon="-98.730563" />
      <trkpt lat="30.030909" lon="-98.730213" />
      <trkpt lat="30.030362" lon="-98.729962" />
      <trkpt lat="30.02977" lon="-98.729748" />
      <trkpt lat="30.029297" lon="-98.729619" />
      <trkpt lat="30.028641" lon="-98.729496" />
      <trkpt lat="30.027972" lon="-98.729439" />
      <trkpt lat="30.026763" lon="-98.729434" />
      <trkpt lat="30.026483" lon="-98.729436" />
      <trkpt lat="30.025821" lon="-98.729456" />
      <trkpt lat="30.025479" lon="-98.729494" />
      <trkpt lat="30.024968" lon="-98.729587" />
      <trkpt lat="30.024414" lon="-98.729736" />
      <trkpt lat="30.024083" lon="-98.729846" />
      <trkpt lat="30.023241" lon="-98.730092" />
      <trkpt lat="30.022627" lon="-98.730234" />
      <trkpt lat="30.022077" lon="-98.730306" />
      <trkpt lat="30.021962" lon="-98.730321" />
      <trkpt lat="30.021272" lon="-98.730347" />
      <trkpt lat="30.020927" lon="-98.730333" />
      <trkpt lat="30.020386" lon="-98.730304" />
      <trkpt lat="30.018453" lon="-98.730008" />
      <trkpt lat="30.015621" lon="-98.729641" />
      <trkpt lat="30.014647" lon="-98.729542" />
      <trkpt lat="30.014226" lon="-98.729538" />
      <trkpt lat="30.011087" lon="-98.729509" />
      <trkpt lat="30.007837" lon="-98.729498" />
      <trkpt lat="30.004049" lon="-98.729489" />
      <trkpt lat="30.003512" lon="-98.729465" />
      <trkpt lat="30.002653" lon="-98.729377" />
      <trkpt lat="30.001792" lon="-98.729199" />
      <trkpt lat="30.001552" lon="-98.729127" />
      <trkpt lat="30.001128" lon="-98.728999" />
      <trkpt lat="30.00043" lon="-98.728736" />
      <trkpt lat="29.999698" lon="-98.728383" />
      <trkpt lat="29.999122" lon="-98.728055" />
      <trkpt lat="29.998561" lon="-98.727681" />
      <trkpt lat="29.998142" lon="-98.727366" />
      <trkpt lat="29.996953" lon="-98.726393" />
      <trkpt lat="29.996501" lon="-98.726075" />
      <trkpt lat="29.996279" lon="-98.725918" />
      <trkpt lat="29.995834" lon="-98.725669" />
      <trkpt lat="29.995493" lon="-98.725499" />
      <trkpt lat="29.995111" lon="-98.725336" />
      <trkpt lat="29.994702" lon="-98.725189" />
      <trkpt lat="29.994123" lon="-98.725031" />
      <trkpt lat="29.993665" lon="-98.724939" />
      <trkpt lat="29.993187" lon="-98.72488" />
      <trkpt lat="29.99269" lon="-98.724856" />
      <trkpt lat="29.984739" lon="-98.724989" />
      <trkpt lat="29.984253" lon="-98.724968" />
      <trkpt lat="29.983771" lon="-98.724894" />
      <trkpt lat="29.983453" lon="-98.724814" />
      <trkpt lat="29.983026" lon="-98.724675" />
      <trkpt lat="29.982693" lon="-98.724516" />
      <trkpt lat="29.982342" lon="-98.724336" />
      <trkpt lat="29.981711" lon="-98.723888" />
      <trkpt lat="29.980375" lon="-98.722698" />
      <trkpt lat="29.980098" lon="-98.722498" />
      <trkpt lat="29.979851" lon="-98.722347" />
      <trkpt lat="29.979667" lon="-98.722239" />
      <trkpt lat="29.979552" lon="-98.722171" />
      <trkpt lat="29.979147" lon="-98.721982" />
      <trkpt lat="29.978681" lon="-98.72182" />
      <trkpt lat="29.97821" lon="-98.721708" />
      <trkpt lat="29.977889" lon="-98.72166" />
      <trkpt lat="29.977359" lon="-98.721593" />
      <trkpt lat="29.975639" lon="-98.721417" />
      <trkpt lat="29.974617" lon="-98.721257" />
      <trkpt lat="29.973109" lon="-98.721021" />
      <trkpt lat="29.972812" lon="-98.720969" />
      <trkpt lat="29.972626" lon="-98.720929" />
      <trkpt lat="29.97236" lon="-98.720848" />
      <trkpt lat="29.972017" lon="-98.7207" />
      <trkpt lat="29.971653" lon="-98.720502" />
      <trkpt lat="29.970784" lon="-98.719965" />
      <trkpt lat="29.970774" lon="-98.719959" />
      <trkpt lat="29.969969" lon="-98.719472" />
      <trkpt lat="29.969415" lon="-98.719122" />
      <trkpt lat="29.968666" lon="-98.718653" />
      <trkpt lat="29.968251" lon="-98.7184" />
      <trkpt lat="29.968064" lon="-98.718286" />
      <trkpt lat="29.968111" lon="-98.718223" />
      <trkpt lat="29.968281" lon="-98.71799" />
      <trkpt lat="29.968581" lon="-98.717558" />
      <trkpt lat="29.969236" lon="-98.716581" />
      <trkpt lat="29.969262" lon="-98.716542" />
      <trkpt lat="29.969488" lon="-98.7161" />
      <trkpt lat="29.969584" lon="-98.715851" />
      <trkpt lat="29.969664" lon="-98.715587" />
      <trkpt lat="29.969731" lon="-98.715314" />
      <trkpt lat="29.969779" lon="-98.715028" />
      <trkpt lat="29.969799" lon="-98.714748" />
      <trkpt lat="29.969809" lon="-98.714592" />
      <trkpt lat="29.969788" lon="-98.714174" />
      <trkpt lat="29.969655" lon="-98.712795" />
      <trkpt lat="29.969652" lon="-98.712369" />
      <trkpt lat="29.969665" lon="-98.712246" />
      <trkpt lat="29.969711" lon="-98.711817" />
      <trkpt lat="29.969769" lon="-98.711534" />
      <trkpt lat="29.969848" lon="-98.711252" />
      <trkpt lat="29.969946" lon="-98.710977" />
      <trkpt lat="29.970066" lon="-98.710715" />
      <trkpt lat="29.970201" lon="-98.71046" />
      <trkpt lat="29.970353" lon="-98.710218" />
      <trkpt lat="29.970516" lon="-98.709997" />
      <trkpt lat="29.970689" lon="-98.709801" />
      <trkpt lat="29.970851" lon="-98.709659" />
      <trkpt lat="29.970968" lon="-98.709544" />
      <trkpt lat="29.971281" lon="-98.709325" />
      <trkpt lat="29.971616" lon="-98.709134" />
      <trkpt lat="29.97206" lon="-98.708946" />
      <trkpt lat="29.973079" lon="-98.70859" />
      <trkpt lat="29.974536" lon="-98.708083" />
      <trkpt lat="29.974547" lon="-98.708079" />
      <trkpt lat="29.975181" lon="-98.707856" />
      <trkpt lat="29.975472" lon="-98.707753" />
      <trkpt lat="29.975849" lon="-98.707619" />
      <trkpt lat="29.977639" lon="-98.707012" />
      <trkpt lat="29.979087" lon="-98.706578" />
      <trkpt lat="29.980924" lon="-98.706028" />
      <trkpt lat="29.981223" lon="-98.705912" />
      <trkpt lat="29.981616" lon="-98.705691" />
      <trkpt lat="29.981857" lon="-98.705506" />
      <trkpt lat="29.981929" lon="-98.705446" />
      <trkpt lat="29.982039" lon="-98.705354" />
      <trkpt lat="29.982232" lon="-98.705163" />
      <trkpt lat="29.98225" lon="-98.70514" />
      <trkpt lat="29.982412" lon="-98.704944" />
      <trkpt lat="29.984809" lon="-98.701546" />
      <trkpt lat="29.98492" lon="-98.701356" />
      <trkpt lat="29.985039" lon="-98.70115" />
      <trkpt lat="29.985168" lon="-98.700863" />
      <trkpt lat="29.985317" lon="-98.700414" />
      <trkpt lat="29.985422" lon="-98.699929" />
      <trkpt lat="29.985452" lon="-98.699594" />
      <trkpt lat="29.98546" lon="-98.69877" />
      <trkpt lat="29.985456" lon="-98.695173" />
      <trkpt lat="29.985456" lon="-98.694953" />
      <trkpt lat="29.985456" lon="-98.694392" />
      <trkpt lat="29.985454" lon="-98.692667" />
      <trkpt lat="29.985449" lon="-98.69178" />
      <trkpt lat="29.985428" lon="-98.691324" />
      <trkpt lat="29.985408" lon="-98.691155" />
      <trkpt lat="29.985396" lon="-98.691056" />
      <trkpt lat="29.985336" lon="-98.690731" />
      <trkpt lat="29.985315" lon="-98.690637" />
      <trkpt lat="29.985236" lon="-98.690279" />
      <trkpt lat="29.985111" lon="-98.689826" />
      <trkpt lat="29.984735" lon="-98.688597" />
      <trkpt lat="29.984633" lon="-98.687974" />
      <trkpt lat="29.984521" lon="-98.687389" />
      <trkpt lat="29.984417" lon="-98.686817" />
      <trkpt lat="29.984336" lon="-98.686474" />
      <trkpt lat="29.98396" lon="-98.685447" />
      <trkpt lat="29.983519" lon="-98.684416" />
      <trkpt lat="29.983357" lon="-98.684072" />
      <trkpt lat="29.983225" lon="-98.683837" />
      <trkpt lat="29.983067" lon="-98.683607" />
      <trkpt lat="29.982887" lon="-98.683383" />
      <trkpt lat="29.982582" lon="-98.683053" />
      <trkpt lat="29.982358" lon="-98.682838" />
      <trkpt lat="29.98225" lon="-98.682747" />
      <trkpt lat="29.982121" lon="-98.682639" />
      <trkpt lat="29.982065" lon="-98.682602" />
      <trkpt lat="29.981611" lon="-98.682303" />
      <trkpt lat="29.981348" lon="-98.682167" />
      <trkpt lat="29.979976" lon="-98.681532" />
      <trkpt lat="29.979803" lon="-98.681445" />
      <trkpt lat="29.979493" lon="-98.681268" />
      <trkpt lat="29.979203" lon="-98.681054" />
      <trkpt lat="29.979011" lon="-98.680887" />
      <trkpt lat="29.978828" lon="-98.680697" />
      <trkpt lat="29.978661" lon="-98.680486" />
      <trkpt lat="29.978508" lon="-98.680268" />
      <trkpt lat="29.978492" lon="-98.680241" />
      <trkpt lat="29.978373" lon="-98.680039" />
      <trkpt lat="29.978249" lon="-98.679792" />
      <trkpt lat="29.977902" lon="-98.678949" />
      <trkpt lat="29.977678" lon="-98.678353" />
      <trkpt lat="29.977549" lon="-98.677919" />
      <trkpt lat="29.977497" lon="-98.677643" />
      <trkpt lat="29.977457" lon="-98.677371" />
      <trkpt lat="29.977441" lon="-98.676976" />
      <trkpt lat="29.977449" lon="-98.676719" />
      <trkpt lat="29.977483" lon="-98.676442" />
      <trkpt lat="29.977495" lon="-98.676344" />
      <trkpt lat="29.977547" lon="-98.676087" />
      <trkpt lat="29.977663" lon="-98.675686" />
      <trkpt lat="29.977766" lon="-98.675427" />
      <trkpt lat="29.978196" lon="-98.67451" />
      <trkpt lat="29.978326" lon="-98.674233" />
      <trkpt lat="29.978534" lon="-98.673751" />
      <trkpt lat="29.979619" lon="-98.671004" />
      <trkpt lat="29.980041" lon="-98.669916" />
      <trkpt lat="29.980354" lon="-98.669088" />
      <trkpt lat="29.9804" lon="-98.668968" />
      <trkpt lat="29.980764" lon="-98.668026" />
      <trkpt lat="29.98203" lon="-98.664609" />
      <trkpt lat="29.982157" lon="-98.664193" />
      <trkpt lat="29.982268" lon="-98.663741" />
      <trkpt lat="29.982366" lon="-98.663108" />
      <trkpt lat="29.982391" lon="-98.662787" />
      <trkpt lat="29.982402" lon="-98.662167" />
      <trkpt lat="29.982382" lon="-98.661749" />
      <trkpt lat="29.982331" lon="-98.661343" />
      <trkpt lat="29.982312" lon="-98.661254" />
      <trkpt lat="29.982141" lon="-98.660414" />
      <trkpt lat="29.981947" lon="-98.659512" />
      <trkpt lat="29.981662" lon="-98.658291" />
      <trkpt lat="29.981474" lon="-98.657653" />
      <trkpt lat="29.981441" lon="-98.657552" />
      <trkpt lat="29.980598" lon="-98.655019" />
      <trkpt lat="29.980178" lon="-98.653804" />
      <trkpt lat="29.979364" lon="-98.651483" />
      <trkpt lat="29.979153" lon="-98.650769" />
      <trkpt lat="29.979053" lon="-98.650199" />
      <trkpt lat="29.978991" lon="-98.649507" />
      <trkpt lat="29.978985" lon="-98.649058" />
      <trkpt lat="29.979008" lon="-98.648604" />
      <trkpt lat="29.979065" lon="-98.648173" />
      <trkpt lat="29.979217" lon="-98.64725" />
      <trkpt lat="29.979547" lon="-98.645241" />
      <trkpt lat="29.97962" lon="-98.644727" />
      <trkpt lat="29.979667" lon="-98.644209" />
      <trkpt lat="29.979667" lon="-98.644169" />
      <trkpt lat="29.979661" lon="-98.643524" />
      <trkpt lat="29.979632" lon="-98.643188" />
      <trkpt lat="29.979565" lon="-98.642697" />
      <trkpt lat="29.979472" lon="-98.642121" />
      <trkpt lat="29.979263" lon="-98.640814" />
      <trkpt lat="29.978944" lon="-98.63883" />
      <trkpt lat="29.978397" lon="-98.635427" />
      <trkpt lat="29.978242" lon="-98.634462" />
      <trkpt lat="29.978181" lon="-98.634009" />
      <trkpt lat="29.978145" lon="-98.633648" />
      <trkpt lat="29.978134" lon="-98.633268" />
      <trkpt lat="29.978174" lon="-98.631796" />
      <trkpt lat="29.978303" lon="-98.629146" />
      <trkpt lat="29.978361" lon="-98.628345" />
      <trkpt lat="29.978366" lon="-98.628045" />
      <trkpt lat="29.978418" lon="-98.627872" />
      <trkpt lat="29.978551" lon="-98.627257" />
      <trkpt lat="29.979228" lon="-98.624629" />
      <trkpt lat="29.979488" lon="-98.623477" />
      <trkpt lat="29.979756" lon="-98.622076" />
      <trkpt lat="29.980279" lon="-98.618728" />
      <trkpt lat="29.980321" lon="-98.618329" />
      <trkpt lat="29.980332" lon="-98.618064" />
      <trkpt lat="29.9803" lon="-98.616098" />
      <trkpt lat="29.980316" lon="-98.615893" />
      <trkpt lat="29.980353" lon="-98.615677" />
      <trkpt lat="29.980424" lon="-98.615416" />
      <trkpt lat="29.980527" lon="-98.61513" />
      <trkpt lat="29.980652" lon="-98.614899" />
      <trkpt lat="29.980829" lon="-98.614647" />
      <trkpt lat="29.981104" lon="-98.61438" />
      <trkpt lat="29.981569" lon="-98.614034" />
      <trkpt lat="29.98182" lon="-98.613828" />
      <trkpt lat="29.981983" lon="-98.613664" />
      <trkpt lat="29.982197" lon="-98.613384" />
      <trkpt lat="29.982312" lon="-98.613181" />
      <trkpt lat="29.982408" lon="-98.612969" />
      <trkpt lat="29.982451" lon="-98.612829" />
      <trkpt lat="29.982506" lon="-98.612655" />
      <trkpt lat="29.982529" lon="-98.612541" />
      <trkpt lat="29.98255" lon="-98.612439" />
      <trkpt lat="29.982576" lon="-98.612208" />
      <trkpt lat="29.982582" lon="-98.611962" />
      <trkpt lat="29.982561" lon="-98.609229" />
      <trkpt lat="29.982572" lon="-98.608957" />
      <trkpt lat="29.982621" lon="-98.608406" />
      <trkpt lat="29.982691" lon="-98.607885" />
      <trkpt lat="29.982782" lon="-98.607392" />
      <trkpt lat="29.983417" lon="-98.604802" />
      <trkpt lat="29.983525" lon="-98.604294" />
      <trkpt lat="29.983574" lon="-98.603952" />
      <trkpt lat="29.983636" lon="-98.603513" />
      <trkpt lat="29.983672" lon="-98.603103" />
      <trkpt lat="29.983697" lon="-98.602548" />
      <trkpt lat="29.983694" lon="-98.601787" />
      <trkpt lat="29.983615" lon="-98.597052" />
      <trkpt lat="29.983611" lon="-98.59616" />
      <trkpt lat="29.983644" lon="-98.595206" />
      <trkpt lat="29.983646" lon="-98.595169" />
      <trkpt lat="29.983698" lon="-98.594016" />
      <trkpt lat="29.983733" lon="-98.593401" />
      <trkpt lat="29.983759" lon="-98.593148" />
      <trkpt lat="29.983766" lon="-98.593088" />
      <trkpt lat="29.983828" lon="-98.592665" />
      <trkpt lat="29.983885" lon="-98.592409" />
      <trkpt lat="29.984173" lon="-98.591322" />
      <trkpt lat="29.984412" lon="-98.590539" />
      <trkpt lat="29.984502" lon="-98.590298" />
      <trkpt lat="29.984642" lon="-98.589977" />
      <trkpt lat="29.985294" lon="-98.588723" />
      <trkpt lat="29.985402" lon="-98.588469" />
      <trkpt lat="29.985538" lon="-98.588074" />
      <trkpt lat="29.985636" lon="-98.587666" />
      <trkpt lat="29.985702" lon="-98.587237" />
      <trkpt lat="29.985737" lon="-98.586794" />
      <trkpt lat="29.985743" lon="-98.586331" />
      <trkpt lat="29.98572" lon="-98.585184" />
      <trkpt lat="29.985703" lon="-98.584655" />
      <trkpt lat="29.985685" lon="-98.584332" />
      <trkpt lat="29.985597" lon="-98.583376" />
      <trkpt lat="29.985431" lon="-98.582066" />
      <trkpt lat="29.985371" lon="-98.581202" />
      <trkpt lat="29.985278" lon="-98.577996" />
      <trkpt lat="29.985227" lon="-98.576743" />
      <trkpt lat="29.985167" lon="-98.574749" />
      <trkpt lat="29.985136" lon="-98.573196" />
      <trkpt lat="29.985121" lon="-98.572006" />
      <trkpt lat="29.98512" lon="-98.571272" />
      <trkpt lat="29.985131" lon="-98.569201" />
      <trkpt lat="29.985161" lon="-98.567756" />
      <trkpt lat="29.98518" lon="-98.566865" />
      <trkpt lat="29.985168" lon="-98.566354" />
      <trkpt lat="29.985116" lon="-98.565873" />
      <trkpt lat="29.985058" lon="-98.565568" />
      <trkpt lat="29.984886" lon="-98.564981" />
      <trkpt lat="29.984705" lon="-98.564562" />
      <trkpt lat="29.984167" lon="-98.563533" />
      <trkpt lat="29.983924" lon="-98.563002" />
      <trkpt lat="29.983822" lon="-98.562715" />
      <trkpt lat="29.983734" lon="-98.562413" />
      <trkpt lat="29.983638" lon="-98.561934" />
      <trkpt lat="29.983601" lon="-98.561595" />
      <trkpt lat="29.983578" lon="-98.561061" />
      <trkpt lat="29.983568" lon="-98.560787" />
      <trkpt lat="29.983501" lon="-98.557406" />
      <trkpt lat="29.983487" lon="-98.556701" />
      <trkpt lat="29.983486" lon="-98.556635" />
      <trkpt lat="29.983396" lon="-98.552093" />
      <trkpt lat="29.983348" lon="-98.551469" />
      <trkpt lat="29.983246" lon="-98.551011" />
      <trkpt lat="29.983088" lon="-98.550556" />
      <trkpt lat="29.98293" lon="-98.550252" />
      <trkpt lat="29.982818" lon="-98.550036" />
      <trkpt lat="29.982631" lon="-98.549767" />
      <trkpt lat="29.982256" lon="-98.549341" />
      <trkpt lat="29.981921" lon="-98.549061" />
      <trkpt lat="29.981627" lon="-98.548879" />
      <trkpt lat="29.979892" lon="-98.548053" />
      <trkpt lat="29.979669" lon="-98.547927" />
      <trkpt lat="29.979353" lon="-98.547711" />
      <trkpt lat="29.978979" lon="-98.547383" />
      <trkpt lat="29.978836" lon="-98.547221" />
      <trkpt lat="29.978664" lon="-98.547028" />
      <trkpt lat="29.978438" lon="-98.546723" />
      <trkpt lat="29.978159" lon="-98.546258" />
      <trkpt lat="29.977823" lon="-98.545466" />
      <trkpt lat="29.976335" lon="-98.541666" />
      <trkpt lat="29.97603" lon="-98.540898" />
      <trkpt lat="29.976005" lon="-98.540825" />
      <trkpt lat="29.975741" lon="-98.540118" />
      <trkpt lat="29.975594" lon="-98.539618" />
      <trkpt lat="29.975326" lon="-98.538562" />
      <trkpt lat="29.974864" lon="-98.536883" />
      <trkpt lat="29.973887" lon="-98.534003" />
      <trkpt lat="29.973544" lon="-98.532813" />
      <trkpt lat="29.973444" lon="-98.532263" />
      <trkpt lat="29.973392" lon="-98.531966" />
      <trkpt lat="29.973336" lon="-98.531404" />
      <trkpt lat="29.973129" lon="-98.528591" />
      <trkpt lat="29.973042" lon="-98.528106" />
      <trkpt lat="29.972887" lon="-98.527642" />
      <trkpt lat="29.97272" lon="-98.52728" />
      <trkpt lat="29.972531" lon="-98.526949" />
      <trkpt lat="29.972331" lon="-98.526671" />
      <trkpt lat="29.972133" lon="-98.526441" />
      <trkpt lat="29.971944" lon="-98.526269" />
      <trkpt lat="29.971786" lon="-98.526124" />
      <trkpt lat="29.971502" lon="-98.525921" />
      <trkpt lat="29.971464" lon="-98.525891" />
      <trkpt lat="29.969984" lon="-98.524716" />
      <trkpt lat="29.969697" lon="-98.524466" />
      <trkpt lat="29.969573" lon="-98.524335" />
      <trkpt lat="29.969498" lon="-98.524234" />
      <trkpt lat="29.969314" lon="-98.523977" />
      <trkpt lat="29.969147" lon="-98.523648" />
      <trkpt lat="29.96909" lon="-98.523514" />
      <trkpt lat="29.969044" lon="-98.52338" />
      <trkpt lat="29.968963" lon="-98.523072" />
      <trkpt lat="29.968949" lon="-98.52298" />
      <trkpt lat="29.968939" lon="-98.522907" />
      <trkpt lat="29.968922" lon="-98.522743" />
      <trkpt lat="29.968904" lon="-98.522479" />
      <trkpt lat="29.968924" lon="-98.522256" />
      <trkpt lat="29.968943" lon="-98.522051" />
      <trkpt lat="29.968975" lon="-98.521897" />
      <trkpt lat="29.969037" lon="-98.521654" />
      <trkpt lat="29.969126" lon="-98.521307" />
      <trkpt lat="29.969223" lon="-98.520929" />
      <trkpt lat="29.969246" lon="-98.520838" />
      <trkpt lat="29.969441" lon="-98.520081" />
      <trkpt lat="29.969724" lon="-98.518961" />
      <trkpt lat="29.969886" lon="-98.518398" />
      <trkpt lat="29.969922" lon="-98.518271" />
      <trkpt lat="29.970248" lon="-98.517529" />
      <trkpt lat="29.973036" lon="-98.512161" />
      <trkpt lat="29.973142" lon="-98.511928" />
      <trkpt lat="29.973247" lon="-98.511556" />
      <trkpt lat="29.973284" lon="-98.511289" />
      <trkpt lat="29.97329" lon="-98.511019" />
      <trkpt lat="29.973265" lon="-98.510761" />
      <trkpt lat="29.973219" lon="-98.51057" />
      <trkpt lat="29.973174" lon="-98.510388" />
      <trkpt lat="29.973123" lon="-98.510262" />
      <trkpt lat="29.973027" lon="-98.510027" />
      <trkpt lat="29.97147" lon="-98.506695" />
      <trkpt lat="29.971389" lon="-98.506488" />
      <trkpt lat="29.971298" lon="-98.506167" />
      <trkpt lat="29.971258" lon="-98.505929" />
      <trkpt lat="29.971241" lon="-98.505679" />
      <trkpt lat="29.971263" lon="-98.505303" />
      <trkpt lat="29.971314" lon="-98.505068" />
      <trkpt lat="29.971392" lon="-98.504844" />
      <trkpt lat="29.971595" lon="-98.504404" />
      <trkpt lat="29.972383" lon="-98.502883" />
      <trkpt lat="29.972772" lon="-98.502132" />
      <trkpt lat="29.972893" lon="-98.501862" />
      <trkpt lat="29.972974" lon="-98.501639" />
      <trkpt lat="29.973008" lon="-98.5015" />
      <trkpt lat="29.973032" lon="-98.501353" />
      <trkpt lat="29.97305" lon="-98.501119" />
      <trkpt lat="29.973042" lon="-98.500919" />
      <trkpt lat="29.973033" lon="-98.500763" />
      <trkpt lat="29.972933" lon="-98.50021" />
      <trkpt lat="29.971859" lon="-98.495226" />
      <trkpt lat="29.971807" lon="-98.49459" />
      <trkpt lat="29.971715" lon="-98.492886" />
      <trkpt lat="29.971637" lon="-98.492381" />
      <trkpt lat="29.971504" lon="-98.491847" />
      <trkpt lat="29.970938" lon="-98.490159" />
      <trkpt lat="29.970827" lon="-98.489748" />
      <trkpt lat="29.970701" lon="-98.48916" />
      <trkpt lat="29.970596" lon="-98.488537" />
      <trkpt lat="29.970204" lon="-98.485915" />
      <trkpt lat="29.970162" lon="-98.485602" />
      <trkpt lat="29.970129" lon="-98.485374" />
      <trkpt lat="29.97" lon="-98.484484" />
      <trkpt lat="29.969856" lon="-98.483493" />
      <trkpt lat="29.969727" lon="-98.482598" />
      <trkpt lat="29.969614" lon="-98.481818" />
      <trkpt lat="29.969545" lon="-98.481334" />
      <trkpt lat="29.969463" lon="-98.480643" />
      <trkpt lat="29.969427" lon="-98.480104" />
      <trkpt lat="29.969444" lon="-98.479541" />
      <trkpt lat="29.969664" lon="-98.477353" />
      <trkpt lat="29.969691" lon="-98.476941" />
      <trkpt lat="29.969687" lon="-98.476694" />
      <trkpt lat="29.969643" lon="-98.476348" />
      <trkpt lat="29.9696" lon="-98.476141" />
      <trkpt lat="29.969571" lon="-98.476029" />
      <trkpt lat="29.969406" lon="-98.475537" />
      <trkpt lat="29.969007" lon="-98.474508" />
      <trkpt lat="29.968923" lon="-98.474179" />
      <trkpt lat="29.968869" lon="-98.473804" />
      <trkpt lat="29.968857" lon="-98.473486" />
      <trkpt lat="29.968871" lon="-98.473156" />
      <trkpt lat="29.969143" lon="-98.46977" />
      <trkpt lat="29.969147" lon="-98.469657" />
      <trkpt lat="29.969156" lon="-98.469313" />
      <trkpt lat="29.969154" lon="-98.468771" />
      <trkpt lat="29.969126" lon="-98.46836" />
      <trkpt lat="29.969085" lon="-98.467971" />
      <trkpt lat="29.968708" lon="-98.465411" />
      <trkpt lat="29.968633" lon="-98.464798" />
      <trkpt lat="29.968611" lon="-98.464435" />
      <trkpt lat="29.968622" lon="-98.463949" />
      <trkpt lat="29.968658" lon="-98.463605" />
      <trkpt lat="29.968683" lon="-98.463423" />
      <trkpt lat="29.969122" lon="-98.460107" />
      <trkpt lat="29.969142" lon="-98.459707" />
      <trkpt lat="29.969123" lon="-98.459528" />
      <trkpt lat="29.969079" lon="-98.459225" />
      <trkpt lat="29.969007" lon="-98.458948" />
      <trkpt lat="29.968906" lon="-98.458669" />
      <trkpt lat="29.968768" lon="-98.458394" />
      <trkpt lat="29.968598" lon="-98.458129" />
      <trkpt lat="29.965143" lon="-98.453619" />
      <trkpt lat="29.964582" lon="-98.452782" />
      <trkpt lat="29.964048" lon="-98.45184" />
      <trkpt lat="29.963931" lon="-98.451634" />
      <trkpt lat="29.963657" lon="-98.451037" />
      <trkpt lat="29.963574" lon="-98.450784" />
      <trkpt lat="29.963478" lon="-98.450394" />
      <trkpt lat="29.963382" lon="-98.449719" />
      <trkpt lat="29.963287" lon="-98.448756" />
      <trkpt lat="29.963254" lon="-98.448179" />
      <trkpt lat="29.963309" lon="-98.446439" />
      <trkpt lat="29.963346" lon="-98.445821" />
      <trkpt lat="29.963408" lon="-98.445312" />
      <trkpt lat="29.963539" lon="-98.444556" />
      <trkpt lat="29.963635" lon="-98.444008" />
      <trkpt lat="29.963703" lon="-98.443739" />
      <trkpt lat="29.963768" lon="-98.443546" />
      <trkpt lat="29.963898" lon="-98.443267" />
      <trkpt lat="29.964006" lon="-98.443095" />
      <trkpt lat="29.964137" lon="-98.442932" />
      <trkpt lat="29.964372" lon="-98.442684" />
      <trkpt lat="29.964821" lon="-98.442259" />
      <trkpt lat="29.965934" lon="-98.441237" />
      <trkpt lat="29.966116" lon="-98.441036" />
      <trkpt lat="29.966267" lon="-98.440817" />
      <trkpt lat="29.966332" lon="-98.440702" />
      <trkpt lat="29.96643" lon="-98.440463" />
      <trkpt lat="29.966521" lon="-98.440102" />
      <trkpt lat="29.966541" lon="-98.439768" />
      <trkpt lat="29.966494" lon="-98.439387" />
      <trkpt lat="29.966448" lon="-98.439206" />
      <trkpt lat="29.966359" lon="-98.438909" />
      <trkpt lat="29.966249" lon="-98.438579" />
      <trkpt lat="29.966178" lon="-98.4384" />
      <trkpt lat="29.966078" lon="-98.438173" />
      <trkpt lat="29.965945" lon="-98.437879" />
      <trkpt lat="29.964979" lon="-98.43592" />
      <trkpt lat="29.964932" lon="-98.435812" />
      <trkpt lat="29.964892" lon="-98.435701" />
      <trkpt lat="29.964859" lon="-98.435586" />
      <trkpt lat="29.964834" lon="-98.435468" />
      <trkpt lat="29.964827" lon="-98.435418" />
      <trkpt lat="29.964817" lon="-98.435349" />
      <trkpt lat="29.964808" lon="-98.43523" />
      <trkpt lat="29.964807" lon="-98.435109" />
      <trkpt lat="29.96482" lon="-98.434928" />
      <trkpt lat="29.964844" lon="-98.434807" />
      <trkpt lat="29.964875" lon="-98.434688" />
      <trkpt lat="29.964915" lon="-98.434573" />
      <trkpt lat="29.964962" lon="-98.43446" />
      <trkpt lat="29.965016" lon="-98.434353" />
      <trkpt lat="29.965078" lon="-98.434251" />
      <trkpt lat="29.965146" lon="-98.434156" />
      <trkpt lat="29.965221" lon="-98.434066" />
      <trkpt lat="29.965302" lon="-98.433983" />
      <trkpt lat="29.966287" lon="-98.433051" />
      <trkpt lat="29.966885" lon="-98.432456" />
      <trkpt lat="29.967552" lon="-98.431669" />
      <trkpt lat="29.967657" lon="-98.431527" />
      <trkpt lat="29.967754" lon="-98.431377" />
      <trkpt lat="29.967815" lon="-98.431265" />
      <trkpt lat="29.96784" lon="-98.431218" />
      <trkpt lat="29.967916" lon="-98.431053" />
      <trkpt lat="29.96798" lon="-98.430882" />
      <trkpt lat="29.968066" lon="-98.43059" />
      <trkpt lat="29.968084" lon="-98.430529" />
      <trkpt lat="29.968361" lon="-98.429551" />
      <trkpt lat="29.968565" lon="-98.428901" />
      <trkpt lat="29.968632" lon="-98.428738" />
      <trkpt lat="29.968685" lon="-98.428633" />
      <trkpt lat="29.968745" lon="-98.428533" />
      <trkpt lat="29.968845" lon="-98.428393" />
      <trkpt lat="29.968956" lon="-98.428265" />
      <trkpt lat="29.96908" lon="-98.428152" />
      <trkpt lat="29.969123" lon="-98.428118" />
      <trkpt lat="29.97055" lon="-98.427152" />
      <trkpt lat="29.970617" lon="-98.427107" />
      <trkpt lat="29.971126" lon="-98.426769" />
      <trkpt lat="29.971234" lon="-98.426682" />
      <trkpt lat="29.971302" lon="-98.426628" />
      <trkpt lat="29.971466" lon="-98.426468" />
      <trkpt lat="29.971617" lon="-98.426293" />
      <trkpt lat="29.97172" lon="-98.426151" />
      <trkpt lat="29.971745" lon="-98.42611" />
      <trkpt lat="29.971844" lon="-98.42595" />
      <trkpt lat="29.972024" lon="-98.42559" />
      <trkpt lat="29.972215" lon="-98.425193" />
      <trkpt lat="29.972247" lon="-98.425126" />
      <trkpt lat="29.972637" lon="-98.424313" />
      <trkpt lat="29.972849" lon="-98.42387" />
      <trkpt lat="29.973449" lon="-98.422588" />
      <trkpt lat="29.973533" lon="-98.422364" />
      <trkpt lat="29.9736" lon="-98.422132" />
      <trkpt lat="29.973649" lon="-98.421894" />
      <trkpt lat="29.973689" lon="-98.421593" />
      <trkpt lat="29.973791" lon="-98.420615" />
      <trkpt lat="29.973852" lon="-98.419972" />
      <trkpt lat="29.973898" lon="-98.419673" />
      <trkpt lat="29.973962" lon="-98.419378" />
      <trkpt lat="29.974046" lon="-98.41909" />
      <trkpt lat="29.974244" lon="-98.418502" />
      <trkpt lat="29.974357" lon="-98.418223" />
      <trkpt lat="29.974488" lon="-98.417956" />
      <trkpt lat="29.974637" lon="-98.417699" />
      <trkpt lat="29.974802" lon="-98.417456" />
      <trkpt lat="29.975197" lon="-98.416957" />
      <trkpt lat="29.976323" lon="-98.415556" />
      <trkpt lat="29.976533" lon="-98.415295" />
      <trkpt lat="29.976597" lon="-98.415201" />
      <trkpt lat="29.976654" lon="-98.415102" />
      <trkpt lat="29.976706" lon="-98.414998" />
      <trkpt lat="29.976751" lon="-98.41489" />
      <trkpt lat="29.976789" lon="-98.41478" />
      <trkpt lat="29.976819" lon="-98.414666" />
      <trkpt lat="29.976842" lon="-98.41455" />
      <trkpt lat="29.97687" lon="-98.414369" />
      <trkpt lat="29.976886" lon="-98.414183" />
      <trkpt lat="29.976885" lon="-98.413996" />
      <trkpt lat="29.976868" lon="-98.413811" />
      <trkpt lat="29.976727" lon="-98.412964" />
      <trkpt lat="29.976625" lon="-98.412206" />
      <trkpt lat="29.976587" lon="-98.412026" />
      <trkpt lat="29.97657" lon="-98.411969" />
      <trkpt lat="29.976536" lon="-98.411851" />
      <trkpt lat="29.976471" lon="-98.411682" />
      <trkpt lat="29.976421" lon="-98.411576" />
      <trkpt lat="29.976029" lon="-98.41081" />
      <trkpt lat="29.975962" lon="-98.41068" />
      <trkpt lat="29.977104" lon="-98.410335" />
      <trkpt lat="29.979959" lon="-98.409494" />
      <trkpt lat="29.980601" lon="-98.409334" />
      <trkpt lat="29.981248" lon="-98.409199" />
      <trkpt lat="29.981897" lon="-98.409088" />
      <trkpt lat="29.988189" lon="-98.408133" />
      <trkpt lat="29.989767" lon="-98.407885" />
      <trkpt lat="29.990251" lon="-98.407803" />
      <trkpt lat="29.990733" lon="-98.407699" />
      <trkpt lat="29.991211" lon="-98.407572" />
      <trkpt lat="29.993038" lon="-98.407004" />
      <trkpt lat="29.996755" lon="-98.405827" />
      <trkpt lat="29.997176" lon="-98.405716" />
      <trkpt lat="29.997602" lon="-98.405628" />
      <trkpt lat="29.997976" lon="-98.405569" />
      <trkpt lat="29.9984" lon="-98.405526" />
      <trkpt lat="29.998879" lon="-98.405503" />
      <trkpt lat="29.999849" lon="-98.405517" />
      <trkpt lat="30.000339" lon="-98.405518" />
      <trkpt lat="30.001161" lon="-98.405519" />
      <trkpt lat="30.001328" lon="-98.40552" />
      <trkpt lat="30.001619" lon="-98.405523" />
      <trkpt lat="30.00179" lon="-98.405526" />
      <trkpt lat="30.001979" lon="-98.405532" />
      <trkpt lat="30.002267" lon="-98.405527" />
      <trkpt lat="30.002689" lon="-98.405527" />
      <trkpt lat="30.004691" lon="-98.405542" />
      <trkpt lat="30.005423" lon="-98.405539" />
      <trkpt lat="30.006351" lon="-98.405543" />
      <trkpt lat="30.007479" lon="-98.405555" />
      <trkpt lat="30.007842" lon="-98.405559" />
      <trkpt lat="30.009801" lon="-98.405573" />
      <trkpt lat="30.010846" lon="-98.405591" />
      <trkpt lat="30.012703" lon="-98.405623" />
      <trkpt lat="30.012996" lon="-98.405628" />
      <trkpt lat="30.013433" lon="-98.40566" />
      <trkpt lat="30.013868" lon="-98.405712" />
      <trkpt lat="30.014301" lon="-98.405785" />
      <trkpt lat="30.014516" lon="-98.405831" />
      <trkpt lat="30.015455" lon="-98.406075" />
      <trkpt lat="30.015918" lon="-98.406203" />
      <trkpt lat="30.016767" lon="-98.406432" />
      <trkpt lat="30.019173" lon="-98.407082" />
      <trkpt lat="30.020183" lon="-98.407361" />
      <trkpt lat="30.024133" lon="-98.408435" />
      <trkpt lat="30.025321" lon="-98.408751" />
      <trkpt lat="30.028687" lon="-98.409666" />
      <trkpt lat="30.028964" lon="-98.409742" />
      <trkpt lat="30.029852" lon="-98.409983" />
      <trkpt lat="30.030676" lon="-98.41021" />
      <trkpt lat="30.031768" lon="-98.410503" />
      <trkpt lat="30.032341" lon="-98.41066" />
      <trkpt lat="30.033222" lon="-98.410901" />
      <trkpt lat="30.033453" lon="-98.410964" />
      <trkpt lat="30.03468" lon="-98.411285" />
      <trkpt lat="30.035367" lon="-98.411454" />
      <trkpt lat="30.035797" lon="-98.411536" />
      <trkpt lat="30.036005" lon="-98.411564" />
      <trkpt lat="30.03623" lon="-98.411594" />
      <trkpt lat="30.036687" lon="-98.411629" />
      <trkpt lat="30.036774" lon="-98.411636" />
      <trkpt lat="30.037261" lon="-98.411652" />
      <trkpt lat="30.037587" lon="-98.411651" />
      <trkpt lat="30.037621" lon="-98.41165" />
      <trkpt lat="30.037946" lon="-98.411641" />
      <trkpt lat="30.038575" lon="-98.411624" />
      <trkpt lat="30.039465" lon="-98.411599" />
      <trkpt lat="30.040312" lon="-98.411593" />
      <trkpt lat="30.040733" lon="-98.411582" />
      <trkpt lat="30.041189" lon="-98.411572" />
      <trkpt lat="30.041806" lon="-98.411559" />
      <trkpt lat="30.044141" lon="-98.411537" />
      <trkpt lat="30.044937" lon="-98.411528" />
      <trkpt lat="30.045851" lon="-98.4115" />
      <trkpt lat="30.04697" lon="-98.411483" />
      <trkpt lat="30.047281" lon="-98.411478" />
      <trkpt lat="30.047846" lon="-98.411464" />
      <trkpt lat="30.047901" lon="-98.411463" />
      <trkpt lat="30.049711" lon="-98.411421" />
      <trkpt lat="30.050289" lon="-98.411405" />
      <trkpt lat="30.050664" lon="-98.411395" />
      <trkpt lat="30.051083" lon="-98.411389" />
      <trkpt lat="30.051266" lon="-98.411386" />
      <trkpt lat="30.053479" lon="-98.411331" />
      <trkpt lat="30.053911" lon="-98.411324" />
      <trkpt lat="30.054931" lon="-98.411306" />
      <trkpt lat="30.055447" lon="-98.411297" />
      <trkpt lat="30.055706" lon="-98.411293" />
      <trkpt lat="30.056525" lon="-98.411274" />
      <trkpt lat="30.056867" lon="-98.411234" />
      <trkpt lat="30.058175" lon="-98.411232" />
      <trkpt lat="30.059497" lon="-98.41121" />
      <trkpt lat="30.059953" lon="-98.411202" />
      <trkpt lat="30.060561" lon="-98.411185" />
      <trkpt lat="30.06226" lon="-98.411139" />
      <trkpt lat="30.063232" lon="-98.411102" />
      <trkpt lat="30.063819" lon="-98.411079" />
      <trkpt lat="30.064063" lon="-98.411069" />
      <trkpt lat="30.064134" lon="-98.411066" />
      <trkpt lat="30.064151" lon="-98.411065" />
      <trkpt lat="30.064201" lon="-98.411063" />
      <trkpt lat="30.064498" lon="-98.411051" />
      <trkpt lat="30.065144" lon="-98.41103" />
      <trkpt lat="30.065291" lon="-98.411025" />
      <trkpt lat="30.065731" lon="-98.411011" />
      <trkpt lat="30.066599" lon="-98.410982" />
      <trkpt lat="30.067076" lon="-98.410967" />
      <trkpt lat="30.067374" lon="-98.410957" />
      <trkpt lat="30.068974" lon="-98.410798" />
      <trkpt lat="30.069522" lon="-98.410765" />
      <trkpt lat="30.070164" lon="-98.410741" />
      <trkpt lat="30.070866" lon="-98.410715" />
      <trkpt lat="30.071577" lon="-98.410693" />
      <trkpt lat="30.071814" lon="-98.410686" />
      <trkpt lat="30.072083" lon="-98.41067" />
      <trkpt lat="30.072352" lon="-98.410674" />
      <trkpt lat="30.072621" lon="-98.410696" />
      <trkpt lat="30.072888" lon="-98.410736" />
      <trkpt lat="30.073153" lon="-98.410794" />
      <trkpt lat="30.073257" lon="-98.410822" />
      <trkpt lat="30.073555" lon="-98.410939" />
      <trkpt lat="30.073862" lon="-98.411061" />
      <trkpt lat="30.073973" lon="-98.411106" />
      <trkpt lat="30.074416" lon="-98.411283" />
      <trkpt lat="30.074738" lon="-98.411447" />
      <trkpt lat="30.075013" lon="-98.411589" />
      <trkpt lat="30.075301" lon="-98.411769" />
      <trkpt lat="30.075548" lon="-98.411944" />
      <trkpt lat="30.075793" lon="-98.412124" />
      <trkpt lat="30.076446" lon="-98.412676" />
      <trkpt lat="30.076512" lon="-98.412732" />
      <trkpt lat="30.076921" lon="-98.413078" />
      <trkpt lat="30.077169" lon="-98.413287" />
      <trkpt lat="30.077273" lon="-98.413375" />
      <trkpt lat="30.077371" lon="-98.413458" />
      <trkpt lat="30.077894" lon="-98.4139" />
      <trkpt lat="30.078682" lon="-98.414592" />
      <trkpt lat="30.07924" lon="-98.415075" />
      <trkpt lat="30.079354" lon="-98.415173" />
      <trkpt lat="30.079682" lon="-98.415455" />
      <trkpt lat="30.082038" lon="-98.417478" />
      <trkpt lat="30.082452" lon="-98.417816" />
      <trkpt lat="30.082513" lon="-98.417865" />
      <trkpt lat="30.082885" lon="-98.41814" />
      <trkpt lat="30.083185" lon="-98.418361" />
      <trkpt lat="30.083304" lon="-98.41844" />
      <trkpt lat="30.083608" lon="-98.418643" />
      <trkpt lat="30.083995" lon="-98.418887" />
      <trkpt lat="30.084174" lon="-98.418986" />
      <trkpt lat="30.084463" lon="-98.419158" />
      <trkpt lat="30.08599" lon="-98.419925" />
      <trkpt lat="30.086904" lon="-98.420375" />
      <trkpt lat="30.087045" lon="-98.420444" />
      <trkpt lat="30.087856" lon="-98.42084" />
      <trkpt lat="30.08787" lon="-98.420847" />
      <trkpt lat="30.088457" lon="-98.421133" />
      <trkpt lat="30.09012" lon="-98.421944" />
      <trkpt lat="30.091483" lon="-98.422637" />
      <trkpt lat="30.092721" lon="-98.423262" />
      <trkpt lat="30.092954" lon="-98.423355" />
      <trkpt lat="30.093161" lon="-98.423428" />
      <trkpt lat="30.093371" lon="-98.423485" />
      <trkpt lat="30.093584" lon="-98.423525" />
      <trkpt lat="30.093852" lon="-98.423552" />
      <trkpt lat="30.094043" lon="-98.423554" />
      <trkpt lat="30.09431" lon="-98.42354" />
      <trkpt lat="30.094528" lon="-98.423508" />
      <trkpt lat="30.094636" lon="-98.423485" />
      <trkpt lat="30.094676" lon="-98.423474" />
      <trkpt lat="30.094844" lon="-98.423429" />
      <trkpt lat="30.095049" lon="-98.423356" />
      <trkpt lat="30.095198" lon="-98.42329" />
      <trkpt lat="30.096093" lon="-98.422918" />
      <trkpt lat="30.096217" lon="-98.422869" />
      <trkpt lat="30.096387" lon="-98.422802" />
      <trkpt lat="30.097014" lon="-98.422547" />
      <trkpt lat="30.097937" lon="-98.422186" />
      <trkpt lat="30.098829" lon="-98.421805" />
      <trkpt lat="30.098672" lon="-98.421289" />
    </trkseg>
  </trk>
</gpx>