<?xml version='1.0' encoding='UTF-8'?>
<gpx version="1.1" creator="Antigravity Route Generator" xmlns="http://www.topografix.com/GPX/1/1">
  <trk>
    <name>Guadalupe River Road &amp; Hunt Sweep</name>
    <desc>Lakes &amp; Rivers (54.6 mi) - TX 39 -&gt; FM 1340 (North Fork Guadalupe River)</desc>
    <trkseg>
      <trkpt lat="30.046991" lon="-99.140011" />
      <trkpt lat="30.047123" lon="-99.140163" />
      <trkpt lat="30.04741" lon="-99.140492" />
      <trkpt lat="30.04748" lon="-99.140573" />
      <trkpt lat="30.047564" lon="-99.140669" />
      <trkpt lat="30.047804" lon="-99.140945" />
      <trkpt lat="30.048162" lon="-99.141357" />
      <trkpt lat="30.048393" lon="-99.141624" />
      <trkpt lat="30.048447" lon="-99.141685" />
      <trkpt lat="30.048504" lon="-99.14175" />
      <trkpt lat="30.048598" lon="-99.141857" />
      <trkpt lat="30.048746" lon="-99.142028" />
      <trkpt lat="30.048816" lon="-99.142108" />
      <trkpt lat="30.048871" lon="-99.142171" />
      <trkpt lat="30.049296" lon="-99.14266" />
      <trkpt lat="30.049371" lon="-99.142745" />
      <trkpt lat="30.049431" lon="-99.142815" />
      <trkpt lat="30.049632" lon="-99.143046" />
      <trkpt lat="30.049882" lon="-99.143333" />
      <trkpt lat="30.050266" lon="-99.143775" />
      <trkpt lat="30.050529" lon="-99.144073" />
      <trkpt lat="30.050623" lon="-99.144183" />
      <trkpt lat="30.050749" lon="-99.144329" />
      <trkpt lat="30.05084" lon="-99.144433" />
      <trkpt lat="30.05115" lon="-99.144788" />
      <trkpt lat="30.051604" lon="-99.14531" />
      <trkpt lat="30.051996" lon="-99.145761" />
      <trkpt lat="30.052049" lon="-99.145824" />
      <trkpt lat="30.052114" lon="-99.145895" />
      <trkpt lat="30.05237" lon="-99.146185" />
      <trkpt lat="30.05243" lon="-99.146257" />
      <trkpt lat="30.052761" lon="-99.146637" />
      <trkpt lat="30.052813" lon="-99.146705" />
      <trkpt lat="30.052973" lon="-99.146913" />
      <trkpt lat="30.053081" lon="-99.147047" />
      <trkpt lat="30.053186" lon="-99.147178" />
      <trkpt lat="30.053207" lon="-99.147204" />
      <trkpt lat="30.053505" lon="-99.147576" />
      <trkpt lat="30.053581" lon="-99.1477" />
      <trkpt lat="30.053663" lon="-99.147867" />
      <trkpt lat="30.053716" lon="-99.147975" />
      <trkpt lat="30.053806" lon="-99.148159" />
      <trkpt lat="30.05389" lon="-99.148344" />
      <trkpt lat="30.053973" lon="-99.148556" />
      <trkpt lat="30.054027" lon="-99.148749" />
      <trkpt lat="30.054091" lon="-99.148945" />
      <trkpt lat="30.054143" lon="-99.149154" />
      <trkpt lat="30.054162" lon="-99.149234" />
      <trkpt lat="30.054191" lon="-99.149355" />
      <trkpt lat="30.054217" lon="-99.149482" />
      <trkpt lat="30.054249" lon="-99.149636" />
      <trkpt lat="30.054288" lon="-99.149856" />
      <trkpt lat="30.054298" lon="-99.149915" />
      <trkpt lat="30.054317" lon="-99.150022" />
      <trkpt lat="30.054358" lon="-99.150245" />
      <trkpt lat="30.054401" lon="-99.150486" />
      <trkpt lat="30.054416" lon="-99.150569" />
      <trkpt lat="30.054484" lon="-99.15094" />
      <trkpt lat="30.0545" lon="-99.151032" />
      <trkpt lat="30.054547" lon="-99.151289" />
      <trkpt lat="30.054604" lon="-99.151618" />
      <trkpt lat="30.054646" lon="-99.151863" />
      <trkpt lat="30.05467" lon="-99.151997" />
      <trkpt lat="30.05469" lon="-99.152123" />
      <trkpt lat="30.054712" lon="-99.152243" />
      <trkpt lat="30.054746" lon="-99.152441" />
      <trkpt lat="30.054906" lon="-99.153368" />
      <trkpt lat="30.055" lon="-99.15391" />
      <trkpt lat="30.055197" lon="-99.155056" />
      <trkpt lat="30.055243" lon="-99.155344" />
      <trkpt lat="30.055268" lon="-99.155498" />
      <trkpt lat="30.055318" lon="-99.155807" />
      <trkpt lat="30.055412" lon="-99.156306" />
      <trkpt lat="30.055427" lon="-99.156383" />
      <trkpt lat="30.055475" lon="-99.156646" />
      <trkpt lat="30.055501" lon="-99.156788" />
      <trkpt lat="30.055542" lon="-99.156972" />
      <trkpt lat="30.055582" lon="-99.157109" />
      <trkpt lat="30.055611" lon="-99.157204" />
      <trkpt lat="30.055646" lon="-99.157331" />
      <trkpt lat="30.055677" lon="-99.157442" />
      <trkpt lat="30.055741" lon="-99.157678" />
      <trkpt lat="30.055893" lon="-99.158025" />
      <trkpt lat="30.05598" lon="-99.158217" />
      <trkpt lat="30.056105" lon="-99.158473" />
      <trkpt lat="30.056293" lon="-99.158857" />
      <trkpt lat="30.056398" lon="-99.159064" />
      <trkpt lat="30.056509" lon="-99.159293" />
      <trkpt lat="30.056727" lon="-99.159736" />
      <trkpt lat="30.056852" lon="-99.159989" />
      <trkpt lat="30.057002" lon="-99.160293" />
      <trkpt lat="30.057086" lon="-99.160465" />
      <trkpt lat="30.057336" lon="-99.160971" />
      <trkpt lat="30.057372" lon="-99.161045" />
      <trkpt lat="30.057516" lon="-99.161336" />
      <trkpt lat="30.057554" lon="-99.161414" />
      <trkpt lat="30.057668" lon="-99.161646" />
      <trkpt lat="30.057731" lon="-99.161772" />
      <trkpt lat="30.057914" lon="-99.162144" />
      <trkpt lat="30.058099" lon="-99.162518" />
      <trkpt lat="30.05816" lon="-99.162643" />
      <trkpt lat="30.05836" lon="-99.163051" />
      <trkpt lat="30.058482" lon="-99.163301" />
      <trkpt lat="30.058669" lon="-99.163682" />
      <trkpt lat="30.058699" lon="-99.163744" />
      <trkpt lat="30.058789" lon="-99.163933" />
      <trkpt lat="30.058961" lon="-99.164294" />
      <trkpt lat="30.05908" lon="-99.164527" />
      <trkpt lat="30.059131" lon="-99.164627" />
      <trkpt lat="30.05952" lon="-99.165438" />
      <trkpt lat="30.05955" lon="-99.165501" />
      <trkpt lat="30.059981" lon="-99.1664" />
      <trkpt lat="30.060227" lon="-99.166901" />
      <trkpt lat="30.060258" lon="-99.166966" />
      <trkpt lat="30.060477" lon="-99.167389" />
      <trkpt lat="30.060804" lon="-99.168042" />
      <trkpt lat="30.061768" lon="-99.16998" />
      <trkpt lat="30.062206" lon="-99.170869" />
      <trkpt lat="30.062254" lon="-99.170966" />
      <trkpt lat="30.062436" lon="-99.171344" />
      <trkpt lat="30.062778" lon="-99.172056" />
      <trkpt lat="30.062983" lon="-99.172482" />
      <trkpt lat="30.063138" lon="-99.172799" />
      <trkpt lat="30.06323" lon="-99.172987" />
      <trkpt lat="30.063253" lon="-99.173035" />
      <trkpt lat="30.06343" lon="-99.173397" />
      <trkpt lat="30.0635" lon="-99.173539" />
      <trkpt lat="30.063594" lon="-99.173731" />
      <trkpt lat="30.063727" lon="-99.174" />
      <trkpt lat="30.063802" lon="-99.174152" />
      <trkpt lat="30.06409" lon="-99.174735" />
      <trkpt lat="30.064257" lon="-99.175055" />
      <trkpt lat="30.064287" lon="-99.175113" />
      <trkpt lat="30.064347" lon="-99.175227" />
      <trkpt lat="30.064478" lon="-99.175486" />
      <trkpt lat="30.064508" lon="-99.175545" />
      <trkpt lat="30.064616" lon="-99.17575" />
      <trkpt lat="30.064716" lon="-99.175965" />
      <trkpt lat="30.064793" lon="-99.176117" />
      <trkpt lat="30.064904" lon="-99.176337" />
      <trkpt lat="30.065437" lon="-99.177418" />
      <trkpt lat="30.065578" lon="-99.177703" />
      <trkpt lat="30.065709" lon="-99.177969" />
      <trkpt lat="30.066366" lon="-99.179299" />
      <trkpt lat="30.066483" lon="-99.179537" />
      <trkpt lat="30.066597" lon="-99.179762" />
      <trkpt lat="30.066661" lon="-99.179891" />
      <trkpt lat="30.066726" lon="-99.180018" />
      <trkpt lat="30.066866" lon="-99.180298" />
      <trkpt lat="30.066902" lon="-99.180369" />
      <trkpt lat="30.067035" lon="-99.180638" />
      <trkpt lat="30.067142" lon="-99.180848" />
      <trkpt lat="30.067172" lon="-99.180907" />
      <trkpt lat="30.067225" lon="-99.181014" />
      <trkpt lat="30.067271" lon="-99.181104" />
      <trkpt lat="30.067409" lon="-99.181372" />
      <trkpt lat="30.067429" lon="-99.181412" />
      <trkpt lat="30.067603" lon="-99.181761" />
      <trkpt lat="30.067779" lon="-99.182116" />
      <trkpt lat="30.068063" lon="-99.182678" />
      <trkpt lat="30.068301" lon="-99.183151" />
      <trkpt lat="30.068502" lon="-99.18356" />
      <trkpt lat="30.068684" lon="-99.183939" />
      <trkpt lat="30.068761" lon="-99.184103" />
      <trkpt lat="30.068892" lon="-99.18437" />
      <trkpt lat="30.069685" lon="-99.18598" />
      <trkpt lat="30.069747" lon="-99.186107" />
      <trkpt lat="30.070024" lon="-99.186664" />
      <trkpt lat="30.070067" lon="-99.18675" />
      <trkpt lat="30.070122" lon="-99.18686" />
      <trkpt lat="30.070167" lon="-99.186954" />
      <trkpt lat="30.07026" lon="-99.187143" />
      <trkpt lat="30.07039" lon="-99.18741" />
      <trkpt lat="30.070485" lon="-99.187606" />
      <trkpt lat="30.070567" lon="-99.187773" />
      <trkpt lat="30.070805" lon="-99.188259" />
      <trkpt lat="30.070911" lon="-99.188477" />
      <trkpt lat="30.071191" lon="-99.189043" />
      <trkpt lat="30.071348" lon="-99.189362" />
      <trkpt lat="30.07148" lon="-99.189628" />
      <trkpt lat="30.071643" lon="-99.189981" />
      <trkpt lat="30.071832" lon="-99.190388" />
      <trkpt lat="30.072043" lon="-99.190843" />
      <trkpt lat="30.072606" lon="-99.192026" />
      <trkpt lat="30.07267" lon="-99.192161" />
      <trkpt lat="30.072898" lon="-99.192617" />
      <trkpt lat="30.07304" lon="-99.192905" />
      <trkpt lat="30.073164" lon="-99.193171" />
      <trkpt lat="30.073258" lon="-99.193392" />
      <trkpt lat="30.073327" lon="-99.193558" />
      <trkpt lat="30.073405" lon="-99.193778" />
      <trkpt lat="30.073486" lon="-99.19403" />
      <trkpt lat="30.07355" lon="-99.194256" />
      <trkpt lat="30.073569" lon="-99.194335" />
      <trkpt lat="30.073605" lon="-99.194487" />
      <trkpt lat="30.07366" lon="-99.194737" />
      <trkpt lat="30.073704" lon="-99.194974" />
      <trkpt lat="30.073716" lon="-99.195058" />
      <trkpt lat="30.073734" lon="-99.195196" />
      <trkpt lat="30.073738" lon="-99.195221" />
      <trkpt lat="30.07376" lon="-99.19548" />
      <trkpt lat="30.073777" lon="-99.195734" />
      <trkpt lat="30.073781" lon="-99.195956" />
      <trkpt lat="30.073777" lon="-99.196204" />
      <trkpt lat="30.073759" lon="-99.196481" />
      <trkpt lat="30.073752" lon="-99.196568" />
      <trkpt lat="30.073735" lon="-99.196768" />
      <trkpt lat="30.073704" lon="-99.197044" />
      <trkpt lat="30.073647" lon="-99.197461" />
      <trkpt lat="30.073559" lon="-99.198065" />
      <trkpt lat="30.073527" lon="-99.198289" />
      <trkpt lat="30.073479" lon="-99.198617" />
      <trkpt lat="30.073416" lon="-99.199045" />
      <trkpt lat="30.073338" lon="-99.199591" />
      <trkpt lat="30.073284" lon="-99.199952" />
      <trkpt lat="30.073219" lon="-99.200404" />
      <trkpt lat="30.073189" lon="-99.200619" />
      <trkpt lat="30.07314" lon="-99.200949" />
      <trkpt lat="30.073" lon="-99.20189" />
      <trkpt lat="30.072879" lon="-99.202736" />
      <trkpt lat="30.072767" lon="-99.203548" />
      <trkpt lat="30.072704" lon="-99.20398" />
      <trkpt lat="30.072651" lon="-99.204337" />
      <trkpt lat="30.072528" lon="-99.20518" />
      <trkpt lat="30.072504" lon="-99.205357" />
      <trkpt lat="30.072464" lon="-99.205666" />
      <trkpt lat="30.072435" lon="-99.205964" />
      <trkpt lat="30.072414" lon="-99.206204" />
      <trkpt lat="30.072407" lon="-99.206279" />
      <trkpt lat="30.072388" lon="-99.206534" />
      <trkpt lat="30.072372" lon="-99.206855" />
      <trkpt lat="30.072366" lon="-99.207108" />
      <trkpt lat="30.072365" lon="-99.207369" />
      <trkpt lat="30.072367" lon="-99.207519" />
      <trkpt lat="30.072368" lon="-99.207668" />
      <trkpt lat="30.072387" lon="-99.208076" />
      <trkpt lat="30.072411" lon="-99.208501" />
      <trkpt lat="30.072454" lon="-99.209405" />
      <trkpt lat="30.072462" lon="-99.209589" />
      <trkpt lat="30.072467" lon="-99.209685" />
      <trkpt lat="30.072481" lon="-99.209988" />
      <trkpt lat="30.072485" lon="-99.210074" />
      <trkpt lat="30.072569" lon="-99.211696" />
      <trkpt lat="30.072609" lon="-99.21262" />
      <trkpt lat="30.07263" lon="-99.213074" />
      <trkpt lat="30.072647" lon="-99.213415" />
      <trkpt lat="30.072668" lon="-99.213798" />
      <trkpt lat="30.072681" lon="-99.214032" />
      <trkpt lat="30.072688" lon="-99.214163" />
      <trkpt lat="30.072698" lon="-99.214395" />
      <trkpt lat="30.07271" lon="-99.21461" />
      <trkpt lat="30.072713" lon="-99.214681" />
      <trkpt lat="30.072744" lon="-99.215324" />
      <trkpt lat="30.072757" lon="-99.215558" />
      <trkpt lat="30.072795" lon="-99.216295" />
      <trkpt lat="30.072817" lon="-99.216756" />
      <trkpt lat="30.072843" lon="-99.217295" />
      <trkpt lat="30.072853" lon="-99.217495" />
      <trkpt lat="30.072865" lon="-99.217892" />
      <trkpt lat="30.072868" lon="-99.217972" />
      <trkpt lat="30.072903" lon="-99.218691" />
      <trkpt lat="30.072935" lon="-99.219361" />
      <trkpt lat="30.072969" lon="-99.220089" />
      <trkpt lat="30.073006" lon="-99.220858" />
      <trkpt lat="30.073031" lon="-99.221404" />
      <trkpt lat="30.073084" lon="-99.222516" />
      <trkpt lat="30.073148" lon="-99.223885" />
      <trkpt lat="30.073162" lon="-99.224211" />
      <trkpt lat="30.073165" lon="-99.224276" />
      <trkpt lat="30.073188" lon="-99.224696" />
      <trkpt lat="30.073198" lon="-99.224893" />
      <trkpt lat="30.073214" lon="-99.225185" />
      <trkpt lat="30.073219" lon="-99.225292" />
      <trkpt lat="30.073228" lon="-99.225505" />
      <trkpt lat="30.073241" lon="-99.225798" />
      <trkpt lat="30.073266" lon="-99.226367" />
      <trkpt lat="30.073274" lon="-99.226556" />
      <trkpt lat="30.073279" lon="-99.226789" />
      <trkpt lat="30.073301" lon="-99.227893" />
      <trkpt lat="30.073313" lon="-99.228213" />
      <trkpt lat="30.073321" lon="-99.228449" />
      <trkpt lat="30.073327" lon="-99.228599" />
      <trkpt lat="30.073342" lon="-99.229029" />
      <trkpt lat="30.073352" lon="-99.229303" />
      <trkpt lat="30.073361" lon="-99.229551" />
      <trkpt lat="30.073371" lon="-99.229829" />
      <trkpt lat="30.073376" lon="-99.229954" />
      <trkpt lat="30.073396" lon="-99.230353" />
      <trkpt lat="30.073452" lon="-99.231497" />
      <trkpt lat="30.073459" lon="-99.231643" />
      <trkpt lat="30.073497" lon="-99.232417" />
      <trkpt lat="30.073514" lon="-99.232775" />
      <trkpt lat="30.073534" lon="-99.233171" />
      <trkpt lat="30.073536" lon="-99.233198" />
      <trkpt lat="30.073554" lon="-99.233489" />
      <trkpt lat="30.073567" lon="-99.233706" />
      <trkpt lat="30.073571" lon="-99.233775" />
      <trkpt lat="30.073578" lon="-99.233884" />
      <trkpt lat="30.073589" lon="-99.234068" />
      <trkpt lat="30.073605" lon="-99.234416" />
      <trkpt lat="30.073614" lon="-99.234615" />
      <trkpt lat="30.073637" lon="-99.235139" />
      <trkpt lat="30.07393" lon="-99.236427" />
      <trkpt lat="30.073961" lon="-99.236469" />
      <trkpt lat="30.074165" lon="-99.236969" />
      <trkpt lat="30.074317" lon="-99.237285" />
      <trkpt lat="30.074355" lon="-99.237366" />
      <trkpt lat="30.074721" lon="-99.237977" />
      <trkpt lat="30.074856" lon="-99.238167" />
      <trkpt lat="30.075" lon="-99.238354" />
      <trkpt lat="30.075152" lon="-99.238535" />
      <trkpt lat="30.075312" lon="-99.23871" />
      <trkpt lat="30.075932" lon="-99.239261" />
      <trkpt lat="30.077781" lon="-99.240655" />
      <trkpt lat="30.078381" lon="-99.241122" />
      <trkpt lat="30.078913" lon="-99.241553" />
      <trkpt lat="30.079106" lon="-99.241698" />
      <trkpt lat="30.079797" lon="-99.242221" />
      <trkpt lat="30.080206" lon="-99.242538" />
      <trkpt lat="30.080742" lon="-99.242929" />
      <trkpt lat="30.081535" lon="-99.243531" />
      <trkpt lat="30.081852" lon="-99.243771" />
      <trkpt lat="30.081984" lon="-99.243872" />
      <trkpt lat="30.082099" lon="-99.243969" />
      <trkpt lat="30.082208" lon="-99.244059" />
      <trkpt lat="30.082324" lon="-99.244154" />
      <trkpt lat="30.082384" lon="-99.244203" />
      <trkpt lat="30.082506" lon="-99.244323" />
      <trkpt lat="30.08262" lon="-99.244434" />
      <trkpt lat="30.082891" lon="-99.244708" />
      <trkpt lat="30.083001" lon="-99.244815" />
      <trkpt lat="30.083274" lon="-99.245062" />
      <trkpt lat="30.083727" lon="-99.245482" />
      <trkpt lat="30.083802" lon="-99.245551" />
      <trkpt lat="30.083973" lon="-99.245715" />
      <trkpt lat="30.084244" lon="-99.245961" />
      <trkpt lat="30.08439" lon="-99.246096" />
      <trkpt lat="30.085606" lon="-99.247238" />
      <trkpt lat="30.086179" lon="-99.247768" />
      <trkpt lat="30.086699" lon="-99.248253" />
      <trkpt lat="30.087192" lon="-99.248708" />
      <trkpt lat="30.087625" lon="-99.249121" />
      <trkpt lat="30.087772" lon="-99.249293" />
      <trkpt lat="30.087926" lon="-99.249461" />
      <trkpt lat="30.088103" lon="-99.249675" />
      <trkpt lat="30.08817" lon="-99.249762" />
      <trkpt lat="30.088277" lon="-99.24991" />
      <trkpt lat="30.088422" lon="-99.25013" />
      <trkpt lat="30.089402" lon="-99.251697" />
      <trkpt lat="30.08954" lon="-99.25195" />
      <trkpt lat="30.089669" lon="-99.252157" />
      <trkpt lat="30.090043" lon="-99.252682" />
      <trkpt lat="30.090432" lon="-99.253155" />
      <trkpt lat="30.090511" lon="-99.253251" />
      <trkpt lat="30.090603" lon="-99.253347" />
      <trkpt lat="30.090675" lon="-99.253422" />
      <trkpt lat="30.091062" lon="-99.253785" />
      <trkpt lat="30.091128" lon="-99.253847" />
      <trkpt lat="30.091872" lon="-99.254545" />
      <trkpt lat="30.09197" lon="-99.254644" />
      <trkpt lat="30.092106" lon="-99.254774" />
      <trkpt lat="30.092416" lon="-99.255096" />
      <trkpt lat="30.092538" lon="-99.255214" />
      <trkpt lat="30.093001" lon="-99.255664" />
      <trkpt lat="30.093843" lon="-99.25647" />
      <trkpt lat="30.093972" lon="-99.256599" />
      <trkpt lat="30.094472" lon="-99.25708" />
      <trkpt lat="30.09514" lon="-99.257728" />
      <trkpt lat="30.096014" lon="-99.25855" />
      <trkpt lat="30.096406" lon="-99.258936" />
      <trkpt lat="30.096601" lon="-99.259124" />
      <trkpt lat="30.096898" lon="-99.259413" />
      <trkpt lat="30.097102" lon="-99.259607" />
      <trkpt lat="30.097429" lon="-99.259918" />
      <trkpt lat="30.097839" lon="-99.260324" />
      <trkpt lat="30.097964" lon="-99.260445" />
      <trkpt lat="30.098301" lon="-99.260771" />
      <trkpt lat="30.098415" lon="-99.260899" />
      <trkpt lat="30.098742" lon="-99.261267" />
      <trkpt lat="30.098926" lon="-99.261525" />
      <trkpt lat="30.099179" lon="-99.26188" />
      <trkpt lat="30.099236" lon="-99.261962" />
      <trkpt lat="30.099495" lon="-99.262335" />
      <trkpt lat="30.099692" lon="-99.262683" />
      <trkpt lat="30.099707" lon="-99.262712" />
      <trkpt lat="30.099801" lon="-99.262903" />
      <trkpt lat="30.09986" lon="-99.263007" />
      <trkpt lat="30.099888" lon="-99.263061" />
      <trkpt lat="30.099918" lon="-99.26312" />
      <trkpt lat="30.099975" lon="-99.263257" />
      <trkpt lat="30.100025" lon="-99.263378" />
      <trkpt lat="30.100073" lon="-99.263481" />
      <trkpt lat="30.100171" lon="-99.263718" />
      <trkpt lat="30.100262" lon="-99.263958" />
      <trkpt lat="30.100294" lon="-99.264066" />
      <trkpt lat="30.100632" lon="-99.265038" />
      <trkpt lat="30.10087" lon="-99.26571" />
      <trkpt lat="30.101047" lon="-99.266223" />
      <trkpt lat="30.101195" lon="-99.266653" />
      <trkpt lat="30.101227" lon="-99.266745" />
      <trkpt lat="30.101564" lon="-99.26773" />
      <trkpt lat="30.101659" lon="-99.268012" />
      <trkpt lat="30.10243" lon="-99.270264" />
      <trkpt lat="30.102857" lon="-99.271512" />
      <trkpt lat="30.102963" lon="-99.271823" />
      <trkpt lat="30.103253" lon="-99.272635" />
      <trkpt lat="30.103469" lon="-99.273239" />
      <trkpt lat="30.104353" lon="-99.275375" />
      <trkpt lat="30.104553" lon="-99.275858" />
      <trkpt lat="30.104863" lon="-99.276609" />
      <trkpt lat="30.105235" lon="-99.277507" />
      <trkpt lat="30.10536" lon="-99.27781" />
      <trkpt lat="30.10585" lon="-99.278994" />
      <trkpt lat="30.105914" lon="-99.279148" />
      <trkpt lat="30.106424" lon="-99.280382" />
      <trkpt lat="30.106733" lon="-99.281129" />
      <trkpt lat="30.107082" lon="-99.281971" />
      <trkpt lat="30.107099" lon="-99.282003" />
      <trkpt lat="30.107139" lon="-99.282091" />
      <trkpt lat="30.10746" lon="-99.282672" />
      <trkpt lat="30.107532" lon="-99.282782" />
      <trkpt lat="30.107976" lon="-99.283377" />
      <trkpt lat="30.107995" lon="-99.283402" />
      <trkpt lat="30.108078" lon="-99.283498" />
      <trkpt lat="30.10816" lon="-99.28358" />
      <trkpt lat="30.108245" lon="-99.283665" />
      <trkpt lat="30.108439" lon="-99.283859" />
      <trkpt lat="30.108512" lon="-99.283932" />
      <trkpt lat="30.108875" lon="-99.284227" />
      <trkpt lat="30.109056" lon="-99.284358" />
      <trkpt lat="30.109147" lon="-99.284418" />
      <trkpt lat="30.110752" lon="-99.285353" />
      <trkpt lat="30.111542" lon="-99.285823" />
      <trkpt lat="30.112417" lon="-99.286343" />
      <trkpt lat="30.112984" lon="-99.286673" />
      <trkpt lat="30.113506" lon="-99.287045" />
      <trkpt lat="30.113627" lon="-99.287154" />
      <trkpt lat="30.113916" lon="-99.28741" />
      <trkpt lat="30.114176" lon="-99.287679" />
      <trkpt lat="30.114394" lon="-99.287943" />
      <trkpt lat="30.114611" lon="-99.288236" />
      <trkpt lat="30.114859" lon="-99.288631" />
      <trkpt lat="30.114968" lon="-99.288803" />
      <trkpt lat="30.115208" lon="-99.289214" />
      <trkpt lat="30.115438" lon="-99.289599" />
      <trkpt lat="30.115542" lon="-99.289795" />
      <trkpt lat="30.115672" lon="-99.290041" />
      <trkpt lat="30.115784" lon="-99.290292" />
      <trkpt lat="30.115872" lon="-99.290516" />
      <trkpt lat="30.11598" lon="-99.290822" />
      <trkpt lat="30.116055" lon="-99.291069" />
      <trkpt lat="30.116142" lon="-99.29139" />
      <trkpt lat="30.116163" lon="-99.291465" />
      <trkpt lat="30.116267" lon="-99.291805" />
      <trkpt lat="30.11642" lon="-99.292225" />
      <trkpt lat="30.116539" lon="-99.292509" />
      <trkpt lat="30.116743" lon="-99.292917" />
      <trkpt lat="30.116916" lon="-99.293224" />
      <trkpt lat="30.116972" lon="-99.293311" />
      <trkpt lat="30.117073" lon="-99.293468" />
      <trkpt lat="30.117232" lon="-99.293686" />
      <trkpt lat="30.117331" lon="-99.293817" />
      <trkpt lat="30.117449" lon="-99.293963" />
      <trkpt lat="30.117849" lon="-99.294454" />
      <trkpt lat="30.118298" lon="-99.294987" />
      <trkpt lat="30.119066" lon="-99.295908" />
      <trkpt lat="30.11966" lon="-99.29661" />
      <trkpt lat="30.120646" lon="-99.297791" />
      <trkpt lat="30.120827" lon="-99.298014" />
      <trkpt lat="30.121347" lon="-99.29863" />
      <trkpt lat="30.121541" lon="-99.298874" />
      <trkpt lat="30.121786" lon="-99.299193" />
      <trkpt lat="30.122054" lon="-99.299566" />
      <trkpt lat="30.122528" lon="-99.300276" />
      <trkpt lat="30.123154" lon="-99.301179" />
      <trkpt lat="30.124769" lon="-99.303579" />
      <trkpt lat="30.125823" lon="-99.305146" />
      <trkpt lat="30.12627" lon="-99.305788" />
      <trkpt lat="30.126402" lon="-99.305994" />
      <trkpt lat="30.126754" lon="-99.306517" />
      <trkpt lat="30.12679" lon="-99.30657" />
      <trkpt lat="30.12696" lon="-99.306822" />
      <trkpt lat="30.127108" lon="-99.307023" />
      <trkpt lat="30.127374" lon="-99.307384" />
      <trkpt lat="30.128558" lon="-99.308782" />
      <trkpt lat="30.129101" lon="-99.309473" />
      <trkpt lat="30.129256" lon="-99.3097" />
      <trkpt lat="30.129516" lon="-99.310159" />
      <trkpt lat="30.129569" lon="-99.310275" />
      <trkpt lat="30.130315" lon="-99.311929" />
      <trkpt lat="30.13035" lon="-99.312003" />
      <trkpt lat="30.130655" lon="-99.312647" />
      <trkpt lat="30.130721" lon="-99.312764" />
      <trkpt lat="30.13096" lon="-99.313125" />
      <trkpt lat="30.131242" lon="-99.313451" />
      <trkpt lat="30.131317" lon="-99.31353" />
      <trkpt lat="30.131402" lon="-99.313605" />
      <trkpt lat="30.131826" lon="-99.313921" />
      <trkpt lat="30.131932" lon="-99.31399" />
      <trkpt lat="30.132036" lon="-99.314047" />
      <trkpt lat="30.13221" lon="-99.31413" />
      <trkpt lat="30.132381" lon="-99.314191" />
      <trkpt lat="30.132549" lon="-99.314245" />
      <trkpt lat="30.132764" lon="-99.314302" />
      <trkpt lat="30.133068" lon="-99.314356" />
      <trkpt lat="30.133608" lon="-99.314422" />
      <trkpt lat="30.134262" lon="-99.314534" />
      <trkpt lat="30.134387" lon="-99.314565" />
      <trkpt lat="30.134831" lon="-99.314701" />
      <trkpt lat="30.135366" lon="-99.314939" />
      <trkpt lat="30.135656" lon="-99.315106" />
      <trkpt lat="30.13641" lon="-99.315545" />
      <trkpt lat="30.136759" lon="-99.315753" />
      <trkpt lat="30.137261" lon="-99.316067" />
      <trkpt lat="30.138035" lon="-99.316552" />
      <trkpt lat="30.139247" lon="-99.317287" />
      <trkpt lat="30.139549" lon="-99.317493" />
      <trkpt lat="30.139643" lon="-99.317563" />
      <trkpt lat="30.139911" lon="-99.317782" />
      <trkpt lat="30.140074" lon="-99.317929" />
      <trkpt lat="30.140289" lon="-99.318155" />
      <trkpt lat="30.140506" lon="-99.318383" />
      <trkpt lat="30.140582" lon="-99.318476" />
      <trkpt lat="30.140901" lon="-99.318911" />
      <trkpt lat="30.14126" lon="-99.319481" />
      <trkpt lat="30.141664" lon="-99.320285" />
      <trkpt lat="30.142003" lon="-99.320961" />
      <trkpt lat="30.142568" lon="-99.322073" />
      <trkpt lat="30.142785" lon="-99.322575" />
      <trkpt lat="30.142954" lon="-99.323056" />
      <trkpt lat="30.143107" lon="-99.323646" />
      <trkpt lat="30.143187" lon="-99.324088" />
      <trkpt lat="30.143359" lon="-99.325345" />
      <trkpt lat="30.143564" lon="-99.326243" />
      <trkpt lat="30.143916" lon="-99.327631" />
      <trkpt lat="30.143984" lon="-99.327913" />
      <trkpt lat="30.144343" lon="-99.329344" />
      <trkpt lat="30.14445" lon="-99.329739" />
      <trkpt lat="30.144736" lon="-99.330686" />
      <trkpt lat="30.144926" lon="-99.331247" />
      <trkpt lat="30.145175" lon="-99.331897" />
      <trkpt lat="30.145396" lon="-99.332382" />
      <trkpt lat="30.14566" lon="-99.332896" />
      <trkpt lat="30.145798" lon="-99.333134" />
      <trkpt lat="30.146095" lon="-99.333574" />
      <trkpt lat="30.146334" lon="-99.333929" />
      <trkpt lat="30.146418" lon="-99.33404" />
      <trkpt lat="30.146596" lon="-99.334261" />
      <trkpt lat="30.146732" lon="-99.334399" />
      <trkpt lat="30.146748" lon="-99.334416" />
      <trkpt lat="30.14729" lon="-99.334964" />
      <trkpt lat="30.147416" lon="-99.335092" />
      <trkpt lat="30.147526" lon="-99.335199" />
      <trkpt lat="30.14814" lon="-99.335702" />
      <trkpt lat="30.149856" lon="-99.336819" />
      <trkpt lat="30.150418" lon="-99.337184" />
      <trkpt lat="30.150757" lon="-99.337405" />
      <trkpt lat="30.152167" lon="-99.338323" />
      <trkpt lat="30.152386" lon="-99.338473" />
      <trkpt lat="30.1528" lon="-99.338796" />
      <trkpt lat="30.152897" lon="-99.338883" />
      <trkpt lat="30.153436" lon="-99.339479" />
      <trkpt lat="30.1556" lon="-99.342089" />
      <trkpt lat="30.156585" lon="-99.343301" />
      <trkpt lat="30.157671" lon="-99.344603" />
      <trkpt lat="30.158015" lon="-99.345003" />
      <trkpt lat="30.158306" lon="-99.345354" />
      <trkpt lat="30.158421" lon="-99.345492" />
      <trkpt lat="30.158858" lon="-99.34602" />
      <trkpt lat="30.159017" lon="-99.346211" />
      <trkpt lat="30.159208" lon="-99.346442" />
      <trkpt lat="30.159301" lon="-99.346558" />
      <trkpt lat="30.159343" lon="-99.346613" />
      <trkpt lat="30.159473" lon="-99.3468" />
      <trkpt lat="30.159582" lon="-99.346988" />
      <trkpt lat="30.159822" lon="-99.347462" />
      <trkpt lat="30.160016" lon="-99.347888" />
      <trkpt lat="30.160224" lon="-99.348421" />
      <trkpt lat="30.160533" lon="-99.349245" />
      <trkpt lat="30.160796" lon="-99.349955" />
      <trkpt lat="30.160827" lon="-99.350039" />
      <trkpt lat="30.161039" lon="-99.350596" />
      <trkpt lat="30.161233" lon="-99.351105" />
      <trkpt lat="30.161474" lon="-99.351732" />
      <trkpt lat="30.161591" lon="-99.351996" />
      <trkpt lat="30.161633" lon="-99.352093" />
      <trkpt lat="30.161825" lon="-99.35242" />
      <trkpt lat="30.161977" lon="-99.352638" />
      <trkpt lat="30.162035" lon="-99.352721" />
      <trkpt lat="30.162281" lon="-99.353024" />
      <trkpt lat="30.16261" lon="-99.353344" />
      <trkpt lat="30.162643" lon="-99.35337" />
      <trkpt lat="30.162996" lon="-99.353648" />
      <trkpt lat="30.163124" lon="-99.353737" />
      <trkpt lat="30.16346" lon="-99.353935" />
      <trkpt lat="30.164291" lon="-99.354316" />
      <trkpt lat="30.164411" lon="-99.354385" />
      <trkpt lat="30.164526" lon="-99.354461" />
      <trkpt lat="30.164744" lon="-99.354618" />
      <trkpt lat="30.164985" lon="-99.354817" />
      <trkpt lat="30.165164" lon="-99.355001" />
      <trkpt lat="30.165392" lon="-99.355255" />
      <trkpt lat="30.165649" lon="-99.355581" />
      <trkpt lat="30.165701" lon="-99.355658" />
      <trkpt lat="30.16581" lon="-99.355819" />
      <trkpt lat="30.166001" lon="-99.356166" />
      <trkpt lat="30.166014" lon="-99.356189" />
      <trkpt lat="30.166197" lon="-99.356614" />
      <trkpt lat="30.166303" lon="-99.356905" />
      <trkpt lat="30.166494" lon="-99.357499" />
      <trkpt lat="30.167036" lon="-99.359258" />
      <trkpt lat="30.167465" lon="-99.360619" />
      <trkpt lat="30.167692" lon="-99.361356" />
      <trkpt lat="30.167776" lon="-99.36165" />
      <trkpt lat="30.167841" lon="-99.361926" />
      <trkpt lat="30.167922" lon="-99.362322" />
      <trkpt lat="30.167967" lon="-99.362576" />
      <trkpt lat="30.168097" lon="-99.363247" />
      <trkpt lat="30.168211" lon="-99.363838" />
      <trkpt lat="30.168534" lon="-99.365515" />
      <trkpt lat="30.169076" lon="-99.368539" />
      <trkpt lat="30.169243" lon="-99.369399" />
      <trkpt lat="30.169352" lon="-99.36975" />
      <trkpt lat="30.169483" lon="-99.370173" />
      <trkpt lat="30.169761" lon="-99.370836" />
      <trkpt lat="30.169972" lon="-99.371248" />
      <trkpt lat="30.170067" lon="-99.371412" />
      <trkpt lat="30.170166" lon="-99.371553" />
      <trkpt lat="30.170283" lon="-99.371722" />
      <trkpt lat="30.170532" lon="-99.372047" />
      <trkpt lat="30.170669" lon="-99.372214" />
      <trkpt lat="30.170776" lon="-99.372331" />
      <trkpt lat="30.171106" lon="-99.372646" />
      <trkpt lat="30.171359" lon="-99.372861" />
      <trkpt lat="30.17169" lon="-99.37311" />
      <trkpt lat="30.172177" lon="-99.373407" />
      <trkpt lat="30.17257" lon="-99.373578" />
      <trkpt lat="30.172622" lon="-99.373598" />
      <trkpt lat="30.172802" lon="-99.373668" />
      <trkpt lat="30.173053" lon="-99.373754" />
      <trkpt lat="30.17338" lon="-99.373853" />
      <trkpt lat="30.173529" lon="-99.373886" />
      <trkpt lat="30.173859" lon="-99.373947" />
      <trkpt lat="30.174074" lon="-99.373972" />
      <trkpt lat="30.177111" lon="-99.374241" />
      <trkpt lat="30.177561" lon="-99.37428" />
      <trkpt lat="30.17763" lon="-99.374286" />
      <trkpt lat="30.178196" lon="-99.374334" />
      <trkpt lat="30.179129" lon="-99.374413" />
      <trkpt lat="30.179121" lon="-99.374497" />
      <trkpt lat="30.178774" lon="-99.378298" />
      <trkpt lat="30.17874" lon="-99.37868" />
      <trkpt lat="30.178714" lon="-99.378969" />
      <trkpt lat="30.178668" lon="-99.37957" />
      <trkpt lat="30.178656" lon="-99.379696" />
      <trkpt lat="30.178443" lon="-99.381948" />
      <trkpt lat="30.178341" lon="-99.383025" />
      <trkpt lat="30.178295" lon="-99.383328" />
      <trkpt lat="30.178119" lon="-99.384164" />
      <trkpt lat="30.178085" lon="-99.384294" />
      <trkpt lat="30.177962" lon="-99.384721" />
      <trkpt lat="30.17785" lon="-99.385034" />
      <trkpt lat="30.177238" lon="-99.386672" />
      <trkpt lat="30.177037" lon="-99.387282" />
      <trkpt lat="30.1769" lon="-99.387786" />
      <trkpt lat="30.176817" lon="-99.388191" />
      <trkpt lat="30.176769" lon="-99.388465" />
      <trkpt lat="30.176569" lon="-99.389908" />
      <trkpt lat="30.176513" lon="-99.390313" />
      <trkpt lat="30.175164" lon="-99.400029" />
      <trkpt lat="30.175" lon="-99.400856" />
      <trkpt lat="30.174727" lon="-99.401794" />
      <trkpt lat="30.172265" lon="-99.409471" />
      <trkpt lat="30.171786" lon="-99.411088" />
      <trkpt lat="30.171567" lon="-99.412258" />
      <trkpt lat="30.170883" lon="-99.415633" />
      <trkpt lat="30.170597" lon="-99.417111" />
      <trkpt lat="30.169381" lon="-99.4234" />
      <trkpt lat="30.169381" lon="-99.4234" />
      <trkpt lat="30.170597" lon="-99.417111" />
      <trkpt lat="30.170883" lon="-99.415633" />
      <trkpt lat="30.171567" lon="-99.412258" />
      <trkpt lat="30.171786" lon="-99.411088" />
      <trkpt lat="30.172265" lon="-99.409471" />
      <trkpt lat="30.174727" lon="-99.401794" />
      <trkpt lat="30.175" lon="-99.400856" />
      <trkpt lat="30.175164" lon="-99.400029" />
      <trkpt lat="30.176513" lon="-99.390313" />
      <trkpt lat="30.176569" lon="-99.389908" />
      <trkpt lat="30.176769" lon="-99.388465" />
      <trkpt lat="30.176817" lon="-99.388191" />
      <trkpt lat="30.1769" lon="-99.387786" />
      <trkpt lat="30.177037" lon="-99.387282" />
      <trkpt lat="30.177238" lon="-99.386672" />
      <trkpt lat="30.17785" lon="-99.385034" />
      <trkpt lat="30.177962" lon="-99.384721" />
      <trkpt lat="30.178085" lon="-99.384294" />
      <trkpt lat="30.178119" lon="-99.384164" />
      <trkpt lat="30.178295" lon="-99.383328" />
      <trkpt lat="30.178341" lon="-99.383025" />
      <trkpt lat="30.178443" lon="-99.381948" />
      <trkpt lat="30.178656" lon="-99.379696" />
      <trkpt lat="30.178668" lon="-99.37957" />
      <trkpt lat="30.178714" lon="-99.378969" />
      <trkpt lat="30.17874" lon="-99.37868" />
      <trkpt lat="30.178774" lon="-99.378298" />
      <trkpt lat="30.179121" lon="-99.374497" />
      <trkpt lat="30.179129" lon="-99.374413" />
      <trkpt lat="30.178196" lon="-99.374334" />
      <trkpt lat="30.17763" lon="-99.374286" />
      <trkpt lat="30.177561" lon="-99.37428" />
      <trkpt lat="30.177111" lon="-99.374241" />
      <trkpt lat="30.174074" lon="-99.373972" />
      <trkpt lat="30.173859" lon="-99.373947" />
      <trkpt lat="30.173529" lon="-99.373886" />
      <trkpt lat="30.17338" lon="-99.373853" />
      <trkpt lat="30.173053" lon="-99.373754" />
      <trkpt lat="30.172802" lon="-99.373668" />
      <trkpt lat="30.172622" lon="-99.373598" />
      <trkpt lat="30.17257" lon="-99.373578" />
      <trkpt lat="30.172177" lon="-99.373407" />
      <trkpt lat="30.17169" lon="-99.37311" />
      <trkpt lat="30.171359" lon="-99.372861" />
      <trkpt lat="30.171106" lon="-99.372646" />
      <trkpt lat="30.170776" lon="-99.372331" />
      <trkpt lat="30.170669" lon="-99.372214" />
      <trkpt lat="30.170532" lon="-99.372047" />
      <trkpt lat="30.170283" lon="-99.371722" />
      <trkpt lat="30.170166" lon="-99.371553" />
      <trkpt lat="30.170067" lon="-99.371412" />
      <trkpt lat="30.169972" lon="-99.371248" />
      <trkpt lat="30.169761" lon="-99.370836" />
      <trkpt lat="30.169483" lon="-99.370173" />
      <trkpt lat="30.169352" lon="-99.36975" />
      <trkpt lat="30.169243" lon="-99.369399" />
      <trkpt lat="30.169076" lon="-99.368539" />
      <trkpt lat="30.168534" lon="-99.365515" />
      <trkpt lat="30.168211" lon="-99.363838" />
      <trkpt lat="30.168097" lon="-99.363247" />
      <trkpt lat="30.167967" lon="-99.362576" />
      <trkpt lat="30.167922" lon="-99.362322" />
      <trkpt lat="30.167841" lon="-99.361926" />
      <trkpt lat="30.167776" lon="-99.36165" />
      <trkpt lat="30.167692" lon="-99.361356" />
      <trkpt lat="30.167465" lon="-99.360619" />
      <trkpt lat="30.167036" lon="-99.359258" />
      <trkpt lat="30.166494" lon="-99.357499" />
      <trkpt lat="30.166303" lon="-99.356905" />
      <trkpt lat="30.166197" lon="-99.356614" />
      <trkpt lat="30.166014" lon="-99.356189" />
      <trkpt lat="30.166001" lon="-99.356166" />
      <trkpt lat="30.16581" lon="-99.355819" />
      <trkpt lat="30.165701" lon="-99.355658" />
      <trkpt lat="30.165649" lon="-99.355581" />
      <trkpt lat="30.165392" lon="-99.355255" />
      <trkpt lat="30.165164" lon="-99.355001" />
      <trkpt lat="30.164985" lon="-99.354817" />
      <trkpt lat="30.164744" lon="-99.354618" />
      <trkpt lat="30.164526" lon="-99.354461" />
      <trkpt lat="30.164411" lon="-99.354385" />
      <trkpt lat="30.164291" lon="-99.354316" />
      <trkpt lat="30.16346" lon="-99.353935" />
      <trkpt lat="30.163124" lon="-99.353737" />
      <trkpt lat="30.162996" lon="-99.353648" />
      <trkpt lat="30.162643" lon="-99.35337" />
      <trkpt lat="30.16261" lon="-99.353344" />
      <trkpt lat="30.162281" lon="-99.353024" />
      <trkpt lat="30.162035" lon="-99.352721" />
      <trkpt lat="30.161977" lon="-99.352638" />
      <trkpt lat="30.161825" lon="-99.35242" />
      <trkpt lat="30.161633" lon="-99.352093" />
      <trkpt lat="30.161591" lon="-99.351996" />
      <trkpt lat="30.161474" lon="-99.351732" />
      <trkpt lat="30.161233" lon="-99.351105" />
      <trkpt lat="30.161039" lon="-99.350596" />
      <trkpt lat="30.160827" lon="-99.350039" />
      <trkpt lat="30.160796" lon="-99.349955" />
      <trkpt lat="30.160533" lon="-99.349245" />
      <trkpt lat="30.160224" lon="-99.348421" />
      <trkpt lat="30.160016" lon="-99.347888" />
      <trkpt lat="30.159822" lon="-99.347462" />
      <trkpt lat="30.159582" lon="-99.346988" />
      <trkpt lat="30.159473" lon="-99.3468" />
      <trkpt lat="30.159343" lon="-99.346613" />
      <trkpt lat="30.159301" lon="-99.346558" />
      <trkpt lat="30.159208" lon="-99.346442" />
      <trkpt lat="30.159017" lon="-99.346211" />
      <trkpt lat="30.158858" lon="-99.34602" />
      <trkpt lat="30.158421" lon="-99.345492" />
      <trkpt lat="30.158306" lon="-99.345354" />
      <trkpt lat="30.158015" lon="-99.345003" />
      <trkpt lat="30.157671" lon="-99.344603" />
      <trkpt lat="30.156585" lon="-99.343301" />
      <trkpt lat="30.1556" lon="-99.342089" />
      <trkpt lat="30.153436" lon="-99.339479" />
      <trkpt lat="30.152897" lon="-99.338883" />
      <trkpt lat="30.1528" lon="-99.338796" />
      <trkpt lat="30.152386" lon="-99.338473" />
      <trkpt lat="30.152167" lon="-99.338323" />
      <trkpt lat="30.150757" lon="-99.337405" />
      <trkpt lat="30.150418" lon="-99.337184" />
      <trkpt lat="30.149856" lon="-99.336819" />
      <trkpt lat="30.14814" lon="-99.335702" />
      <trkpt lat="30.147526" lon="-99.335199" />
      <trkpt lat="30.147416" lon="-99.335092" />
      <trkpt lat="30.14729" lon="-99.334964" />
      <trkpt lat="30.146748" lon="-99.334416" />
      <trkpt lat="30.146732" lon="-99.334399" />
      <trkpt lat="30.146596" lon="-99.334261" />
      <trkpt lat="30.146418" lon="-99.33404" />
      <trkpt lat="30.146334" lon="-99.333929" />
      <trkpt lat="30.146095" lon="-99.333574" />
      <trkpt lat="30.145798" lon="-99.333134" />
      <trkpt lat="30.14566" lon="-99.332896" />
      <trkpt lat="30.145396" lon="-99.332382" />
      <trkpt lat="30.145175" lon="-99.331897" />
      <trkpt lat="30.144926" lon="-99.331247" />
      <trkpt lat="30.144736" lon="-99.330686" />
      <trkpt lat="30.14445" lon="-99.329739" />
      <trkpt lat="30.144343" lon="-99.329344" />
      <trkpt lat="30.143984" lon="-99.327913" />
      <trkpt lat="30.143916" lon="-99.327631" />
      <trkpt lat="30.143564" lon="-99.326243" />
      <trkpt lat="30.143359" lon="-99.325345" />
      <trkpt lat="30.143187" lon="-99.324088" />
      <trkpt lat="30.143107" lon="-99.323646" />
      <trkpt lat="30.142954" lon="-99.323056" />
      <trkpt lat="30.142785" lon="-99.322575" />
      <trkpt lat="30.142568" lon="-99.322073" />
      <trkpt lat="30.142003" lon="-99.320961" />
      <trkpt lat="30.141664" lon="-99.320285" />
      <trkpt lat="30.14126" lon="-99.319481" />
      <trkpt lat="30.140901" lon="-99.318911" />
      <trkpt lat="30.140582" lon="-99.318476" />
      <trkpt lat="30.140506" lon="-99.318383" />
      <trkpt lat="30.140289" lon="-99.318155" />
      <trkpt lat="30.140074" lon="-99.317929" />
      <trkpt lat="30.139911" lon="-99.317782" />
      <trkpt lat="30.139643" lon="-99.317563" />
      <trkpt lat="30.139549" lon="-99.317493" />
      <trkpt lat="30.139247" lon="-99.317287" />
      <trkpt lat="30.138035" lon="-99.316552" />
      <trkpt lat="30.137261" lon="-99.316067" />
      <trkpt lat="30.136759" lon="-99.315753" />
      <trkpt lat="30.13641" lon="-99.315545" />
      <trkpt lat="30.135656" lon="-99.315106" />
      <trkpt lat="30.135366" lon="-99.314939" />
      <trkpt lat="30.134831" lon="-99.314701" />
      <trkpt lat="30.134387" lon="-99.314565" />
      <trkpt lat="30.134262" lon="-99.314534" />
      <trkpt lat="30.133608" lon="-99.314422" />
      <trkpt lat="30.133068" lon="-99.314356" />
      <trkpt lat="30.132764" lon="-99.314302" />
      <trkpt lat="30.132549" lon="-99.314245" />
      <trkpt lat="30.132381" lon="-99.314191" />
      <trkpt lat="30.13221" lon="-99.31413" />
      <trkpt lat="30.132036" lon="-99.314047" />
      <trkpt lat="30.131932" lon="-99.31399" />
      <trkpt lat="30.131826" lon="-99.313921" />
      <trkpt lat="30.131402" lon="-99.313605" />
      <trkpt lat="30.131317" lon="-99.31353" />
      <trkpt lat="30.131242" lon="-99.313451" />
      <trkpt lat="30.13096" lon="-99.313125" />
      <trkpt lat="30.130721" lon="-99.312764" />
      <trkpt lat="30.130655" lon="-99.312647" />
      <trkpt lat="30.13035" lon="-99.312003" />
      <trkpt lat="30.130315" lon="-99.311929" />
      <trkpt lat="30.129569" lon="-99.310275" />
      <trkpt lat="30.129516" lon="-99.310159" />
      <trkpt lat="30.129256" lon="-99.3097" />
      <trkpt lat="30.129101" lon="-99.309473" />
      <trkpt lat="30.128558" lon="-99.308782" />
      <trkpt lat="30.127374" lon="-99.307384" />
      <trkpt lat="30.127108" lon="-99.307023" />
      <trkpt lat="30.12696" lon="-99.306822" />
      <trkpt lat="30.12679" lon="-99.30657" />
      <trkpt lat="30.126754" lon="-99.306517" />
      <trkpt lat="30.126402" lon="-99.305994" />
      <trkpt lat="30.12627" lon="-99.305788" />
      <trkpt lat="30.125823" lon="-99.305146" />
      <trkpt lat="30.124769" lon="-99.303579" />
      <trkpt lat="30.123154" lon="-99.301179" />
      <trkpt lat="30.122528" lon="-99.300276" />
      <trkpt lat="30.122054" lon="-99.299566" />
      <trkpt lat="30.121786" lon="-99.299193" />
      <trkpt lat="30.121541" lon="-99.298874" />
      <trkpt lat="30.121347" lon="-99.29863" />
      <trkpt lat="30.120827" lon="-99.298014" />
      <trkpt lat="30.120646" lon="-99.297791" />
      <trkpt lat="30.11966" lon="-99.29661" />
      <trkpt lat="30.119066" lon="-99.295908" />
      <trkpt lat="30.118298" lon="-99.294987" />
      <trkpt lat="30.117849" lon="-99.294454" />
      <trkpt lat="30.117449" lon="-99.293963" />
      <trkpt lat="30.117331" lon="-99.293817" />
      <trkpt lat="30.117232" lon="-99.293686" />
      <trkpt lat="30.117073" lon="-99.293468" />
      <trkpt lat="30.116972" lon="-99.293311" />
      <trkpt lat="30.116916" lon="-99.293224" />
      <trkpt lat="30.116743" lon="-99.292917" />
      <trkpt lat="30.116539" lon="-99.292509" />
      <trkpt lat="30.11642" lon="-99.292225" />
      <trkpt lat="30.116267" lon="-99.291805" />
      <trkpt lat="30.116163" lon="-99.291465" />
      <trkpt lat="30.116142" lon="-99.29139" />
      <trkpt lat="30.116055" lon="-99.291069" />
      <trkpt lat="30.11598" lon="-99.290822" />
      <trkpt lat="30.115872" lon="-99.290516" />
      <trkpt lat="30.115784" lon="-99.290292" />
      <trkpt lat="30.115672" lon="-99.290041" />
      <trkpt lat="30.115542" lon="-99.289795" />
      <trkpt lat="30.115438" lon="-99.289599" />
      <trkpt lat="30.115208" lon="-99.289214" />
      <trkpt lat="30.114968" lon="-99.288803" />
      <trkpt lat="30.114859" lon="-99.288631" />
      <trkpt lat="30.114611" lon="-99.288236" />
      <trkpt lat="30.114394" lon="-99.287943" />
      <trkpt lat="30.114176" lon="-99.287679" />
      <trkpt lat="30.113916" lon="-99.28741" />
      <trkpt lat="30.113627" lon="-99.287154" />
      <trkpt lat="30.113506" lon="-99.287045" />
      <trkpt lat="30.112984" lon="-99.286673" />
      <trkpt lat="30.112417" lon="-99.286343" />
      <trkpt lat="30.111542" lon="-99.285823" />
      <trkpt lat="30.110752" lon="-99.285353" />
      <trkpt lat="30.109147" lon="-99.284418" />
      <trkpt lat="30.109056" lon="-99.284358" />
      <trkpt lat="30.108875" lon="-99.284227" />
      <trkpt lat="30.108512" lon="-99.283932" />
      <trkpt lat="30.108439" lon="-99.283859" />
      <trkpt lat="30.108245" lon="-99.283665" />
      <trkpt lat="30.10816" lon="-99.28358" />
      <trkpt lat="30.108078" lon="-99.283498" />
      <trkpt lat="30.107995" lon="-99.283402" />
      <trkpt lat="30.107976" lon="-99.283377" />
      <trkpt lat="30.107532" lon="-99.282782" />
      <trkpt lat="30.10746" lon="-99.282672" />
      <trkpt lat="30.107139" lon="-99.282091" />
      <trkpt lat="30.107099" lon="-99.282003" />
      <trkpt lat="30.107082" lon="-99.281971" />
      <trkpt lat="30.106733" lon="-99.281129" />
      <trkpt lat="30.106424" lon="-99.280382" />
      <trkpt lat="30.105914" lon="-99.279148" />
      <trkpt lat="30.10585" lon="-99.278994" />
      <trkpt lat="30.10536" lon="-99.27781" />
      <trkpt lat="30.105235" lon="-99.277507" />
      <trkpt lat="30.104863" lon="-99.276609" />
      <trkpt lat="30.104553" lon="-99.275858" />
      <trkpt lat="30.104353" lon="-99.275375" />
      <trkpt lat="30.103469" lon="-99.273239" />
      <trkpt lat="30.103253" lon="-99.272635" />
      <trkpt lat="30.102963" lon="-99.271823" />
      <trkpt lat="30.102857" lon="-99.271512" />
      <trkpt lat="30.10243" lon="-99.270264" />
      <trkpt lat="30.101659" lon="-99.268012" />
      <trkpt lat="30.101564" lon="-99.26773" />
      <trkpt lat="30.101227" lon="-99.266745" />
      <trkpt lat="30.101195" lon="-99.266653" />
      <trkpt lat="30.101047" lon="-99.266223" />
      <trkpt lat="30.10087" lon="-99.26571" />
      <trkpt lat="30.100632" lon="-99.265038" />
      <trkpt lat="30.100294" lon="-99.264066" />
      <trkpt lat="30.100262" lon="-99.263958" />
      <trkpt lat="30.100171" lon="-99.263718" />
      <trkpt lat="30.100073" lon="-99.263481" />
      <trkpt lat="30.100025" lon="-99.263378" />
      <trkpt lat="30.099975" lon="-99.263257" />
      <trkpt lat="30.099918" lon="-99.26312" />
      <trkpt lat="30.099888" lon="-99.263061" />
      <trkpt lat="30.09986" lon="-99.263007" />
      <trkpt lat="30.099801" lon="-99.262903" />
      <trkpt lat="30.099707" lon="-99.262712" />
      <trkpt lat="30.099692" lon="-99.262683" />
      <trkpt lat="30.099495" lon="-99.262335" />
      <trkpt lat="30.099236" lon="-99.261962" />
      <trkpt lat="30.099179" lon="-99.26188" />
      <trkpt lat="30.098926" lon="-99.261525" />
      <trkpt lat="30.098742" lon="-99.261267" />
      <trkpt lat="30.098415" lon="-99.260899" />
      <trkpt lat="30.098301" lon="-99.260771" />
      <trkpt lat="30.097964" lon="-99.260445" />
      <trkpt lat="30.097839" lon="-99.260324" />
      <trkpt lat="30.097429" lon="-99.259918" />
      <trkpt lat="30.097102" lon="-99.259607" />
      <trkpt lat="30.096898" lon="-99.259413" />
      <trkpt lat="30.096601" lon="-99.259124" />
      <trkpt lat="30.096406" lon="-99.258936" />
      <trkpt lat="30.096014" lon="-99.25855" />
      <trkpt lat="30.09514" lon="-99.257728" />
      <trkpt lat="30.094472" lon="-99.25708" />
      <trkpt lat="30.093972" lon="-99.256599" />
      <trkpt lat="30.093843" lon="-99.25647" />
      <trkpt lat="30.093001" lon="-99.255664" />
      <trkpt lat="30.092538" lon="-99.255214" />
      <trkpt lat="30.092416" lon="-99.255096" />
      <trkpt lat="30.092106" lon="-99.254774" />
      <trkpt lat="30.09197" lon="-99.254644" />
      <trkpt lat="30.091872" lon="-99.254545" />
      <trkpt lat="30.091128" lon="-99.253847" />
      <trkpt lat="30.091062" lon="-99.253785" />
      <trkpt lat="30.090675" lon="-99.253422" />
      <trkpt lat="30.090603" lon="-99.253347" />
      <trkpt lat="30.090511" lon="-99.253251" />
      <trkpt lat="30.090432" lon="-99.253155" />
      <trkpt lat="30.090043" lon="-99.252682" />
      <trkpt lat="30.089669" lon="-99.252157" />
      <trkpt lat="30.08954" lon="-99.25195" />
      <trkpt lat="30.089402" lon="-99.251697" />
      <trkpt lat="30.088422" lon="-99.25013" />
      <trkpt lat="30.088277" lon="-99.24991" />
      <trkpt lat="30.08817" lon="-99.249762" />
      <trkpt lat="30.088103" lon="-99.249675" />
      <trkpt lat="30.087926" lon="-99.249461" />
      <trkpt lat="30.087772" lon="-99.249293" />
      <trkpt lat="30.087625" lon="-99.249121" />
      <trkpt lat="30.087192" lon="-99.248708" />
      <trkpt lat="30.086699" lon="-99.248253" />
      <trkpt lat="30.086179" lon="-99.247768" />
      <trkpt lat="30.085606" lon="-99.247238" />
      <trkpt lat="30.08439" lon="-99.246096" />
      <trkpt lat="30.084244" lon="-99.245961" />
      <trkpt lat="30.083973" lon="-99.245715" />
      <trkpt lat="30.083802" lon="-99.245551" />
      <trkpt lat="30.083727" lon="-99.245482" />
      <trkpt lat="30.083274" lon="-99.245062" />
      <trkpt lat="30.083001" lon="-99.244815" />
      <trkpt lat="30.082891" lon="-99.244708" />
      <trkpt lat="30.08262" lon="-99.244434" />
      <trkpt lat="30.082506" lon="-99.244323" />
      <trkpt lat="30.082384" lon="-99.244203" />
      <trkpt lat="30.082324" lon="-99.244154" />
      <trkpt lat="30.082208" lon="-99.244059" />
      <trkpt lat="30.082099" lon="-99.243969" />
      <trkpt lat="30.081984" lon="-99.243872" />
      <trkpt lat="30.081852" lon="-99.243771" />
      <trkpt lat="30.081535" lon="-99.243531" />
      <trkpt lat="30.080742" lon="-99.242929" />
      <trkpt lat="30.080206" lon="-99.242538" />
      <trkpt lat="30.079797" lon="-99.242221" />
      <trkpt lat="30.079106" lon="-99.241698" />
      <trkpt lat="30.078913" lon="-99.241553" />
      <trkpt lat="30.078381" lon="-99.241122" />
      <trkpt lat="30.077781" lon="-99.240655" />
      <trkpt lat="30.075932" lon="-99.239261" />
      <trkpt lat="30.075312" lon="-99.23871" />
      <trkpt lat="30.075152" lon="-99.238535" />
      <trkpt lat="30.075" lon="-99.238354" />
      <trkpt lat="30.074856" lon="-99.238167" />
      <trkpt lat="30.074721" lon="-99.237977" />
      <trkpt lat="30.074355" lon="-99.237366" />
      <trkpt lat="30.074317" lon="-99.237285" />
      <trkpt lat="30.074165" lon="-99.236969" />
      <trkpt lat="30.073961" lon="-99.236469" />
      <trkpt lat="30.07393" lon="-99.236427" />
      <trkpt lat="30.073871" lon="-99.236399" />
      <trkpt lat="30.073693" lon="-99.236363" />
      <trkpt lat="30.073726" lon="-99.237361" />
      <trkpt lat="30.073701" lon="-99.237922" />
      <trkpt lat="30.073696" lon="-99.238026" />
      <trkpt lat="30.073685" lon="-99.238206" />
      <trkpt lat="30.073681" lon="-99.238267" />
      <trkpt lat="30.073651" lon="-99.238516" />
      <trkpt lat="30.0736" lon="-99.238998" />
      <trkpt lat="30.073497" lon="-99.239532" />
      <trkpt lat="30.073483" lon="-99.239604" />
      <trkpt lat="30.073432" lon="-99.239904" />
      <trkpt lat="30.073395" lon="-99.240203" />
      <trkpt lat="30.073383" lon="-99.240451" />
      <trkpt lat="30.073373" lon="-99.240643" />
      <trkpt lat="30.073371" lon="-99.2408" />
      <trkpt lat="30.073365" lon="-99.241225" />
      <trkpt lat="30.073442" lon="-99.242469" />
      <trkpt lat="30.07344" lon="-99.242676" />
      <trkpt lat="30.073437" lon="-99.242862" />
      <trkpt lat="30.073428" lon="-99.243027" />
      <trkpt lat="30.073412" lon="-99.243211" />
      <trkpt lat="30.073348" lon="-99.243931" />
      <trkpt lat="30.073333" lon="-99.244156" />
      <trkpt lat="30.073306" lon="-99.244885" />
      <trkpt lat="30.073272" lon="-99.246337" />
      <trkpt lat="30.073263" lon="-99.246482" />
      <trkpt lat="30.073237" lon="-99.247437" />
      <trkpt lat="30.073228" lon="-99.247788" />
      <trkpt lat="30.073204" lon="-99.248048" />
      <trkpt lat="30.073186" lon="-99.248306" />
      <trkpt lat="30.073152" lon="-99.248607" />
      <trkpt lat="30.073081" lon="-99.248981" />
      <trkpt lat="30.072986" lon="-99.249371" />
      <trkpt lat="30.07292" lon="-99.249618" />
      <trkpt lat="30.07283" lon="-99.249874" />
      <trkpt lat="30.072745" lon="-99.250087" />
      <trkpt lat="30.072678" lon="-99.250254" />
      <trkpt lat="30.072428" lon="-99.250781" />
      <trkpt lat="30.071921" lon="-99.251668" />
      <trkpt lat="30.071764" lon="-99.251982" />
      <trkpt lat="30.071674" lon="-99.252185" />
      <trkpt lat="30.071583" lon="-99.252379" />
      <trkpt lat="30.071503" lon="-99.252622" />
      <trkpt lat="30.071374" lon="-99.25308" />
      <trkpt lat="30.071354" lon="-99.253161" />
      <trkpt lat="30.071318" lon="-99.253306" />
      <trkpt lat="30.071298" lon="-99.253395" />
      <trkpt lat="30.071266" lon="-99.253541" />
      <trkpt lat="30.071224" lon="-99.253772" />
      <trkpt lat="30.071192" lon="-99.254087" />
      <trkpt lat="30.071173" lon="-99.254356" />
      <trkpt lat="30.071139" lon="-99.254965" />
      <trkpt lat="30.071118" lon="-99.255314" />
      <trkpt lat="30.071096" lon="-99.255675" />
      <trkpt lat="30.071083" lon="-99.256468" />
      <trkpt lat="30.071076" lon="-99.256867" />
      <trkpt lat="30.071072" lon="-99.257092" />
      <trkpt lat="30.071073" lon="-99.257679" />
      <trkpt lat="30.071076" lon="-99.257796" />
      <trkpt lat="30.071079" lon="-99.25792" />
      <trkpt lat="30.07109" lon="-99.258123" />
      <trkpt lat="30.071132" lon="-99.258533" />
      <trkpt lat="30.071202" lon="-99.258985" />
      <trkpt lat="30.07127" lon="-99.25943" />
      <trkpt lat="30.071329" lon="-99.259752" />
      <trkpt lat="30.071374" lon="-99.25995" />
      <trkpt lat="30.071433" lon="-99.260136" />
      <trkpt lat="30.071549" lon="-99.260438" />
      <trkpt lat="30.071654" lon="-99.260698" />
      <trkpt lat="30.071744" lon="-99.260922" />
      <trkpt lat="30.071872" lon="-99.261267" />
      <trkpt lat="30.071997" lon="-99.261548" />
      <trkpt lat="30.072017" lon="-99.261579" />
      <trkpt lat="30.072107" lon="-99.261718" />
      <trkpt lat="30.072218" lon="-99.26186" />
      <trkpt lat="30.072394" lon="-99.262022" />
      <trkpt lat="30.072597" lon="-99.26217" />
      <trkpt lat="30.07298" lon="-99.262416" />
      <trkpt lat="30.073173" lon="-99.262572" />
      <trkpt lat="30.073195" lon="-99.262589" />
      <trkpt lat="30.07332" lon="-99.262727" />
      <trkpt lat="30.073439" lon="-99.262877" />
      <trkpt lat="30.073664" lon="-99.263254" />
      <trkpt lat="30.073747" lon="-99.263426" />
      <trkpt lat="30.073816" lon="-99.263622" />
      <trkpt lat="30.073867" lon="-99.263816" />
      <trkpt lat="30.073905" lon="-99.26403" />
      <trkpt lat="30.07396" lon="-99.264568" />
      <trkpt lat="30.073969" lon="-99.264773" />
      <trkpt lat="30.073958" lon="-99.265051" />
      <trkpt lat="30.073845" lon="-99.266212" />
      <trkpt lat="30.073788" lon="-99.2669" />
      <trkpt lat="30.073763" lon="-99.267195" />
      <trkpt lat="30.073657" lon="-99.268037" />
      <trkpt lat="30.073601" lon="-99.268631" />
      <trkpt lat="30.073437" lon="-99.27109" />
      <trkpt lat="30.073334" lon="-99.272231" />
      <trkpt lat="30.073258" lon="-99.27373" />
      <trkpt lat="30.073255" lon="-99.273796" />
      <trkpt lat="30.073217" lon="-99.274537" />
      <trkpt lat="30.073203" lon="-99.274812" />
      <trkpt lat="30.073174" lon="-99.275155" />
      <trkpt lat="30.073168" lon="-99.275224" />
      <trkpt lat="30.073113" lon="-99.275793" />
      <trkpt lat="30.073107" lon="-99.275853" />
      <trkpt lat="30.073071" lon="-99.276225" />
      <trkpt lat="30.072908" lon="-99.277859" />
      <trkpt lat="30.072884" lon="-99.278112" />
      <trkpt lat="30.07281" lon="-99.278901" />
      <trkpt lat="30.072727" lon="-99.280136" />
      <trkpt lat="30.072714" lon="-99.280321" />
      <trkpt lat="30.07268" lon="-99.280578" />
      <trkpt lat="30.07263" lon="-99.280781" />
      <trkpt lat="30.072562" lon="-99.280973" />
      <trkpt lat="30.072402" lon="-99.281336" />
      <trkpt lat="30.072084" lon="-99.2823" />
      <trkpt lat="30.071947" lon="-99.282715" />
      <trkpt lat="30.071899" lon="-99.282893" />
      <trkpt lat="30.071869" lon="-99.283034" />
      <trkpt lat="30.071851" lon="-99.283118" />
      <trkpt lat="30.07184" lon="-99.283196" />
      <trkpt lat="30.071823" lon="-99.283317" />
      <trkpt lat="30.071812" lon="-99.283389" />
      <trkpt lat="30.071788" lon="-99.283518" />
      <trkpt lat="30.071762" lon="-99.283706" />
      <trkpt lat="30.071725" lon="-99.283974" />
      <trkpt lat="30.071685" lon="-99.284205" />
      <trkpt lat="30.071644" lon="-99.28438" />
      <trkpt lat="30.071637" lon="-99.284411" />
      <trkpt lat="30.0716" lon="-99.284508" />
      <trkpt lat="30.071556" lon="-99.284625" />
      <trkpt lat="30.071525" lon="-99.284682" />
      <trkpt lat="30.071489" lon="-99.284751" />
      <trkpt lat="30.071367" lon="-99.284906" />
      <trkpt lat="30.071286" lon="-99.284973" />
      <trkpt lat="30.071163" lon="-99.285073" />
      <trkpt lat="30.071032" lon="-99.285145" />
      <trkpt lat="30.071015" lon="-99.285154" />
      <trkpt lat="30.070805" lon="-99.285218" />
      <trkpt lat="30.070054" lon="-99.285447" />
      <trkpt lat="30.069569" lon="-99.285565" />
      <trkpt lat="30.069118" lon="-99.285689" />
      <trkpt lat="30.06911" lon="-99.285693" />
      <trkpt lat="30.06903" lon="-99.28574" />
      <trkpt lat="30.068893" lon="-99.285863" />
      <trkpt lat="30.068854" lon="-99.28592" />
      <trkpt lat="30.068786" lon="-99.286022" />
      <trkpt lat="30.068703" lon="-99.286293" />
      <trkpt lat="30.068578" lon="-99.286889" />
      <trkpt lat="30.068529" lon="-99.287119" />
      <trkpt lat="30.068436" lon="-99.287525" />
      <trkpt lat="30.068356" lon="-99.287875" />
      <trkpt lat="30.068323" lon="-99.288096" />
      <trkpt lat="30.068292" lon="-99.288301" />
      <trkpt lat="30.068236" lon="-99.288693" />
      <trkpt lat="30.068208" lon="-99.28895" />
      <trkpt lat="30.068165" lon="-99.28928" />
      <trkpt lat="30.068129" lon="-99.28963" />
      <trkpt lat="30.068119" lon="-99.289733" />
      <trkpt lat="30.068108" lon="-99.289972" />
      <trkpt lat="30.068101" lon="-99.290319" />
      <trkpt lat="30.068121" lon="-99.290697" />
      <trkpt lat="30.068158" lon="-99.290908" />
      <trkpt lat="30.068182" lon="-99.291011" />
      <trkpt lat="30.068361" lon="-99.291697" />
      <trkpt lat="30.068863" lon="-99.293431" />
      <trkpt lat="30.069093" lon="-99.29402" />
      <trkpt lat="30.069271" lon="-99.294461" />
      <trkpt lat="30.069716" lon="-99.295599" />
      <trkpt lat="30.069893" lon="-99.296059" />
      <trkpt lat="30.069958" lon="-99.296262" />
      <trkpt lat="30.070221" lon="-99.297449" />
      <trkpt lat="30.070261" lon="-99.297608" />
      <trkpt lat="30.070299" lon="-99.297833" />
      <trkpt lat="30.070327" lon="-99.298056" />
      <trkpt lat="30.070343" lon="-99.298227" />
      <trkpt lat="30.070368" lon="-99.298595" />
      <trkpt lat="30.070375" lon="-99.298689" />
      <trkpt lat="30.070498" lon="-99.300916" />
      <trkpt lat="30.070472" lon="-99.301121" />
      <trkpt lat="30.070448" lon="-99.30121" />
      <trkpt lat="30.070419" lon="-99.301318" />
      <trkpt lat="30.070404" lon="-99.301361" />
      <trkpt lat="30.070159" lon="-99.302075" />
      <trkpt lat="30.069992" lon="-99.302651" />
      <trkpt lat="30.06995" lon="-99.302858" />
      <trkpt lat="30.069931" lon="-99.303001" />
      <trkpt lat="30.069921" lon="-99.303077" />
      <trkpt lat="30.069902" lon="-99.303306" />
      <trkpt lat="30.069889" lon="-99.303467" />
      <trkpt lat="30.06983" lon="-99.304077" />
      <trkpt lat="30.069777" lon="-99.304613" />
      <trkpt lat="30.069685" lon="-99.305482" />
      <trkpt lat="30.069665" lon="-99.305633" />
      <trkpt lat="30.069642" lon="-99.305769" />
      <trkpt lat="30.069615" lon="-99.305897" />
      <trkpt lat="30.069583" lon="-99.306024" />
      <trkpt lat="30.069534" lon="-99.306181" />
      <trkpt lat="30.069318" lon="-99.306849" />
      <trkpt lat="30.069126" lon="-99.307486" />
      <trkpt lat="30.069083" lon="-99.307634" />
      <trkpt lat="30.06906" lon="-99.307738" />
      <trkpt lat="30.069045" lon="-99.307836" />
      <trkpt lat="30.069031" lon="-99.307938" />
      <trkpt lat="30.069024" lon="-99.308036" />
      <trkpt lat="30.069026" lon="-99.308163" />
      <trkpt lat="30.069037" lon="-99.308311" />
      <trkpt lat="30.069059" lon="-99.308481" />
      <trkpt lat="30.069112" lon="-99.308892" />
      <trkpt lat="30.069269" lon="-99.310129" />
      <trkpt lat="30.069286" lon="-99.310265" />
      <trkpt lat="30.069339" lon="-99.310683" />
      <trkpt lat="30.069403" lon="-99.311189" />
      <trkpt lat="30.069765" lon="-99.313996" />
      <trkpt lat="30.069791" lon="-99.314206" />
      <trkpt lat="30.069807" lon="-99.314367" />
      <trkpt lat="30.069819" lon="-99.31453" />
      <trkpt lat="30.069827" lon="-99.31468" />
      <trkpt lat="30.069832" lon="-99.314809" />
      <trkpt lat="30.069836" lon="-99.314943" />
      <trkpt lat="30.069835" lon="-99.315758" />
      <trkpt lat="30.069835" lon="-99.315915" />
      <trkpt lat="30.069831" lon="-99.31606" />
      <trkpt lat="30.06982" lon="-99.316223" />
      <trkpt lat="30.069803" lon="-99.316397" />
      <trkpt lat="30.069773" lon="-99.316618" />
      <trkpt lat="30.06954" lon="-99.318152" />
      <trkpt lat="30.069524" lon="-99.318291" />
      <trkpt lat="30.069515" lon="-99.318435" />
      <trkpt lat="30.069511" lon="-99.318573" />
      <trkpt lat="30.069513" lon="-99.318711" />
      <trkpt lat="30.069515" lon="-99.31882" />
      <trkpt lat="30.069516" lon="-99.318865" />
      <trkpt lat="30.069523" lon="-99.318983" />
      <trkpt lat="30.069523" lon="-99.31899" />
      <trkpt lat="30.069579" lon="-99.31959" />
      <trkpt lat="30.069601" lon="-99.319818" />
      <trkpt lat="30.069659" lon="-99.320363" />
      <trkpt lat="30.069672" lon="-99.320522" />
      <trkpt lat="30.069676" lon="-99.320663" />
      <trkpt lat="30.069672" lon="-99.320792" />
      <trkpt lat="30.069662" lon="-99.320926" />
      <trkpt lat="30.069644" lon="-99.321036" />
      <trkpt lat="30.069619" lon="-99.321131" />
      <trkpt lat="30.069583" lon="-99.32125" />
      <trkpt lat="30.069539" lon="-99.321388" />
      <trkpt lat="30.06911" lon="-99.322598" />
      <trkpt lat="30.068999" lon="-99.322926" />
      <trkpt lat="30.068729" lon="-99.32371" />
      <trkpt lat="30.068664" lon="-99.323907" />
      <trkpt lat="30.068623" lon="-99.324051" />
      <trkpt lat="30.068591" lon="-99.324192" />
      <trkpt lat="30.068572" lon="-99.324323" />
      <trkpt lat="30.068564" lon="-99.324455" />
      <trkpt lat="30.068565" lon="-99.324607" />
      <trkpt lat="30.06858" lon="-99.324774" />
      <trkpt lat="30.068599" lon="-99.324911" />
      <trkpt lat="30.068627" lon="-99.325037" />
      <trkpt lat="30.068657" lon="-99.32515" />
      <trkpt lat="30.068781" lon="-99.325516" />
      <trkpt lat="30.068886" lon="-99.325828" />
      <trkpt lat="30.069326" lon="-99.327076" />
      <trkpt lat="30.069491" lon="-99.32756" />
      <trkpt lat="30.069559" lon="-99.327777" />
      <trkpt lat="30.069626" lon="-99.328" />
      <trkpt lat="30.069672" lon="-99.328172" />
      <trkpt lat="30.069713" lon="-99.328344" />
      <trkpt lat="30.069754" lon="-99.328534" />
      <trkpt lat="30.069879" lon="-99.329222" />
      <trkpt lat="30.070015" lon="-99.329996" />
      <trkpt lat="30.070018" lon="-99.330012" />
      <trkpt lat="30.070056" lon="-99.330238" />
      <trkpt lat="30.070084" lon="-99.330444" />
      <trkpt lat="30.070101" lon="-99.330606" />
      <trkpt lat="30.070114" lon="-99.33075" />
      <trkpt lat="30.070123" lon="-99.330902" />
      <trkpt lat="30.070126" lon="-99.331054" />
      <trkpt lat="30.070129" lon="-99.331178" />
      <trkpt lat="30.070133" lon="-99.33143" />
      <trkpt lat="30.070141" lon="-99.331675" />
      <trkpt lat="30.070169" lon="-99.332672" />
      <trkpt lat="30.07017" lon="-99.33275" />
      <trkpt lat="30.07017" lon="-99.332815" />
      <trkpt lat="30.070168" lon="-99.332885" />
      <trkpt lat="30.070158" lon="-99.333004" />
      <trkpt lat="30.070144" lon="-99.333115" />
      <trkpt lat="30.07012" lon="-99.333253" />
      <trkpt lat="30.070096" lon="-99.33336" />
      <trkpt lat="30.070061" lon="-99.33348" />
      <trkpt lat="30.069998" lon="-99.333666" />
      <trkpt lat="30.069945" lon="-99.333791" />
      <trkpt lat="30.069894" lon="-99.333896" />
      <trkpt lat="30.069829" lon="-99.334005" />
      <trkpt lat="30.069689" lon="-99.334204" />
      <trkpt lat="30.068972" lon="-99.335078" />
      <trkpt lat="30.068937" lon="-99.335121" />
      <trkpt lat="30.068737" lon="-99.335347" />
      <trkpt lat="30.068563" lon="-99.335538" />
      <trkpt lat="30.068868" lon="-99.336398" />
      <trkpt lat="30.069104" lon="-99.337105" />
      <trkpt lat="30.069762" lon="-99.336848" />
      <trkpt lat="30.070136" lon="-99.336745" />
      <trkpt lat="30.070508" lon="-99.3366" />
      <trkpt lat="30.070254" lon="-99.335855" />
      <trkpt lat="30.069689" lon="-99.334204" />
      <trkpt lat="30.069829" lon="-99.334005" />
      <trkpt lat="30.069894" lon="-99.333896" />
      <trkpt lat="30.069945" lon="-99.333791" />
      <trkpt lat="30.069998" lon="-99.333666" />
      <trkpt lat="30.070061" lon="-99.33348" />
      <trkpt lat="30.070096" lon="-99.33336" />
      <trkpt lat="30.07012" lon="-99.333253" />
      <trkpt lat="30.070144" lon="-99.333115" />
      <trkpt lat="30.070158" lon="-99.333004" />
      <trkpt lat="30.070168" lon="-99.332885" />
      <trkpt lat="30.07017" lon="-99.332815" />
      <trkpt lat="30.07017" lon="-99.33275" />
      <trkpt lat="30.070169" lon="-99.332672" />
      <trkpt lat="30.070141" lon="-99.331675" />
      <trkpt lat="30.070133" lon="-99.33143" />
      <trkpt lat="30.070129" lon="-99.331178" />
      <trkpt lat="30.070126" lon="-99.331054" />
      <trkpt lat="30.070123" lon="-99.330902" />
      <trkpt lat="30.070114" lon="-99.33075" />
      <trkpt lat="30.070101" lon="-99.330606" />
      <trkpt lat="30.070084" lon="-99.330444" />
      <trkpt lat="30.070056" lon="-99.330238" />
      <trkpt lat="30.070018" lon="-99.330012" />
      <trkpt lat="30.069879" lon="-99.329222" />
      <trkpt lat="30.069754" lon="-99.328534" />
      <trkpt lat="30.069713" lon="-99.328344" />
      <trkpt lat="30.069672" lon="-99.328172" />
      <trkpt lat="30.069626" lon="-99.328" />
      <trkpt lat="30.069559" lon="-99.327777" />
      <trkpt lat="30.069491" lon="-99.32756" />
      <trkpt lat="30.069326" lon="-99.327076" />
      <trkpt lat="30.068886" lon="-99.325828" />
      <trkpt lat="30.068781" lon="-99.325516" />
      <trkpt lat="30.068657" lon="-99.32515" />
      <trkpt lat="30.068627" lon="-99.325037" />
      <trkpt lat="30.068599" lon="-99.324911" />
      <trkpt lat="30.06858" lon="-99.324774" />
      <trkpt lat="30.068565" lon="-99.324607" />
      <trkpt lat="30.068564" lon="-99.324455" />
      <trkpt lat="30.068572" lon="-99.324323" />
      <trkpt lat="30.068591" lon="-99.324192" />
      <trkpt lat="30.068623" lon="-99.324051" />
      <trkpt lat="30.068664" lon="-99.323907" />
      <trkpt lat="30.068729" lon="-99.32371" />
      <trkpt lat="30.068999" lon="-99.322926" />
      <trkpt lat="30.06911" lon="-99.322598" />
      <trkpt lat="30.069539" lon="-99.321388" />
      <trkpt lat="30.069583" lon="-99.32125" />
      <trkpt lat="30.069619" lon="-99.321131" />
      <trkpt lat="30.069644" lon="-99.321036" />
      <trkpt lat="30.069662" lon="-99.320926" />
      <trkpt lat="30.069672" lon="-99.320792" />
      <trkpt lat="30.069676" lon="-99.320663" />
      <trkpt lat="30.069672" lon="-99.320522" />
      <trkpt lat="30.069659" lon="-99.320363" />
      <trkpt lat="30.069601" lon="-99.319818" />
      <trkpt lat="30.069579" lon="-99.31959" />
      <trkpt lat="30.069523" lon="-99.31899" />
      <trkpt lat="30.069523" lon="-99.318983" />
      <trkpt lat="30.069516" lon="-99.318865" />
      <trkpt lat="30.069515" lon="-99.31882" />
      <trkpt lat="30.069513" lon="-99.318711" />
      <trkpt lat="30.069511" lon="-99.318573" />
      <trkpt lat="30.069515" lon="-99.318435" />
      <trkpt lat="30.069524" lon="-99.318291" />
      <trkpt lat="30.06954" lon="-99.318152" />
      <trkpt lat="30.069773" lon="-99.316618" />
      <trkpt lat="30.069803" lon="-99.316397" />
      <trkpt lat="30.06982" lon="-99.316223" />
      <trkpt lat="30.069831" lon="-99.31606" />
      <trkpt lat="30.069835" lon="-99.315915" />
      <trkpt lat="30.069835" lon="-99.315758" />
      <trkpt lat="30.069836" lon="-99.314943" />
      <trkpt lat="30.069832" lon="-99.314809" />
      <trkpt lat="30.069827" lon="-99.31468" />
      <trkpt lat="30.069819" lon="-99.31453" />
      <trkpt lat="30.069807" lon="-99.314367" />
      <trkpt lat="30.069791" lon="-99.314206" />
      <trkpt lat="30.069765" lon="-99.313996" />
      <trkpt lat="30.069403" lon="-99.311189" />
      <trkpt lat="30.069339" lon="-99.310683" />
      <trkpt lat="30.069286" lon="-99.310265" />
      <trkpt lat="30.069269" lon="-99.310129" />
      <trkpt lat="30.069112" lon="-99.308892" />
      <trkpt lat="30.069059" lon="-99.308481" />
      <trkpt lat="30.069037" lon="-99.308311" />
      <trkpt lat="30.069026" lon="-99.308163" />
      <trkpt lat="30.069024" lon="-99.308036" />
      <trkpt lat="30.069031" lon="-99.307938" />
      <trkpt lat="30.069045" lon="-99.307836" />
      <trkpt lat="30.06906" lon="-99.307738" />
      <trkpt lat="30.069083" lon="-99.307634" />
      <trkpt lat="30.069126" lon="-99.307486" />
      <trkpt lat="30.069318" lon="-99.306849" />
      <trkpt lat="30.069534" lon="-99.306181" />
      <trkpt lat="30.069583" lon="-99.306024" />
      <trkpt lat="30.069615" lon="-99.305897" />
      <trkpt lat="30.069642" lon="-99.305769" />
      <trkpt lat="30.069665" lon="-99.305633" />
      <trkpt lat="30.069685" lon="-99.305482" />
      <trkpt lat="30.069777" lon="-99.304613" />
      <trkpt lat="30.06983" lon="-99.304077" />
      <trkpt lat="30.069889" lon="-99.303467" />
      <trkpt lat="30.069902" lon="-99.303306" />
      <trkpt lat="30.069921" lon="-99.303077" />
      <trkpt lat="30.069931" lon="-99.303001" />
      <trkpt lat="30.06995" lon="-99.302858" />
      <trkpt lat="30.069992" lon="-99.302651" />
      <trkpt lat="30.070159" lon="-99.302075" />
      <trkpt lat="30.070404" lon="-99.301361" />
      <trkpt lat="30.070419" lon="-99.301318" />
      <trkpt lat="30.070448" lon="-99.30121" />
      <trkpt lat="30.070472" lon="-99.301121" />
      <trkpt lat="30.070498" lon="-99.300916" />
      <trkpt lat="30.070375" lon="-99.298689" />
      <trkpt lat="30.070368" lon="-99.298595" />
      <trkpt lat="30.070343" lon="-99.298227" />
      <trkpt lat="30.070327" lon="-99.298056" />
      <trkpt lat="30.070299" lon="-99.297833" />
      <trkpt lat="30.070261" lon="-99.297608" />
      <trkpt lat="30.070221" lon="-99.297449" />
      <trkpt lat="30.069958" lon="-99.296262" />
      <trkpt lat="30.069893" lon="-99.296059" />
      <trkpt lat="30.069716" lon="-99.295599" />
      <trkpt lat="30.069271" lon="-99.294461" />
      <trkpt lat="30.069093" lon="-99.29402" />
      <trkpt lat="30.068863" lon="-99.293431" />
      <trkpt lat="30.068361" lon="-99.291697" />
      <trkpt lat="30.068182" lon="-99.291011" />
      <trkpt lat="30.068158" lon="-99.290908" />
      <trkpt lat="30.068121" lon="-99.290697" />
      <trkpt lat="30.068101" lon="-99.290319" />
      <trkpt lat="30.068108" lon="-99.289972" />
      <trkpt lat="30.068119" lon="-99.289733" />
      <trkpt lat="30.068129" lon="-99.28963" />
      <trkpt lat="30.068165" lon="-99.28928" />
      <trkpt lat="30.068208" lon="-99.28895" />
      <trkpt lat="30.068236" lon="-99.288693" />
      <trkpt lat="30.068292" lon="-99.288301" />
      <trkpt lat="30.068323" lon="-99.288096" />
      <trkpt lat="30.068356" lon="-99.287875" />
      <trkpt lat="30.068436" lon="-99.287525" />
      <trkpt lat="30.068529" lon="-99.287119" />
      <trkpt lat="30.068578" lon="-99.286889" />
      <trkpt lat="30.068703" lon="-99.286293" />
      <trkpt lat="30.068786" lon="-99.286022" />
      <trkpt lat="30.068854" lon="-99.28592" />
      <trkpt lat="30.068893" lon="-99.285863" />
      <trkpt lat="30.06903" lon="-99.28574" />
      <trkpt lat="30.06911" lon="-99.285693" />
      <trkpt lat="30.069118" lon="-99.285689" />
      <trkpt lat="30.069569" lon="-99.285565" />
      <trkpt lat="30.070054" lon="-99.285447" />
      <trkpt lat="30.070805" lon="-99.285218" />
      <trkpt lat="30.071015" lon="-99.285154" />
      <trkpt lat="30.071032" lon="-99.285145" />
      <trkpt lat="30.071163" lon="-99.285073" />
      <trkpt lat="30.071286" lon="-99.284973" />
      <trkpt lat="30.071367" lon="-99.284906" />
      <trkpt lat="30.071489" lon="-99.284751" />
      <trkpt lat="30.071525" lon="-99.284682" />
      <trkpt lat="30.071556" lon="-99.284625" />
      <trkpt lat="30.0716" lon="-99.284508" />
      <trkpt lat="30.071637" lon="-99.284411" />
      <trkpt lat="30.071644" lon="-99.28438" />
      <trkpt lat="30.071685" lon="-99.284205" />
      <trkpt lat="30.071725" lon="-99.283974" />
      <trkpt lat="30.071762" lon="-99.283706" />
      <trkpt lat="30.071788" lon="-99.283518" />
      <trkpt lat="30.071812" lon="-99.283389" />
      <trkpt lat="30.071823" lon="-99.283317" />
      <trkpt lat="30.07184" lon="-99.283196" />
      <trkpt lat="30.071851" lon="-99.283118" />
      <trkpt lat="30.071869" lon="-99.283034" />
      <trkpt lat="30.071899" lon="-99.282893" />
      <trkpt lat="30.071947" lon="-99.282715" />
      <trkpt lat="30.072084" lon="-99.2823" />
      <trkpt lat="30.072402" lon="-99.281336" />
      <trkpt lat="30.072562" lon="-99.280973" />
      <trkpt lat="30.07263" lon="-99.280781" />
      <trkpt lat="30.07268" lon="-99.280578" />
      <trkpt lat="30.072714" lon="-99.280321" />
      <trkpt lat="30.072727" lon="-99.280136" />
      <trkpt lat="30.07281" lon="-99.278901" />
      <trkpt lat="30.072884" lon="-99.278112" />
      <trkpt lat="30.072908" lon="-99.277859" />
      <trkpt lat="30.073071" lon="-99.276225" />
      <trkpt lat="30.073107" lon="-99.275853" />
      <trkpt lat="30.073113" lon="-99.275793" />
      <trkpt lat="30.073168" lon="-99.275224" />
      <trkpt lat="30.073174" lon="-99.275155" />
      <trkpt lat="30.073203" lon="-99.274812" />
      <trkpt lat="30.073217" lon="-99.274537" />
      <trkpt lat="30.073255" lon="-99.273796" />
      <trkpt lat="30.073258" lon="-99.27373" />
      <trkpt lat="30.073334" lon="-99.272231" />
      <trkpt lat="30.073437" lon="-99.27109" />
      <trkpt lat="30.073601" lon="-99.268631" />
      <trkpt lat="30.073657" lon="-99.268037" />
      <trkpt lat="30.073763" lon="-99.267195" />
      <trkpt lat="30.073788" lon="-99.2669" />
      <trkpt lat="30.073845" lon="-99.266212" />
      <trkpt lat="30.073958" lon="-99.265051" />
      <trkpt lat="30.073969" lon="-99.264773" />
      <trkpt lat="30.07396" lon="-99.264568" />
      <trkpt lat="30.073905" lon="-99.26403" />
      <trkpt lat="30.073867" lon="-99.263816" />
      <trkpt lat="30.073816" lon="-99.263622" />
      <trkpt lat="30.073747" lon="-99.263426" />
      <trkpt lat="30.073664" lon="-99.263254" />
      <trkpt lat="30.073439" lon="-99.262877" />
      <trkpt lat="30.07332" lon="-99.262727" />
      <trkpt lat="30.073195" lon="-99.262589" />
      <trkpt lat="30.073173" lon="-99.262572" />
      <trkpt lat="30.07298" lon="-99.262416" />
      <trkpt lat="30.072597" lon="-99.26217" />
      <trkpt lat="30.072394" lon="-99.262022" />
      <trkpt lat="30.072218" lon="-99.26186" />
      <trkpt lat="30.072107" lon="-99.261718" />
      <trkpt lat="30.072017" lon="-99.261579" />
      <trkpt lat="30.071997" lon="-99.261548" />
      <trkpt lat="30.071872" lon="-99.261267" />
      <trkpt lat="30.071744" lon="-99.260922" />
      <trkpt lat="30.071654" lon="-99.260698" />
      <trkpt lat="30.071549" lon="-99.260438" />
      <trkpt lat="30.071433" lon="-99.260136" />
      <trkpt lat="30.071374" lon="-99.25995" />
      <trkpt lat="30.071329" lon="-99.259752" />
      <trkpt lat="30.07127" lon="-99.25943" />
      <trkpt lat="30.071202" lon="-99.258985" />
      <trkpt lat="30.071132" lon="-99.258533" />
      <trkpt lat="30.07109" lon="-99.258123" />
      <trkpt lat="30.071079" lon="-99.25792" />
      <trkpt lat="30.071076" lon="-99.257796" />
      <trkpt lat="30.071073" lon="-99.257679" />
      <trkpt lat="30.071072" lon="-99.257092" />
      <trkpt lat="30.071076" lon="-99.256867" />
      <trkpt lat="30.071083" lon="-99.256468" />
      <trkpt lat="30.071096" lon="-99.255675" />
      <trkpt lat="30.071118" lon="-99.255314" />
      <trkpt lat="30.071139" lon="-99.254965" />
      <trkpt lat="30.071173" lon="-99.254356" />
      <trkpt lat="30.071192" lon="-99.254087" />
      <trkpt lat="30.071224" lon="-99.253772" />
      <trkpt lat="30.071266" lon="-99.253541" />
      <trkpt lat="30.071298" lon="-99.253395" />
      <trkpt lat="30.071318" lon="-99.253306" />
      <trkpt lat="30.071354" lon="-99.253161" />
      <trkpt lat="30.071374" lon="-99.25308" />
      <trkpt lat="30.071503" lon="-99.252622" />
      <trkpt lat="30.071583" lon="-99.252379" />
      <trkpt lat="30.071674" lon="-99.252185" />
      <trkpt lat="30.071764" lon="-99.251982" />
      <trkpt lat="30.071921" lon="-99.251668" />
      <trkpt lat="30.072428" lon="-99.250781" />
      <trkpt lat="30.072678" lon="-99.250254" />
      <trkpt lat="30.072745" lon="-99.250087" />
      <trkpt lat="30.07283" lon="-99.249874" />
      <trkpt lat="30.07292" lon="-99.249618" />
      <trkpt lat="30.072986" lon="-99.249371" />
      <trkpt lat="30.073081" lon="-99.248981" />
      <trkpt lat="30.073152" lon="-99.248607" />
      <trkpt lat="30.073186" lon="-99.248306" />
      <trkpt lat="30.073204" lon="-99.248048" />
      <trkpt lat="30.073228" lon="-99.247788" />
      <trkpt lat="30.073237" lon="-99.247437" />
      <trkpt lat="30.073263" lon="-99.246482" />
      <trkpt lat="30.073272" lon="-99.246337" />
      <trkpt lat="30.073306" lon="-99.244885" />
      <trkpt lat="30.073333" lon="-99.244156" />
      <trkpt lat="30.073348" lon="-99.243931" />
      <trkpt lat="30.073412" lon="-99.243211" />
      <trkpt lat="30.073428" lon="-99.243027" />
      <trkpt lat="30.073437" lon="-99.242862" />
      <trkpt lat="30.07344" lon="-99.242676" />
      <trkpt lat="30.073442" lon="-99.242469" />
      <trkpt lat="30.073365" lon="-99.241225" />
      <trkpt lat="30.073371" lon="-99.2408" />
      <trkpt lat="30.073373" lon="-99.240643" />
      <trkpt lat="30.073383" lon="-99.240451" />
      <trkpt lat="30.073395" lon="-99.240203" />
      <trkpt lat="30.073432" lon="-99.239904" />
      <trkpt lat="30.073483" lon="-99.239604" />
      <trkpt lat="30.073497" lon="-99.239532" />
      <trkpt lat="30.0736" lon="-99.238998" />
      <trkpt lat="30.073651" lon="-99.238516" />
      <trkpt lat="30.073681" lon="-99.238267" />
      <trkpt lat="30.073685" lon="-99.238206" />
      <trkpt lat="30.073696" lon="-99.238026" />
      <trkpt lat="30.073701" lon="-99.237922" />
      <trkpt lat="30.073726" lon="-99.237361" />
      <trkpt lat="30.073693" lon="-99.236363" />
      <trkpt lat="30.073671" lon="-99.235878" />
      <trkpt lat="30.073655" lon="-99.235531" />
      <trkpt lat="30.073649" lon="-99.235406" />
      <trkpt lat="30.073645" lon="-99.23531" />
      <trkpt lat="30.073637" lon="-99.235139" />
      <trkpt lat="30.073614" lon="-99.234615" />
      <trkpt lat="30.073605" lon="-99.234416" />
      <trkpt lat="30.073589" lon="-99.234068" />
      <trkpt lat="30.073578" lon="-99.233884" />
      <trkpt lat="30.073571" lon="-99.233775" />
      <trkpt lat="30.073567" lon="-99.233706" />
      <trkpt lat="30.073554" lon="-99.233489" />
      <trkpt lat="30.073536" lon="-99.233198" />
      <trkpt lat="30.073534" lon="-99.233171" />
      <trkpt lat="30.073514" lon="-99.232775" />
      <trkpt lat="30.073497" lon="-99.232417" />
      <trkpt lat="30.073459" lon="-99.231643" />
      <trkpt lat="30.073452" lon="-99.231497" />
      <trkpt lat="30.073396" lon="-99.230353" />
      <trkpt lat="30.073376" lon="-99.229954" />
      <trkpt lat="30.073371" lon="-99.229829" />
      <trkpt lat="30.073361" lon="-99.229551" />
      <trkpt lat="30.073352" lon="-99.229303" />
      <trkpt lat="30.073342" lon="-99.229029" />
      <trkpt lat="30.073327" lon="-99.228599" />
      <trkpt lat="30.073321" lon="-99.228449" />
      <trkpt lat="30.073313" lon="-99.228213" />
      <trkpt lat="30.073301" lon="-99.227893" />
      <trkpt lat="30.073279" lon="-99.226789" />
      <trkpt lat="30.073274" lon="-99.226556" />
      <trkpt lat="30.073266" lon="-99.226367" />
      <trkpt lat="30.073241" lon="-99.225798" />
      <trkpt lat="30.073228" lon="-99.225505" />
      <trkpt lat="30.073219" lon="-99.225292" />
      <trkpt lat="30.073214" lon="-99.225185" />
      <trkpt lat="30.073198" lon="-99.224893" />
      <trkpt lat="30.073188" lon="-99.224696" />
      <trkpt lat="30.073165" lon="-99.224276" />
      <trkpt lat="30.073162" lon="-99.224211" />
      <trkpt lat="30.073148" lon="-99.223885" />
      <trkpt lat="30.073084" lon="-99.222516" />
      <trkpt lat="30.073031" lon="-99.221404" />
      <trkpt lat="30.073006" lon="-99.220858" />
      <trkpt lat="30.072969" lon="-99.220089" />
      <trkpt lat="30.072935" lon="-99.219361" />
      <trkpt lat="30.072903" lon="-99.218691" />
      <trkpt lat="30.072868" lon="-99.217972" />
      <trkpt lat="30.072865" lon="-99.217892" />
      <trkpt lat="30.072853" lon="-99.217495" />
      <trkpt lat="30.072843" lon="-99.217295" />
      <trkpt lat="30.072817" lon="-99.216756" />
      <trkpt lat="30.072795" lon="-99.216295" />
      <trkpt lat="30.072757" lon="-99.215558" />
      <trkpt lat="30.072744" lon="-99.215324" />
      <trkpt lat="30.072713" lon="-99.214681" />
      <trkpt lat="30.07271" lon="-99.21461" />
      <trkpt lat="30.072698" lon="-99.214395" />
      <trkpt lat="30.072688" lon="-99.214163" />
      <trkpt lat="30.072681" lon="-99.214032" />
      <trkpt lat="30.072668" lon="-99.213798" />
      <trkpt lat="30.072647" lon="-99.213415" />
      <trkpt lat="30.07263" lon="-99.213074" />
      <trkpt lat="30.072609" lon="-99.21262" />
      <trkpt lat="30.072569" lon="-99.211696" />
      <trkpt lat="30.072485" lon="-99.210074" />
      <trkpt lat="30.072481" lon="-99.209988" />
      <trkpt lat="30.072467" lon="-99.209685" />
      <trkpt lat="30.072462" lon="-99.209589" />
      <trkpt lat="30.072454" lon="-99.209405" />
      <trkpt lat="30.072411" lon="-99.208501" />
      <trkpt lat="30.072387" lon="-99.208076" />
      <trkpt lat="30.072368" lon="-99.207668" />
      <trkpt lat="30.072367" lon="-99.207519" />
      <trkpt lat="30.072365" lon="-99.207369" />
      <trkpt lat="30.072366" lon="-99.207108" />
      <trkpt lat="30.072372" lon="-99.206855" />
      <trkpt lat="30.072388" lon="-99.206534" />
      <trkpt lat="30.072407" lon="-99.206279" />
      <trkpt lat="30.072414" lon="-99.206204" />
      <trkpt lat="30.072435" lon="-99.205964" />
      <trkpt lat="30.072464" lon="-99.205666" />
      <trkpt lat="30.072504" lon="-99.205357" />
      <trkpt lat="30.072528" lon="-99.20518" />
      <trkpt lat="30.072651" lon="-99.204337" />
      <trkpt lat="30.072704" lon="-99.20398" />
      <trkpt lat="30.072767" lon="-99.203548" />
      <trkpt lat="30.072879" lon="-99.202736" />
      <trkpt lat="30.073" lon="-99.20189" />
      <trkpt lat="30.07314" lon="-99.200949" />
      <trkpt lat="30.073189" lon="-99.200619" />
      <trkpt lat="30.073219" lon="-99.200404" />
      <trkpt lat="30.073284" lon="-99.199952" />
      <trkpt lat="30.073338" lon="-99.199591" />
      <trkpt lat="30.073416" lon="-99.199045" />
      <trkpt lat="30.073479" lon="-99.198617" />
      <trkpt lat="30.073527" lon="-99.198289" />
      <trkpt lat="30.073559" lon="-99.198065" />
      <trkpt lat="30.073647" lon="-99.197461" />
      <trkpt lat="30.073704" lon="-99.197044" />
      <trkpt lat="30.073735" lon="-99.196768" />
      <trkpt lat="30.073752" lon="-99.196568" />
      <trkpt lat="30.073759" lon="-99.196481" />
      <trkpt lat="30.073777" lon="-99.196204" />
      <trkpt lat="30.073781" lon="-99.195956" />
      <trkpt lat="30.073777" lon="-99.195734" />
      <trkpt lat="30.07376" lon="-99.19548" />
      <trkpt lat="30.073738" lon="-99.195221" />
      <trkpt lat="30.073734" lon="-99.195196" />
      <trkpt lat="30.073716" lon="-99.195058" />
      <trkpt lat="30.073704" lon="-99.194974" />
      <trkpt lat="30.07366" lon="-99.194737" />
      <trkpt lat="30.073605" lon="-99.194487" />
      <trkpt lat="30.073569" lon="-99.194335" />
      <trkpt lat="30.07355" lon="-99.194256" />
      <trkpt lat="30.073486" lon="-99.19403" />
      <trkpt lat="30.073405" lon="-99.193778" />
      <trkpt lat="30.073327" lon="-99.193558" />
      <trkpt lat="30.073258" lon="-99.193392" />
      <trkpt lat="30.073164" lon="-99.193171" />
      <trkpt lat="30.07304" lon="-99.192905" />
      <trkpt lat="30.072898" lon="-99.192617" />
      <trkpt lat="30.07267" lon="-99.192161" />
      <trkpt lat="30.072606" lon="-99.192026" />
      <trkpt lat="30.072043" lon="-99.190843" />
      <trkpt lat="30.071832" lon="-99.190388" />
      <trkpt lat="30.071643" lon="-99.189981" />
      <trkpt lat="30.07148" lon="-99.189628" />
      <trkpt lat="30.071348" lon="-99.189362" />
      <trkpt lat="30.071191" lon="-99.189043" />
      <trkpt lat="30.070911" lon="-99.188477" />
      <trkpt lat="30.070805" lon="-99.188259" />
      <trkpt lat="30.070567" lon="-99.187773" />
      <trkpt lat="30.070485" lon="-99.187606" />
      <trkpt lat="30.07039" lon="-99.18741" />
      <trkpt lat="30.07026" lon="-99.187143" />
      <trkpt lat="30.070167" lon="-99.186954" />
      <trkpt lat="30.070122" lon="-99.18686" />
      <trkpt lat="30.070067" lon="-99.18675" />
      <trkpt lat="30.070024" lon="-99.186664" />
      <trkpt lat="30.069747" lon="-99.186107" />
      <trkpt lat="30.069685" lon="-99.18598" />
      <trkpt lat="30.068892" lon="-99.18437" />
      <trkpt lat="30.068761" lon="-99.184103" />
      <trkpt lat="30.068684" lon="-99.183939" />
      <trkpt lat="30.068502" lon="-99.18356" />
      <trkpt lat="30.068301" lon="-99.183151" />
      <trkpt lat="30.068063" lon="-99.182678" />
      <trkpt lat="30.067779" lon="-99.182116" />
      <trkpt lat="30.067603" lon="-99.181761" />
      <trkpt lat="30.067429" lon="-99.181412" />
      <trkpt lat="30.067409" lon="-99.181372" />
      <trkpt lat="30.067271" lon="-99.181104" />
      <trkpt lat="30.067225" lon="-99.181014" />
      <trkpt lat="30.067172" lon="-99.180907" />
      <trkpt lat="30.067142" lon="-99.180848" />
      <trkpt lat="30.067035" lon="-99.180638" />
      <trkpt lat="30.066902" lon="-99.180369" />
      <trkpt lat="30.066866" lon="-99.180298" />
      <trkpt lat="30.066726" lon="-99.180018" />
      <trkpt lat="30.066661" lon="-99.179891" />
      <trkpt lat="30.066597" lon="-99.179762" />
      <trkpt lat="30.066483" lon="-99.179537" />
      <trkpt lat="30.066366" lon="-99.179299" />
      <trkpt lat="30.065709" lon="-99.177969" />
      <trkpt lat="30.065578" lon="-99.177703" />
      <trkpt lat="30.065437" lon="-99.177418" />
      <trkpt lat="30.064904" lon="-99.176337" />
      <trkpt lat="30.064793" lon="-99.176117" />
      <trkpt lat="30.064716" lon="-99.175965" />
      <trkpt lat="30.064616" lon="-99.17575" />
      <trkpt lat="30.064508" lon="-99.175545" />
      <trkpt lat="30.064478" lon="-99.175486" />
      <trkpt lat="30.064347" lon="-99.175227" />
      <trkpt lat="30.064287" lon="-99.175113" />
      <trkpt lat="30.064257" lon="-99.175055" />
      <trkpt lat="30.06409" lon="-99.174735" />
      <trkpt lat="30.063802" lon="-99.174152" />
      <trkpt lat="30.063727" lon="-99.174" />
      <trkpt lat="30.063594" lon="-99.173731" />
      <trkpt lat="30.0635" lon="-99.173539" />
      <trkpt lat="30.06343" lon="-99.173397" />
      <trkpt lat="30.063253" lon="-99.173035" />
      <trkpt lat="30.06323" lon="-99.172987" />
      <trkpt lat="30.063138" lon="-99.172799" />
      <trkpt lat="30.062983" lon="-99.172482" />
      <trkpt lat="30.062778" lon="-99.172056" />
      <trkpt lat="30.062436" lon="-99.171344" />
      <trkpt lat="30.062254" lon="-99.170966" />
      <trkpt lat="30.062206" lon="-99.170869" />
      <trkpt lat="30.061768" lon="-99.16998" />
      <trkpt lat="30.060804" lon="-99.168042" />
      <trkpt lat="30.060477" lon="-99.167389" />
      <trkpt lat="30.060258" lon="-99.166966" />
      <trkpt lat="30.060227" lon="-99.166901" />
      <trkpt lat="30.059981" lon="-99.1664" />
      <trkpt lat="30.05955" lon="-99.165501" />
      <trkpt lat="30.05952" lon="-99.165438" />
      <trkpt lat="30.059131" lon="-99.164627" />
      <trkpt lat="30.05908" lon="-99.164527" />
      <trkpt lat="30.058961" lon="-99.164294" />
      <trkpt lat="30.058789" lon="-99.163933" />
      <trkpt lat="30.058699" lon="-99.163744" />
      <trkpt lat="30.058669" lon="-99.163682" />
      <trkpt lat="30.058482" lon="-99.163301" />
      <trkpt lat="30.05836" lon="-99.163051" />
      <trkpt lat="30.05816" lon="-99.162643" />
      <trkpt lat="30.058099" lon="-99.162518" />
      <trkpt lat="30.057914" lon="-99.162144" />
      <trkpt lat="30.057731" lon="-99.161772" />
      <trkpt lat="30.057668" lon="-99.161646" />
      <trkpt lat="30.057554" lon="-99.161414" />
      <trkpt lat="30.057516" lon="-99.161336" />
      <trkpt lat="30.057372" lon="-99.161045" />
      <trkpt lat="30.057336" lon="-99.160971" />
      <trkpt lat="30.057086" lon="-99.160465" />
      <trkpt lat="30.057002" lon="-99.160293" />
      <trkpt lat="30.056852" lon="-99.159989" />
      <trkpt lat="30.056727" lon="-99.159736" />
      <trkpt lat="30.056509" lon="-99.159293" />
      <trkpt lat="30.056398" lon="-99.159064" />
      <trkpt lat="30.056293" lon="-99.158857" />
      <trkpt lat="30.056105" lon="-99.158473" />
      <trkpt lat="30.05598" lon="-99.158217" />
      <trkpt lat="30.055893" lon="-99.158025" />
      <trkpt lat="30.055741" lon="-99.157678" />
      <trkpt lat="30.055677" lon="-99.157442" />
      <trkpt lat="30.055646" lon="-99.157331" />
      <trkpt lat="30.055611" lon="-99.157204" />
      <trkpt lat="30.055582" lon="-99.157109" />
      <trkpt lat="30.055542" lon="-99.156972" />
      <trkpt lat="30.055501" lon="-99.156788" />
      <trkpt lat="30.055475" lon="-99.156646" />
      <trkpt lat="30.055427" lon="-99.156383" />
      <trkpt lat="30.055412" lon="-99.156306" />
      <trkpt lat="30.055318" lon="-99.155807" />
      <trkpt lat="30.055268" lon="-99.155498" />
      <trkpt lat="30.055243" lon="-99.155344" />
      <trkpt lat="30.055197" lon="-99.155056" />
      <trkpt lat="30.055" lon="-99.15391" />
      <trkpt lat="30.054906" lon="-99.153368" />
      <trkpt lat="30.054746" lon="-99.152441" />
      <trkpt lat="30.054712" lon="-99.152243" />
      <trkpt lat="30.05469" lon="-99.152123" />
      <trkpt lat="30.05467" lon="-99.151997" />
      <trkpt lat="30.054646" lon="-99.151863" />
      <trkpt lat="30.054604" lon="-99.151618" />
      <trkpt lat="30.054547" lon="-99.151289" />
      <trkpt lat="30.0545" lon="-99.151032" />
      <trkpt lat="30.054484" lon="-99.15094" />
      <trkpt lat="30.054416" lon="-99.150569" />
      <trkpt lat="30.054401" lon="-99.150486" />
      <trkpt lat="30.054358" lon="-99.150245" />
      <trkpt lat="30.054317" lon="-99.150022" />
      <trkpt lat="30.054298" lon="-99.149915" />
      <trkpt lat="30.054288" lon="-99.149856" />
      <trkpt lat="30.054249" lon="-99.149636" />
      <trkpt lat="30.054217" lon="-99.149482" />
      <trkpt lat="30.054191" lon="-99.149355" />
      <trkpt lat="30.054162" lon="-99.149234" />
      <trkpt lat="30.054143" lon="-99.149154" />
      <trkpt lat="30.054091" lon="-99.148945" />
      <trkpt lat="30.054027" lon="-99.148749" />
      <trkpt lat="30.053973" lon="-99.148556" />
      <trkpt lat="30.05389" lon="-99.148344" />
      <trkpt lat="30.053806" lon="-99.148159" />
      <trkpt lat="30.053716" lon="-99.147975" />
      <trkpt lat="30.053663" lon="-99.147867" />
      <trkpt lat="30.053581" lon="-99.1477" />
      <trkpt lat="30.053505" lon="-99.147576" />
      <trkpt lat="30.053207" lon="-99.147204" />
      <trkpt lat="30.053186" lon="-99.147178" />
      <trkpt lat="30.053081" lon="-99.147047" />
      <trkpt lat="30.052973" lon="-99.146913" />
      <trkpt lat="30.052813" lon="-99.146705" />
      <trkpt lat="30.052761" lon="-99.146637" />
      <trkpt lat="30.05243" lon="-99.146257" />
      <trkpt lat="30.05237" lon="-99.146185" />
      <trkpt lat="30.052114" lon="-99.145895" />
      <trkpt lat="30.052049" lon="-99.145824" />
      <trkpt lat="30.051996" lon="-99.145761" />
      <trkpt lat="30.051604" lon="-99.14531" />
      <trkpt lat="30.05115" lon="-99.144788" />
      <trkpt lat="30.05084" lon="-99.144433" />
      <trkpt lat="30.050749" lon="-99.144329" />
      <trkpt lat="30.050623" lon="-99.144183" />
      <trkpt lat="30.050529" lon="-99.144073" />
      <trkpt lat="30.050266" lon="-99.143775" />
      <trkpt lat="30.049882" lon="-99.143333" />
      <trkpt lat="30.049632" lon="-99.143046" />
      <trkpt lat="30.049431" lon="-99.142815" />
      <trkpt lat="30.049371" lon="-99.142745" />
      <trkpt lat="30.049296" lon="-99.14266" />
      <trkpt lat="30.048871" lon="-99.142171" />
      <trkpt lat="30.048816" lon="-99.142108" />
      <trkpt lat="30.048746" lon="-99.142028" />
      <trkpt lat="30.048598" lon="-99.141857" />
      <trkpt lat="30.048504" lon="-99.14175" />
      <trkpt lat="30.048447" lon="-99.141685" />
      <trkpt lat="30.048393" lon="-99.141624" />
      <trkpt lat="30.048162" lon="-99.141357" />
      <trkpt lat="30.047804" lon="-99.140945" />
      <trkpt lat="30.047564" lon="-99.140669" />
      <trkpt lat="30.04748" lon="-99.140573" />
      <trkpt lat="30.04741" lon="-99.140492" />
      <trkpt lat="30.047123" lon="-99.140163" />
      <trkpt lat="30.046991" lon="-99.140011" />
    </trkseg>
  </trk>
</gpx>