<?xml version='1.0' encoding='UTF-8'?>
<gpx version="1.1" creator="Antigravity Route Generator" xmlns="http://www.topografix.com/GPX/1/1">
  <trk>
    <name>Highland Lakes Circuit</name>
    <desc>Lakes &amp; Rivers (43.2 mi) - TX 29 -&gt; RM 2341 -&gt; RM 690 -&gt; Park Road 4 -&gt; Longhorn Cavern</desc>
    <trkseg>
      <trkpt lat="30.758116" lon="-98.228704" />
      <trkpt lat="30.758109" lon="-98.228741" />
      <trkpt lat="30.758021" lon="-98.229208" />
      <trkpt lat="30.757953" lon="-98.229596" />
      <trkpt lat="30.7579" lon="-98.229891" />
      <trkpt lat="30.757708" lon="-98.230884" />
      <trkpt lat="30.75757" lon="-98.231601" />
      <trkpt lat="30.757538" lon="-98.231784" />
      <trkpt lat="30.757524" lon="-98.231863" />
      <trkpt lat="30.757478" lon="-98.232168" />
      <trkpt lat="30.757435" lon="-98.232532" />
      <trkpt lat="30.757427" lon="-98.232774" />
      <trkpt lat="30.757427" lon="-98.232977" />
      <trkpt lat="30.757428" lon="-98.233172" />
      <trkpt lat="30.757438" lon="-98.233415" />
      <trkpt lat="30.757448" lon="-98.233545" />
      <trkpt lat="30.757456" lon="-98.233652" />
      <trkpt lat="30.757484" lon="-98.233916" />
      <trkpt lat="30.757491" lon="-98.233983" />
      <trkpt lat="30.757523" lon="-98.234195" />
      <trkpt lat="30.75753" lon="-98.234246" />
      <trkpt lat="30.757656" lon="-98.234823" />
      <trkpt lat="30.757686" lon="-98.234949" />
      <trkpt lat="30.757768" lon="-98.235293" />
      <trkpt lat="30.757844" lon="-98.235625" />
      <trkpt lat="30.758146" lon="-98.236949" />
      <trkpt lat="30.758221" lon="-98.237268" />
      <trkpt lat="30.758535" lon="-98.238645" />
      <trkpt lat="30.758587" lon="-98.238844" />
      <trkpt lat="30.758727" lon="-98.239443" />
      <trkpt lat="30.758898" lon="-98.240169" />
      <trkpt lat="30.758955" lon="-98.24042" />
      <trkpt lat="30.75901" lon="-98.240661" />
      <trkpt lat="30.759058" lon="-98.240885" />
      <trkpt lat="30.759087" lon="-98.241018" />
      <trkpt lat="30.759182" lon="-98.24148" />
      <trkpt lat="30.759216" lon="-98.241646" />
      <trkpt lat="30.759271" lon="-98.241941" />
      <trkpt lat="30.759284" lon="-98.242028" />
      <trkpt lat="30.759312" lon="-98.242202" />
      <trkpt lat="30.759365" lon="-98.242536" />
      <trkpt lat="30.759404" lon="-98.242869" />
      <trkpt lat="30.759448" lon="-98.2432" />
      <trkpt lat="30.759539" lon="-98.244254" />
      <trkpt lat="30.759571" lon="-98.244685" />
      <trkpt lat="30.759605" lon="-98.245113" />
      <trkpt lat="30.759633" lon="-98.245394" />
      <trkpt lat="30.759675" lon="-98.245907" />
      <trkpt lat="30.759693" lon="-98.246125" />
      <trkpt lat="30.759714" lon="-98.246354" />
      <trkpt lat="30.759722" lon="-98.246434" />
      <trkpt lat="30.759771" lon="-98.247037" />
      <trkpt lat="30.759848" lon="-98.247933" />
      <trkpt lat="30.759858" lon="-98.248085" />
      <trkpt lat="30.75992" lon="-98.248782" />
      <trkpt lat="30.76" lon="-98.249668" />
      <trkpt lat="30.760016" lon="-98.249893" />
      <trkpt lat="30.760035" lon="-98.250167" />
      <trkpt lat="30.760096" lon="-98.250852" />
      <trkpt lat="30.760119" lon="-98.251133" />
      <trkpt lat="30.760253" lon="-98.252737" />
      <trkpt lat="30.76035" lon="-98.253875" />
      <trkpt lat="30.760361" lon="-98.253999" />
      <trkpt lat="30.760407" lon="-98.254537" />
      <trkpt lat="30.760446" lon="-98.25548" />
      <trkpt lat="30.760469" lon="-98.25658" />
      <trkpt lat="30.76049" lon="-98.257344" />
      <trkpt lat="30.760496" lon="-98.257519" />
      <trkpt lat="30.760507" lon="-98.257975" />
      <trkpt lat="30.760518" lon="-98.258687" />
      <trkpt lat="30.760585" lon="-98.261802" />
      <trkpt lat="30.760592" lon="-98.262089" />
      <trkpt lat="30.760603" lon="-98.262597" />
      <trkpt lat="30.760641" lon="-98.263963" />
      <trkpt lat="30.760677" lon="-98.265313" />
      <trkpt lat="30.760715" lon="-98.267183" />
      <trkpt lat="30.760773" lon="-98.269534" />
      <trkpt lat="30.760796" lon="-98.270545" />
      <trkpt lat="30.760822" lon="-98.271689" />
      <trkpt lat="30.760871" lon="-98.272995" />
      <trkpt lat="30.760876" lon="-98.273262" />
      <trkpt lat="30.760886" lon="-98.27367" />
      <trkpt lat="30.760888" lon="-98.273762" />
      <trkpt lat="30.760932" lon="-98.274427" />
      <trkpt lat="30.761072" lon="-98.275489" />
      <trkpt lat="30.761206" lon="-98.27651" />
      <trkpt lat="30.761417" lon="-98.278102" />
      <trkpt lat="30.761531" lon="-98.279007" />
      <trkpt lat="30.761577" lon="-98.279381" />
      <trkpt lat="30.761651" lon="-98.279969" />
      <trkpt lat="30.761693" lon="-98.280304" />
      <trkpt lat="30.761719" lon="-98.280508" />
      <trkpt lat="30.762197" lon="-98.284254" />
      <trkpt lat="30.762284" lon="-98.284469" />
      <trkpt lat="30.762347" lon="-98.284571" />
      <trkpt lat="30.762418" lon="-98.284639" />
      <trkpt lat="30.762486" lon="-98.284684" />
      <trkpt lat="30.762563" lon="-98.284716" />
      <trkpt lat="30.765177" lon="-98.285635" />
      <trkpt lat="30.766739" lon="-98.286094" />
      <trkpt lat="30.769501" lon="-98.286823" />
      <trkpt lat="30.770225" lon="-98.287034" />
      <trkpt lat="30.770507" lon="-98.287121" />
      <trkpt lat="30.770811" lon="-98.287238" />
      <trkpt lat="30.771074" lon="-98.287358" />
      <trkpt lat="30.772128" lon="-98.287928" />
      <trkpt lat="30.77272" lon="-98.288238" />
      <trkpt lat="30.773003" lon="-98.288386" />
      <trkpt lat="30.773561" lon="-98.288681" />
      <trkpt lat="30.774033" lon="-98.288918" />
      <trkpt lat="30.774443" lon="-98.289101" />
      <trkpt lat="30.774855" lon="-98.28926" />
      <trkpt lat="30.775322" lon="-98.289407" />
      <trkpt lat="30.775585" lon="-98.289477" />
      <trkpt lat="30.776826" lon="-98.289894" />
      <trkpt lat="30.777088" lon="-98.289954" />
      <trkpt lat="30.777345" lon="-98.290037" />
      <trkpt lat="30.777617" lon="-98.29015" />
      <trkpt lat="30.777748" lon="-98.290217" />
      <trkpt lat="30.777863" lon="-98.290275" />
      <trkpt lat="30.778105" lon="-98.290418" />
      <trkpt lat="30.778316" lon="-98.290567" />
      <trkpt lat="30.77846" lon="-98.29068" />
      <trkpt lat="30.77852" lon="-98.290727" />
      <trkpt lat="30.778833" lon="-98.291045" />
      <trkpt lat="30.779523" lon="-98.291747" />
      <trkpt lat="30.779635" lon="-98.291877" />
      <trkpt lat="30.780474" lon="-98.292809" />
      <trkpt lat="30.780993" lon="-98.293383" />
      <trkpt lat="30.78205" lon="-98.294522" />
      <trkpt lat="30.782501" lon="-98.295025" />
      <trkpt lat="30.78342" lon="-98.295931" />
      <trkpt lat="30.783951" lon="-98.296465" />
      <trkpt lat="30.78479" lon="-98.2973" />
      <trkpt lat="30.785004" lon="-98.297513" />
      <trkpt lat="30.785152" lon="-98.297656" />
      <trkpt lat="30.785312" lon="-98.297815" />
      <trkpt lat="30.78711" lon="-98.299601" />
      <trkpt lat="30.787117" lon="-98.299608" />
      <trkpt lat="30.788062" lon="-98.300468" />
      <trkpt lat="30.788187" lon="-98.300552" />
      <trkpt lat="30.788477" lon="-98.300717" />
      <trkpt lat="30.788587" lon="-98.3008" />
      <trkpt lat="30.789713" lon="-98.301402" />
      <trkpt lat="30.791381" lon="-98.302162" />
      <trkpt lat="30.792559" lon="-98.302752" />
      <trkpt lat="30.794026" lon="-98.30373" />
      <trkpt lat="30.794198" lon="-98.303844" />
      <trkpt lat="30.794554" lon="-98.304082" />
      <trkpt lat="30.795317" lon="-98.304818" />
      <trkpt lat="30.795819" lon="-98.305614" />
      <trkpt lat="30.796211" lon="-98.306319" />
      <trkpt lat="30.796235" lon="-98.306361" />
      <trkpt lat="30.796307" lon="-98.306565" />
      <trkpt lat="30.796477" lon="-98.307045" />
      <trkpt lat="30.796517" lon="-98.307264" />
      <trkpt lat="30.79661" lon="-98.307808" />
      <trkpt lat="30.796796" lon="-98.309031" />
      <trkpt lat="30.796809" lon="-98.309119" />
      <trkpt lat="30.797009" lon="-98.309947" />
      <trkpt lat="30.797355" lon="-98.310961" />
      <trkpt lat="30.797944" lon="-98.312641" />
      <trkpt lat="30.798" lon="-98.3128" />
      <trkpt lat="30.798376" lon="-98.31383" />
      <trkpt lat="30.798762" lon="-98.314579" />
      <trkpt lat="30.798932" lon="-98.314826" />
      <trkpt lat="30.79915" lon="-98.315142" />
      <trkpt lat="30.799383" lon="-98.315436" />
      <trkpt lat="30.79972" lon="-98.31586" />
      <trkpt lat="30.799807" lon="-98.31597" />
      <trkpt lat="30.800383" lon="-98.316746" />
      <trkpt lat="30.800683" lon="-98.31715" />
      <trkpt lat="30.80084" lon="-98.317363" />
      <trkpt lat="30.801124" lon="-98.317748" />
      <trkpt lat="30.801514" lon="-98.318237" />
      <trkpt lat="30.802071" lon="-98.319019" />
      <trkpt lat="30.802226" lon="-98.319258" />
      <trkpt lat="30.802326" lon="-98.319431" />
      <trkpt lat="30.802376" lon="-98.319517" />
      <trkpt lat="30.802742" lon="-98.320265" />
      <trkpt lat="30.802779" lon="-98.320349" />
      <trkpt lat="30.802933" lon="-98.320704" />
      <trkpt lat="30.80383" lon="-98.322979" />
      <trkpt lat="30.804336" lon="-98.324261" />
      <trkpt lat="30.805942" lon="-98.328336" />
      <trkpt lat="30.806944" lon="-98.330877" />
      <trkpt lat="30.807105" lon="-98.331284" />
      <trkpt lat="30.807656" lon="-98.332628" />
      <trkpt lat="30.807791" lon="-98.333826" />
      <trkpt lat="30.807901" lon="-98.334378" />
      <trkpt lat="30.808097" lon="-98.335147" />
      <trkpt lat="30.808154" lon="-98.33545" />
      <trkpt lat="30.808197" lon="-98.335755" />
      <trkpt lat="30.808221" lon="-98.336065" />
      <trkpt lat="30.808227" lon="-98.336439" />
      <trkpt lat="30.808216" lon="-98.336805" />
      <trkpt lat="30.808195" lon="-98.337047" />
      <trkpt lat="30.808088" lon="-98.338559" />
      <trkpt lat="30.808051" lon="-98.339077" />
      <trkpt lat="30.807875" lon="-98.34032" />
      <trkpt lat="30.807771" lon="-98.340881" />
      <trkpt lat="30.807557" lon="-98.342348" />
      <trkpt lat="30.807546" lon="-98.342536" />
      <trkpt lat="30.807549" lon="-98.34289" />
      <trkpt lat="30.80756" lon="-98.343256" />
      <trkpt lat="30.807617" lon="-98.343961" />
      <trkpt lat="30.807645" lon="-98.344139" />
      <trkpt lat="30.807686" lon="-98.344304" />
      <trkpt lat="30.807744" lon="-98.344474" />
      <trkpt lat="30.807939" lon="-98.344864" />
      <trkpt lat="30.808365" lon="-98.345701" />
      <trkpt lat="30.808586" lon="-98.346126" />
      <trkpt lat="30.808914" lon="-98.346739" />
      <trkpt lat="30.80951" lon="-98.347739" />
      <trkpt lat="30.810464" lon="-98.349318" />
      <trkpt lat="30.810886" lon="-98.349956" />
      <trkpt lat="30.81104" lon="-98.350198" />
      <trkpt lat="30.811076" lon="-98.350257" />
      <trkpt lat="30.81121" lon="-98.350475" />
      <trkpt lat="30.811674" lon="-98.351313" />
      <trkpt lat="30.812259" lon="-98.352536" />
      <trkpt lat="30.812341" lon="-98.352746" />
      <trkpt lat="30.812437" lon="-98.352993" />
      <trkpt lat="30.812626" lon="-98.353654" />
      <trkpt lat="30.812976" lon="-98.354966" />
      <trkpt lat="30.813551" lon="-98.356977" />
      <trkpt lat="30.81394" lon="-98.358283" />
      <trkpt lat="30.814097" lon="-98.358823" />
      <trkpt lat="30.814116" lon="-98.358881" />
      <trkpt lat="30.814351" lon="-98.359605" />
      <trkpt lat="30.814391" lon="-98.359703" />
      <trkpt lat="30.814434" lon="-98.35985" />
      <trkpt lat="30.814451" lon="-98.359945" />
      <trkpt lat="30.814465" lon="-98.360062" />
      <trkpt lat="30.814473" lon="-98.360233" />
      <trkpt lat="30.814467" lon="-98.360355" />
      <trkpt lat="30.814444" lon="-98.360495" />
      <trkpt lat="30.814418" lon="-98.360603" />
      <trkpt lat="30.814189" lon="-98.361249" />
      <trkpt lat="30.813821" lon="-98.3623" />
      <trkpt lat="30.813353" lon="-98.363635" />
      <trkpt lat="30.813111" lon="-98.364324" />
      <trkpt lat="30.813054" lon="-98.364558" />
      <trkpt lat="30.813034" lon="-98.36484" />
      <trkpt lat="30.813082" lon="-98.365306" />
      <trkpt lat="30.813109" lon="-98.365537" />
      <trkpt lat="30.813175" lon="-98.366099" />
      <trkpt lat="30.81318" lon="-98.366154" />
      <trkpt lat="30.813209" lon="-98.366585" />
      <trkpt lat="30.813213" lon="-98.367034" />
      <trkpt lat="30.813204" lon="-98.367341" />
      <trkpt lat="30.813202" lon="-98.367424" />
      <trkpt lat="30.813165" lon="-98.367671" />
      <trkpt lat="30.813111" lon="-98.367915" />
      <trkpt lat="30.813038" lon="-98.36816" />
      <trkpt lat="30.812908" lon="-98.368464" />
      <trkpt lat="30.812803" lon="-98.368669" />
      <trkpt lat="30.812688" lon="-98.368854" />
      <trkpt lat="30.812559" lon="-98.36905" />
      <trkpt lat="30.812343" lon="-98.369296" />
      <trkpt lat="30.812237" lon="-98.369408" />
      <trkpt lat="30.812072" lon="-98.36955" />
      <trkpt lat="30.811889" lon="-98.369686" />
      <trkpt lat="30.811696" lon="-98.369803" />
      <trkpt lat="30.811585" lon="-98.369854" />
      <trkpt lat="30.811442" lon="-98.369919" />
      <trkpt lat="30.811278" lon="-98.369978" />
      <trkpt lat="30.810497" lon="-98.37017" />
      <trkpt lat="30.809722" lon="-98.370368" />
      <trkpt lat="30.809648" lon="-98.370387" />
      <trkpt lat="30.809337" lon="-98.370459" />
      <trkpt lat="30.80899" lon="-98.370553" />
      <trkpt lat="30.808767" lon="-98.370677" />
      <trkpt lat="30.808554" lon="-98.370803" />
      <trkpt lat="30.808291" lon="-98.371012" />
      <trkpt lat="30.808201" lon="-98.371084" />
      <trkpt lat="30.808033" lon="-98.371205" />
      <trkpt lat="30.807923" lon="-98.371342" />
      <trkpt lat="30.807826" lon="-98.371463" />
      <trkpt lat="30.807684" lon="-98.371664" />
      <trkpt lat="30.807596" lon="-98.371837" />
      <trkpt lat="30.807501" lon="-98.372033" />
      <trkpt lat="30.807414" lon="-98.372322" />
      <trkpt lat="30.807202" lon="-98.372833" />
      <trkpt lat="30.807147" lon="-98.37296" />
      <trkpt lat="30.807082" lon="-98.373112" />
      <trkpt lat="30.806973" lon="-98.373337" />
      <trkpt lat="30.80685" lon="-98.373533" />
      <trkpt lat="30.806707" lon="-98.373733" />
      <trkpt lat="30.806556" lon="-98.373912" />
      <trkpt lat="30.806385" lon="-98.374082" />
      <trkpt lat="30.806162" lon="-98.374265" />
      <trkpt lat="30.805898" lon="-98.374466" />
      <trkpt lat="30.805784" lon="-98.374545" />
      <trkpt lat="30.80425" lon="-98.375445" />
      <trkpt lat="30.804037" lon="-98.375585" />
      <trkpt lat="30.803866" lon="-98.375711" />
      <trkpt lat="30.803286" lon="-98.376139" />
      <trkpt lat="30.802786" lon="-98.376568" />
      <trkpt lat="30.802736" lon="-98.376642" />
      <trkpt lat="30.80266" lon="-98.376723" />
      <trkpt lat="30.802523" lon="-98.376903" />
      <trkpt lat="30.802464" lon="-98.377002" />
      <trkpt lat="30.802413" lon="-98.377106" />
      <trkpt lat="30.802315" lon="-98.37733" />
      <trkpt lat="30.802254" lon="-98.377508" />
      <trkpt lat="30.80221" lon="-98.377691" />
      <trkpt lat="30.802183" lon="-98.37788" />
      <trkpt lat="30.802174" lon="-98.378014" />
      <trkpt lat="30.802174" lon="-98.378192" />
      <trkpt lat="30.802176" lon="-98.378379" />
      <trkpt lat="30.802207" lon="-98.378543" />
      <trkpt lat="30.802245" lon="-98.378715" />
      <trkpt lat="30.802439" lon="-98.379372" />
      <trkpt lat="30.802561" lon="-98.379771" />
      <trkpt lat="30.802596" lon="-98.37994" />
      <trkpt lat="30.802612" lon="-98.380057" />
      <trkpt lat="30.802622" lon="-98.380206" />
      <trkpt lat="30.802627" lon="-98.380353" />
      <trkpt lat="30.802622" lon="-98.380536" />
      <trkpt lat="30.8026" lon="-98.380722" />
      <trkpt lat="30.802567" lon="-98.380905" />
      <trkpt lat="30.802523" lon="-98.381074" />
      <trkpt lat="30.802457" lon="-98.381257" />
      <trkpt lat="30.802379" lon="-98.381415" />
      <trkpt lat="30.802288" lon="-98.381563" />
      <trkpt lat="30.802189" lon="-98.381706" />
      <trkpt lat="30.802081" lon="-98.381837" />
      <trkpt lat="30.801961" lon="-98.38196" />
      <trkpt lat="30.801839" lon="-98.38207" />
      <trkpt lat="30.801706" lon="-98.382157" />
      <trkpt lat="30.801447" lon="-98.382268" />
      <trkpt lat="30.801321" lon="-98.382317" />
      <trkpt lat="30.801118" lon="-98.382368" />
      <trkpt lat="30.80097" lon="-98.382412" />
      <trkpt lat="30.800761" lon="-98.382424" />
      <trkpt lat="30.799662" lon="-98.382568" />
      <trkpt lat="30.798045" lon="-98.382779" />
      <trkpt lat="30.797896" lon="-98.382799" />
      <trkpt lat="30.797582" lon="-98.382814" />
      <trkpt lat="30.797442" lon="-98.38282" />
      <trkpt lat="30.796036" lon="-98.382721" />
      <trkpt lat="30.795675" lon="-98.382704" />
      <trkpt lat="30.795416" lon="-98.382711" />
      <trkpt lat="30.795334" lon="-98.382713" />
      <trkpt lat="30.795314" lon="-98.382715" />
      <trkpt lat="30.795101" lon="-98.382738" />
      <trkpt lat="30.794588" lon="-98.382843" />
      <trkpt lat="30.794169" lon="-98.382927" />
      <trkpt lat="30.793981" lon="-98.382977" />
      <trkpt lat="30.793952" lon="-98.382985" />
      <trkpt lat="30.793728" lon="-98.383069" />
      <trkpt lat="30.793667" lon="-98.383097" />
      <trkpt lat="30.793537" lon="-98.383156" />
      <trkpt lat="30.793343" lon="-98.383265" />
      <trkpt lat="30.793134" lon="-98.383404" />
      <trkpt lat="30.792656" lon="-98.383721" />
      <trkpt lat="30.792429" lon="-98.383871" />
      <trkpt lat="30.791775" lon="-98.384308" />
      <trkpt lat="30.7911" lon="-98.384754" />
      <trkpt lat="30.790433" lon="-98.385192" />
      <trkpt lat="30.788892" lon="-98.386239" />
      <trkpt lat="30.788704" lon="-98.386358" />
      <trkpt lat="30.788651" lon="-98.386394" />
      <trkpt lat="30.787278" lon="-98.387329" />
      <trkpt lat="30.786878" lon="-98.387599" />
      <trkpt lat="30.786652" lon="-98.387779" />
      <trkpt lat="30.786521" lon="-98.387908" />
      <trkpt lat="30.7862" lon="-98.387783" />
      <trkpt lat="30.785352" lon="-98.387887" />
      <trkpt lat="30.785027" lon="-98.38751" />
      <trkpt lat="30.784859" lon="-98.387768" />
      <trkpt lat="30.784804" lon="-98.388103" />
      <trkpt lat="30.784439" lon="-98.388439" />
      <trkpt lat="30.784689" lon="-98.388604" />
      <trkpt lat="30.784927" lon="-98.388728" />
      <trkpt lat="30.785082" lon="-98.388889" />
      <trkpt lat="30.785281" lon="-98.389035" />
      <trkpt lat="30.785286" lon="-98.389038" />
      <trkpt lat="30.785405" lon="-98.389307" />
      <trkpt lat="30.785536" lon="-98.389406" />
      <trkpt lat="30.785491" lon="-98.389491" />
      <trkpt lat="30.78533" lon="-98.389802" />
      <trkpt lat="30.785172" lon="-98.390131" />
      <trkpt lat="30.784948" lon="-98.390564" />
      <trkpt lat="30.78468" lon="-98.391041" />
      <trkpt lat="30.784514" lon="-98.391305" />
      <trkpt lat="30.784341" lon="-98.391541" />
      <trkpt lat="30.784147" lon="-98.391774" />
      <trkpt lat="30.783986" lon="-98.391946" />
      <trkpt lat="30.782536" lon="-98.393488" />
      <trkpt lat="30.782333" lon="-98.393701" />
      <trkpt lat="30.782152" lon="-98.393921" />
      <trkpt lat="30.781991" lon="-98.394153" />
      <trkpt lat="30.781897" lon="-98.394307" />
      <trkpt lat="30.781761" lon="-98.394578" />
      <trkpt lat="30.781641" lon="-98.394863" />
      <trkpt lat="30.781544" lon="-98.395161" />
      <trkpt lat="30.781466" lon="-98.39546" />
      <trkpt lat="30.780922" lon="-98.398345" />
      <trkpt lat="30.780799" lon="-98.398998" />
      <trkpt lat="30.780598" lon="-98.399907" />
      <trkpt lat="30.780046" lon="-98.402207" />
      <trkpt lat="30.779919" lon="-98.402694" />
      <trkpt lat="30.779695" lon="-98.403328" />
      <trkpt lat="30.77961" lon="-98.40348" />
      <trkpt lat="30.779555" lon="-98.403599" />
      <trkpt lat="30.779457" lon="-98.403791" />
      <trkpt lat="30.779309" lon="-98.404013" />
      <trkpt lat="30.779021" lon="-98.404362" />
      <trkpt lat="30.778733" lon="-98.40464" />
      <trkpt lat="30.778458" lon="-98.40485" />
      <trkpt lat="30.778196" lon="-98.405029" />
      <trkpt lat="30.776986" lon="-98.405621" />
      <trkpt lat="30.776727" lon="-98.405733" />
      <trkpt lat="30.776229" lon="-98.405875" />
      <trkpt lat="30.775917" lon="-98.40593" />
      <trkpt lat="30.775572" lon="-98.405934" />
      <trkpt lat="30.775225" lon="-98.405925" />
      <trkpt lat="30.774935" lon="-98.405888" />
      <trkpt lat="30.774729" lon="-98.405833" />
      <trkpt lat="30.774226" lon="-98.405658" />
      <trkpt lat="30.774022" lon="-98.405568" />
      <trkpt lat="30.773809" lon="-98.405442" />
      <trkpt lat="30.773576" lon="-98.405271" />
      <trkpt lat="30.772918" lon="-98.404712" />
      <trkpt lat="30.772214" lon="-98.403992" />
      <trkpt lat="30.772036" lon="-98.403843" />
      <trkpt lat="30.771852" lon="-98.403715" />
      <trkpt lat="30.771655" lon="-98.403603" />
      <trkpt lat="30.771556" lon="-98.403562" />
      <trkpt lat="30.771401" lon="-98.403511" />
      <trkpt lat="30.771241" lon="-98.403474" />
      <trkpt lat="30.771075" lon="-98.403452" />
      <trkpt lat="30.770916" lon="-98.403445" />
      <trkpt lat="30.770762" lon="-98.403455" />
      <trkpt lat="30.770592" lon="-98.403481" />
      <trkpt lat="30.77043" lon="-98.403523" />
      <trkpt lat="30.770274" lon="-98.403579" />
      <trkpt lat="30.770135" lon="-98.40364" />
      <trkpt lat="30.76999" lon="-98.40372" />
      <trkpt lat="30.76986" lon="-98.403807" />
      <trkpt lat="30.769727" lon="-98.403914" />
      <trkpt lat="30.769458" lon="-98.404167" />
      <trkpt lat="30.769331" lon="-98.404278" />
      <trkpt lat="30.769195" lon="-98.404377" />
      <trkpt lat="30.769058" lon="-98.404463" />
      <trkpt lat="30.768911" lon="-98.404538" />
      <trkpt lat="30.768755" lon="-98.404596" />
      <trkpt lat="30.768604" lon="-98.404636" />
      <trkpt lat="30.768451" lon="-98.40466" />
      <trkpt lat="30.768294" lon="-98.404672" />
      <trkpt lat="30.768077" lon="-98.404659" />
      <trkpt lat="30.767917" lon="-98.404632" />
      <trkpt lat="30.767887" lon="-98.404624" />
      <trkpt lat="30.767742" lon="-98.404584" />
      <trkpt lat="30.767638" lon="-98.404555" />
      <trkpt lat="30.767342" lon="-98.404473" />
      <trkpt lat="30.767133" lon="-98.404428" />
      <trkpt lat="30.766873" lon="-98.404352" />
      <trkpt lat="30.766616" lon="-98.404252" />
      <trkpt lat="30.766369" lon="-98.404131" />
      <trkpt lat="30.766283" lon="-98.404076" />
      <trkpt lat="30.766155" lon="-98.403981" />
      <trkpt lat="30.766036" lon="-98.403878" />
      <trkpt lat="30.765924" lon="-98.403761" />
      <trkpt lat="30.765812" lon="-98.403627" />
      <trkpt lat="30.765771" lon="-98.403567" />
      <trkpt lat="30.765716" lon="-98.403485" />
      <trkpt lat="30.765626" lon="-98.40333" />
      <trkpt lat="30.765552" lon="-98.40317" />
      <trkpt lat="30.765489" lon="-98.403007" />
      <trkpt lat="30.765249" lon="-98.40221" />
      <trkpt lat="30.765166" lon="-98.401985" />
      <trkpt lat="30.765069" lon="-98.401773" />
      <trkpt lat="30.764956" lon="-98.401565" />
      <trkpt lat="30.764852" lon="-98.401426" />
      <trkpt lat="30.76474" lon="-98.401293" />
      <trkpt lat="30.764617" lon="-98.401175" />
      <trkpt lat="30.764496" lon="-98.401074" />
      <trkpt lat="30.76447" lon="-98.401055" />
      <trkpt lat="30.764311" lon="-98.400944" />
      <trkpt lat="30.763838" lon="-98.400576" />
      <trkpt lat="30.763491" lon="-98.400294" />
      <trkpt lat="30.762975" lon="-98.399881" />
      <trkpt lat="30.762578" lon="-98.39962" />
      <trkpt lat="30.762325" lon="-98.399454" />
      <trkpt lat="30.761797" lon="-98.399063" />
      <trkpt lat="30.761627" lon="-98.398923" />
      <trkpt lat="30.761415" lon="-98.39872" />
      <trkpt lat="30.761268" lon="-98.398541" />
      <trkpt lat="30.761058" lon="-98.398243" />
      <trkpt lat="30.760889" lon="-98.397949" />
      <trkpt lat="30.760775" lon="-98.397666" />
      <trkpt lat="30.760697" lon="-98.397401" />
      <trkpt lat="30.760641" lon="-98.397141" />
      <trkpt lat="30.760469" lon="-98.395975" />
      <trkpt lat="30.760418" lon="-98.395695" />
      <trkpt lat="30.760358" lon="-98.395442" />
      <trkpt lat="30.760265" lon="-98.395149" />
      <trkpt lat="30.760146" lon="-98.394864" />
      <trkpt lat="30.75981" lon="-98.394188" />
      <trkpt lat="30.759685" lon="-98.39388" />
      <trkpt lat="30.759569" lon="-98.39353" />
      <trkpt lat="30.759367" lon="-98.392731" />
      <trkpt lat="30.759164" lon="-98.391864" />
      <trkpt lat="30.759085" lon="-98.391556" />
      <trkpt lat="30.758996" lon="-98.391272" />
      <trkpt lat="30.758858" lon="-98.390914" />
      <trkpt lat="30.758787" lon="-98.390749" />
      <trkpt lat="30.758662" lon="-98.390505" />
      <trkpt lat="30.758533" lon="-98.390306" />
      <trkpt lat="30.758395" lon="-98.390121" />
      <trkpt lat="30.75755" lon="-98.389132" />
      <trkpt lat="30.756832" lon="-98.388364" />
      <trkpt lat="30.756687" lon="-98.388241" />
      <trkpt lat="30.756553" lon="-98.388142" />
      <trkpt lat="30.756439" lon="-98.388071" />
      <trkpt lat="30.756412" lon="-98.388054" />
      <trkpt lat="30.7564" lon="-98.388046" />
      <trkpt lat="30.756289" lon="-98.387965" />
      <trkpt lat="30.756322" lon="-98.387887" />
      <trkpt lat="30.756533" lon="-98.387361" />
      <trkpt lat="30.756623" lon="-98.38712" />
      <trkpt lat="30.756841" lon="-98.386503" />
      <trkpt lat="30.757022" lon="-98.385822" />
      <trkpt lat="30.757203" lon="-98.384922" />
      <trkpt lat="30.757287" lon="-98.384209" />
      <trkpt lat="30.757543" lon="-98.380904" />
      <trkpt lat="30.757547" lon="-98.380735" />
      <trkpt lat="30.757544" lon="-98.380346" />
      <trkpt lat="30.757528" lon="-98.380015" />
      <trkpt lat="30.757482" lon="-98.379716" />
      <trkpt lat="30.757417" lon="-98.379421" />
      <trkpt lat="30.757338" lon="-98.379132" />
      <trkpt lat="30.757243" lon="-98.378849" />
      <trkpt lat="30.757137" lon="-98.378586" />
      <trkpt lat="30.757074" lon="-98.37841" />
      <trkpt lat="30.756855" lon="-98.377708" />
      <trkpt lat="30.756826" lon="-98.377574" />
      <trkpt lat="30.756804" lon="-98.377472" />
      <trkpt lat="30.756791" lon="-98.37738" />
      <trkpt lat="30.75677" lon="-98.377232" />
      <trkpt lat="30.756753" lon="-98.376989" />
      <trkpt lat="30.756742" lon="-98.376711" />
      <trkpt lat="30.756823" lon="-98.374455" />
      <trkpt lat="30.756897" lon="-98.37379" />
      <trkpt lat="30.757035" lon="-98.373044" />
      <trkpt lat="30.756901" lon="-98.373041" />
      <trkpt lat="30.756757" lon="-98.373068" />
      <trkpt lat="30.75657" lon="-98.373188" />
      <trkpt lat="30.75635" lon="-98.373431" />
      <trkpt lat="30.755922" lon="-98.373863" />
      <trkpt lat="30.755118" lon="-98.374704" />
      <trkpt lat="30.754823" lon="-98.375004" />
      <trkpt lat="30.754556" lon="-98.375275" />
      <trkpt lat="30.754319" lon="-98.375517" />
      <trkpt lat="30.753918" lon="-98.375942" />
      <trkpt lat="30.753536" lon="-98.376322" />
      <trkpt lat="30.753501" lon="-98.376364" />
      <trkpt lat="30.753461" lon="-98.376412" />
      <trkpt lat="30.753339" lon="-98.376541" />
      <trkpt lat="30.753209" lon="-98.376656" />
      <trkpt lat="30.75307" lon="-98.37676" />
      <trkpt lat="30.752926" lon="-98.376849" />
      <trkpt lat="30.752781" lon="-98.376924" />
      <trkpt lat="30.752628" lon="-98.376984" />
      <trkpt lat="30.752474" lon="-98.377028" />
      <trkpt lat="30.752321" lon="-98.377057" />
      <trkpt lat="30.752159" lon="-98.37707" />
      <trkpt lat="30.751947" lon="-98.377063" />
      <trkpt lat="30.75179" lon="-98.377019" />
      <trkpt lat="30.751632" lon="-98.376961" />
      <trkpt lat="30.75148" lon="-98.376886" />
      <trkpt lat="30.751338" lon="-98.3768" />
      <trkpt lat="30.751154" lon="-98.376666" />
      <trkpt lat="30.751068" lon="-98.376591" />
      <trkpt lat="30.750982" lon="-98.376507" />
      <trkpt lat="30.750911" lon="-98.376414" />
      <trkpt lat="30.750847" lon="-98.376318" />
      <trkpt lat="30.750742" lon="-98.376107" />
      <trkpt lat="30.750699" lon="-98.375993" />
      <trkpt lat="30.750516" lon="-98.375351" />
      <trkpt lat="30.750455" lon="-98.375139" />
      <trkpt lat="30.750297" lon="-98.374162" />
      <trkpt lat="30.750148" lon="-98.373242" />
      <trkpt lat="30.749965" lon="-98.372146" />
      <trkpt lat="30.749773" lon="-98.370997" />
      <trkpt lat="30.749638" lon="-98.370432" />
      <trkpt lat="30.749599" lon="-98.37034" />
      <trkpt lat="30.749478" lon="-98.370058" />
      <trkpt lat="30.749346" lon="-98.369869" />
      <trkpt lat="30.749264" lon="-98.369791" />
      <trkpt lat="30.748713" lon="-98.369265" />
      <trkpt lat="30.748409" lon="-98.369026" />
      <trkpt lat="30.748157" lon="-98.368743" />
      <trkpt lat="30.748006" lon="-98.368547" />
      <trkpt lat="30.747996" lon="-98.368527" />
      <trkpt lat="30.747841" lon="-98.36821" />
      <trkpt lat="30.74776" lon="-98.367937" />
      <trkpt lat="30.747708" lon="-98.367615" />
      <trkpt lat="30.747672" lon="-98.366829" />
      <trkpt lat="30.747667" lon="-98.366674" />
      <trkpt lat="30.747665" lon="-98.36661" />
      <trkpt lat="30.747554" lon="-98.363386" />
      <trkpt lat="30.747538" lon="-98.362922" />
      <trkpt lat="30.747539" lon="-98.362309" />
      <trkpt lat="30.747587" lon="-98.362016" />
      <trkpt lat="30.747674" lon="-98.361716" />
      <trkpt lat="30.747789" lon="-98.361501" />
      <trkpt lat="30.747901" lon="-98.36134" />
      <trkpt lat="30.748129" lon="-98.361043" />
      <trkpt lat="30.748833" lon="-98.360432" />
      <trkpt lat="30.749006" lon="-98.360217" />
      <trkpt lat="30.749148" lon="-98.359974" />
      <trkpt lat="30.749299" lon="-98.359603" />
      <trkpt lat="30.749344" lon="-98.359401" />
      <trkpt lat="30.749369" lon="-98.359129" />
      <trkpt lat="30.749344" lon="-98.358389" />
      <trkpt lat="30.749308" lon="-98.357515" />
      <trkpt lat="30.7493" lon="-98.357174" />
      <trkpt lat="30.749325" lon="-98.356915" />
      <trkpt lat="30.74937" lon="-98.356671" />
      <trkpt lat="30.749851" lon="-98.355423" />
      <trkpt lat="30.749917" lon="-98.355069" />
      <trkpt lat="30.749932" lon="-98.35481" />
      <trkpt lat="30.749918" lon="-98.35458" />
      <trkpt lat="30.749891" lon="-98.354301" />
      <trkpt lat="30.749827" lon="-98.354044" />
      <trkpt lat="30.749746" lon="-98.353836" />
      <trkpt lat="30.749607" lon="-98.353634" />
      <trkpt lat="30.749527" lon="-98.353518" />
      <trkpt lat="30.7494" lon="-98.353316" />
      <trkpt lat="30.749236" lon="-98.353135" />
      <trkpt lat="30.748983" lon="-98.352943" />
      <trkpt lat="30.748706" lon="-98.35282" />
      <trkpt lat="30.748515" lon="-98.352784" />
      <trkpt lat="30.748282" lon="-98.352795" />
      <trkpt lat="30.748169" lon="-98.35283" />
      <trkpt lat="30.747994" lon="-98.352915" />
      <trkpt lat="30.747876" lon="-98.353014" />
      <trkpt lat="30.747708" lon="-98.353253" />
      <trkpt lat="30.747666" lon="-98.353353" />
      <trkpt lat="30.747612" lon="-98.353519" />
      <trkpt lat="30.747576" lon="-98.353689" />
      <trkpt lat="30.747152" lon="-98.356627" />
      <trkpt lat="30.747073" lon="-98.356997" />
      <trkpt lat="30.746967" lon="-98.357358" />
      <trkpt lat="30.746781" lon="-98.357886" />
      <trkpt lat="30.746597" lon="-98.358272" />
      <trkpt lat="30.746346" lon="-98.358736" />
      <trkpt lat="30.745894" lon="-98.359391" />
      <trkpt lat="30.745582" lon="-98.359747" />
      <trkpt lat="30.745051" lon="-98.360262" />
      <trkpt lat="30.744719" lon="-98.36056" />
      <trkpt lat="30.744324" lon="-98.360848" />
      <trkpt lat="30.743866" lon="-98.361086" />
      <trkpt lat="30.743594" lon="-98.361171" />
      <trkpt lat="30.742589" lon="-98.361405" />
      <trkpt lat="30.742115" lon="-98.361574" />
      <trkpt lat="30.741764" lon="-98.361785" />
      <trkpt lat="30.741451" lon="-98.362043" />
      <trkpt lat="30.741219" lon="-98.362283" />
      <trkpt lat="30.740763" lon="-98.362909" />
      <trkpt lat="30.740137" lon="-98.363813" />
      <trkpt lat="30.740052" lon="-98.363941" />
      <trkpt lat="30.739094" lon="-98.365302" />
      <trkpt lat="30.739039" lon="-98.365379" />
      <trkpt lat="30.739028" lon="-98.365393" />
      <trkpt lat="30.738469" lon="-98.366192" />
      <trkpt lat="30.737902" lon="-98.367101" />
      <trkpt lat="30.737359" lon="-98.368067" />
      <trkpt lat="30.737165" lon="-98.368401" />
      <trkpt lat="30.737013" lon="-98.368663" />
      <trkpt lat="30.736769" lon="-98.369084" />
      <trkpt lat="30.736512" lon="-98.369402" />
      <trkpt lat="30.736347" lon="-98.36951" />
      <trkpt lat="30.736201" lon="-98.369552" />
      <trkpt lat="30.736033" lon="-98.369562" />
      <trkpt lat="30.735869" lon="-98.369537" />
      <trkpt lat="30.735695" lon="-98.369462" />
      <trkpt lat="30.735537" lon="-98.369326" />
      <trkpt lat="30.735411" lon="-98.369158" />
      <trkpt lat="30.735229" lon="-98.368848" />
      <trkpt lat="30.734064" lon="-98.366641" />
      <trkpt lat="30.733842" lon="-98.366307" />
      <trkpt lat="30.733794" lon="-98.366267" />
      <trkpt lat="30.733666" lon="-98.366161" />
      <trkpt lat="30.733554" lon="-98.366106" />
      <trkpt lat="30.733399" lon="-98.366061" />
      <trkpt lat="30.733168" lon="-98.366053" />
      <trkpt lat="30.73302" lon="-98.366107" />
      <trkpt lat="30.732884" lon="-98.366182" />
      <trkpt lat="30.732756" lon="-98.366305" />
      <trkpt lat="30.732552" lon="-98.366584" />
      <trkpt lat="30.731898" lon="-98.367759" />
      <trkpt lat="30.731803" lon="-98.367899" />
      <trkpt lat="30.731689" lon="-98.368032" />
      <trkpt lat="30.731561" lon="-98.368144" />
      <trkpt lat="30.731329" lon="-98.368267" />
      <trkpt lat="30.731224" lon="-98.3683" />
      <trkpt lat="30.731096" lon="-98.368313" />
      <trkpt lat="30.730824" lon="-98.368308" />
      <trkpt lat="30.729769" lon="-98.368161" />
      <trkpt lat="30.729454" lon="-98.368144" />
      <trkpt lat="30.72918" lon="-98.368211" />
      <trkpt lat="30.728952" lon="-98.368325" />
      <trkpt lat="30.72888" lon="-98.368378" />
      <trkpt lat="30.728769" lon="-98.368482" />
      <trkpt lat="30.728665" lon="-98.368609" />
      <trkpt lat="30.728557" lon="-98.368782" />
      <trkpt lat="30.728442" lon="-98.369087" />
      <trkpt lat="30.728373" lon="-98.369398" />
      <trkpt lat="30.728176" lon="-98.370697" />
      <trkpt lat="30.728174" lon="-98.370709" />
      <trkpt lat="30.728037" lon="-98.371623" />
      <trkpt lat="30.728005" lon="-98.371995" />
      <trkpt lat="30.728028" lon="-98.372344" />
      <trkpt lat="30.728072" lon="-98.372554" />
      <trkpt lat="30.728184" lon="-98.372872" />
      <trkpt lat="30.72827" lon="-98.373046" />
      <trkpt lat="30.728898" lon="-98.374162" />
      <trkpt lat="30.729049" lon="-98.374465" />
      <trkpt lat="30.729221" lon="-98.374885" />
      <trkpt lat="30.729305" lon="-98.375151" />
      <trkpt lat="30.729446" lon="-98.375763" />
      <trkpt lat="30.729683" lon="-98.37705" />
      <trkpt lat="30.729798" lon="-98.377378" />
      <trkpt lat="30.730011" lon="-98.377827" />
      <trkpt lat="30.730101" lon="-98.378158" />
      <trkpt lat="30.730118" lon="-98.37832" />
      <trkpt lat="30.730113" lon="-98.378533" />
      <trkpt lat="30.730083" lon="-98.378756" />
      <trkpt lat="30.729981" lon="-98.379428" />
      <trkpt lat="30.729697" lon="-98.380908" />
      <trkpt lat="30.729628" lon="-98.381245" />
      <trkpt lat="30.729585" lon="-98.381402" />
      <trkpt lat="30.729461" lon="-98.381628" />
      <trkpt lat="30.729285" lon="-98.381803" />
      <trkpt lat="30.729204" lon="-98.381855" />
      <trkpt lat="30.729109" lon="-98.381899" />
      <trkpt lat="30.729" lon="-98.381935" />
      <trkpt lat="30.728859" lon="-98.381957" />
      <trkpt lat="30.728412" lon="-98.382028" />
      <trkpt lat="30.728241" lon="-98.382057" />
      <trkpt lat="30.72799" lon="-98.382142" />
      <trkpt lat="30.727843" lon="-98.382209" />
      <trkpt lat="30.727711" lon="-98.382273" />
      <trkpt lat="30.727316" lon="-98.382473" />
      <trkpt lat="30.727001" lon="-98.382613" />
      <trkpt lat="30.726905" lon="-98.382644" />
      <trkpt lat="30.726825" lon="-98.382653" />
      <trkpt lat="30.726703" lon="-98.382648" />
      <trkpt lat="30.726602" lon="-98.382629" />
      <trkpt lat="30.726507" lon="-98.382593" />
      <trkpt lat="30.726414" lon="-98.38255" />
      <trkpt lat="30.726328" lon="-98.382493" />
      <trkpt lat="30.726258" lon="-98.382432" />
      <trkpt lat="30.726184" lon="-98.382357" />
      <trkpt lat="30.726115" lon="-98.382267" />
      <trkpt lat="30.725941" lon="-98.381929" />
      <trkpt lat="30.725788" lon="-98.38156" />
      <trkpt lat="30.725691" lon="-98.381369" />
      <trkpt lat="30.72561" lon="-98.381255" />
      <trkpt lat="30.725485" lon="-98.381126" />
      <trkpt lat="30.725375" lon="-98.381043" />
      <trkpt lat="30.725268" lon="-98.380976" />
      <trkpt lat="30.725147" lon="-98.380916" />
      <trkpt lat="30.724852" lon="-98.38082" />
      <trkpt lat="30.724209" lon="-98.380604" />
      <trkpt lat="30.723937" lon="-98.380492" />
      <trkpt lat="30.723678" lon="-98.380378" />
      <trkpt lat="30.723558" lon="-98.380325" />
      <trkpt lat="30.723186" lon="-98.380195" />
      <trkpt lat="30.722994" lon="-98.380171" />
      <trkpt lat="30.722873" lon="-98.380175" />
      <trkpt lat="30.722719" lon="-98.380206" />
      <trkpt lat="30.722554" lon="-98.380267" />
      <trkpt lat="30.722413" lon="-98.380344" />
      <trkpt lat="30.722259" lon="-98.38046" />
      <trkpt lat="30.722113" lon="-98.380623" />
      <trkpt lat="30.722026" lon="-98.380753" />
      <trkpt lat="30.721927" lon="-98.380968" />
      <trkpt lat="30.721872" lon="-98.381144" />
      <trkpt lat="30.721814" lon="-98.381394" />
      <trkpt lat="30.721739" lon="-98.381738" />
      <trkpt lat="30.721599" lon="-98.382376" />
      <trkpt lat="30.721558" lon="-98.382561" />
      <trkpt lat="30.721492" lon="-98.382764" />
      <trkpt lat="30.721414" lon="-98.382924" />
      <trkpt lat="30.721339" lon="-98.383061" />
      <trkpt lat="30.721244" lon="-98.383168" />
      <trkpt lat="30.721155" lon="-98.383244" />
      <trkpt lat="30.721033" lon="-98.383327" />
      <trkpt lat="30.720764" lon="-98.3834" />
      <trkpt lat="30.720626" lon="-98.383396" />
      <trkpt lat="30.720396" lon="-98.383344" />
      <trkpt lat="30.720214" lon="-98.38325" />
      <trkpt lat="30.719987" lon="-98.383085" />
      <trkpt lat="30.719845" lon="-98.382933" />
      <trkpt lat="30.719248" lon="-98.382327" />
      <trkpt lat="30.718931" lon="-98.38202" />
      <trkpt lat="30.718571" lon="-98.381661" />
      <trkpt lat="30.718373" lon="-98.381491" />
      <trkpt lat="30.718193" lon="-98.381362" />
      <trkpt lat="30.717989" lon="-98.381258" />
      <trkpt lat="30.717881" lon="-98.381203" />
      <trkpt lat="30.717735" lon="-98.381162" />
      <trkpt lat="30.717575" lon="-98.381139" />
      <trkpt lat="30.717421" lon="-98.381129" />
      <trkpt lat="30.717377" lon="-98.381129" />
      <trkpt lat="30.717177" lon="-98.38113" />
      <trkpt lat="30.716645" lon="-98.381132" />
      <trkpt lat="30.716306" lon="-98.381134" />
      <trkpt lat="30.715849" lon="-98.381124" />
      <trkpt lat="30.715511" lon="-98.381117" />
      <trkpt lat="30.715018" lon="-98.381091" />
      <trkpt lat="30.714955" lon="-98.381088" />
      <trkpt lat="30.714722" lon="-98.381075" />
      <trkpt lat="30.714596" lon="-98.381067" />
      <trkpt lat="30.713994" lon="-98.381029" />
      <trkpt lat="30.71335" lon="-98.380986" />
      <trkpt lat="30.712793" lon="-98.380933" />
      <trkpt lat="30.712358" lon="-98.380915" />
      <trkpt lat="30.711891" lon="-98.380904" />
      <trkpt lat="30.711443" lon="-98.380903" />
      <trkpt lat="30.711172" lon="-98.380903" />
      <trkpt lat="30.711058" lon="-98.380903" />
      <trkpt lat="30.710706" lon="-98.380908" />
      <trkpt lat="30.709665" lon="-98.380923" />
      <trkpt lat="30.708143" lon="-98.380929" />
      <trkpt lat="30.708014" lon="-98.380929" />
      <trkpt lat="30.706786" lon="-98.380927" />
      <trkpt lat="30.706397" lon="-98.380926" />
      <trkpt lat="30.704866" lon="-98.380899" />
      <trkpt lat="30.704129" lon="-98.380904" />
      <trkpt lat="30.702814" lon="-98.38091" />
      <trkpt lat="30.702003" lon="-98.380913" />
      <trkpt lat="30.701019" lon="-98.380903" />
      <trkpt lat="30.70084" lon="-98.380903" />
      <trkpt lat="30.700687" lon="-98.380875" />
      <trkpt lat="30.700564" lon="-98.380837" />
      <trkpt lat="30.700436" lon="-98.380792" />
      <trkpt lat="30.700361" lon="-98.380765" />
      <trkpt lat="30.699885" lon="-98.380555" />
      <trkpt lat="30.69982" lon="-98.380536" />
      <trkpt lat="30.699658" lon="-98.38051" />
      <trkpt lat="30.69946" lon="-98.380487" />
      <trkpt lat="30.699191" lon="-98.380502" />
      <trkpt lat="30.6989" lon="-98.380582" />
      <trkpt lat="30.69853" lon="-98.380619" />
      <trkpt lat="30.698229" lon="-98.380578" />
      <trkpt lat="30.697893" lon="-98.380499" />
      <trkpt lat="30.697608" lon="-98.380408" />
      <trkpt lat="30.697364" lon="-98.380269" />
      <trkpt lat="30.697102" lon="-98.380064" />
      <trkpt lat="30.696873" lon="-98.379791" />
      <trkpt lat="30.696703" lon="-98.379523" />
      <trkpt lat="30.696564" lon="-98.3792" />
      <trkpt lat="30.696463" lon="-98.378872" />
      <trkpt lat="30.696414" lon="-98.378544" />
      <trkpt lat="30.696245" lon="-98.377572" />
      <trkpt lat="30.696195" lon="-98.377184" />
      <trkpt lat="30.696186" lon="-98.376765" />
      <trkpt lat="30.696231" lon="-98.376321" />
      <trkpt lat="30.696298" lon="-98.375843" />
      <trkpt lat="30.696402" lon="-98.375447" />
      <trkpt lat="30.696492" lon="-98.375194" />
      <trkpt lat="30.696714" lon="-98.374811" />
      <trkpt lat="30.696728" lon="-98.374788" />
      <trkpt lat="30.696813" lon="-98.374597" />
      <trkpt lat="30.696878" lon="-98.374354" />
      <trkpt lat="30.696914" lon="-98.374039" />
      <trkpt lat="30.696937" lon="-98.373726" />
      <trkpt lat="30.696933" lon="-98.373425" />
      <trkpt lat="30.69691" lon="-98.37322" />
      <trkpt lat="30.696907" lon="-98.373194" />
      <trkpt lat="30.696837" lon="-98.372914" />
      <trkpt lat="30.696702" lon="-98.372573" />
      <trkpt lat="30.696569" lon="-98.372323" />
      <trkpt lat="30.696503" lon="-98.372104" />
      <trkpt lat="30.696459" lon="-98.371957" />
      <trkpt lat="30.696406" lon="-98.371738" />
      <trkpt lat="30.696378" lon="-98.371508" />
      <trkpt lat="30.696315" lon="-98.370642" />
      <trkpt lat="30.696283" lon="-98.369937" />
      <trkpt lat="30.69626" lon="-98.369556" />
      <trkpt lat="30.696253" lon="-98.369057" />
      <trkpt lat="30.696261" lon="-98.368495" />
      <trkpt lat="30.696306" lon="-98.367838" />
      <trkpt lat="30.696413" lon="-98.36658" />
      <trkpt lat="30.696607" lon="-98.364035" />
      <trkpt lat="30.696645" lon="-98.363141" />
      <trkpt lat="30.696672" lon="-98.36214" />
      <trkpt lat="30.696673" lon="-98.362108" />
      <trkpt lat="30.696713" lon="-98.361011" />
      <trkpt lat="30.69672" lon="-98.360466" />
      <trkpt lat="30.696722" lon="-98.360353" />
      <trkpt lat="30.696712" lon="-98.359706" />
      <trkpt lat="30.69669" lon="-98.359346" />
      <trkpt lat="30.696655" lon="-98.359077" />
      <trkpt lat="30.696611" lon="-98.358834" />
      <trkpt lat="30.696601" lon="-98.358771" />
      <trkpt lat="30.696531" lon="-98.358494" />
      <trkpt lat="30.696462" lon="-98.35828" />
      <trkpt lat="30.696373" lon="-98.358041" />
      <trkpt lat="30.696268" lon="-98.35782" />
      <trkpt lat="30.696112" lon="-98.357548" />
      <trkpt lat="30.695969" lon="-98.357322" />
      <trkpt lat="30.695803" lon="-98.357102" />
      <trkpt lat="30.695565" lon="-98.356832" />
      <trkpt lat="30.695392" lon="-98.356671" />
      <trkpt lat="30.695281" lon="-98.356575" />
      <trkpt lat="30.695141" lon="-98.356462" />
      <trkpt lat="30.694857" lon="-98.356261" />
      <trkpt lat="30.694727" lon="-98.356169" />
      <trkpt lat="30.694438" lon="-98.355996" />
      <trkpt lat="30.693402" lon="-98.355424" />
      <trkpt lat="30.692923" lon="-98.355182" />
      <trkpt lat="30.691712" lon="-98.354658" />
      <trkpt lat="30.690634" lon="-98.354158" />
      <trkpt lat="30.689688" lon="-98.353628" />
      <trkpt lat="30.68913" lon="-98.353286" />
      <trkpt lat="30.688353" lon="-98.352717" />
      <trkpt lat="30.686835" lon="-98.351542" />
      <trkpt lat="30.686521" lon="-98.351327" />
      <trkpt lat="30.686231" lon="-98.351179" />
      <trkpt lat="30.685993" lon="-98.351077" />
      <trkpt lat="30.685798" lon="-98.350995" />
      <trkpt lat="30.685603" lon="-98.350861" />
      <trkpt lat="30.685491" lon="-98.350721" />
      <trkpt lat="30.685392" lon="-98.35057" />
      <trkpt lat="30.685294" lon="-98.350406" />
      <trkpt lat="30.684755" lon="-98.349577" />
      <trkpt lat="30.684629" lon="-98.349376" />
      <trkpt lat="30.684541" lon="-98.34923" />
      <trkpt lat="30.684462" lon="-98.349092" />
      <trkpt lat="30.684399" lon="-98.348942" />
      <trkpt lat="30.684337" lon="-98.348762" />
      <trkpt lat="30.684298" lon="-98.348597" />
      <trkpt lat="30.684199" lon="-98.348109" />
      <trkpt lat="30.6841" lon="-98.347707" />
      <trkpt lat="30.684061" lon="-98.347548" />
      <trkpt lat="30.68385" lon="-98.347022" />
      <trkpt lat="30.683584" lon="-98.346427" />
      <trkpt lat="30.683481" lon="-98.346048" />
      <trkpt lat="30.683426" lon="-98.345754" />
      <trkpt lat="30.683396" lon="-98.345505" />
      <trkpt lat="30.683384" lon="-98.345329" />
      <trkpt lat="30.683389" lon="-98.345104" />
      <trkpt lat="30.6834" lon="-98.344879" />
      <trkpt lat="30.683604" lon="-98.3426" />
      <trkpt lat="30.683659" lon="-98.341988" />
      <trkpt lat="30.683683" lon="-98.341755" />
      <trkpt lat="30.683718" lon="-98.341537" />
      <trkpt lat="30.683763" lon="-98.341322" />
      <trkpt lat="30.683859" lon="-98.341059" />
      <trkpt lat="30.683954" lon="-98.340867" />
      <trkpt lat="30.684105" lon="-98.34063" />
      <trkpt lat="30.684258" lon="-98.34046" />
      <trkpt lat="30.684587" lon="-98.340134" />
      <trkpt lat="30.684693" lon="-98.340002" />
      <trkpt lat="30.684752" lon="-98.339904" />
      <trkpt lat="30.684827" lon="-98.339787" />
      <trkpt lat="30.684913" lon="-98.339573" />
      <trkpt lat="30.684961" lon="-98.339381" />
      <trkpt lat="30.684982" lon="-98.339223" />
      <trkpt lat="30.684993" lon="-98.339044" />
      <trkpt lat="30.684981" lon="-98.33886" />
      <trkpt lat="30.684947" lon="-98.338663" />
      <trkpt lat="30.684891" lon="-98.338461" />
      <trkpt lat="30.684719" lon="-98.338077" />
      <trkpt lat="30.684485" lon="-98.337579" />
      <trkpt lat="30.684414" lon="-98.33741" />
      <trkpt lat="30.684366" lon="-98.337238" />
      <trkpt lat="30.684309" lon="-98.336924" />
      <trkpt lat="30.684289" lon="-98.336754" />
      <trkpt lat="30.684259" lon="-98.336401" />
      <trkpt lat="30.684191" lon="-98.335386" />
      <trkpt lat="30.68416" lon="-98.335131" />
      <trkpt lat="30.684116" lon="-98.334872" />
      <trkpt lat="30.684083" lon="-98.334718" />
      <trkpt lat="30.684063" lon="-98.334646" />
      <trkpt lat="30.68383" lon="-98.333834" />
      <trkpt lat="30.683591" lon="-98.332994" />
      <trkpt lat="30.683394" lon="-98.332326" />
      <trkpt lat="30.683181" lon="-98.331472" />
      <trkpt lat="30.683142" lon="-98.331318" />
      <trkpt lat="30.682965" lon="-98.330526" />
      <trkpt lat="30.682937" lon="-98.330334" />
      <trkpt lat="30.68289" lon="-98.330172" />
      <trkpt lat="30.682838" lon="-98.329957" />
      <trkpt lat="30.682777" lon="-98.329796" />
      <trkpt lat="30.682563" lon="-98.329392" />
      <trkpt lat="30.68246" lon="-98.329196" />
      <trkpt lat="30.682231" lon="-98.328808" />
      <trkpt lat="30.682169" lon="-98.328703" />
      <trkpt lat="30.682056" lon="-98.328534" />
      <trkpt lat="30.681912" lon="-98.328257" />
      <trkpt lat="30.681833" lon="-98.328099" />
      <trkpt lat="30.681747" lon="-98.327926" />
      <trkpt lat="30.681664" lon="-98.327744" />
      <trkpt lat="30.681548" lon="-98.327489" />
      <trkpt lat="30.681396" lon="-98.32708" />
      <trkpt lat="30.681186" lon="-98.326489" />
      <trkpt lat="30.681071" lon="-98.326165" />
      <trkpt lat="30.680803" lon="-98.325401" />
      <trkpt lat="30.680746" lon="-98.325237" />
      <trkpt lat="30.680715" lon="-98.325149" />
      <trkpt lat="30.680702" lon="-98.325111" />
      <trkpt lat="30.680555" lon="-98.324673" />
      <trkpt lat="30.680338" lon="-98.323988" />
      <trkpt lat="30.680296" lon="-98.323823" />
      <trkpt lat="30.680212" lon="-98.323488" />
      <trkpt lat="30.680085" lon="-98.322915" />
      <trkpt lat="30.679997" lon="-98.32252" />
      <trkpt lat="30.679898" lon="-98.322071" />
      <trkpt lat="30.679839" lon="-98.321807" />
      <trkpt lat="30.679646" lon="-98.320518" />
      <trkpt lat="30.679642" lon="-98.320484" />
      <trkpt lat="30.679609" lon="-98.320219" />
      <trkpt lat="30.67958" lon="-98.319987" />
      <trkpt lat="30.679562" lon="-98.319703" />
      <trkpt lat="30.679552" lon="-98.319504" />
      <trkpt lat="30.679529" lon="-98.31904" />
      <trkpt lat="30.679517" lon="-98.318445" />
      <trkpt lat="30.679513" lon="-98.317823" />
      <trkpt lat="30.679514" lon="-98.317782" />
      <trkpt lat="30.67953" lon="-98.316802" />
      <trkpt lat="30.679528" lon="-98.316669" />
      <trkpt lat="30.67956" lon="-98.316429" />
      <trkpt lat="30.679613" lon="-98.316148" />
      <trkpt lat="30.679678" lon="-98.315912" />
      <trkpt lat="30.67976" lon="-98.315664" />
      <trkpt lat="30.679813" lon="-98.315541" />
      <trkpt lat="30.6799" lon="-98.315339" />
      <trkpt lat="30.680031" lon="-98.31508" />
      <trkpt lat="30.68024" lon="-98.314728" />
      <trkpt lat="30.68031" lon="-98.314626" />
      <trkpt lat="30.680604" lon="-98.314288" />
      <trkpt lat="30.681434" lon="-98.313384" />
      <trkpt lat="30.681529" lon="-98.313265" />
      <trkpt lat="30.681606" lon="-98.313115" />
      <trkpt lat="30.681646" lon="-98.313013" />
      <trkpt lat="30.681667" lon="-98.312961" />
      <trkpt lat="30.681714" lon="-98.312796" />
      <trkpt lat="30.681741" lon="-98.312649" />
      <trkpt lat="30.681752" lon="-98.312567" />
      <trkpt lat="30.681749" lon="-98.31239" />
      <trkpt lat="30.681742" lon="-98.311746" />
      <trkpt lat="30.681767" lon="-98.311452" />
      <trkpt lat="30.681778" lon="-98.311371" />
      <trkpt lat="30.681804" lon="-98.311185" />
      <trkpt lat="30.682762" lon="-98.30622" />
      <trkpt lat="30.683162" lon="-98.304105" />
      <trkpt lat="30.684551" lon="-98.296899" />
      <trkpt lat="30.685646" lon="-98.29122" />
      <trkpt lat="30.687111" lon="-98.283954" />
      <trkpt lat="30.687224" lon="-98.283417" />
      <trkpt lat="30.687515" lon="-98.281751" />
      <trkpt lat="30.687657" lon="-98.280937" />
      <trkpt lat="30.687813" lon="-98.280045" />
      <trkpt lat="30.688096" lon="-98.278422" />
      <trkpt lat="30.688285" lon="-98.277337" />
      <trkpt lat="30.688453" lon="-98.27621" />
      <trkpt lat="30.688627" lon="-98.27502" />
      <trkpt lat="30.688729" lon="-98.274326" />
      <trkpt lat="30.688943" lon="-98.27287" />
      <trkpt lat="30.688956" lon="-98.272782" />
      <trkpt lat="30.689033" lon="-98.272259" />
      <trkpt lat="30.68932" lon="-98.270282" />
      <trkpt lat="30.689604" lon="-98.268778" />
      <trkpt lat="30.689979" lon="-98.266801" />
      <trkpt lat="30.690251" lon="-98.265372" />
      <trkpt lat="30.690659" lon="-98.263223" />
      <trkpt lat="30.690979" lon="-98.261537" />
      <trkpt lat="30.691035" lon="-98.261245" />
      <trkpt lat="30.691064" lon="-98.261089" />
      <trkpt lat="30.691173" lon="-98.260503" />
      <trkpt lat="30.691264" lon="-98.260018" />
      <trkpt lat="30.691287" lon="-98.259881" />
      <trkpt lat="30.691538" lon="-98.258364" />
      <trkpt lat="30.69155" lon="-98.258291" />
      <trkpt lat="30.691605" lon="-98.257955" />
      <trkpt lat="30.691665" lon="-98.257594" />
      <trkpt lat="30.691694" lon="-98.257347" />
      <trkpt lat="30.69171" lon="-98.257158" />
      <trkpt lat="30.691716" lon="-98.256973" />
      <trkpt lat="30.691701" lon="-98.256737" />
      <trkpt lat="30.691674" lon="-98.256455" />
      <trkpt lat="30.69159" lon="-98.256006" />
      <trkpt lat="30.691584" lon="-98.255978" />
      <trkpt lat="30.69142" lon="-98.255018" />
      <trkpt lat="30.691155" lon="-98.255062" />
      <trkpt lat="30.690773" lon="-98.255118" />
      <trkpt lat="30.689799" lon="-98.255214" />
      <trkpt lat="30.688747" lon="-98.255238" />
      <trkpt lat="30.684256" lon="-98.254984" />
      <trkpt lat="30.683677" lon="-98.254949" />
      <trkpt lat="30.680212" lon="-98.25476" />
      <trkpt lat="30.679315" lon="-98.254785" />
      <trkpt lat="30.677686" lon="-98.254892" />
      <trkpt lat="30.673132" lon="-98.255229" />
      <trkpt lat="30.671488" lon="-98.255339" />
      <trkpt lat="30.664362" lon="-98.255859" />
      <trkpt lat="30.660503" lon="-98.256138" />
      <trkpt lat="30.658633" lon="-98.256277" />
      <trkpt lat="30.658578" lon="-98.256281" />
      <trkpt lat="30.656014" lon="-98.256451" />
      <trkpt lat="30.655547" lon="-98.256484" />
      <trkpt lat="30.654076" lon="-98.256594" />
      <trkpt lat="30.653418" lon="-98.256645" />
      <trkpt lat="30.652596" lon="-98.256705" />
      <trkpt lat="30.651883" lon="-98.256791" />
      <trkpt lat="30.651182" lon="-98.256907" />
      <trkpt lat="30.650895" lon="-98.256981" />
      <trkpt lat="30.650056" lon="-98.25719" />
      <trkpt lat="30.649738" lon="-98.257284" />
      <trkpt lat="30.645519" lon="-98.258705" />
      <trkpt lat="30.643939" lon="-98.259262" />
      <trkpt lat="30.641271" lon="-98.260192" />
      <trkpt lat="30.640805" lon="-98.260366" />
      <trkpt lat="30.639627" lon="-98.26075" />
      <trkpt lat="30.638218" lon="-98.261231" />
      <trkpt lat="30.638181" lon="-98.261243" />
      <trkpt lat="30.637242" lon="-98.261568" />
      <trkpt lat="30.637184" lon="-98.261589" />
      <trkpt lat="30.63689" lon="-98.261682" />
      <trkpt lat="30.63683" lon="-98.261702" />
      <trkpt lat="30.636646" lon="-98.261765" />
      <trkpt lat="30.636576" lon="-98.261789" />
      <trkpt lat="30.636544" lon="-98.261799" />
      <trkpt lat="30.636278" lon="-98.261896" />
      <trkpt lat="30.635908" lon="-98.262013" />
      <trkpt lat="30.635646" lon="-98.262095" />
      <trkpt lat="30.634988" lon="-98.262313" />
      <trkpt lat="30.634358" lon="-98.262461" />
      <trkpt lat="30.63381" lon="-98.262586" />
      <trkpt lat="30.632592" lon="-98.262795" />
      <trkpt lat="30.632255" lon="-98.262842" />
      <trkpt lat="30.631614" lon="-98.26293" />
      <trkpt lat="30.629934" lon="-98.263129" />
      <trkpt lat="30.628758" lon="-98.263263" />
      <trkpt lat="30.628251" lon="-98.263335" />
      <trkpt lat="30.627572" lon="-98.263458" />
      <trkpt lat="30.626999" lon="-98.263587" />
      <trkpt lat="30.626164" lon="-98.26382" />
      <trkpt lat="30.623499" lon="-98.264717" />
      <trkpt lat="30.620395" lon="-98.265812" />
      <trkpt lat="30.62019" lon="-98.265883" />
      <trkpt lat="30.619425" lon="-98.266144" />
      <trkpt lat="30.618965" lon="-98.266313" />
      <trkpt lat="30.618463" lon="-98.266484" />
      <trkpt lat="30.617983" lon="-98.26665" />
      <trkpt lat="30.617555" lon="-98.266795" />
      <trkpt lat="30.617392" lon="-98.266847" />
      <trkpt lat="30.616516" lon="-98.267127" />
      <trkpt lat="30.615444" lon="-98.267371" />
      <trkpt lat="30.614983" lon="-98.267452" />
      <trkpt lat="30.614877" lon="-98.267471" />
      <trkpt lat="30.613929" lon="-98.267593" />
      <trkpt lat="30.61318" lon="-98.267647" />
      <trkpt lat="30.612897" lon="-98.267662" />
      <trkpt lat="30.612443" lon="-98.267668" />
      <trkpt lat="30.611786" lon="-98.26766" />
      <trkpt lat="30.610464" lon="-98.267564" />
      <trkpt lat="30.60939" lon="-98.267434" />
      <trkpt lat="30.608995" lon="-98.267385" />
      <trkpt lat="30.608302" lon="-98.2673" />
      <trkpt lat="30.608042" lon="-98.267268" />
      <trkpt lat="30.607743" lon="-98.267231" />
      <trkpt lat="30.607597" lon="-98.267213" />
      <trkpt lat="30.607541" lon="-98.267206" />
      <trkpt lat="30.607001" lon="-98.267152" />
      <trkpt lat="30.606491" lon="-98.2671" />
      <trkpt lat="30.606348" lon="-98.267085" />
      <trkpt lat="30.605802" lon="-98.267054" />
      <trkpt lat="30.605171" lon="-98.26709" />
      <trkpt lat="30.604987" lon="-98.267111" />
      <trkpt lat="30.604658" lon="-98.267148" />
      <trkpt lat="30.604463" lon="-98.267184" />
      <trkpt lat="30.604034" lon="-98.267283" />
      <trkpt lat="30.603429" lon="-98.267469" />
      <trkpt lat="30.603207" lon="-98.267557" />
      <trkpt lat="30.602362" lon="-98.267934" />
      <trkpt lat="30.601698" lon="-98.268245" />
      <trkpt lat="30.600971" lon="-98.268579" />
      <trkpt lat="30.600943" lon="-98.268592" />
      <trkpt lat="30.600161" lon="-98.268974" />
      <trkpt lat="30.599722" lon="-98.269176" />
      <trkpt lat="30.599581" lon="-98.26925" />
      <trkpt lat="30.599337" lon="-98.269374" />
      <trkpt lat="30.598922" lon="-98.269573" />
      <trkpt lat="30.597658" lon="-98.27018" />
      <trkpt lat="30.597584" lon="-98.270216" />
      <trkpt lat="30.597538" lon="-98.270238" />
      <trkpt lat="30.597308" lon="-98.27035" />
      <trkpt lat="30.597089" lon="-98.270457" />
      <trkpt lat="30.596784" lon="-98.270606" />
      <trkpt lat="30.596733" lon="-98.270631" />
      <trkpt lat="30.596684" lon="-98.270656" />
      <trkpt lat="30.596488" lon="-98.270751" />
      <trkpt lat="30.59613" lon="-98.270921" />
      <trkpt lat="30.595924" lon="-98.271018" />
      <trkpt lat="30.595599" lon="-98.271174" />
      <trkpt lat="30.59553" lon="-98.271208" />
      <trkpt lat="30.595427" lon="-98.271257" />
      <trkpt lat="30.595025" lon="-98.271447" />
      <trkpt lat="30.594955" lon="-98.27148" />
      <trkpt lat="30.594886" lon="-98.271513" />
      <trkpt lat="30.594753" lon="-98.271577" />
      <trkpt lat="30.594323" lon="-98.271777" />
      <trkpt lat="30.593935" lon="-98.271976" />
      <trkpt lat="30.593864" lon="-98.272012" />
      <trkpt lat="30.593488" lon="-98.272192" />
      <trkpt lat="30.593287" lon="-98.272292" />
      <trkpt lat="30.593241" lon="-98.272315" />
      <trkpt lat="30.592607" lon="-98.272612" />
      <trkpt lat="30.592306" lon="-98.272749" />
      <trkpt lat="30.591983" lon="-98.27287" />
      <trkpt lat="30.591855" lon="-98.272917" />
      <trkpt lat="30.591449" lon="-98.27305" />
      <trkpt lat="30.591189" lon="-98.273121" />
      <trkpt lat="30.591015" lon="-98.273167" />
      <trkpt lat="30.590828" lon="-98.273216" />
      <trkpt lat="30.590577" lon="-98.273277" />
      <trkpt lat="30.590156" lon="-98.273349" />
      <trkpt lat="30.59005" lon="-98.273367" />
      <trkpt lat="30.589961" lon="-98.273378" />
      <trkpt lat="30.589605" lon="-98.27342" />
      <trkpt lat="30.589504" lon="-98.273432" />
      <trkpt lat="30.589341" lon="-98.27344" />
      <trkpt lat="30.589075" lon="-98.273452" />
      <trkpt lat="30.588943" lon="-98.273448" />
      <trkpt lat="30.588744" lon="-98.27344" />
      <trkpt lat="30.588551" lon="-98.273435" />
      <trkpt lat="30.588096" lon="-98.273427" />
      <trkpt lat="30.587967" lon="-98.27342" />
      <trkpt lat="30.587703" lon="-98.273409" />
      <trkpt lat="30.586922" lon="-98.273368" />
      <trkpt lat="30.586215" lon="-98.27333" />
      <trkpt lat="30.585776" lon="-98.273309" />
      <trkpt lat="30.585721" lon="-98.273304" />
      <trkpt lat="30.585365" lon="-98.273286" />
      <trkpt lat="30.584461" lon="-98.273247" />
      <trkpt lat="30.583745" lon="-98.273211" />
      <trkpt lat="30.583227" lon="-98.273181" />
      <trkpt lat="30.583116" lon="-98.273176" />
      <trkpt lat="30.583011" lon="-98.27317" />
      <trkpt lat="30.582743" lon="-98.273157" />
      <trkpt lat="30.582417" lon="-98.273141" />
      <trkpt lat="30.582328" lon="-98.273138" />
      <trkpt lat="30.581846" lon="-98.273113" />
      <trkpt lat="30.581388" lon="-98.273087" />
      <trkpt lat="30.581175" lon="-98.273075" />
      <trkpt lat="30.581113" lon="-98.273071" />
      <trkpt lat="30.580865" lon="-98.273061" />
      <trkpt lat="30.580816" lon="-98.273059" />
      <trkpt lat="30.580712" lon="-98.273053" />
      <trkpt lat="30.580618" lon="-98.273049" />
      <trkpt lat="30.580268" lon="-98.273044" />
      <trkpt lat="30.580039" lon="-98.273017" />
      <trkpt lat="30.579601" lon="-98.273002" />
      <trkpt lat="30.579005" lon="-98.27297" />
      <trkpt lat="30.578757" lon="-98.272955" />
      <trkpt lat="30.578336" lon="-98.272941" />
      <trkpt lat="30.578047" lon="-98.272936" />
      <trkpt lat="30.577795" lon="-98.272939" />
      <trkpt lat="30.577714" lon="-98.272945" />
      <trkpt lat="30.577504" lon="-98.272966" />
      <trkpt lat="30.577134" lon="-98.273015" />
      <trkpt lat="30.576911" lon="-98.273058" />
      <trkpt lat="30.576572" lon="-98.27314" />
      <trkpt lat="30.576095" lon="-98.273301" />
      <trkpt lat="30.575629" lon="-98.273513" />
      <trkpt lat="30.575397" lon="-98.273639" />
      <trkpt lat="30.575094" lon="-98.273814" />
      <trkpt lat="30.574758" lon="-98.274038" />
      <trkpt lat="30.574473" lon="-98.274222" />
      <trkpt lat="30.574185" lon="-98.27442" />
      <trkpt lat="30.573899" lon="-98.2746" />
      <trkpt lat="30.573749" lon="-98.274695" />
      <trkpt lat="30.573609" lon="-98.27479" />
      <trkpt lat="30.573259" lon="-98.27502" />
      <trkpt lat="30.572762" lon="-98.275358" />
      <trkpt lat="30.572726" lon="-98.275377" />
      <trkpt lat="30.572359" lon="-98.275613" />
      <trkpt lat="30.571833" lon="-98.275938" />
      <trkpt lat="30.571758" lon="-98.275974" />
      <trkpt lat="30.571374" lon="-98.276136" />
      <trkpt lat="30.571205" lon="-98.276182" />
      <trkpt lat="30.571034" lon="-98.276224" />
      <trkpt lat="30.570786" lon="-98.276271" />
      <trkpt lat="30.570614" lon="-98.276294" />
      <trkpt lat="30.570491" lon="-98.276298" />
      <trkpt lat="30.570264" lon="-98.276291" />
      <trkpt lat="30.569994" lon="-98.276267" />
      <trkpt lat="30.569756" lon="-98.276199" />
      <trkpt lat="30.569503" lon="-98.276165" />
      <trkpt lat="30.569195" lon="-98.27605" />
      <trkpt lat="30.568936" lon="-98.275957" />
      <trkpt lat="30.568289" lon="-98.27572" />
      <trkpt lat="30.565732" lon="-98.274769" />
      <trkpt lat="30.565404" lon="-98.274648" />
      <trkpt lat="30.565277" lon="-98.274601" />
      <trkpt lat="30.565183" lon="-98.274584" />
      <trkpt lat="30.565043" lon="-98.274566" />
      <trkpt lat="30.564832" lon="-98.27456" />
      <trkpt lat="30.564754" lon="-98.274556" />
      <trkpt lat="30.564579" lon="-98.274557" />
      <trkpt lat="30.564481" lon="-98.27457" />
      <trkpt lat="30.564323" lon="-98.274595" />
      <trkpt lat="30.564092" lon="-98.27458" />
      <trkpt lat="30.563863" lon="-98.274658" />
      <trkpt lat="30.563734" lon="-98.274725" />
      <trkpt lat="30.563578" lon="-98.274805" />
      <trkpt lat="30.563339" lon="-98.274958" />
      <trkpt lat="30.563055" lon="-98.275148" />
      <trkpt lat="30.562982" lon="-98.275198" />
      <trkpt lat="30.562619" lon="-98.275477" />
      <trkpt lat="30.562096" lon="-98.275815" />
      <trkpt lat="30.561765" lon="-98.275974" />
      <trkpt lat="30.561369" lon="-98.276081" />
      <trkpt lat="30.561089" lon="-98.276132" />
      <trkpt lat="30.560863" lon="-98.276155" />
      <trkpt lat="30.560595" lon="-98.276147" />
      <trkpt lat="30.56022" lon="-98.276096" />
      <trkpt lat="30.559758" lon="-98.275957" />
      <trkpt lat="30.559245" lon="-98.275697" />
      <trkpt lat="30.559063" lon="-98.275562" />
      <trkpt lat="30.558821" lon="-98.275385" />
      <trkpt lat="30.557834" lon="-98.274593" />
      <trkpt lat="30.557592" lon="-98.274438" />
      <trkpt lat="30.557101" lon="-98.274183" />
      <trkpt lat="30.55694" lon="-98.274111" />
      <trkpt lat="30.556511" lon="-98.273967" />
      <trkpt lat="30.556265" lon="-98.273914" />
      <trkpt lat="30.555899" lon="-98.27385" />
      <trkpt lat="30.555456" lon="-98.273828" />
      <trkpt lat="30.555199" lon="-98.273845" />
      <trkpt lat="30.554919" lon="-98.273871" />
      <trkpt lat="30.554605" lon="-98.273933" />
      <trkpt lat="30.554279" lon="-98.27402" />
      <trkpt lat="30.55399" lon="-98.274121" />
      <trkpt lat="30.55294" lon="-98.274549" />
      <trkpt lat="30.552758" lon="-98.274627" />
      <trkpt lat="30.552587" lon="-98.2747" />
      <trkpt lat="30.552156" lon="-98.274888" />
      <trkpt lat="30.550394" lon="-98.275622" />
      <trkpt lat="30.549785" lon="-98.275848" />
      <trkpt lat="30.549164" lon="-98.276062" />
      <trkpt lat="30.548657" lon="-98.276212" />
      <trkpt lat="30.548325" lon="-98.276308" />
      <trkpt lat="30.547833" lon="-98.27643" />
      <trkpt lat="30.547493" lon="-98.276512" />
      <trkpt lat="30.547162" lon="-98.276593" />
      <trkpt lat="30.546628" lon="-98.27671" />
      <trkpt lat="30.546127" lon="-98.276814" />
      <trkpt lat="30.545573" lon="-98.276947" />
      <trkpt lat="30.545337" lon="-98.276997" />
      <trkpt lat="30.544591" lon="-98.277169" />
      <trkpt lat="30.541793" lon="-98.277862" />
    </trkseg>
  </trk>
</gpx>