<?xml version='1.0' encoding='UTF-8'?>
<gpx version="1.1" creator="Antigravity Route Generator" xmlns="http://www.topografix.com/GPX/1/1">
  <trk>
    <name>Kingsland &amp; Lake LBJ Loop</name>
    <desc>Lakes &amp; Rivers (47.5 mi) - US 281 -&gt; Park Road 4 -&gt; RM 2900 -&gt; RM 2233 -&gt; US 71 -&gt; RM 2147</desc>
    <trkseg>
      <trkpt lat="30.541793" lon="-98.277862" />
      <trkpt lat="30.544591" lon="-98.277169" />
      <trkpt lat="30.545337" lon="-98.276997" />
      <trkpt lat="30.545573" lon="-98.276947" />
      <trkpt lat="30.546127" lon="-98.276814" />
      <trkpt lat="30.546628" lon="-98.27671" />
      <trkpt lat="30.547162" lon="-98.276593" />
      <trkpt lat="30.547493" lon="-98.276512" />
      <trkpt lat="30.547833" lon="-98.27643" />
      <trkpt lat="30.548325" lon="-98.276308" />
      <trkpt lat="30.548657" lon="-98.276212" />
      <trkpt lat="30.549164" lon="-98.276062" />
      <trkpt lat="30.549785" lon="-98.275848" />
      <trkpt lat="30.550394" lon="-98.275622" />
      <trkpt lat="30.552156" lon="-98.274888" />
      <trkpt lat="30.552587" lon="-98.2747" />
      <trkpt lat="30.552758" lon="-98.274627" />
      <trkpt lat="30.55294" lon="-98.274549" />
      <trkpt lat="30.55399" lon="-98.274121" />
      <trkpt lat="30.554279" lon="-98.27402" />
      <trkpt lat="30.554605" lon="-98.273933" />
      <trkpt lat="30.554919" lon="-98.273871" />
      <trkpt lat="30.555199" lon="-98.273845" />
      <trkpt lat="30.555456" lon="-98.273828" />
      <trkpt lat="30.555899" lon="-98.27385" />
      <trkpt lat="30.556265" lon="-98.273914" />
      <trkpt lat="30.556511" lon="-98.273967" />
      <trkpt lat="30.55694" lon="-98.274111" />
      <trkpt lat="30.557101" lon="-98.274183" />
      <trkpt lat="30.557592" lon="-98.274438" />
      <trkpt lat="30.557834" lon="-98.274593" />
      <trkpt lat="30.558821" lon="-98.275385" />
      <trkpt lat="30.559063" lon="-98.275562" />
      <trkpt lat="30.559245" lon="-98.275697" />
      <trkpt lat="30.559758" lon="-98.275957" />
      <trkpt lat="30.56022" lon="-98.276096" />
      <trkpt lat="30.560595" lon="-98.276147" />
      <trkpt lat="30.560863" lon="-98.276155" />
      <trkpt lat="30.561089" lon="-98.276132" />
      <trkpt lat="30.561369" lon="-98.276081" />
      <trkpt lat="30.561765" lon="-98.275974" />
      <trkpt lat="30.562096" lon="-98.275815" />
      <trkpt lat="30.562619" lon="-98.275477" />
      <trkpt lat="30.562982" lon="-98.275198" />
      <trkpt lat="30.563055" lon="-98.275148" />
      <trkpt lat="30.563339" lon="-98.274958" />
      <trkpt lat="30.563578" lon="-98.274805" />
      <trkpt lat="30.563734" lon="-98.274725" />
      <trkpt lat="30.563863" lon="-98.274658" />
      <trkpt lat="30.564092" lon="-98.27458" />
      <trkpt lat="30.564283" lon="-98.274462" />
      <trkpt lat="30.564538" lon="-98.274414" />
      <trkpt lat="30.56488" lon="-98.274414" />
      <trkpt lat="30.565067" lon="-98.274428" />
      <trkpt lat="30.565261" lon="-98.274459" />
      <trkpt lat="30.56549" lon="-98.274511" />
      <trkpt lat="30.565785" lon="-98.274605" />
      <trkpt lat="30.568332" lon="-98.275569" />
      <trkpt lat="30.568798" lon="-98.275759" />
      <trkpt lat="30.569124" lon="-98.275878" />
      <trkpt lat="30.569226" lon="-98.27592" />
      <trkpt lat="30.569467" lon="-98.276004" />
      <trkpt lat="30.569568" lon="-98.276051" />
      <trkpt lat="30.569756" lon="-98.276199" />
      <trkpt lat="30.569994" lon="-98.276267" />
      <trkpt lat="30.570264" lon="-98.276291" />
      <trkpt lat="30.570491" lon="-98.276298" />
      <trkpt lat="30.570614" lon="-98.276294" />
      <trkpt lat="30.570786" lon="-98.276271" />
      <trkpt lat="30.571034" lon="-98.276224" />
      <trkpt lat="30.571205" lon="-98.276182" />
      <trkpt lat="30.571374" lon="-98.276136" />
      <trkpt lat="30.571758" lon="-98.275974" />
      <trkpt lat="30.571833" lon="-98.275938" />
      <trkpt lat="30.572359" lon="-98.275613" />
      <trkpt lat="30.572726" lon="-98.275377" />
      <trkpt lat="30.572762" lon="-98.275358" />
      <trkpt lat="30.573259" lon="-98.27502" />
      <trkpt lat="30.573609" lon="-98.27479" />
      <trkpt lat="30.573749" lon="-98.274695" />
      <trkpt lat="30.573899" lon="-98.2746" />
      <trkpt lat="30.574185" lon="-98.27442" />
      <trkpt lat="30.574473" lon="-98.274222" />
      <trkpt lat="30.574758" lon="-98.274038" />
      <trkpt lat="30.575094" lon="-98.273814" />
      <trkpt lat="30.575397" lon="-98.273639" />
      <trkpt lat="30.575629" lon="-98.273513" />
      <trkpt lat="30.576095" lon="-98.273301" />
      <trkpt lat="30.576572" lon="-98.27314" />
      <trkpt lat="30.576911" lon="-98.273058" />
      <trkpt lat="30.577134" lon="-98.273015" />
      <trkpt lat="30.577504" lon="-98.272966" />
      <trkpt lat="30.577714" lon="-98.272945" />
      <trkpt lat="30.577795" lon="-98.272939" />
      <trkpt lat="30.578047" lon="-98.272936" />
      <trkpt lat="30.578336" lon="-98.272941" />
      <trkpt lat="30.578757" lon="-98.272955" />
      <trkpt lat="30.579005" lon="-98.27297" />
      <trkpt lat="30.579601" lon="-98.273002" />
      <trkpt lat="30.580039" lon="-98.273017" />
      <trkpt lat="30.580268" lon="-98.273044" />
      <trkpt lat="30.580618" lon="-98.273049" />
      <trkpt lat="30.580712" lon="-98.273053" />
      <trkpt lat="30.580816" lon="-98.273059" />
      <trkpt lat="30.580865" lon="-98.273061" />
      <trkpt lat="30.581113" lon="-98.273071" />
      <trkpt lat="30.581175" lon="-98.273075" />
      <trkpt lat="30.581388" lon="-98.273087" />
      <trkpt lat="30.581846" lon="-98.273113" />
      <trkpt lat="30.582328" lon="-98.273138" />
      <trkpt lat="30.582417" lon="-98.273141" />
      <trkpt lat="30.582743" lon="-98.273157" />
      <trkpt lat="30.583011" lon="-98.27317" />
      <trkpt lat="30.583116" lon="-98.273176" />
      <trkpt lat="30.583227" lon="-98.273181" />
      <trkpt lat="30.583745" lon="-98.273211" />
      <trkpt lat="30.584461" lon="-98.273247" />
      <trkpt lat="30.585365" lon="-98.273286" />
      <trkpt lat="30.585721" lon="-98.273304" />
      <trkpt lat="30.585776" lon="-98.273309" />
      <trkpt lat="30.586215" lon="-98.27333" />
      <trkpt lat="30.586922" lon="-98.273368" />
      <trkpt lat="30.587703" lon="-98.273409" />
      <trkpt lat="30.587967" lon="-98.27342" />
      <trkpt lat="30.588096" lon="-98.273427" />
      <trkpt lat="30.588551" lon="-98.273435" />
      <trkpt lat="30.588744" lon="-98.27344" />
      <trkpt lat="30.588943" lon="-98.273448" />
      <trkpt lat="30.589075" lon="-98.273452" />
      <trkpt lat="30.589341" lon="-98.27344" />
      <trkpt lat="30.589504" lon="-98.273432" />
      <trkpt lat="30.589605" lon="-98.27342" />
      <trkpt lat="30.589961" lon="-98.273378" />
      <trkpt lat="30.59005" lon="-98.273367" />
      <trkpt lat="30.590156" lon="-98.273349" />
      <trkpt lat="30.590577" lon="-98.273277" />
      <trkpt lat="30.590828" lon="-98.273216" />
      <trkpt lat="30.591015" lon="-98.273167" />
      <trkpt lat="30.591189" lon="-98.273121" />
      <trkpt lat="30.591449" lon="-98.27305" />
      <trkpt lat="30.591855" lon="-98.272917" />
      <trkpt lat="30.591983" lon="-98.27287" />
      <trkpt lat="30.592306" lon="-98.272749" />
      <trkpt lat="30.592607" lon="-98.272612" />
      <trkpt lat="30.593241" lon="-98.272315" />
      <trkpt lat="30.593287" lon="-98.272292" />
      <trkpt lat="30.593488" lon="-98.272192" />
      <trkpt lat="30.593864" lon="-98.272012" />
      <trkpt lat="30.593935" lon="-98.271976" />
      <trkpt lat="30.594323" lon="-98.271777" />
      <trkpt lat="30.594753" lon="-98.271577" />
      <trkpt lat="30.594886" lon="-98.271513" />
      <trkpt lat="30.594955" lon="-98.27148" />
      <trkpt lat="30.595025" lon="-98.271447" />
      <trkpt lat="30.595427" lon="-98.271257" />
      <trkpt lat="30.59553" lon="-98.271208" />
      <trkpt lat="30.595599" lon="-98.271174" />
      <trkpt lat="30.595924" lon="-98.271018" />
      <trkpt lat="30.59613" lon="-98.270921" />
      <trkpt lat="30.596488" lon="-98.270751" />
      <trkpt lat="30.596684" lon="-98.270656" />
      <trkpt lat="30.596733" lon="-98.270631" />
      <trkpt lat="30.596784" lon="-98.270606" />
      <trkpt lat="30.597089" lon="-98.270457" />
      <trkpt lat="30.597308" lon="-98.27035" />
      <trkpt lat="30.597538" lon="-98.270238" />
      <trkpt lat="30.597584" lon="-98.270216" />
      <trkpt lat="30.597658" lon="-98.27018" />
      <trkpt lat="30.598922" lon="-98.269573" />
      <trkpt lat="30.599337" lon="-98.269374" />
      <trkpt lat="30.599581" lon="-98.26925" />
      <trkpt lat="30.599722" lon="-98.269176" />
      <trkpt lat="30.600161" lon="-98.268974" />
      <trkpt lat="30.600943" lon="-98.268592" />
      <trkpt lat="30.600971" lon="-98.268579" />
      <trkpt lat="30.601698" lon="-98.268245" />
      <trkpt lat="30.602362" lon="-98.267934" />
      <trkpt lat="30.603207" lon="-98.267557" />
      <trkpt lat="30.603429" lon="-98.267469" />
      <trkpt lat="30.604034" lon="-98.267283" />
      <trkpt lat="30.604463" lon="-98.267184" />
      <trkpt lat="30.604658" lon="-98.267148" />
      <trkpt lat="30.604987" lon="-98.267111" />
      <trkpt lat="30.605171" lon="-98.26709" />
      <trkpt lat="30.605802" lon="-98.267054" />
      <trkpt lat="30.606348" lon="-98.267085" />
      <trkpt lat="30.606491" lon="-98.2671" />
      <trkpt lat="30.607001" lon="-98.267152" />
      <trkpt lat="30.607541" lon="-98.267206" />
      <trkpt lat="30.607597" lon="-98.267213" />
      <trkpt lat="30.607743" lon="-98.267231" />
      <trkpt lat="30.608042" lon="-98.267268" />
      <trkpt lat="30.608302" lon="-98.2673" />
      <trkpt lat="30.608995" lon="-98.267385" />
      <trkpt lat="30.60939" lon="-98.267434" />
      <trkpt lat="30.610464" lon="-98.267564" />
      <trkpt lat="30.611786" lon="-98.26766" />
      <trkpt lat="30.612443" lon="-98.267668" />
      <trkpt lat="30.612897" lon="-98.267662" />
      <trkpt lat="30.61318" lon="-98.267647" />
      <trkpt lat="30.613929" lon="-98.267593" />
      <trkpt lat="30.614877" lon="-98.267471" />
      <trkpt lat="30.614983" lon="-98.267452" />
      <trkpt lat="30.615444" lon="-98.267371" />
      <trkpt lat="30.616516" lon="-98.267127" />
      <trkpt lat="30.617392" lon="-98.266847" />
      <trkpt lat="30.617555" lon="-98.266795" />
      <trkpt lat="30.617983" lon="-98.26665" />
      <trkpt lat="30.618463" lon="-98.266484" />
      <trkpt lat="30.618965" lon="-98.266313" />
      <trkpt lat="30.619425" lon="-98.266144" />
      <trkpt lat="30.62019" lon="-98.265883" />
      <trkpt lat="30.620395" lon="-98.265812" />
      <trkpt lat="30.623499" lon="-98.264717" />
      <trkpt lat="30.626164" lon="-98.26382" />
      <trkpt lat="30.626999" lon="-98.263587" />
      <trkpt lat="30.627572" lon="-98.263458" />
      <trkpt lat="30.628251" lon="-98.263335" />
      <trkpt lat="30.628758" lon="-98.263263" />
      <trkpt lat="30.629934" lon="-98.263129" />
      <trkpt lat="30.631614" lon="-98.26293" />
      <trkpt lat="30.632255" lon="-98.262842" />
      <trkpt lat="30.632592" lon="-98.262795" />
      <trkpt lat="30.63381" lon="-98.262586" />
      <trkpt lat="30.634358" lon="-98.262461" />
      <trkpt lat="30.634988" lon="-98.262313" />
      <trkpt lat="30.635646" lon="-98.262095" />
      <trkpt lat="30.635908" lon="-98.262013" />
      <trkpt lat="30.636278" lon="-98.261896" />
      <trkpt lat="30.636544" lon="-98.261799" />
      <trkpt lat="30.636576" lon="-98.261789" />
      <trkpt lat="30.636646" lon="-98.261765" />
      <trkpt lat="30.63683" lon="-98.261702" />
      <trkpt lat="30.63689" lon="-98.261682" />
      <trkpt lat="30.637184" lon="-98.261589" />
      <trkpt lat="30.637242" lon="-98.261568" />
      <trkpt lat="30.638181" lon="-98.261243" />
      <trkpt lat="30.638218" lon="-98.261231" />
      <trkpt lat="30.639627" lon="-98.26075" />
      <trkpt lat="30.640805" lon="-98.260366" />
      <trkpt lat="30.641271" lon="-98.260192" />
      <trkpt lat="30.643939" lon="-98.259262" />
      <trkpt lat="30.645519" lon="-98.258705" />
      <trkpt lat="30.649738" lon="-98.257284" />
      <trkpt lat="30.650056" lon="-98.25719" />
      <trkpt lat="30.650895" lon="-98.256981" />
      <trkpt lat="30.651182" lon="-98.256907" />
      <trkpt lat="30.651883" lon="-98.256791" />
      <trkpt lat="30.652596" lon="-98.256705" />
      <trkpt lat="30.653418" lon="-98.256645" />
      <trkpt lat="30.654076" lon="-98.256594" />
      <trkpt lat="30.655547" lon="-98.256484" />
      <trkpt lat="30.656014" lon="-98.256451" />
      <trkpt lat="30.658578" lon="-98.256281" />
      <trkpt lat="30.658633" lon="-98.256277" />
      <trkpt lat="30.660503" lon="-98.256138" />
      <trkpt lat="30.664362" lon="-98.255859" />
      <trkpt lat="30.671488" lon="-98.255339" />
      <trkpt lat="30.673132" lon="-98.255229" />
      <trkpt lat="30.677686" lon="-98.254892" />
      <trkpt lat="30.679315" lon="-98.254785" />
      <trkpt lat="30.680212" lon="-98.25476" />
      <trkpt lat="30.683677" lon="-98.254949" />
      <trkpt lat="30.684256" lon="-98.254984" />
      <trkpt lat="30.688747" lon="-98.255238" />
      <trkpt lat="30.689799" lon="-98.255214" />
      <trkpt lat="30.690773" lon="-98.255118" />
      <trkpt lat="30.691155" lon="-98.255062" />
      <trkpt lat="30.69142" lon="-98.255018" />
      <trkpt lat="30.691584" lon="-98.255978" />
      <trkpt lat="30.69159" lon="-98.256006" />
      <trkpt lat="30.691674" lon="-98.256455" />
      <trkpt lat="30.691701" lon="-98.256737" />
      <trkpt lat="30.691716" lon="-98.256973" />
      <trkpt lat="30.69171" lon="-98.257158" />
      <trkpt lat="30.691694" lon="-98.257347" />
      <trkpt lat="30.691665" lon="-98.257594" />
      <trkpt lat="30.691605" lon="-98.257955" />
      <trkpt lat="30.69155" lon="-98.258291" />
      <trkpt lat="30.691538" lon="-98.258364" />
      <trkpt lat="30.691287" lon="-98.259881" />
      <trkpt lat="30.691264" lon="-98.260018" />
      <trkpt lat="30.691173" lon="-98.260503" />
      <trkpt lat="30.691064" lon="-98.261089" />
      <trkpt lat="30.691035" lon="-98.261245" />
      <trkpt lat="30.690979" lon="-98.261537" />
      <trkpt lat="30.690659" lon="-98.263223" />
      <trkpt lat="30.690251" lon="-98.265372" />
      <trkpt lat="30.689979" lon="-98.266801" />
      <trkpt lat="30.689604" lon="-98.268778" />
      <trkpt lat="30.68932" lon="-98.270282" />
      <trkpt lat="30.689033" lon="-98.272259" />
      <trkpt lat="30.688956" lon="-98.272782" />
      <trkpt lat="30.688943" lon="-98.27287" />
      <trkpt lat="30.688729" lon="-98.274326" />
      <trkpt lat="30.688627" lon="-98.27502" />
      <trkpt lat="30.688453" lon="-98.27621" />
      <trkpt lat="30.688285" lon="-98.277337" />
      <trkpt lat="30.688096" lon="-98.278422" />
      <trkpt lat="30.687813" lon="-98.280045" />
      <trkpt lat="30.687657" lon="-98.280937" />
      <trkpt lat="30.687515" lon="-98.281751" />
      <trkpt lat="30.687224" lon="-98.283417" />
      <trkpt lat="30.687111" lon="-98.283954" />
      <trkpt lat="30.685646" lon="-98.29122" />
      <trkpt lat="30.684551" lon="-98.296899" />
      <trkpt lat="30.683162" lon="-98.304105" />
      <trkpt lat="30.682762" lon="-98.30622" />
      <trkpt lat="30.681804" lon="-98.311185" />
      <trkpt lat="30.681778" lon="-98.311371" />
      <trkpt lat="30.681767" lon="-98.311452" />
      <trkpt lat="30.681742" lon="-98.311746" />
      <trkpt lat="30.681749" lon="-98.31239" />
      <trkpt lat="30.681752" lon="-98.312567" />
      <trkpt lat="30.681741" lon="-98.312649" />
      <trkpt lat="30.681714" lon="-98.312796" />
      <trkpt lat="30.681667" lon="-98.312961" />
      <trkpt lat="30.681646" lon="-98.313013" />
      <trkpt lat="30.681606" lon="-98.313115" />
      <trkpt lat="30.681529" lon="-98.313265" />
      <trkpt lat="30.681434" lon="-98.313384" />
      <trkpt lat="30.680604" lon="-98.314288" />
      <trkpt lat="30.68031" lon="-98.314626" />
      <trkpt lat="30.68024" lon="-98.314728" />
      <trkpt lat="30.680031" lon="-98.31508" />
      <trkpt lat="30.6799" lon="-98.315339" />
      <trkpt lat="30.679813" lon="-98.315541" />
      <trkpt lat="30.67976" lon="-98.315664" />
      <trkpt lat="30.679678" lon="-98.315912" />
      <trkpt lat="30.679613" lon="-98.316148" />
      <trkpt lat="30.67956" lon="-98.316429" />
      <trkpt lat="30.679528" lon="-98.316669" />
      <trkpt lat="30.67953" lon="-98.316802" />
      <trkpt lat="30.679514" lon="-98.317782" />
      <trkpt lat="30.679513" lon="-98.317823" />
      <trkpt lat="30.679517" lon="-98.318445" />
      <trkpt lat="30.679529" lon="-98.31904" />
      <trkpt lat="30.679552" lon="-98.319504" />
      <trkpt lat="30.679562" lon="-98.319703" />
      <trkpt lat="30.67958" lon="-98.319987" />
      <trkpt lat="30.679609" lon="-98.320219" />
      <trkpt lat="30.679642" lon="-98.320484" />
      <trkpt lat="30.679646" lon="-98.320518" />
      <trkpt lat="30.679839" lon="-98.321807" />
      <trkpt lat="30.679898" lon="-98.322071" />
      <trkpt lat="30.679997" lon="-98.32252" />
      <trkpt lat="30.680085" lon="-98.322915" />
      <trkpt lat="30.680212" lon="-98.323488" />
      <trkpt lat="30.680296" lon="-98.323823" />
      <trkpt lat="30.680338" lon="-98.323988" />
      <trkpt lat="30.680555" lon="-98.324673" />
      <trkpt lat="30.680702" lon="-98.325111" />
      <trkpt lat="30.680715" lon="-98.325149" />
      <trkpt lat="30.680746" lon="-98.325237" />
      <trkpt lat="30.680803" lon="-98.325401" />
      <trkpt lat="30.681071" lon="-98.326165" />
      <trkpt lat="30.681186" lon="-98.326489" />
      <trkpt lat="30.681396" lon="-98.32708" />
      <trkpt lat="30.681548" lon="-98.327489" />
      <trkpt lat="30.681664" lon="-98.327744" />
      <trkpt lat="30.681747" lon="-98.327926" />
      <trkpt lat="30.681833" lon="-98.328099" />
      <trkpt lat="30.681912" lon="-98.328257" />
      <trkpt lat="30.682056" lon="-98.328534" />
      <trkpt lat="30.682169" lon="-98.328703" />
      <trkpt lat="30.682231" lon="-98.328808" />
      <trkpt lat="30.68246" lon="-98.329196" />
      <trkpt lat="30.682563" lon="-98.329392" />
      <trkpt lat="30.682777" lon="-98.329796" />
      <trkpt lat="30.682838" lon="-98.329957" />
      <trkpt lat="30.68289" lon="-98.330172" />
      <trkpt lat="30.682937" lon="-98.330334" />
      <trkpt lat="30.682965" lon="-98.330526" />
      <trkpt lat="30.683142" lon="-98.331318" />
      <trkpt lat="30.683181" lon="-98.331472" />
      <trkpt lat="30.683394" lon="-98.332326" />
      <trkpt lat="30.683591" lon="-98.332994" />
      <trkpt lat="30.68383" lon="-98.333834" />
      <trkpt lat="30.684063" lon="-98.334646" />
      <trkpt lat="30.684083" lon="-98.334718" />
      <trkpt lat="30.684116" lon="-98.334872" />
      <trkpt lat="30.68416" lon="-98.335131" />
      <trkpt lat="30.684191" lon="-98.335386" />
      <trkpt lat="30.684259" lon="-98.336401" />
      <trkpt lat="30.684259" lon="-98.336405" />
      <trkpt lat="30.684289" lon="-98.336754" />
      <trkpt lat="30.684309" lon="-98.336924" />
      <trkpt lat="30.684366" lon="-98.337238" />
      <trkpt lat="30.684414" lon="-98.33741" />
      <trkpt lat="30.684485" lon="-98.337579" />
      <trkpt lat="30.684719" lon="-98.338077" />
      <trkpt lat="30.684891" lon="-98.338461" />
      <trkpt lat="30.684947" lon="-98.338663" />
      <trkpt lat="30.684981" lon="-98.33886" />
      <trkpt lat="30.684993" lon="-98.339044" />
      <trkpt lat="30.684982" lon="-98.339223" />
      <trkpt lat="30.684961" lon="-98.339381" />
      <trkpt lat="30.684913" lon="-98.339573" />
      <trkpt lat="30.684827" lon="-98.339787" />
      <trkpt lat="30.684752" lon="-98.339904" />
      <trkpt lat="30.684693" lon="-98.340002" />
      <trkpt lat="30.684587" lon="-98.340134" />
      <trkpt lat="30.684258" lon="-98.34046" />
      <trkpt lat="30.684105" lon="-98.34063" />
      <trkpt lat="30.683954" lon="-98.340867" />
      <trkpt lat="30.683859" lon="-98.341059" />
      <trkpt lat="30.683763" lon="-98.341322" />
      <trkpt lat="30.683718" lon="-98.341537" />
      <trkpt lat="30.683683" lon="-98.341755" />
      <trkpt lat="30.683659" lon="-98.341988" />
      <trkpt lat="30.683604" lon="-98.3426" />
      <trkpt lat="30.6834" lon="-98.344879" />
      <trkpt lat="30.683389" lon="-98.345104" />
      <trkpt lat="30.683384" lon="-98.345329" />
      <trkpt lat="30.683396" lon="-98.345505" />
      <trkpt lat="30.683426" lon="-98.345754" />
      <trkpt lat="30.683481" lon="-98.346048" />
      <trkpt lat="30.683584" lon="-98.346427" />
      <trkpt lat="30.68385" lon="-98.347022" />
      <trkpt lat="30.684061" lon="-98.347548" />
      <trkpt lat="30.6841" lon="-98.347707" />
      <trkpt lat="30.684199" lon="-98.348109" />
      <trkpt lat="30.684298" lon="-98.348597" />
      <trkpt lat="30.684337" lon="-98.348762" />
      <trkpt lat="30.684399" lon="-98.348942" />
      <trkpt lat="30.684462" lon="-98.349092" />
      <trkpt lat="30.684541" lon="-98.34923" />
      <trkpt lat="30.684629" lon="-98.349376" />
      <trkpt lat="30.684755" lon="-98.349577" />
      <trkpt lat="30.685294" lon="-98.350406" />
      <trkpt lat="30.685392" lon="-98.35057" />
      <trkpt lat="30.685491" lon="-98.350721" />
      <trkpt lat="30.685603" lon="-98.350861" />
      <trkpt lat="30.685798" lon="-98.350995" />
      <trkpt lat="30.685993" lon="-98.351077" />
      <trkpt lat="30.686231" lon="-98.351179" />
      <trkpt lat="30.686521" lon="-98.351327" />
      <trkpt lat="30.686835" lon="-98.351542" />
      <trkpt lat="30.688353" lon="-98.352717" />
      <trkpt lat="30.68913" lon="-98.353286" />
      <trkpt lat="30.689688" lon="-98.353628" />
      <trkpt lat="30.690634" lon="-98.354158" />
      <trkpt lat="30.691712" lon="-98.354658" />
      <trkpt lat="30.692923" lon="-98.355182" />
      <trkpt lat="30.693402" lon="-98.355424" />
      <trkpt lat="30.694438" lon="-98.355996" />
      <trkpt lat="30.694727" lon="-98.356169" />
      <trkpt lat="30.694857" lon="-98.356261" />
      <trkpt lat="30.695141" lon="-98.356462" />
      <trkpt lat="30.695281" lon="-98.356575" />
      <trkpt lat="30.695392" lon="-98.356671" />
      <trkpt lat="30.695565" lon="-98.356832" />
      <trkpt lat="30.695803" lon="-98.357102" />
      <trkpt lat="30.695969" lon="-98.357322" />
      <trkpt lat="30.696112" lon="-98.357548" />
      <trkpt lat="30.696268" lon="-98.35782" />
      <trkpt lat="30.696373" lon="-98.358041" />
      <trkpt lat="30.696462" lon="-98.35828" />
      <trkpt lat="30.696531" lon="-98.358494" />
      <trkpt lat="30.696601" lon="-98.358771" />
      <trkpt lat="30.696611" lon="-98.358834" />
      <trkpt lat="30.696655" lon="-98.359077" />
      <trkpt lat="30.69669" lon="-98.359346" />
      <trkpt lat="30.696712" lon="-98.359706" />
      <trkpt lat="30.696722" lon="-98.360353" />
      <trkpt lat="30.69672" lon="-98.360466" />
      <trkpt lat="30.696713" lon="-98.361011" />
      <trkpt lat="30.696673" lon="-98.362108" />
      <trkpt lat="30.696672" lon="-98.36214" />
      <trkpt lat="30.696645" lon="-98.363141" />
      <trkpt lat="30.696607" lon="-98.364035" />
      <trkpt lat="30.696413" lon="-98.36658" />
      <trkpt lat="30.696306" lon="-98.367838" />
      <trkpt lat="30.696261" lon="-98.368495" />
      <trkpt lat="30.696253" lon="-98.369057" />
      <trkpt lat="30.69626" lon="-98.369556" />
      <trkpt lat="30.696283" lon="-98.369937" />
      <trkpt lat="30.696315" lon="-98.370642" />
      <trkpt lat="30.696378" lon="-98.371508" />
      <trkpt lat="30.696406" lon="-98.371738" />
      <trkpt lat="30.696459" lon="-98.371957" />
      <trkpt lat="30.696503" lon="-98.372104" />
      <trkpt lat="30.696569" lon="-98.372323" />
      <trkpt lat="30.696702" lon="-98.372573" />
      <trkpt lat="30.696837" lon="-98.372914" />
      <trkpt lat="30.696907" lon="-98.373194" />
      <trkpt lat="30.69691" lon="-98.37322" />
      <trkpt lat="30.696933" lon="-98.373425" />
      <trkpt lat="30.696937" lon="-98.373726" />
      <trkpt lat="30.696914" lon="-98.374039" />
      <trkpt lat="30.696878" lon="-98.374354" />
      <trkpt lat="30.696813" lon="-98.374597" />
      <trkpt lat="30.696728" lon="-98.374788" />
      <trkpt lat="30.696492" lon="-98.375194" />
      <trkpt lat="30.696402" lon="-98.375447" />
      <trkpt lat="30.696298" lon="-98.375843" />
      <trkpt lat="30.696231" lon="-98.376321" />
      <trkpt lat="30.696186" lon="-98.376765" />
      <trkpt lat="30.696195" lon="-98.377184" />
      <trkpt lat="30.696245" lon="-98.377572" />
      <trkpt lat="30.696414" lon="-98.378544" />
      <trkpt lat="30.696463" lon="-98.378872" />
      <trkpt lat="30.696564" lon="-98.3792" />
      <trkpt lat="30.696703" lon="-98.379523" />
      <trkpt lat="30.696873" lon="-98.379791" />
      <trkpt lat="30.697102" lon="-98.380064" />
      <trkpt lat="30.697364" lon="-98.380269" />
      <trkpt lat="30.697608" lon="-98.380408" />
      <trkpt lat="30.697893" lon="-98.380499" />
      <trkpt lat="30.698431" lon="-98.381431" />
      <trkpt lat="30.696887" lon="-98.381791" />
      <trkpt lat="30.69667" lon="-98.381844" />
      <trkpt lat="30.696482" lon="-98.381899" />
      <trkpt lat="30.695544" lon="-98.382234" />
      <trkpt lat="30.693243" lon="-98.383269" />
      <trkpt lat="30.693057" lon="-98.383364" />
      <trkpt lat="30.692863" lon="-98.383469" />
      <trkpt lat="30.692627" lon="-98.383612" />
      <trkpt lat="30.692402" lon="-98.383771" />
      <trkpt lat="30.692245" lon="-98.383895" />
      <trkpt lat="30.692079" lon="-98.384039" />
      <trkpt lat="30.691927" lon="-98.384182" />
      <trkpt lat="30.691868" lon="-98.384239" />
      <trkpt lat="30.690866" lon="-98.385284" />
      <trkpt lat="30.690438" lon="-98.38572" />
      <trkpt lat="30.690291" lon="-98.38587" />
      <trkpt lat="30.689826" lon="-98.386345" />
      <trkpt lat="30.689332" lon="-98.386848" />
      <trkpt lat="30.688723" lon="-98.387469" />
      <trkpt lat="30.687815" lon="-98.388396" />
      <trkpt lat="30.687373" lon="-98.388819" />
      <trkpt lat="30.686898" lon="-98.389201" />
      <trkpt lat="30.68647" lon="-98.389459" />
      <trkpt lat="30.685861" lon="-98.389742" />
      <trkpt lat="30.685078" lon="-98.390106" />
      <trkpt lat="30.684763" lon="-98.390252" />
      <trkpt lat="30.683293" lon="-98.390919" />
      <trkpt lat="30.68232" lon="-98.391359" />
      <trkpt lat="30.682239" lon="-98.391396" />
      <trkpt lat="30.681829" lon="-98.391536" />
      <trkpt lat="30.681407" lon="-98.391659" />
      <trkpt lat="30.679784" lon="-98.392031" />
      <trkpt lat="30.678687" lon="-98.392282" />
      <trkpt lat="30.67803" lon="-98.392433" />
      <trkpt lat="30.677327" lon="-98.392593" />
      <trkpt lat="30.675282" lon="-98.393059" />
      <trkpt lat="30.674723" lon="-98.393186" />
      <trkpt lat="30.674175" lon="-98.393325" />
      <trkpt lat="30.673951" lon="-98.393429" />
      <trkpt lat="30.673813" lon="-98.393485" />
      <trkpt lat="30.673514" lon="-98.393667" />
      <trkpt lat="30.673218" lon="-98.393871" />
      <trkpt lat="30.673036" lon="-98.394037" />
      <trkpt lat="30.672806" lon="-98.394291" />
      <trkpt lat="30.672571" lon="-98.394627" />
      <trkpt lat="30.672309" lon="-98.395136" />
      <trkpt lat="30.672178" lon="-98.395491" />
      <trkpt lat="30.672035" lon="-98.395957" />
      <trkpt lat="30.671966" lon="-98.396182" />
      <trkpt lat="30.671585" lon="-98.397576" />
      <trkpt lat="30.671208" lon="-98.398954" />
      <trkpt lat="30.671046" lon="-98.399543" />
      <trkpt lat="30.671038" lon="-98.399573" />
      <trkpt lat="30.670978" lon="-98.399796" />
      <trkpt lat="30.67029" lon="-98.402243" />
      <trkpt lat="30.66995" lon="-98.403524" />
      <trkpt lat="30.669877" lon="-98.403791" />
      <trkpt lat="30.669629" lon="-98.40466" />
      <trkpt lat="30.669412" lon="-98.405409" />
      <trkpt lat="30.669121" lon="-98.406563" />
      <trkpt lat="30.669054" lon="-98.406814" />
      <trkpt lat="30.668962" lon="-98.407151" />
      <trkpt lat="30.668795" lon="-98.407739" />
      <trkpt lat="30.668549" lon="-98.408605" />
      <trkpt lat="30.668438" lon="-98.408998" />
      <trkpt lat="30.668145" lon="-98.410032" />
      <trkpt lat="30.667712" lon="-98.411612" />
      <trkpt lat="30.667496" lon="-98.412378" />
      <trkpt lat="30.667082" lon="-98.413859" />
      <trkpt lat="30.666783" lon="-98.414926" />
      <trkpt lat="30.666751" lon="-98.415034" />
      <trkpt lat="30.666712" lon="-98.415151" />
      <trkpt lat="30.666619" lon="-98.415423" />
      <trkpt lat="30.666473" lon="-98.415731" />
      <trkpt lat="30.666049" lon="-98.416483" />
      <trkpt lat="30.665246" lon="-98.417374" />
      <trkpt lat="30.664943" lon="-98.417711" />
      <trkpt lat="30.664085" lon="-98.418647" />
      <trkpt lat="30.664027" lon="-98.418711" />
      <trkpt lat="30.663201" lon="-98.419626" />
      <trkpt lat="30.662982" lon="-98.419857" />
      <trkpt lat="30.662593" lon="-98.42025" />
      <trkpt lat="30.660319" lon="-98.422451" />
      <trkpt lat="30.65848" lon="-98.424234" />
      <trkpt lat="30.65689" lon="-98.425795" />
      <trkpt lat="30.657189" lon="-98.426362" />
      <trkpt lat="30.657308" lon="-98.426646" />
      <trkpt lat="30.657393" lon="-98.426851" />
      <trkpt lat="30.657412" lon="-98.426903" />
      <trkpt lat="30.657527" lon="-98.427226" />
      <trkpt lat="30.657653" lon="-98.427617" />
      <trkpt lat="30.658313" lon="-98.429999" />
      <trkpt lat="30.658458" lon="-98.430529" />
      <trkpt lat="30.658501" lon="-98.430662" />
      <trkpt lat="30.658706" lon="-98.431466" />
      <trkpt lat="30.658828" lon="-98.431878" />
      <trkpt lat="30.658966" lon="-98.432284" />
      <trkpt lat="30.659122" lon="-98.432681" />
      <trkpt lat="30.659175" lon="-98.432809" />
      <trkpt lat="30.659617" lon="-98.433854" />
      <trkpt lat="30.659633" lon="-98.433896" />
      <trkpt lat="30.659703" lon="-98.434136" />
      <trkpt lat="30.659745" lon="-98.434319" />
      <trkpt lat="30.659773" lon="-98.434505" />
      <trkpt lat="30.659786" lon="-98.434671" />
      <trkpt lat="30.659789" lon="-98.43488" />
      <trkpt lat="30.659774" lon="-98.435119" />
      <trkpt lat="30.659741" lon="-98.435355" />
      <trkpt lat="30.65973" lon="-98.435413" />
      <trkpt lat="30.659675" lon="-98.435638" />
      <trkpt lat="30.659603" lon="-98.435857" />
      <trkpt lat="30.659569" lon="-98.435947" />
      <trkpt lat="30.659309" lon="-98.436573" />
      <trkpt lat="30.659271" lon="-98.436698" />
      <trkpt lat="30.658735" lon="-98.438006" />
      <trkpt lat="30.6587" lon="-98.438124" />
      <trkpt lat="30.658655" lon="-98.438205" />
      <trkpt lat="30.658536" lon="-98.438497" />
      <trkpt lat="30.658438" lon="-98.438786" />
      <trkpt lat="30.658358" lon="-98.439081" />
      <trkpt lat="30.658294" lon="-98.439382" />
      <trkpt lat="30.658262" lon="-98.439588" />
      <trkpt lat="30.658244" lon="-98.439772" />
      <trkpt lat="30.658233" lon="-98.440019" />
      <trkpt lat="30.658236" lon="-98.440226" />
      <trkpt lat="30.658252" lon="-98.440451" />
      <trkpt lat="30.658265" lon="-98.440574" />
      <trkpt lat="30.658287" lon="-98.440717" />
      <trkpt lat="30.658342" lon="-98.44099" />
      <trkpt lat="30.658432" lon="-98.441339" />
      <trkpt lat="30.658564" lon="-98.441751" />
      <trkpt lat="30.658596" lon="-98.441851" />
      <trkpt lat="30.658776" lon="-98.442411" />
      <trkpt lat="30.658877" lon="-98.442721" />
      <trkpt lat="30.658937" lon="-98.44289" />
      <trkpt lat="30.659454" lon="-98.444024" />
      <trkpt lat="30.658959" lon="-98.444445" />
      <trkpt lat="30.658848" lon="-98.44454" />
      <trkpt lat="30.658814" lon="-98.444569" />
      <trkpt lat="30.65857" lon="-98.444776" />
      <trkpt lat="30.658552" lon="-98.444791" />
      <trkpt lat="30.658195" lon="-98.445099" />
      <trkpt lat="30.657424" lon="-98.445765" />
      <trkpt lat="30.657235" lon="-98.445929" />
      <trkpt lat="30.656915" lon="-98.4462" />
      <trkpt lat="30.65674" lon="-98.44633" />
      <trkpt lat="30.65671" lon="-98.446352" />
      <trkpt lat="30.656528" lon="-98.446467" />
      <trkpt lat="30.656291" lon="-98.446593" />
      <trkpt lat="30.656047" lon="-98.446698" />
      <trkpt lat="30.656004" lon="-98.446712" />
      <trkpt lat="30.655801" lon="-98.446779" />
      <trkpt lat="30.655559" lon="-98.44684" />
      <trkpt lat="30.655504" lon="-98.446854" />
      <trkpt lat="30.655199" lon="-98.446907" />
      <trkpt lat="30.655141" lon="-98.446913" />
      <trkpt lat="30.654892" lon="-98.446936" />
      <trkpt lat="30.654842" lon="-98.446939" />
      <trkpt lat="30.654339" lon="-98.446953" />
      <trkpt lat="30.654271" lon="-98.446955" />
      <trkpt lat="30.653392" lon="-98.446956" />
      <trkpt lat="30.653268" lon="-98.446955" />
      <trkpt lat="30.653026" lon="-98.446955" />
      <trkpt lat="30.652495" lon="-98.446956" />
      <trkpt lat="30.652144" lon="-98.446957" />
      <trkpt lat="30.651754" lon="-98.446964" />
      <trkpt lat="30.651421" lon="-98.446972" />
      <trkpt lat="30.651064" lon="-98.446971" />
      <trkpt lat="30.651006" lon="-98.446971" />
      <trkpt lat="30.650778" lon="-98.446972" />
      <trkpt lat="30.650328" lon="-98.446974" />
      <trkpt lat="30.650241" lon="-98.446975" />
      <trkpt lat="30.649501" lon="-98.446986" />
      <trkpt lat="30.648748" lon="-98.446991" />
      <trkpt lat="30.648047" lon="-98.446984" />
      <trkpt lat="30.647942" lon="-98.446987" />
      <trkpt lat="30.647163" lon="-98.447004" />
      <trkpt lat="30.646645" lon="-98.447004" />
      <trkpt lat="30.646514" lon="-98.447004" />
      <trkpt lat="30.646358" lon="-98.447004" />
      <trkpt lat="30.645893" lon="-98.447003" />
      <trkpt lat="30.642259" lon="-98.446919" />
      <trkpt lat="30.641817" lon="-98.446907" />
      <trkpt lat="30.640738" lon="-98.446895" />
      <trkpt lat="30.640488" lon="-98.446882" />
      <trkpt lat="30.640105" lon="-98.446831" />
      <trkpt lat="30.639743" lon="-98.446762" />
      <trkpt lat="30.639517" lon="-98.4467" />
      <trkpt lat="30.63939" lon="-98.446662" />
      <trkpt lat="30.639077" lon="-98.446548" />
      <trkpt lat="30.638771" lon="-98.446413" />
      <trkpt lat="30.638701" lon="-98.446376" />
      <trkpt lat="30.638472" lon="-98.446256" />
      <trkpt lat="30.637489" lon="-98.445645" />
      <trkpt lat="30.637217" lon="-98.44548" />
      <trkpt lat="30.63693" lon="-98.445307" />
      <trkpt lat="30.636635" lon="-98.445157" />
      <trkpt lat="30.636333" lon="-98.445027" />
      <trkpt lat="30.636025" lon="-98.444916" />
      <trkpt lat="30.635712" lon="-98.444827" />
      <trkpt lat="30.63539" lon="-98.444757" />
      <trkpt lat="30.634133" lon="-98.444621" />
      <trkpt lat="30.632265" lon="-98.444408" />
      <trkpt lat="30.631959" lon="-98.444392" />
      <trkpt lat="30.631655" lon="-98.444397" />
      <trkpt lat="30.631527" lon="-98.444408" />
      <trkpt lat="30.631341" lon="-98.444424" />
      <trkpt lat="30.63103" lon="-98.444474" />
      <trkpt lat="30.630706" lon="-98.444546" />
      <trkpt lat="30.630387" lon="-98.444641" />
      <trkpt lat="30.630074" lon="-98.444758" />
      <trkpt lat="30.629767" lon="-98.444897" />
      <trkpt lat="30.629225" lon="-98.445183" />
      <trkpt lat="30.6268" lon="-98.446485" />
      <trkpt lat="30.62521" lon="-98.447333" />
      <trkpt lat="30.623371" lon="-98.448316" />
      <trkpt lat="30.622977" lon="-98.448533" />
      <trkpt lat="30.622677" lon="-98.448683" />
      <trkpt lat="30.62237" lon="-98.448813" />
      <trkpt lat="30.622057" lon="-98.448923" />
      <trkpt lat="30.621736" lon="-98.449008" />
      <trkpt lat="30.621411" lon="-98.449071" />
      <trkpt lat="30.621083" lon="-98.449113" />
      <trkpt lat="30.620753" lon="-98.449132" />
      <trkpt lat="30.620478" lon="-98.449132" />
      <trkpt lat="30.619612" lon="-98.449081" />
      <trkpt lat="30.619342" lon="-98.449077" />
      <trkpt lat="30.619073" lon="-98.449095" />
      <trkpt lat="30.618805" lon="-98.449132" />
      <trkpt lat="30.61854" lon="-98.44919" />
      <trkpt lat="30.618279" lon="-98.449268" />
      <trkpt lat="30.617855" lon="-98.449436" />
      <trkpt lat="30.617547" lon="-98.449597" />
      <trkpt lat="30.617172" lon="-98.44988" />
      <trkpt lat="30.61654" lon="-98.450407" />
      <trkpt lat="30.615783" lon="-98.45106" />
      <trkpt lat="30.61501" lon="-98.451743" />
      <trkpt lat="30.614324" lon="-98.452334" />
      <trkpt lat="30.613658" lon="-98.452909" />
      <trkpt lat="30.613434" lon="-98.453091" />
      <trkpt lat="30.613199" lon="-98.453254" />
      <trkpt lat="30.612956" lon="-98.453398" />
      <trkpt lat="30.612704" lon="-98.453522" />
      <trkpt lat="30.612445" lon="-98.453626" />
      <trkpt lat="30.612181" lon="-98.453707" />
      <trkpt lat="30.611956" lon="-98.453758" />
      <trkpt lat="30.611914" lon="-98.453767" />
      <trkpt lat="30.611648" lon="-98.453805" />
      <trkpt lat="30.61138" lon="-98.453822" />
      <trkpt lat="30.611166" lon="-98.453821" />
      <trkpt lat="30.608769" lon="-98.453645" />
      <trkpt lat="30.605458" lon="-98.453403" />
      <trkpt lat="30.604111" lon="-98.453329" />
      <trkpt lat="30.60127" lon="-98.453255" />
      <trkpt lat="30.599565" lon="-98.45321" />
      <trkpt lat="30.598889" lon="-98.453192" />
      <trkpt lat="30.598291" lon="-98.453185" />
      <trkpt lat="30.597498" lon="-98.453176" />
      <trkpt lat="30.59583" lon="-98.45311" />
      <trkpt lat="30.593919" lon="-98.453049" />
      <trkpt lat="30.593403" lon="-98.453033" />
      <trkpt lat="30.593287" lon="-98.453019" />
      <trkpt lat="30.592867" lon="-98.452938" />
      <trkpt lat="30.592502" lon="-98.452847" />
      <trkpt lat="30.592142" lon="-98.452736" />
      <trkpt lat="30.591727" lon="-98.45259" />
      <trkpt lat="30.59137" lon="-98.452441" />
      <trkpt lat="30.591019" lon="-98.452272" />
      <trkpt lat="30.590627" lon="-98.452057" />
      <trkpt lat="30.590339" lon="-98.451885" />
      <trkpt lat="30.590059" lon="-98.451697" />
      <trkpt lat="30.589788" lon="-98.451492" />
      <trkpt lat="30.58897" lon="-98.450804" />
      <trkpt lat="30.588642" lon="-98.4505" />
      <trkpt lat="30.588061" lon="-98.449976" />
      <trkpt lat="30.587002" lon="-98.449039" />
      <trkpt lat="30.586639" lon="-98.449589" />
      <trkpt lat="30.585988" lon="-98.450539" />
      <trkpt lat="30.585573" lon="-98.451204" />
      <trkpt lat="30.585287" lon="-98.451632" />
      <trkpt lat="30.584414" lon="-98.452929" />
      <trkpt lat="30.583964" lon="-98.453644" />
      <trkpt lat="30.58385" lon="-98.453824" />
      <trkpt lat="30.582781" lon="-98.455461" />
      <trkpt lat="30.582542" lon="-98.455943" />
      <trkpt lat="30.58232" lon="-98.456436" />
      <trkpt lat="30.582117" lon="-98.45694" />
      <trkpt lat="30.581797" lon="-98.457658" />
      <trkpt lat="30.581284" lon="-98.458871" />
      <trkpt lat="30.580777" lon="-98.460097" />
      <trkpt lat="30.580569" lon="-98.460556" />
      <trkpt lat="30.58024" lon="-98.461279" />
      <trkpt lat="30.579796" lon="-98.462418" />
      <trkpt lat="30.579248" lon="-98.463682" />
      <trkpt lat="30.578651" lon="-98.46511" />
      <trkpt lat="30.578475" lon="-98.465487" />
      <trkpt lat="30.578283" lon="-98.465853" />
      <trkpt lat="30.578075" lon="-98.466207" />
      <trkpt lat="30.5779" lon="-98.466444" />
      <trkpt lat="30.577677" lon="-98.466716" />
      <trkpt lat="30.577441" lon="-98.466974" />
      <trkpt lat="30.576565" lon="-98.467825" />
      <trkpt lat="30.576371" lon="-98.468008" />
      <trkpt lat="30.576244" lon="-98.46812" />
      <trkpt lat="30.575624" lon="-98.468668" />
      <trkpt lat="30.575261" lon="-98.469017" />
      <trkpt lat="30.574834" lon="-98.469427" />
      <trkpt lat="30.574258" lon="-98.469967" />
      <trkpt lat="30.573971" lon="-98.470263" />
      <trkpt lat="30.573696" lon="-98.470574" />
      <trkpt lat="30.573588" lon="-98.470704" />
      <trkpt lat="30.572912" lon="-98.471573" />
      <trkpt lat="30.572369" lon="-98.472247" />
      <trkpt lat="30.571885" lon="-98.47288" />
      <trkpt lat="30.571383" lon="-98.47351" />
      <trkpt lat="30.570846" lon="-98.474237" />
      <trkpt lat="30.570684" lon="-98.474485" />
      <trkpt lat="30.570604" lon="-98.474631" />
      <trkpt lat="30.57054" lon="-98.474748" />
      <trkpt lat="30.570413" lon="-98.475022" />
      <trkpt lat="30.570305" lon="-98.475307" />
      <trkpt lat="30.570156" lon="-98.47579" />
      <trkpt lat="30.570084" lon="-98.476086" />
      <trkpt lat="30.57003" lon="-98.476386" />
      <trkpt lat="30.569995" lon="-98.476691" />
      <trkpt lat="30.56998" lon="-98.476997" />
      <trkpt lat="30.569846" lon="-98.478318" />
      <trkpt lat="30.56915" lon="-98.484796" />
      <trkpt lat="30.569122" lon="-98.48491" />
      <trkpt lat="30.569079" lon="-98.485018" />
      <trkpt lat="30.569022" lon="-98.485117" />
      <trkpt lat="30.568953" lon="-98.485205" />
      <trkpt lat="30.568861" lon="-98.485335" />
      <trkpt lat="30.558581" lon="-98.473424" />
      <trkpt lat="30.55754" lon="-98.472219" />
      <trkpt lat="30.55677" lon="-98.471327" />
      <trkpt lat="30.556342" lon="-98.470831" />
      <trkpt lat="30.55596" lon="-98.47039" />
      <trkpt lat="30.555379" lon="-98.46972" />
      <trkpt lat="30.545357" lon="-98.458122" />
      <trkpt lat="30.545009" lon="-98.457679" />
      <trkpt lat="30.544707" lon="-98.457256" />
      <trkpt lat="30.544396" lon="-98.45678" />
      <trkpt lat="30.544062" lon="-98.456208" />
      <trkpt lat="30.543806" lon="-98.45571" />
      <trkpt lat="30.543594" lon="-98.455255" />
      <trkpt lat="30.541404" lon="-98.450088" />
      <trkpt lat="30.541092" lon="-98.449407" />
      <trkpt lat="30.540743" lon="-98.448743" />
      <trkpt lat="30.540357" lon="-98.448096" />
      <trkpt lat="30.539973" lon="-98.447543" />
      <trkpt lat="30.538206" lon="-98.445135" />
      <trkpt lat="30.537839" lon="-98.444635" />
      <trkpt lat="30.536664" lon="-98.443035" />
      <trkpt lat="30.53412" lon="-98.439579" />
      <trkpt lat="30.533871" lon="-98.439206" />
      <trkpt lat="30.533641" lon="-98.438841" />
      <trkpt lat="30.533426" lon="-98.438481" />
      <trkpt lat="30.533219" lon="-98.438107" />
      <trkpt lat="30.53303" lon="-98.437728" />
      <trkpt lat="30.532831" lon="-98.437301" />
      <trkpt lat="30.532678" lon="-98.436925" />
      <trkpt lat="30.532506" lon="-98.436485" />
      <trkpt lat="30.529887" lon="-98.42834" />
      <trkpt lat="30.52967" lon="-98.427718" />
      <trkpt lat="30.529435" lon="-98.427121" />
      <trkpt lat="30.52801" lon="-98.423968" />
      <trkpt lat="30.527777" lon="-98.42345" />
      <trkpt lat="30.526681" lon="-98.421042" />
      <trkpt lat="30.526367" lon="-98.420386" />
      <trkpt lat="30.526069" lon="-98.419793" />
      <trkpt lat="30.525761" lon="-98.419258" />
      <trkpt lat="30.525359" lon="-98.418626" />
      <trkpt lat="30.52322" lon="-98.415713" />
      <trkpt lat="30.52163" lon="-98.413547" />
      <trkpt lat="30.521402" lon="-98.413222" />
      <trkpt lat="30.521159" lon="-98.412844" />
      <trkpt lat="30.520936" lon="-98.412468" />
      <trkpt lat="30.520711" lon="-98.41206" />
      <trkpt lat="30.51962" lon="-98.409784" />
      <trkpt lat="30.519843" lon="-98.40964" />
      <trkpt lat="30.51992" lon="-98.409557" />
      <trkpt lat="30.519991" lon="-98.409466" />
      <trkpt lat="30.520055" lon="-98.409369" />
      <trkpt lat="30.520111" lon="-98.409265" />
      <trkpt lat="30.520282" lon="-98.408826" />
      <trkpt lat="30.520159" lon="-98.409156" />
      <trkpt lat="30.520111" lon="-98.409265" />
      <trkpt lat="30.520055" lon="-98.409369" />
      <trkpt lat="30.519991" lon="-98.409466" />
      <trkpt lat="30.51992" lon="-98.409557" />
      <trkpt lat="30.519843" lon="-98.40964" />
      <trkpt lat="30.51962" lon="-98.409784" />
      <trkpt lat="30.517832" lon="-98.406111" />
      <trkpt lat="30.517599" lon="-98.40562" />
      <trkpt lat="30.5175" lon="-98.405396" />
      <trkpt lat="30.517452" lon="-98.405289" />
      <trkpt lat="30.517181" lon="-98.404596" />
      <trkpt lat="30.517023" lon="-98.40414" />
      <trkpt lat="30.516839" lon="-98.403438" />
      <trkpt lat="30.516576" lon="-98.402503" />
      <trkpt lat="30.515952" lon="-98.400217" />
      <trkpt lat="30.515332" lon="-98.398003" />
      <trkpt lat="30.515057" lon="-98.397051" />
      <trkpt lat="30.514847" lon="-98.396345" />
      <trkpt lat="30.514753" lon="-98.39595" />
      <trkpt lat="30.514668" lon="-98.395503" />
      <trkpt lat="30.514572" lon="-98.394902" />
      <trkpt lat="30.514523" lon="-98.394519" />
      <trkpt lat="30.514495" lon="-98.394298" />
      <trkpt lat="30.514028" lon="-98.389454" />
      <trkpt lat="30.513349" lon="-98.382157" />
      <trkpt lat="30.513145" lon="-98.380087" />
      <trkpt lat="30.513065" lon="-98.379273" />
      <trkpt lat="30.513046" lon="-98.379079" />
      <trkpt lat="30.512871" lon="-98.377146" />
      <trkpt lat="30.512825" lon="-98.376665" />
      <trkpt lat="30.512696" lon="-98.375355" />
      <trkpt lat="30.512664" lon="-98.374987" />
      <trkpt lat="30.512636" lon="-98.374417" />
      <trkpt lat="30.512634" lon="-98.374258" />
      <trkpt lat="30.512628" lon="-98.373846" />
      <trkpt lat="30.512641" lon="-98.373276" />
      <trkpt lat="30.512672" lon="-98.372771" />
      <trkpt lat="30.512724" lon="-98.372269" />
      <trkpt lat="30.512833" lon="-98.371522" />
      <trkpt lat="30.513023" lon="-98.370353" />
      <trkpt lat="30.513519" lon="-98.367436" />
      <trkpt lat="30.513929" lon="-98.365168" />
      <trkpt lat="30.51417" lon="-98.363946" />
      <trkpt lat="30.5143" lon="-98.363338" />
      <trkpt lat="30.515098" lon="-98.360077" />
      <trkpt lat="30.515928" lon="-98.356619" />
      <trkpt lat="30.516693" lon="-98.353463" />
      <trkpt lat="30.517169" lon="-98.35155" />
      <trkpt lat="30.517288" lon="-98.351092" />
      <trkpt lat="30.517447" lon="-98.350097" />
      <trkpt lat="30.517505" lon="-98.349517" />
      <trkpt lat="30.517536" lon="-98.349011" />
      <trkpt lat="30.517547" lon="-98.348458" />
      <trkpt lat="30.517535" lon="-98.347883" />
      <trkpt lat="30.517515" lon="-98.347549" />
      <trkpt lat="30.517501" lon="-98.347319" />
      <trkpt lat="30.517406" lon="-98.346405" />
      <trkpt lat="30.517067" lon="-98.343131" />
      <trkpt lat="30.516881" lon="-98.341345" />
      <trkpt lat="30.516445" lon="-98.33714" />
      <trkpt lat="30.515353" lon="-98.326712" />
      <trkpt lat="30.514295" lon="-98.316637" />
      <trkpt lat="30.514213" lon="-98.315975" />
      <trkpt lat="30.514116" lon="-98.315357" />
      <trkpt lat="30.513999" lon="-98.314738" />
      <trkpt lat="30.513856" lon="-98.314085" />
      <trkpt lat="30.51362" lon="-98.31314" />
      <trkpt lat="30.513592" lon="-98.313021" />
      <trkpt lat="30.511808" lon="-98.306075" />
      <trkpt lat="30.511778" lon="-98.305958" />
      <trkpt lat="30.511429" lon="-98.304591" />
      <trkpt lat="30.511404" lon="-98.304494" />
      <trkpt lat="30.510883" lon="-98.30247" />
      <trkpt lat="30.510851" lon="-98.302347" />
      <trkpt lat="30.510523" lon="-98.301119" />
      <trkpt lat="30.510218" lon="-98.299876" />
      <trkpt lat="30.510172" lon="-98.299713" />
      <trkpt lat="30.50958" lon="-98.297436" />
      <trkpt lat="30.50939" lon="-98.296725" />
      <trkpt lat="30.509122" lon="-98.295914" />
      <trkpt lat="30.509772" lon="-98.295402" />
      <trkpt lat="30.51306" lon="-98.292799" />
      <trkpt lat="30.513493" lon="-98.292481" />
      <trkpt lat="30.515078" lon="-98.291637" />
      <trkpt lat="30.515203" lon="-98.291559" />
      <trkpt lat="30.516345" lon="-98.290923" />
      <trkpt lat="30.516661" lon="-98.290786" />
      <trkpt lat="30.516825" lon="-98.290701" />
      <trkpt lat="30.524261" lon="-98.286855" />
      <trkpt lat="30.527549" lon="-98.285123" />
      <trkpt lat="30.528319" lon="-98.284717" />
      <trkpt lat="30.532552" lon="-98.282492" />
      <trkpt lat="30.533114" lon="-98.282177" />
      <trkpt lat="30.539187" lon="-98.27899" />
      <trkpt lat="30.539868" lon="-98.278636" />
      <trkpt lat="30.540466" lon="-98.278368" />
      <trkpt lat="30.540873" lon="-98.278184" />
      <trkpt lat="30.541731" lon="-98.277883" />
      <trkpt lat="30.541787" lon="-98.277863" />
      <trkpt lat="30.541793" lon="-98.277862" />
    </trkseg>
  </trk>
</gpx>