<?xml version='1.0' encoding='UTF-8'?>
<gpx version="1.1" creator="Antigravity Route Generator" xmlns="http://www.topografix.com/GPX/1/1">
  <trk>
    <name>Lake Victor &amp; Burnet Backcountry Sweep</name>
    <desc>Savannah &amp; Prairie Sweeps (25.0 mi) - RM 2340 -&gt; Lake Victor -&gt; Watson -&gt; Burnet</desc>
    <trkseg>
      <trkpt lat="30.758116" lon="-98.228704" />
      <trkpt lat="30.758109" lon="-98.228741" />
      <trkpt lat="30.758592" lon="-98.228868" />
      <trkpt lat="30.758885" lon="-98.228936" />
      <trkpt lat="30.759096" lon="-98.228986" />
      <trkpt lat="30.759484" lon="-98.229086" />
      <trkpt lat="30.759836" lon="-98.229176" />
      <trkpt lat="30.760033" lon="-98.229226" />
      <trkpt lat="30.760412" lon="-98.229315" />
      <trkpt lat="30.760654" lon="-98.229377" />
      <trkpt lat="30.760945" lon="-98.22945" />
      <trkpt lat="30.761214" lon="-98.229521" />
      <trkpt lat="30.761869" lon="-98.229678" />
      <trkpt lat="30.763471" lon="-98.230088" />
      <trkpt lat="30.763851" lon="-98.230182" />
      <trkpt lat="30.765855" lon="-98.230689" />
      <trkpt lat="30.767521" lon="-98.231107" />
      <trkpt lat="30.767807" lon="-98.231183" />
      <trkpt lat="30.768088" lon="-98.231247" />
      <trkpt lat="30.76822" lon="-98.231279" />
      <trkpt lat="30.76831" lon="-98.231302" />
      <trkpt lat="30.768929" lon="-98.231459" />
      <trkpt lat="30.770822" lon="-98.231936" />
      <trkpt lat="30.771292" lon="-98.232059" />
      <trkpt lat="30.77167" lon="-98.232146" />
      <trkpt lat="30.772468" lon="-98.232352" />
      <trkpt lat="30.773394" lon="-98.232579" />
      <trkpt lat="30.774346" lon="-98.232832" />
      <trkpt lat="30.775256" lon="-98.233048" />
      <trkpt lat="30.776201" lon="-98.233291" />
      <trkpt lat="30.777149" lon="-98.233538" />
      <trkpt lat="30.777192" lon="-98.233549" />
      <trkpt lat="30.777898" lon="-98.233728" />
      <trkpt lat="30.778855" lon="-98.233972" />
      <trkpt lat="30.779487" lon="-98.234147" />
      <trkpt lat="30.779661" lon="-98.234194" />
      <trkpt lat="30.780387" lon="-98.234382" />
      <trkpt lat="30.781471" lon="-98.234655" />
      <trkpt lat="30.782443" lon="-98.234908" />
      <trkpt lat="30.784875" lon="-98.235597" />
      <trkpt lat="30.784947" lon="-98.235617" />
      <trkpt lat="30.786896" lon="-98.236168" />
      <trkpt lat="30.787019" lon="-98.236199" />
      <trkpt lat="30.787521" lon="-98.236351" />
      <trkpt lat="30.787548" lon="-98.23636" />
      <trkpt lat="30.788476" lon="-98.236612" />
      <trkpt lat="30.788662" lon="-98.236662" />
      <trkpt lat="30.789183" lon="-98.236785" />
      <trkpt lat="30.789427" lon="-98.236851" />
      <trkpt lat="30.790486" lon="-98.237087" />
      <trkpt lat="30.790979" lon="-98.237202" />
      <trkpt lat="30.791351" lon="-98.23729" />
      <trkpt lat="30.792256" lon="-98.237498" />
      <trkpt lat="30.79279" lon="-98.237637" />
      <trkpt lat="30.792931" lon="-98.237666" />
      <trkpt lat="30.793727" lon="-98.237854" />
      <trkpt lat="30.793804" lon="-98.237872" />
      <trkpt lat="30.794191" lon="-98.237943" />
      <trkpt lat="30.794705" lon="-98.23808" />
      <trkpt lat="30.795279" lon="-98.238201" />
      <trkpt lat="30.79559" lon="-98.238279" />
      <trkpt lat="30.795693" lon="-98.238299" />
      <trkpt lat="30.796792" lon="-98.238565" />
      <trkpt lat="30.797876" lon="-98.238807" />
      <trkpt lat="30.798328" lon="-98.238917" />
      <trkpt lat="30.798598" lon="-98.23898" />
      <trkpt lat="30.800104" lon="-98.239326" />
      <trkpt lat="30.800171" lon="-98.23934" />
      <trkpt lat="30.801495" lon="-98.239648" />
      <trkpt lat="30.802051" lon="-98.239781" />
      <trkpt lat="30.802686" lon="-98.239914" />
      <trkpt lat="30.803257" lon="-98.240003" />
      <trkpt lat="30.803476" lon="-98.24002" />
      <trkpt lat="30.803707" lon="-98.240039" />
      <trkpt lat="30.804197" lon="-98.240055" />
      <trkpt lat="30.804692" lon="-98.240051" />
      <trkpt lat="30.806202" lon="-98.239935" />
      <trkpt lat="30.806293" lon="-98.239929" />
      <trkpt lat="30.807093" lon="-98.239856" />
      <trkpt lat="30.808157" lon="-98.23977" />
      <trkpt lat="30.808698" lon="-98.239738" />
      <trkpt lat="30.808896" lon="-98.239723" />
      <trkpt lat="30.809092" lon="-98.239706" />
      <trkpt lat="30.80935" lon="-98.239683" />
      <trkpt lat="30.812766" lon="-98.239433" />
      <trkpt lat="30.813941" lon="-98.239324" />
      <trkpt lat="30.814066" lon="-98.239314" />
      <trkpt lat="30.815298" lon="-98.239224" />
      <trkpt lat="30.815344" lon="-98.239222" />
      <trkpt lat="30.816515" lon="-98.239135" />
      <trkpt lat="30.816798" lon="-98.239111" />
      <trkpt lat="30.817258" lon="-98.239063" />
      <trkpt lat="30.817535" lon="-98.23904" />
      <trkpt lat="30.820902" lon="-98.238777" />
      <trkpt lat="30.823211" lon="-98.238599" />
      <trkpt lat="30.82486" lon="-98.23847" />
      <trkpt lat="30.824977" lon="-98.238466" />
      <trkpt lat="30.825459" lon="-98.238428" />
      <trkpt lat="30.829613" lon="-98.238094" />
      <trkpt lat="30.829809" lon="-98.238078" />
      <trkpt lat="30.833753" lon="-98.237766" />
      <trkpt lat="30.833866" lon="-98.237763" />
      <trkpt lat="30.834469" lon="-98.237715" />
      <trkpt lat="30.837083" lon="-98.237518" />
      <trkpt lat="30.840499" lon="-98.237242" />
      <trkpt lat="30.84122" lon="-98.23719" />
      <trkpt lat="30.846779" lon="-98.236759" />
      <trkpt lat="30.851747" lon="-98.236368" />
      <trkpt lat="30.863172" lon="-98.235462" />
      <trkpt lat="30.864256" lon="-98.23539" />
      <trkpt lat="30.869365" lon="-98.234986" />
      <trkpt lat="30.870186" lon="-98.234921" />
      <trkpt lat="30.870998" lon="-98.234883" />
      <trkpt lat="30.872171" lon="-98.234926" />
      <trkpt lat="30.872651" lon="-98.234984" />
      <trkpt lat="30.874373" lon="-98.235165" />
      <trkpt lat="30.875683" lon="-98.235326" />
      <trkpt lat="30.876137" lon="-98.235383" />
      <trkpt lat="30.87969" lon="-98.235779" />
      <trkpt lat="30.881294" lon="-98.235958" />
      <trkpt lat="30.88229" lon="-98.236061" />
      <trkpt lat="30.886466" lon="-98.236537" />
      <trkpt lat="30.889373" lon="-98.236863" />
      <trkpt lat="30.889502" lon="-98.236877" />
      <trkpt lat="30.892883" lon="-98.237268" />
      <trkpt lat="30.895311" lon="-98.237543" />
      <trkpt lat="30.895884" lon="-98.236928" />
      <trkpt lat="30.896309" lon="-98.235535" />
      <trkpt lat="30.896697" lon="-98.234285" />
      <trkpt lat="30.896776" lon="-98.23403" />
      <trkpt lat="30.897165" lon="-98.233059" />
      <trkpt lat="30.897727" lon="-98.231636" />
      <trkpt lat="30.898121" lon="-98.23064" />
      <trkpt lat="30.898667" lon="-98.229203" />
      <trkpt lat="30.89868" lon="-98.229168" />
      <trkpt lat="30.900166" lon="-98.225397" />
      <trkpt lat="30.900248" lon="-98.225188" />
      <trkpt lat="30.900897" lon="-98.22351" />
      <trkpt lat="30.901072" lon="-98.223056" />
      <trkpt lat="30.903155" lon="-98.217748" />
      <trkpt lat="30.903945" lon="-98.215734" />
      <trkpt lat="30.903978" lon="-98.21565" />
      <trkpt lat="30.904058" lon="-98.215441" />
      <trkpt lat="30.904331" lon="-98.214765" />
      <trkpt lat="30.904823" lon="-98.213539" />
      <trkpt lat="30.905184" lon="-98.21264" />
      <trkpt lat="30.905519" lon="-98.211802" />
      <trkpt lat="30.905582" lon="-98.211646" />
      <trkpt lat="30.906066" lon="-98.21052" />
      <trkpt lat="30.906832" lon="-98.209047" />
      <trkpt lat="30.908615" lon="-98.205618" />
      <trkpt lat="30.90878" lon="-98.20516" />
      <trkpt lat="30.908874" lon="-98.204703" />
      <trkpt lat="30.908903" lon="-98.204457" />
      <trkpt lat="30.908916" lon="-98.204237" />
      <trkpt lat="30.908859" lon="-98.203117" />
      <trkpt lat="30.90882" lon="-98.202587" />
      <trkpt lat="30.908823" lon="-98.202225" />
      <trkpt lat="30.908842" lon="-98.201911" />
      <trkpt lat="30.908891" lon="-98.201563" />
      <trkpt lat="30.908966" lon="-98.201231" />
      <trkpt lat="30.909037" lon="-98.200973" />
      <trkpt lat="30.909043" lon="-98.20095" />
      <trkpt lat="30.909457" lon="-98.199691" />
      <trkpt lat="30.909578" lon="-98.199371" />
      <trkpt lat="30.909675" lon="-98.199049" />
      <trkpt lat="30.909738" lon="-98.198691" />
      <trkpt lat="30.90978" lon="-98.198259" />
      <trkpt lat="30.909762" lon="-98.197859" />
      <trkpt lat="30.909734" lon="-98.1975" />
      <trkpt lat="30.909528" lon="-98.196359" />
      <trkpt lat="30.909309" lon="-98.195159" />
      <trkpt lat="30.909095" lon="-98.193961" />
      <trkpt lat="30.908983" lon="-98.193336" />
      <trkpt lat="30.908939" lon="-98.193158" />
      <trkpt lat="30.908887" lon="-98.192997" />
      <trkpt lat="30.90881" lon="-98.192814" />
      <trkpt lat="30.908645" lon="-98.19252" />
      <trkpt lat="30.908175" lon="-98.191958" />
      <trkpt lat="30.905452" lon="-98.188702" />
      <trkpt lat="30.905158" lon="-98.188342" />
      <trkpt lat="30.904934" lon="-98.188121" />
      <trkpt lat="30.904719" lon="-98.187933" />
      <trkpt lat="30.904493" lon="-98.18776" />
      <trkpt lat="30.904296" lon="-98.18761" />
      <trkpt lat="30.904081" lon="-98.18744" />
      <trkpt lat="30.903601" lon="-98.187042" />
      <trkpt lat="30.902955" lon="-98.186506" />
      <trkpt lat="30.90208" lon="-98.185807" />
      <trkpt lat="30.90114" lon="-98.185056" />
      <trkpt lat="30.900203" lon="-98.184301" />
      <trkpt lat="30.900201" lon="-98.184299" />
      <trkpt lat="30.899446" lon="-98.183698" />
      <trkpt lat="30.899211" lon="-98.183511" />
      <trkpt lat="30.897903" lon="-98.182486" />
      <trkpt lat="30.897698" lon="-98.182321" />
      <trkpt lat="30.896934" lon="-98.181674" />
      <trkpt lat="30.896517" lon="-98.181414" />
      <trkpt lat="30.896262" lon="-98.181281" />
      <trkpt lat="30.895766" lon="-98.181084" />
      <trkpt lat="30.89554" lon="-98.181042" />
      <trkpt lat="30.895231" lon="-98.181003" />
      <trkpt lat="30.894923" lon="-98.181001" />
      <trkpt lat="30.894872" lon="-98.181005" />
      <trkpt lat="30.893973" lon="-98.181082" />
      <trkpt lat="30.893818" lon="-98.181094" />
      <trkpt lat="30.893254" lon="-98.181138" />
      <trkpt lat="30.890453" lon="-98.181392" />
      <trkpt lat="30.88899" lon="-98.181525" />
      <trkpt lat="30.888446" lon="-98.181575" />
      <trkpt lat="30.88755" lon="-98.181656" />
      <trkpt lat="30.887224" lon="-98.181695" />
      <trkpt lat="30.886644" lon="-98.181698" />
      <trkpt lat="30.886357" lon="-98.181677" />
      <trkpt lat="30.885932" lon="-98.181586" />
      <trkpt lat="30.885614" lon="-98.181488" />
      <trkpt lat="30.884946" lon="-98.181225" />
      <trkpt lat="30.884628" lon="-98.181082" />
      <trkpt lat="30.884578" lon="-98.181061" />
      <trkpt lat="30.884199" lon="-98.180907" />
      <trkpt lat="30.881949" lon="-98.179981" />
      <trkpt lat="30.881521" lon="-98.179814" />
      <trkpt lat="30.881286" lon="-98.179719" />
      <trkpt lat="30.878534" lon="-98.178562" />
      <trkpt lat="30.8781" lon="-98.17838" />
      <trkpt lat="30.875945" lon="-98.177473" />
      <trkpt lat="30.875882" lon="-98.177446" />
      <trkpt lat="30.874825" lon="-98.177002" />
      <trkpt lat="30.874716" lon="-98.176964" />
      <trkpt lat="30.874407" lon="-98.176855" />
      <trkpt lat="30.873927" lon="-98.176752" />
      <trkpt lat="30.873325" lon="-98.176786" />
      <trkpt lat="30.873018" lon="-98.17684" />
      <trkpt lat="30.872432" lon="-98.177003" />
      <trkpt lat="30.871206" lon="-98.177425" />
      <trkpt lat="30.870147" lon="-98.177789" />
      <trkpt lat="30.869964" lon="-98.177847" />
      <trkpt lat="30.869859" lon="-98.177881" />
      <trkpt lat="30.868754" lon="-98.178236" />
      <trkpt lat="30.868307" lon="-98.178304" />
      <trkpt lat="30.867837" lon="-98.178296" />
      <trkpt lat="30.867251" lon="-98.178143" />
      <trkpt lat="30.863066" lon="-98.176328" />
      <trkpt lat="30.860434" lon="-98.1752" />
      <trkpt lat="30.8588" lon="-98.1745" />
      <trkpt lat="30.858182" lon="-98.174224" />
      <trkpt lat="30.856949" lon="-98.173689" />
      <trkpt lat="30.85665" lon="-98.173543" />
      <trkpt lat="30.856375" lon="-98.173388" />
      <trkpt lat="30.856097" lon="-98.173203" />
      <trkpt lat="30.855275" lon="-98.172552" />
      <trkpt lat="30.854665" lon="-98.172114" />
      <trkpt lat="30.854134" lon="-98.171794" />
      <trkpt lat="30.853237" lon="-98.171388" />
      <trkpt lat="30.853162" lon="-98.171354" />
      <trkpt lat="30.847729" lon="-98.168977" />
      <trkpt lat="30.84702" lon="-98.168671" />
      <trkpt lat="30.846802" lon="-98.168659" />
      <trkpt lat="30.846802" lon="-98.1687" />
      <trkpt lat="30.846797" lon="-98.169511" />
      <trkpt lat="30.846738" lon="-98.1706" />
      <trkpt lat="30.84669" lon="-98.170968" />
      <trkpt lat="30.846616" lon="-98.171315" />
      <trkpt lat="30.846523" lon="-98.171682" />
      <trkpt lat="30.846411" lon="-98.172018" />
      <trkpt lat="30.846387" lon="-98.172082" />
      <trkpt lat="30.846197" lon="-98.172558" />
      <trkpt lat="30.846107" lon="-98.172724" />
      <trkpt lat="30.846037" lon="-98.172865" />
      <trkpt lat="30.845941" lon="-98.173033" />
      <trkpt lat="30.845802" lon="-98.173251" />
      <trkpt lat="30.845764" lon="-98.17331" />
      <trkpt lat="30.845536" lon="-98.173649" />
      <trkpt lat="30.845487" lon="-98.17371" />
      <trkpt lat="30.844815" lon="-98.174544" />
      <trkpt lat="30.844152" lon="-98.175366" />
      <trkpt lat="30.844011" lon="-98.175542" />
      <trkpt lat="30.843363" lon="-98.176291" />
      <trkpt lat="30.842475" lon="-98.177293" />
      <trkpt lat="30.841822" lon="-98.178046" />
      <trkpt lat="30.841531" lon="-98.178382" />
      <trkpt lat="30.840886" lon="-98.179126" />
      <trkpt lat="30.839968" lon="-98.180167" />
      <trkpt lat="30.839829" lon="-98.180324" />
      <trkpt lat="30.838456" lon="-98.181901" />
      <trkpt lat="30.837775" lon="-98.182684" />
      <trkpt lat="30.837046" lon="-98.183663" />
      <trkpt lat="30.836839" lon="-98.183958" />
      <trkpt lat="30.836777" lon="-98.184053" />
      <trkpt lat="30.835771" lon="-98.185581" />
      <trkpt lat="30.835062" lon="-98.186653" />
      <trkpt lat="30.834768" lon="-98.187116" />
      <trkpt lat="30.834514" lon="-98.187497" />
      <trkpt lat="30.834027" lon="-98.188325" />
      <trkpt lat="30.833941" lon="-98.188471" />
      <trkpt lat="30.833008" lon="-98.190358" />
      <trkpt lat="30.83281" lon="-98.190758" />
      <trkpt lat="30.832012" lon="-98.192111" />
      <trkpt lat="30.831872" lon="-98.192349" />
      <trkpt lat="30.831612" lon="-98.192799" />
      <trkpt lat="30.831266" lon="-98.193309" />
      <trkpt lat="30.831069" lon="-98.193546" />
      <trkpt lat="30.83091" lon="-98.193705" />
      <trkpt lat="30.830661" lon="-98.193944" />
      <trkpt lat="30.830438" lon="-98.194113" />
      <trkpt lat="30.830193" lon="-98.194281" />
      <trkpt lat="30.829923" lon="-98.194399" />
      <trkpt lat="30.829658" lon="-98.194501" />
      <trkpt lat="30.829538" lon="-98.194536" />
      <trkpt lat="30.829406" lon="-98.194575" />
      <trkpt lat="30.829137" lon="-98.194621" />
      <trkpt lat="30.829097" lon="-98.194625" />
      <trkpt lat="30.828566" lon="-98.194672" />
      <trkpt lat="30.8276" lon="-98.194806" />
      <trkpt lat="30.827572" lon="-98.194817" />
      <trkpt lat="30.826229" lon="-98.195352" />
      <trkpt lat="30.825541" lon="-98.195819" />
      <trkpt lat="30.825173" lon="-98.196001" />
      <trkpt lat="30.824684" lon="-98.196205" />
      <trkpt lat="30.824227" lon="-98.196363" />
      <trkpt lat="30.823503" lon="-98.196552" />
      <trkpt lat="30.822576" lon="-98.196794" />
      <trkpt lat="30.821641" lon="-98.197011" />
      <trkpt lat="30.821532" lon="-98.19704" />
      <trkpt lat="30.820513" lon="-98.197293" />
      <trkpt lat="30.819388" lon="-98.197593" />
      <trkpt lat="30.818312" lon="-98.197855" />
      <trkpt lat="30.818079" lon="-98.197924" />
      <trkpt lat="30.818043" lon="-98.197935" />
      <trkpt lat="30.817395" lon="-98.198159" />
      <trkpt lat="30.817312" lon="-98.198192" />
      <trkpt lat="30.817139" lon="-98.198262" />
      <trkpt lat="30.816912" lon="-98.198377" />
      <trkpt lat="30.8167" lon="-98.198501" />
      <trkpt lat="30.816463" lon="-98.19866" />
      <trkpt lat="30.816061" lon="-98.198931" />
      <trkpt lat="30.81536" lon="-98.199326" />
      <trkpt lat="30.814769" lon="-98.199648" />
      <trkpt lat="30.814436" lon="-98.199819" />
      <trkpt lat="30.814353" lon="-98.199855" />
      <trkpt lat="30.814242" lon="-98.199903" />
      <trkpt lat="30.81255" lon="-98.200654" />
      <trkpt lat="30.8124" lon="-98.200722" />
      <trkpt lat="30.812215" lon="-98.200806" />
      <trkpt lat="30.810194" lon="-98.201726" />
      <trkpt lat="30.809473" lon="-98.202066" />
      <trkpt lat="30.80908" lon="-98.202277" />
      <trkpt lat="30.807701" lon="-98.202975" />
      <trkpt lat="30.807581" lon="-98.203036" />
      <trkpt lat="30.80706" lon="-98.203285" />
      <trkpt lat="30.806965" lon="-98.20333" />
      <trkpt lat="30.80607" lon="-98.203776" />
      <trkpt lat="30.805851" lon="-98.203865" />
      <trkpt lat="30.80502" lon="-98.204286" />
      <trkpt lat="30.804132" lon="-98.20473" />
      <trkpt lat="30.803293" lon="-98.205149" />
      <trkpt lat="30.802999" lon="-98.205287" />
      <trkpt lat="30.802398" lon="-98.205569" />
      <trkpt lat="30.802242" lon="-98.205634" />
      <trkpt lat="30.801981" lon="-98.205744" />
      <trkpt lat="30.80163" lon="-98.205892" />
      <trkpt lat="30.801235" lon="-98.206058" />
      <trkpt lat="30.801096" lon="-98.206116" />
      <trkpt lat="30.800345" lon="-98.206432" />
      <trkpt lat="30.799197" lon="-98.206901" />
      <trkpt lat="30.799009" lon="-98.206992" />
      <trkpt lat="30.798845" lon="-98.207083" />
      <trkpt lat="30.79866" lon="-98.207209" />
      <trkpt lat="30.798525" lon="-98.207318" />
      <trkpt lat="30.798481" lon="-98.207354" />
      <trkpt lat="30.798313" lon="-98.207516" />
      <trkpt lat="30.798154" lon="-98.207699" />
      <trkpt lat="30.798022" lon="-98.207877" />
      <trkpt lat="30.797888" lon="-98.208087" />
      <trkpt lat="30.797776" lon="-98.208302" />
      <trkpt lat="30.797678" lon="-98.208523" />
      <trkpt lat="30.797444" lon="-98.20918" />
      <trkpt lat="30.797128" lon="-98.210035" />
      <trkpt lat="30.796802" lon="-98.210916" />
      <trkpt lat="30.796657" lon="-98.211338" />
      <trkpt lat="30.796527" lon="-98.211625" />
      <trkpt lat="30.796386" lon="-98.211898" />
      <trkpt lat="30.796226" lon="-98.212165" />
      <trkpt lat="30.796123" lon="-98.212298" />
      <trkpt lat="30.795967" lon="-98.21248" />
      <trkpt lat="30.795856" lon="-98.212591" />
      <trkpt lat="30.795623" lon="-98.212801" />
      <trkpt lat="30.795463" lon="-98.212965" />
      <trkpt lat="30.794655" lon="-98.213304" />
      <trkpt lat="30.794274" lon="-98.213461" />
      <trkpt lat="30.792523" lon="-98.214202" />
      <trkpt lat="30.792144" lon="-98.214337" />
      <trkpt lat="30.79152" lon="-98.214594" />
      <trkpt lat="30.791141" lon="-98.214754" />
      <trkpt lat="30.79019" lon="-98.215159" />
      <trkpt lat="30.789838" lon="-98.215308" />
      <trkpt lat="30.789697" lon="-98.215368" />
      <trkpt lat="30.789413" lon="-98.215489" />
      <trkpt lat="30.789405" lon="-98.215492" />
      <trkpt lat="30.788757" lon="-98.215757" />
      <trkpt lat="30.787986" lon="-98.216064" />
      <trkpt lat="30.787657" lon="-98.216195" />
      <trkpt lat="30.787374" lon="-98.216283" />
      <trkpt lat="30.78735" lon="-98.21629" />
      <trkpt lat="30.787041" lon="-98.216364" />
      <trkpt lat="30.78672" lon="-98.216425" />
      <trkpt lat="30.786418" lon="-98.216455" />
      <trkpt lat="30.785986" lon="-98.216451" />
      <trkpt lat="30.78573" lon="-98.216438" />
      <trkpt lat="30.785522" lon="-98.216416" />
      <trkpt lat="30.785168" lon="-98.216378" />
      <trkpt lat="30.784696" lon="-98.2163" />
      <trkpt lat="30.784516" lon="-98.216274" />
      <trkpt lat="30.783781" lon="-98.216168" />
      <trkpt lat="30.783767" lon="-98.216167" />
      <trkpt lat="30.783459" lon="-98.216149" />
      <trkpt lat="30.782934" lon="-98.216144" />
      <trkpt lat="30.782894" lon="-98.216147" />
      <trkpt lat="30.782379" lon="-98.216185" />
      <trkpt lat="30.781733" lon="-98.216239" />
      <trkpt lat="30.779883" lon="-98.216393" />
      <trkpt lat="30.779358" lon="-98.216407" />
      <trkpt lat="30.778092" lon="-98.216371" />
      <trkpt lat="30.777495" lon="-98.216369" />
      <trkpt lat="30.777072" lon="-98.216399" />
      <trkpt lat="30.776984" lon="-98.216411" />
      <trkpt lat="30.776704" lon="-98.21645" />
      <trkpt lat="30.776356" lon="-98.216518" />
      <trkpt lat="30.775984" lon="-98.216612" />
      <trkpt lat="30.775456" lon="-98.216794" />
      <trkpt lat="30.774945" lon="-98.216992" />
      <trkpt lat="30.77493" lon="-98.217" />
      <trkpt lat="30.774661" lon="-98.217137" />
      <trkpt lat="30.774336" lon="-98.217309" />
      <trkpt lat="30.773846" lon="-98.217569" />
      <trkpt lat="30.773742" lon="-98.217625" />
      <trkpt lat="30.773623" lon="-98.217688" />
      <trkpt lat="30.77298" lon="-98.218061" />
      <trkpt lat="30.772298" lon="-98.218414" />
      <trkpt lat="30.771437" lon="-98.218946" />
      <trkpt lat="30.771214" lon="-98.219154" />
      <trkpt lat="30.770818" lon="-98.219597" />
      <trkpt lat="30.770654" lon="-98.219833" />
      <trkpt lat="30.770444" lon="-98.220167" />
      <trkpt lat="30.770154" lon="-98.22085" />
      <trkpt lat="30.769524" lon="-98.222801" />
      <trkpt lat="30.769158" lon="-98.223938" />
      <trkpt lat="30.769048" lon="-98.22438" />
      <trkpt lat="30.768982" lon="-98.224662" />
      <trkpt lat="30.768774" lon="-98.225723" />
      <trkpt lat="30.768749" lon="-98.225877" />
      <trkpt lat="30.76867" lon="-98.226312" />
      <trkpt lat="30.768579" lon="-98.226814" />
      <trkpt lat="30.768536" lon="-98.227069" />
      <trkpt lat="30.768452" lon="-98.227576" />
      <trkpt lat="30.768368" lon="-98.228035" />
      <trkpt lat="30.768271" lon="-98.228566" />
      <trkpt lat="30.768256" lon="-98.228647" />
      <trkpt lat="30.768168" lon="-98.229125" />
      <trkpt lat="30.767963" lon="-98.230242" />
      <trkpt lat="30.767807" lon="-98.231183" />
      <trkpt lat="30.767521" lon="-98.231107" />
      <trkpt lat="30.765855" lon="-98.230689" />
      <trkpt lat="30.763851" lon="-98.230182" />
      <trkpt lat="30.763471" lon="-98.230088" />
      <trkpt lat="30.761869" lon="-98.229678" />
      <trkpt lat="30.761214" lon="-98.229521" />
      <trkpt lat="30.760945" lon="-98.22945" />
      <trkpt lat="30.760654" lon="-98.229377" />
      <trkpt lat="30.760412" lon="-98.229315" />
      <trkpt lat="30.760033" lon="-98.229226" />
      <trkpt lat="30.759836" lon="-98.229176" />
      <trkpt lat="30.759484" lon="-98.229086" />
      <trkpt lat="30.759096" lon="-98.228986" />
      <trkpt lat="30.758885" lon="-98.228936" />
      <trkpt lat="30.758592" lon="-98.228868" />
      <trkpt lat="30.758109" lon="-98.228741" />
      <trkpt lat="30.758116" lon="-98.228704" />
    </trkseg>
  </trk>
</gpx>