<?xml version='1.0' encoding='UTF-8'?>
<gpx version="1.1" creator="Antigravity Route Generator" xmlns="http://www.topografix.com/GPX/1/1">
  <trk>
    <name>Lime Creek Road &amp; Lake Travis Loop</name>
    <desc>Twisties &amp; Canyons (26.7 mi) - FM 2769 -&gt; Lime Creek Rd -&gt; Volente -&gt; Bullick Hollow Rd</desc>
    <trkseg>
      <trkpt lat="30.504913" lon="-97.829963" />
      <trkpt lat="30.504873" lon="-97.830091" />
      <trkpt lat="30.504865" lon="-97.830118" />
      <trkpt lat="30.504839" lon="-97.830199" />
      <trkpt lat="30.504893" lon="-97.830223" />
      <trkpt lat="30.504911" lon="-97.830231" />
      <trkpt lat="30.505196" lon="-97.830344" />
      <trkpt lat="30.505386" lon="-97.830426" />
      <trkpt lat="30.505472" lon="-97.830475" />
      <trkpt lat="30.505552" lon="-97.830524" />
      <trkpt lat="30.505804" lon="-97.830784" />
      <trkpt lat="30.506068" lon="-97.831013" />
      <trkpt lat="30.506316" lon="-97.831152" />
      <trkpt lat="30.506892" lon="-97.831408" />
      <trkpt lat="30.506934" lon="-97.831427" />
      <trkpt lat="30.507007" lon="-97.831459" />
      <trkpt lat="30.506774" lon="-97.832161" />
      <trkpt lat="30.506664" lon="-97.832503" />
      <trkpt lat="30.506575" lon="-97.832801" />
      <trkpt lat="30.506523" lon="-97.83294" />
      <trkpt lat="30.506139" lon="-97.833667" />
      <trkpt lat="30.50607" lon="-97.833787" />
      <trkpt lat="30.505996" lon="-97.833926" />
      <trkpt lat="30.505868" lon="-97.834152" />
      <trkpt lat="30.505757" lon="-97.834313" />
      <trkpt lat="30.505688" lon="-97.834462" />
      <trkpt lat="30.505649" lon="-97.834551" />
      <trkpt lat="30.505508" lon="-97.834979" />
      <trkpt lat="30.505411" lon="-97.835376" />
      <trkpt lat="30.505274" lon="-97.835956" />
      <trkpt lat="30.505149" lon="-97.836403" />
      <trkpt lat="30.505082" lon="-97.836703" />
      <trkpt lat="30.505072" lon="-97.836838" />
      <trkpt lat="30.50508" lon="-97.837072" />
      <trkpt lat="30.505131" lon="-97.837436" />
      <trkpt lat="30.505179" lon="-97.837737" />
      <trkpt lat="30.505254" lon="-97.838118" />
      <trkpt lat="30.505275" lon="-97.838417" />
      <trkpt lat="30.505275" lon="-97.838553" />
      <trkpt lat="30.505262" lon="-97.838692" />
      <trkpt lat="30.505239" lon="-97.838805" />
      <trkpt lat="30.505121" lon="-97.839223" />
      <trkpt lat="30.504875" lon="-97.840037" />
      <trkpt lat="30.504653" lon="-97.840763" />
      <trkpt lat="30.504631" lon="-97.840831" />
      <trkpt lat="30.504365" lon="-97.841657" />
      <trkpt lat="30.504057" lon="-97.842701" />
      <trkpt lat="30.504033" lon="-97.842785" />
      <trkpt lat="30.503921" lon="-97.843145" />
      <trkpt lat="30.503887" lon="-97.843254" />
      <trkpt lat="30.503826" lon="-97.843433" />
      <trkpt lat="30.50368" lon="-97.843904" />
      <trkpt lat="30.503645" lon="-97.844019" />
      <trkpt lat="30.503579" lon="-97.844239" />
      <trkpt lat="30.503424" lon="-97.844757" />
      <trkpt lat="30.503122" lon="-97.845746" />
      <trkpt lat="30.503081" lon="-97.845878" />
      <trkpt lat="30.503042" lon="-97.846009" />
      <trkpt lat="30.502733" lon="-97.846976" />
      <trkpt lat="30.502677" lon="-97.84716" />
      <trkpt lat="30.502635" lon="-97.847311" />
      <trkpt lat="30.50261" lon="-97.847412" />
      <trkpt lat="30.502572" lon="-97.847553" />
      <trkpt lat="30.502443" lon="-97.847523" />
      <trkpt lat="30.502211" lon="-97.847467" />
      <trkpt lat="30.501751" lon="-97.847418" />
      <trkpt lat="30.501281" lon="-97.847407" />
      <trkpt lat="30.500874" lon="-97.847395" />
      <trkpt lat="30.500548" lon="-97.84737" />
      <trkpt lat="30.500288" lon="-97.847329" />
      <trkpt lat="30.499988" lon="-97.847235" />
      <trkpt lat="30.499897" lon="-97.847197" />
      <trkpt lat="30.499538" lon="-97.847021" />
      <trkpt lat="30.499311" lon="-97.846887" />
      <trkpt lat="30.499256" lon="-97.846961" />
      <trkpt lat="30.498902" lon="-97.847441" />
      <trkpt lat="30.498431" lon="-97.848058" />
      <trkpt lat="30.49832" lon="-97.848154" />
      <trkpt lat="30.498172" lon="-97.848245" />
      <trkpt lat="30.498001" lon="-97.848299" />
      <trkpt lat="30.497839" lon="-97.84832" />
      <trkpt lat="30.497818" lon="-97.848321" />
      <trkpt lat="30.497691" lon="-97.848326" />
      <trkpt lat="30.497663" lon="-97.848798" />
      <trkpt lat="30.497571" lon="-97.849237" />
      <trkpt lat="30.497423" lon="-97.849613" />
      <trkpt lat="30.497097" lon="-97.850117" />
      <trkpt lat="30.497035" lon="-97.850214" />
      <trkpt lat="30.49697" lon="-97.850309" />
      <trkpt lat="30.496654" lon="-97.850775" />
      <trkpt lat="30.496617" lon="-97.850829" />
      <trkpt lat="30.496443" lon="-97.851085" />
      <trkpt lat="30.495935" lon="-97.851834" />
      <trkpt lat="30.495811" lon="-97.851984" />
      <trkpt lat="30.49562" lon="-97.852156" />
      <trkpt lat="30.495509" lon="-97.852228" />
      <trkpt lat="30.495418" lon="-97.852288" />
      <trkpt lat="30.495461" lon="-97.852403" />
      <trkpt lat="30.495473" lon="-97.852433" />
      <trkpt lat="30.49573" lon="-97.853114" />
      <trkpt lat="30.495664" lon="-97.85315" />
      <trkpt lat="30.495651" lon="-97.853158" />
      <trkpt lat="30.495646" lon="-97.853161" />
      <trkpt lat="30.495608" lon="-97.853185" />
      <trkpt lat="30.495536" lon="-97.853247" />
      <trkpt lat="30.495412" lon="-97.853411" />
      <trkpt lat="30.495297" lon="-97.853648" />
      <trkpt lat="30.495252" lon="-97.853803" />
      <trkpt lat="30.49521" lon="-97.854024" />
      <trkpt lat="30.49514" lon="-97.854397" />
      <trkpt lat="30.495075" lon="-97.854844" />
      <trkpt lat="30.49504" lon="-97.855015" />
      <trkpt lat="30.494971" lon="-97.855397" />
      <trkpt lat="30.494926" lon="-97.855565" />
      <trkpt lat="30.494865" lon="-97.85568" />
      <trkpt lat="30.494767" lon="-97.855828" />
      <trkpt lat="30.494597" lon="-97.855996" />
      <trkpt lat="30.49445" lon="-97.856115" />
      <trkpt lat="30.494429" lon="-97.856132" />
      <trkpt lat="30.494357" lon="-97.85619" />
      <trkpt lat="30.495105" lon="-97.857339" />
      <trkpt lat="30.495162" lon="-97.857424" />
      <trkpt lat="30.495237" lon="-97.857556" />
      <trkpt lat="30.495285" lon="-97.857646" />
      <trkpt lat="30.495366" lon="-97.857808" />
      <trkpt lat="30.495372" lon="-97.85782" />
      <trkpt lat="30.495413" lon="-97.857905" />
      <trkpt lat="30.495471" lon="-97.858021" />
      <trkpt lat="30.49536" lon="-97.858096" />
      <trkpt lat="30.493506" lon="-97.859303" />
      <trkpt lat="30.493211" lon="-97.859556" />
      <trkpt lat="30.492962" lon="-97.859761" />
      <trkpt lat="30.492772" lon="-97.859887" />
      <trkpt lat="30.492542" lon="-97.860049" />
      <trkpt lat="30.492318" lon="-97.860182" />
      <trkpt lat="30.492135" lon="-97.860273" />
      <trkpt lat="30.491885" lon="-97.860379" />
      <trkpt lat="30.491707" lon="-97.860433" />
      <trkpt lat="30.491526" lon="-97.860478" />
      <trkpt lat="30.491311" lon="-97.860518" />
      <trkpt lat="30.491143" lon="-97.86054" />
      <trkpt lat="30.491124" lon="-97.860542" />
      <trkpt lat="30.490918" lon="-97.860548" />
      <trkpt lat="30.490756" lon="-97.860537" />
      <trkpt lat="30.490716" lon="-97.860534" />
      <trkpt lat="30.490538" lon="-97.860512" />
      <trkpt lat="30.490342" lon="-97.860467" />
      <trkpt lat="30.490153" lon="-97.860408" />
      <trkpt lat="30.490118" lon="-97.860543" />
      <trkpt lat="30.490056" lon="-97.860785" />
      <trkpt lat="30.490016" lon="-97.86096" />
      <trkpt lat="30.489963" lon="-97.861142" />
      <trkpt lat="30.489945" lon="-97.861181" />
      <trkpt lat="30.489879" lon="-97.861328" />
      <trkpt lat="30.489786" lon="-97.861505" />
      <trkpt lat="30.489591" lon="-97.861835" />
      <trkpt lat="30.489292" lon="-97.86232" />
      <trkpt lat="30.489012" lon="-97.862821" />
      <trkpt lat="30.488848" lon="-97.863119" />
      <trkpt lat="30.488736" lon="-97.863338" />
      <trkpt lat="30.48861" lon="-97.863535" />
      <trkpt lat="30.488484" lon="-97.863707" />
      <trkpt lat="30.488353" lon="-97.863873" />
      <trkpt lat="30.488087" lon="-97.864194" />
      <trkpt lat="30.487559" lon="-97.864835" />
      <trkpt lat="30.486488" lon="-97.866135" />
      <trkpt lat="30.485955" lon="-97.866798" />
      <trkpt lat="30.48569" lon="-97.867122" />
      <trkpt lat="30.485424" lon="-97.867459" />
      <trkpt lat="30.484802" lon="-97.868214" />
      <trkpt lat="30.484493" lon="-97.868585" />
      <trkpt lat="30.484341" lon="-97.868767" />
      <trkpt lat="30.484266" lon="-97.868863" />
      <trkpt lat="30.484196" lon="-97.868958" />
      <trkpt lat="30.484124" lon="-97.869064" />
      <trkpt lat="30.484051" lon="-97.869175" />
      <trkpt lat="30.483991" lon="-97.869283" />
      <trkpt lat="30.483932" lon="-97.869399" />
      <trkpt lat="30.483853" lon="-97.869578" />
      <trkpt lat="30.483848" lon="-97.86959" />
      <trkpt lat="30.48378" lon="-97.869757" />
      <trkpt lat="30.483632" lon="-97.870116" />
      <trkpt lat="30.483488" lon="-97.870477" />
      <trkpt lat="30.483452" lon="-97.870571" />
      <trkpt lat="30.483344" lon="-97.870847" />
      <trkpt lat="30.483111" lon="-97.871427" />
      <trkpt lat="30.482997" lon="-97.871708" />
      <trkpt lat="30.482948" lon="-97.87186" />
      <trkpt lat="30.482906" lon="-97.872013" />
      <trkpt lat="30.48289" lon="-97.872103" />
      <trkpt lat="30.48288" lon="-97.872192" />
      <trkpt lat="30.482883" lon="-97.872286" />
      <trkpt lat="30.48289" lon="-97.872373" />
      <trkpt lat="30.482923" lon="-97.872565" />
      <trkpt lat="30.482965" lon="-97.872757" />
      <trkpt lat="30.483024" lon="-97.873017" />
      <trkpt lat="30.483052" lon="-97.873145" />
      <trkpt lat="30.483074" lon="-97.873277" />
      <trkpt lat="30.483089" lon="-97.873384" />
      <trkpt lat="30.483095" lon="-97.873496" />
      <trkpt lat="30.483095" lon="-97.873713" />
      <trkpt lat="30.483008" lon="-97.876395" />
      <trkpt lat="30.482978" lon="-97.877069" />
      <trkpt lat="30.482944" lon="-97.877735" />
      <trkpt lat="30.482914" lon="-97.878405" />
      <trkpt lat="30.482902" lon="-97.878744" />
      <trkpt lat="30.482895" lon="-97.879079" />
      <trkpt lat="30.482903" lon="-97.879453" />
      <trkpt lat="30.482914" lon="-97.87964" />
      <trkpt lat="30.482928" lon="-97.879745" />
      <trkpt lat="30.482939" lon="-97.879824" />
      <trkpt lat="30.483003" lon="-97.88014" />
      <trkpt lat="30.483085" lon="-97.880453" />
      <trkpt lat="30.483233" lon="-97.88096" />
      <trkpt lat="30.483308" lon="-97.88122" />
      <trkpt lat="30.483399" lon="-97.881467" />
      <trkpt lat="30.483547" lon="-97.881827" />
      <trkpt lat="30.483621" lon="-97.882008" />
      <trkpt lat="30.483849" lon="-97.882552" />
      <trkpt lat="30.483918" lon="-97.882779" />
      <trkpt lat="30.483962" lon="-97.88295" />
      <trkpt lat="30.483975" lon="-97.883" />
      <trkpt lat="30.484056" lon="-97.883477" />
      <trkpt lat="30.484118" lon="-97.883908" />
      <trkpt lat="30.484125" lon="-97.883959" />
      <trkpt lat="30.484168" lon="-97.884201" />
      <trkpt lat="30.484222" lon="-97.884439" />
      <trkpt lat="30.484262" lon="-97.884587" />
      <trkpt lat="30.484311" lon="-97.884735" />
      <trkpt lat="30.484336" lon="-97.884804" />
      <trkpt lat="30.484361" lon="-97.884874" />
      <trkpt lat="30.48442" lon="-97.885007" />
      <trkpt lat="30.484535" lon="-97.885226" />
      <trkpt lat="30.484548" lon="-97.88525" />
      <trkpt lat="30.484633" lon="-97.885374" />
      <trkpt lat="30.484683" lon="-97.885427" />
      <trkpt lat="30.484738" lon="-97.885485" />
      <trkpt lat="30.484836" lon="-97.885574" />
      <trkpt lat="30.48494" lon="-97.885648" />
      <trkpt lat="30.48516" lon="-97.885784" />
      <trkpt lat="30.485269" lon="-97.885854" />
      <trkpt lat="30.485373" lon="-97.885928" />
      <trkpt lat="30.485474" lon="-97.886012" />
      <trkpt lat="30.485569" lon="-97.886099" />
      <trkpt lat="30.485699" lon="-97.886242" />
      <trkpt lat="30.48581" lon="-97.886399" />
      <trkpt lat="30.485937" lon="-97.886623" />
      <trkpt lat="30.486052" lon="-97.886852" />
      <trkpt lat="30.486279" lon="-97.887319" />
      <trkpt lat="30.486475" lon="-97.887689" />
      <trkpt lat="30.486519" lon="-97.887771" />
      <trkpt lat="30.486742" lon="-97.888137" />
      <trkpt lat="30.486985" lon="-97.888492" />
      <trkpt lat="30.487174" lon="-97.888739" />
      <trkpt lat="30.4873" lon="-97.888988" />
      <trkpt lat="30.487426" lon="-97.889374" />
      <trkpt lat="30.487493" lon="-97.889914" />
      <trkpt lat="30.487499" lon="-97.890515" />
      <trkpt lat="30.48744" lon="-97.890876" />
      <trkpt lat="30.487293" lon="-97.891306" />
      <trkpt lat="30.486881" lon="-97.892187" />
      <trkpt lat="30.486656" lon="-97.892395" />
      <trkpt lat="30.486338" lon="-97.89255" />
      <trkpt lat="30.485857" lon="-97.892678" />
      <trkpt lat="30.485554" lon="-97.892756" />
      <trkpt lat="30.485258" lon="-97.892876" />
      <trkpt lat="30.484999" lon="-97.893125" />
      <trkpt lat="30.484635" lon="-97.893525" />
      <trkpt lat="30.484303" lon="-97.893745" />
      <trkpt lat="30.483912" lon="-97.893923" />
      <trkpt lat="30.483609" lon="-97.894019" />
      <trkpt lat="30.483334" lon="-97.894107" />
      <trkpt lat="30.482751" lon="-97.894309" />
      <trkpt lat="30.482529" lon="-97.894361" />
      <trkpt lat="30.482344" lon="-97.894352" />
      <trkpt lat="30.482041" lon="-97.894232" />
      <trkpt lat="30.481721" lon="-97.894053" />
      <trkpt lat="30.48153" lon="-97.893983" />
      <trkpt lat="30.481437" lon="-97.893988" />
      <trkpt lat="30.48136" lon="-97.893991" />
      <trkpt lat="30.481227" lon="-97.894077" />
      <trkpt lat="30.481141" lon="-97.894263" />
      <trkpt lat="30.481085" lon="-97.894585" />
      <trkpt lat="30.481083" lon="-97.894715" />
      <trkpt lat="30.481078" lon="-97.89516" />
      <trkpt lat="30.481079" lon="-97.895571" />
      <trkpt lat="30.481048" lon="-97.895778" />
      <trkpt lat="30.481005" lon="-97.896" />
      <trkpt lat="30.480907" lon="-97.89619" />
      <trkpt lat="30.480524" lon="-97.896824" />
      <trkpt lat="30.480273" lon="-97.897202" />
      <trkpt lat="30.480169" lon="-97.897433" />
      <trkpt lat="30.480147" lon="-97.897674" />
      <trkpt lat="30.480214" lon="-97.897923" />
      <trkpt lat="30.480369" lon="-97.89824" />
      <trkpt lat="30.480487" lon="-97.898558" />
      <trkpt lat="30.480495" lon="-97.898875" />
      <trkpt lat="30.480458" lon="-97.899167" />
      <trkpt lat="30.480347" lon="-97.899442" />
      <trkpt lat="30.480306" lon="-97.899488" />
      <trkpt lat="30.480204" lon="-97.899595" />
      <trkpt lat="30.480147" lon="-97.899656" />
      <trkpt lat="30.479593" lon="-97.899981" />
      <trkpt lat="30.479093" lon="-97.90028" />
      <trkpt lat="30.478952" lon="-97.900412" />
      <trkpt lat="30.478579" lon="-97.900927" />
      <trkpt lat="30.478291" lon="-97.901304" />
      <trkpt lat="30.478173" lon="-97.901403" />
      <trkpt lat="30.478054" lon="-97.901467" />
      <trkpt lat="30.477841" lon="-97.901504" />
      <trkpt lat="30.477583" lon="-97.901477" />
      <trkpt lat="30.477277" lon="-97.901423" />
      <trkpt lat="30.476974" lon="-97.90135" />
      <trkpt lat="30.476832" lon="-97.901329" />
      <trkpt lat="30.476689" lon="-97.901347" />
      <trkpt lat="30.476371" lon="-97.901499" />
      <trkpt lat="30.476023" lon="-97.901664" />
      <trkpt lat="30.475317" lon="-97.901905" />
      <trkpt lat="30.475142" lon="-97.902006" />
      <trkpt lat="30.474572" lon="-97.902336" />
      <trkpt lat="30.474372" lon="-97.902353" />
      <trkpt lat="30.474216" lon="-97.902311" />
      <trkpt lat="30.474059" lon="-97.90225" />
      <trkpt lat="30.473966" lon="-97.902192" />
      <trkpt lat="30.473516" lon="-97.90191" />
      <trkpt lat="30.473514" lon="-97.901909" />
      <trkpt lat="30.47329" lon="-97.901723" />
      <trkpt lat="30.473059" lon="-97.901511" />
      <trkpt lat="30.47281" lon="-97.901134" />
      <trkpt lat="30.472442" lon="-97.900459" />
      <trkpt lat="30.47231" lon="-97.900143" />
      <trkpt lat="30.472203" lon="-97.899708" />
      <trkpt lat="30.472211" lon="-97.899525" />
      <trkpt lat="30.47224" lon="-97.89933" />
      <trkpt lat="30.472384" lon="-97.899047" />
      <trkpt lat="30.472589" lon="-97.898768" />
      <trkpt lat="30.472879" lon="-97.89847" />
      <trkpt lat="30.473003" lon="-97.898333" />
      <trkpt lat="30.473079" lon="-97.898174" />
      <trkpt lat="30.473091" lon="-97.898084" />
      <trkpt lat="30.47308" lon="-97.897987" />
      <trkpt lat="30.473037" lon="-97.897893" />
      <trkpt lat="30.472985" lon="-97.897813" />
      <trkpt lat="30.472855" lon="-97.897697" />
      <trkpt lat="30.47272" lon="-97.897632" />
      <trkpt lat="30.472574" lon="-97.897596" />
      <trkpt lat="30.472036" lon="-97.89751" />
      <trkpt lat="30.47182" lon="-97.89744" />
      <trkpt lat="30.47169" lon="-97.89735" />
      <trkpt lat="30.47157" lon="-97.897225" />
      <trkpt lat="30.471226" lon="-97.896796" />
      <trkpt lat="30.471202" lon="-97.896767" />
      <trkpt lat="30.47081" lon="-97.896292" />
      <trkpt lat="30.470737" lon="-97.896218" />
      <trkpt lat="30.470599" lon="-97.896152" />
      <trkpt lat="30.470504" lon="-97.896145" />
      <trkpt lat="30.470435" lon="-97.896182" />
      <trkpt lat="30.470359" lon="-97.896276" />
      <trkpt lat="30.470325" lon="-97.89639" />
      <trkpt lat="30.47028" lon="-97.896741" />
      <trkpt lat="30.470236" lon="-97.897067" />
      <trkpt lat="30.470175" lon="-97.897284" />
      <trkpt lat="30.470079" lon="-97.8975" />
      <trkpt lat="30.469874" lon="-97.897847" />
      <trkpt lat="30.469797" lon="-97.897927" />
      <trkpt lat="30.469713" lon="-97.897978" />
      <trkpt lat="30.469593" lon="-97.89801" />
      <trkpt lat="30.469471" lon="-97.898017" />
      <trkpt lat="30.469183" lon="-97.897972" />
      <trkpt lat="30.468829" lon="-97.89919" />
      <trkpt lat="30.469026" lon="-97.899318" />
      <trkpt lat="30.469198" lon="-97.899457" />
      <trkpt lat="30.469365" lon="-97.899643" />
      <trkpt lat="30.469477" lon="-97.899836" />
      <trkpt lat="30.469553" lon="-97.900021" />
      <trkpt lat="30.469613" lon="-97.900223" />
      <trkpt lat="30.469648" lon="-97.900472" />
      <trkpt lat="30.469667" lon="-97.900715" />
      <trkpt lat="30.469649" lon="-97.900957" />
      <trkpt lat="30.469608" lon="-97.90114" />
      <trkpt lat="30.469545" lon="-97.901302" />
      <trkpt lat="30.469466" lon="-97.901439" />
      <trkpt lat="30.469378" lon="-97.901555" />
      <trkpt lat="30.469199" lon="-97.901742" />
      <trkpt lat="30.469025" lon="-97.901953" />
      <trkpt lat="30.468955" lon="-97.902128" />
      <trkpt lat="30.468949" lon="-97.902264" />
      <trkpt lat="30.468964" lon="-97.902375" />
      <trkpt lat="30.46904" lon="-97.902557" />
      <trkpt lat="30.469184" lon="-97.902746" />
      <trkpt lat="30.469416" lon="-97.90299" />
      <trkpt lat="30.469609" lon="-97.903249" />
      <trkpt lat="30.46971" lon="-97.903514" />
      <trkpt lat="30.469784" lon="-97.903804" />
      <trkpt lat="30.469843" lon="-97.904162" />
      <trkpt lat="30.469841" lon="-97.90449" />
      <trkpt lat="30.469753" lon="-97.904892" />
      <trkpt lat="30.469576" lon="-97.905261" />
      <trkpt lat="30.46944" lon="-97.905428" />
      <trkpt lat="30.469295" lon="-97.905561" />
      <trkpt lat="30.4691" lon="-97.905714" />
      <trkpt lat="30.468888" lon="-97.90581" />
      <trkpt lat="30.468474" lon="-97.905939" />
      <trkpt lat="30.468023" lon="-97.905973" />
      <trkpt lat="30.467564" lon="-97.905956" />
      <trkpt lat="30.467246" lon="-97.905879" />
      <trkpt lat="30.466706" lon="-97.90569" />
      <trkpt lat="30.466314" lon="-97.905527" />
      <trkpt lat="30.465633" lon="-97.904816" />
      <trkpt lat="30.465506" lon="-97.904683" />
      <trkpt lat="30.46513" lon="-97.904437" />
      <trkpt lat="30.464746" lon="-97.904274" />
      <trkpt lat="30.464457" lon="-97.904034" />
      <trkpt lat="30.464169" lon="-97.903647" />
      <trkpt lat="30.463658" lon="-97.902918" />
      <trkpt lat="30.463458" lon="-97.902789" />
      <trkpt lat="30.463194" lon="-97.902746" />
      <trkpt lat="30.46302" lon="-97.9027" />
      <trkpt lat="30.462866" lon="-97.902622" />
      <trkpt lat="30.462698" lon="-97.902497" />
      <trkpt lat="30.462542" lon="-97.902356" />
      <trkpt lat="30.462338" lon="-97.902141" />
      <trkpt lat="30.462161" lon="-97.901931" />
      <trkpt lat="30.461172" lon="-97.9026" />
      <trkpt lat="30.46127" lon="-97.902897" />
      <trkpt lat="30.46134" lon="-97.903177" />
      <trkpt lat="30.461385" lon="-97.90349" />
      <trkpt lat="30.461392" lon="-97.903784" />
      <trkpt lat="30.461375" lon="-97.904015" />
      <trkpt lat="30.46132" lon="-97.904222" />
      <trkpt lat="30.461217" lon="-97.904414" />
      <trkpt lat="30.461098" lon="-97.904566" />
      <trkpt lat="30.460358" lon="-97.905373" />
      <trkpt lat="30.460307" lon="-97.905527" />
      <trkpt lat="30.460321" lon="-97.905725" />
      <trkpt lat="30.460381" lon="-97.905879" />
      <trkpt lat="30.460484" lon="-97.906128" />
      <trkpt lat="30.460617" lon="-97.906325" />
      <trkpt lat="30.460802" lon="-97.906385" />
      <trkpt lat="30.460972" lon="-97.906343" />
      <trkpt lat="30.461507" lon="-97.906023" />
      <trkpt lat="30.461642" lon="-97.905977" />
      <trkpt lat="30.461781" lon="-97.905953" />
      <trkpt lat="30.461934" lon="-97.905982" />
      <trkpt lat="30.462083" lon="-97.906078" />
      <trkpt lat="30.462201" lon="-97.906188" />
      <trkpt lat="30.462585" lon="-97.906729" />
      <trkpt lat="30.462841" lon="-97.907145" />
      <trkpt lat="30.46296" lon="-97.907418" />
      <trkpt lat="30.462984" lon="-97.907547" />
      <trkpt lat="30.46301" lon="-97.90769" />
      <trkpt lat="30.46299" lon="-97.908325" />
      <trkpt lat="30.463016" lon="-97.90912" />
      <trkpt lat="30.463038" lon="-97.909822" />
      <trkpt lat="30.463024" lon="-97.910148" />
      <trkpt lat="30.462985" lon="-97.910527" />
      <trkpt lat="30.462888" lon="-97.911079" />
      <trkpt lat="30.462841" lon="-97.911504" />
      <trkpt lat="30.462783" lon="-97.911797" />
      <trkpt lat="30.462574" lon="-97.912093" />
      <trkpt lat="30.462046" lon="-97.912652" />
      <trkpt lat="30.461724" lon="-97.912937" />
      <trkpt lat="30.461676" lon="-97.912969" />
      <trkpt lat="30.461561" lon="-97.913046" />
      <trkpt lat="30.461422" lon="-97.91312" />
      <trkpt lat="30.461273" lon="-97.913108" />
      <trkpt lat="30.461138" lon="-97.913053" />
      <trkpt lat="30.460825" lon="-97.912835" />
      <trkpt lat="30.460689" lon="-97.912764" />
      <trkpt lat="30.460521" lon="-97.912742" />
      <trkpt lat="30.460333" lon="-97.912809" />
      <trkpt lat="30.459712" lon="-97.913381" />
      <trkpt lat="30.45964" lon="-97.913524" />
      <trkpt lat="30.459624" lon="-97.913659" />
      <trkpt lat="30.459652" lon="-97.913827" />
      <trkpt lat="30.459725" lon="-97.913969" />
      <trkpt lat="30.459844" lon="-97.914161" />
      <trkpt lat="30.4599" lon="-97.914325" />
      <trkpt lat="30.459941" lon="-97.914665" />
      <trkpt lat="30.459942" lon="-97.914912" />
      <trkpt lat="30.459942" lon="-97.914994" />
      <trkpt lat="30.459656" lon="-97.915671" />
      <trkpt lat="30.459609" lon="-97.915761" />
      <trkpt lat="30.459496" lon="-97.915982" />
      <trkpt lat="30.459404" lon="-97.916163" />
      <trkpt lat="30.459302" lon="-97.916362" />
      <trkpt lat="30.459183" lon="-97.916593" />
      <trkpt lat="30.459074" lon="-97.916788" />
      <trkpt lat="30.458989" lon="-97.91694" />
      <trkpt lat="30.458861" lon="-97.9171" />
      <trkpt lat="30.458846" lon="-97.917118" />
      <trkpt lat="30.458688" lon="-97.917219" />
      <trkpt lat="30.458562" lon="-97.917264" />
      <trkpt lat="30.45844" lon="-97.917283" />
      <trkpt lat="30.458317" lon="-97.917277" />
      <trkpt lat="30.458288" lon="-97.917267" />
      <trkpt lat="30.458196" lon="-97.917234" />
      <trkpt lat="30.458058" lon="-97.917148" />
      <trkpt lat="30.457873" lon="-97.916995" />
      <trkpt lat="30.457717" lon="-97.916773" />
      <trkpt lat="30.457597" lon="-97.916644" />
      <trkpt lat="30.457533" lon="-97.916576" />
      <trkpt lat="30.457344" lon="-97.916353" />
      <trkpt lat="30.457311" lon="-97.916328" />
      <trkpt lat="30.457144" lon="-97.916204" />
      <trkpt lat="30.457053" lon="-97.916156" />
      <trkpt lat="30.456573" lon="-97.915904" />
      <trkpt lat="30.45648" lon="-97.91585" />
      <trkpt lat="30.456218" lon="-97.9157" />
      <trkpt lat="30.456118" lon="-97.915643" />
      <trkpt lat="30.456041" lon="-97.915599" />
      <trkpt lat="30.456017" lon="-97.915585" />
      <trkpt lat="30.455792" lon="-97.915389" />
      <trkpt lat="30.455727" lon="-97.915295" />
      <trkpt lat="30.455663" lon="-97.915223" />
      <trkpt lat="30.455513" lon="-97.915006" />
      <trkpt lat="30.455467" lon="-97.914916" />
      <trkpt lat="30.455356" lon="-97.914734" />
      <trkpt lat="30.455349" lon="-97.914723" />
      <trkpt lat="30.455211" lon="-97.91434" />
      <trkpt lat="30.455173" lon="-97.914205" />
      <trkpt lat="30.455119" lon="-97.914015" />
      <trkpt lat="30.455016" lon="-97.913811" />
      <trkpt lat="30.454949" lon="-97.913712" />
      <trkpt lat="30.454923" lon="-97.913675" />
      <trkpt lat="30.45482" lon="-97.91358" />
      <trkpt lat="30.454674" lon="-97.913488" />
      <trkpt lat="30.454662" lon="-97.913484" />
      <trkpt lat="30.454523" lon="-97.913435" />
      <trkpt lat="30.454104" lon="-97.913417" />
      <trkpt lat="30.453999" lon="-97.913413" />
      <trkpt lat="30.453976" lon="-97.91341" />
      <trkpt lat="30.453498" lon="-97.913346" />
      <trkpt lat="30.452734" lon="-97.913159" />
      <trkpt lat="30.452591" lon="-97.913018" />
      <trkpt lat="30.452469" lon="-97.912814" />
      <trkpt lat="30.452331" lon="-97.912503" />
      <trkpt lat="30.452131" lon="-97.912017" />
      <trkpt lat="30.452002" lon="-97.911703" />
      <trkpt lat="30.451547" lon="-97.910827" />
      <trkpt lat="30.451333" lon="-97.910377" />
      <trkpt lat="30.451272" lon="-97.910203" />
      <trkpt lat="30.451212" lon="-97.909992" />
      <trkpt lat="30.451082" lon="-97.90959" />
      <trkpt lat="30.450965" lon="-97.909233" />
      <trkpt lat="30.450913" lon="-97.9091" />
      <trkpt lat="30.450869" lon="-97.908998" />
      <trkpt lat="30.450813" lon="-97.908889" />
      <trkpt lat="30.450754" lon="-97.908817" />
      <trkpt lat="30.450613" lon="-97.90864" />
      <trkpt lat="30.450425" lon="-97.908438" />
      <trkpt lat="30.450288" lon="-97.908267" />
      <trkpt lat="30.450264" lon="-97.908226" />
      <trkpt lat="30.450135" lon="-97.908004" />
      <trkpt lat="30.450111" lon="-97.907952" />
      <trkpt lat="30.450011" lon="-97.907735" />
      <trkpt lat="30.449891" lon="-97.907434" />
      <trkpt lat="30.449771" lon="-97.907096" />
      <trkpt lat="30.449724" lon="-97.906943" />
      <trkpt lat="30.449695" lon="-97.906803" />
      <trkpt lat="30.449681" lon="-97.906618" />
      <trkpt lat="30.449678" lon="-97.906477" />
      <trkpt lat="30.449677" lon="-97.906465" />
      <trkpt lat="30.449697" lon="-97.905747" />
      <trkpt lat="30.449695" lon="-97.905127" />
      <trkpt lat="30.449679" lon="-97.904987" />
      <trkpt lat="30.449635" lon="-97.904816" />
      <trkpt lat="30.449567" lon="-97.904709" />
      <trkpt lat="30.449487" lon="-97.904645" />
      <trkpt lat="30.44939" lon="-97.904629" />
      <trkpt lat="30.449312" lon="-97.904652" />
      <trkpt lat="30.449234" lon="-97.904714" />
      <trkpt lat="30.448904" lon="-97.905089" />
      <trkpt lat="30.448678" lon="-97.905351" />
      <trkpt lat="30.448515" lon="-97.905484" />
      <trkpt lat="30.448089" lon="-97.905707" />
      <trkpt lat="30.447891" lon="-97.905793" />
      <trkpt lat="30.447694" lon="-97.905903" />
      <trkpt lat="30.447651" lon="-97.905959" />
      <trkpt lat="30.447593" lon="-97.906032" />
      <trkpt lat="30.447529" lon="-97.906191" />
      <trkpt lat="30.447507" lon="-97.906512" />
      <trkpt lat="30.447463" lon="-97.907173" />
      <trkpt lat="30.447342" lon="-97.907939" />
      <trkpt lat="30.447256" lon="-97.908347" />
      <trkpt lat="30.447076" lon="-97.908847" />
      <trkpt lat="30.446941" lon="-97.909095" />
      <trkpt lat="30.446845" lon="-97.909215" />
      <trkpt lat="30.446747" lon="-97.909339" />
      <trkpt lat="30.446502" lon="-97.909533" />
      <trkpt lat="30.446073" lon="-97.90981" />
      <trkpt lat="30.445914" lon="-97.909967" />
      <trkpt lat="30.445751" lon="-97.910164" />
      <trkpt lat="30.445473" lon="-97.910686" />
      <trkpt lat="30.445354" lon="-97.910859" />
      <trkpt lat="30.445174" lon="-97.911047" />
      <trkpt lat="30.444999" lon="-97.91118" />
      <trkpt lat="30.444812" lon="-97.911291" />
      <trkpt lat="30.444601" lon="-97.911359" />
      <trkpt lat="30.444108" lon="-97.911385" />
      <trkpt lat="30.443598" lon="-97.911331" />
      <trkpt lat="30.443471" lon="-97.911353" />
      <trkpt lat="30.443402" lon="-97.911372" />
      <trkpt lat="30.4433" lon="-97.911415" />
      <trkpt lat="30.443092" lon="-97.911522" />
      <trkpt lat="30.442471" lon="-97.911998" />
      <trkpt lat="30.442286" lon="-97.912139" />
      <trkpt lat="30.442113" lon="-97.912266" />
      <trkpt lat="30.441864" lon="-97.912427" />
      <trkpt lat="30.441738" lon="-97.912347" />
      <trkpt lat="30.441429" lon="-97.912046" />
      <trkpt lat="30.441134" lon="-97.911587" />
      <trkpt lat="30.440778" lon="-97.911031" />
      <trkpt lat="30.440265" lon="-97.910249" />
      <trkpt lat="30.440202" lon="-97.910101" />
      <trkpt lat="30.440102" lon="-97.909843" />
      <trkpt lat="30.440076" lon="-97.909775" />
      <trkpt lat="30.439951" lon="-97.909409" />
      <trkpt lat="30.439799" lon="-97.908964" />
      <trkpt lat="30.439715" lon="-97.908729" />
      <trkpt lat="30.439629" lon="-97.908574" />
      <trkpt lat="30.43949" lon="-97.908372" />
      <trkpt lat="30.439146" lon="-97.907927" />
      <trkpt lat="30.439031" lon="-97.90773" />
      <trkpt lat="30.43891" lon="-97.907466" />
      <trkpt lat="30.438806" lon="-97.907109" />
      <trkpt lat="30.438768" lon="-97.906902" />
      <trkpt lat="30.43874" lon="-97.906702" />
      <trkpt lat="30.438735" lon="-97.906533" />
      <trkpt lat="30.438764" lon="-97.906151" />
      <trkpt lat="30.438792" lon="-97.905936" />
      <trkpt lat="30.438843" lon="-97.905536" />
      <trkpt lat="30.438873" lon="-97.905307" />
      <trkpt lat="30.438925" lon="-97.905106" />
      <trkpt lat="30.438943" lon="-97.905036" />
      <trkpt lat="30.439034" lon="-97.904829" />
      <trkpt lat="30.439224" lon="-97.904439" />
      <trkpt lat="30.439253" lon="-97.904326" />
      <trkpt lat="30.439264" lon="-97.904283" />
      <trkpt lat="30.439283" lon="-97.904127" />
      <trkpt lat="30.439265" lon="-97.90396" />
      <trkpt lat="30.439181" lon="-97.903732" />
      <trkpt lat="30.439037" lon="-97.903446" />
      <trkpt lat="30.438868" lon="-97.903196" />
      <trkpt lat="30.438778" lon="-97.903113" />
      <trkpt lat="30.438687" lon="-97.903095" />
      <trkpt lat="30.438651" lon="-97.903096" />
      <trkpt lat="30.438554" lon="-97.903099" />
      <trkpt lat="30.437986" lon="-97.903264" />
      <trkpt lat="30.4378" lon="-97.90337" />
      <trkpt lat="30.437125" lon="-97.903894" />
      <trkpt lat="30.436582" lon="-97.904187" />
      <trkpt lat="30.436341" lon="-97.904283" />
      <trkpt lat="30.436165" lon="-97.904327" />
      <trkpt lat="30.435889" lon="-97.904328" />
      <trkpt lat="30.435141" lon="-97.904278" />
      <trkpt lat="30.434732" lon="-97.904223" />
      <trkpt lat="30.434566" lon="-97.90418" />
      <trkpt lat="30.434081" lon="-97.904057" />
      <trkpt lat="30.433906" lon="-97.904001" />
      <trkpt lat="30.433766" lon="-97.903917" />
      <trkpt lat="30.433661" lon="-97.903803" />
      <trkpt lat="30.433558" lon="-97.903629" />
      <trkpt lat="30.433476" lon="-97.903413" />
      <trkpt lat="30.433369" lon="-97.903099" />
      <trkpt lat="30.433316" lon="-97.902837" />
      <trkpt lat="30.433269" lon="-97.902602" />
      <trkpt lat="30.433246" lon="-97.902296" />
      <trkpt lat="30.433258" lon="-97.902103" />
      <trkpt lat="30.433285" lon="-97.901863" />
      <trkpt lat="30.433335" lon="-97.901667" />
      <trkpt lat="30.433451" lon="-97.901378" />
      <trkpt lat="30.433504" lon="-97.901278" />
      <trkpt lat="30.433527" lon="-97.901233" />
      <trkpt lat="30.433585" lon="-97.901075" />
      <trkpt lat="30.43368" lon="-97.900848" />
      <trkpt lat="30.433793" lon="-97.900424" />
      <trkpt lat="30.433841" lon="-97.900045" />
      <trkpt lat="30.43386" lon="-97.89983" />
      <trkpt lat="30.433885" lon="-97.899547" />
      <trkpt lat="30.433901" lon="-97.899273" />
      <trkpt lat="30.433906" lon="-97.899188" />
      <trkpt lat="30.433964" lon="-97.898739" />
      <trkpt lat="30.434003" lon="-97.898504" />
      <trkpt lat="30.434008" lon="-97.89847" />
      <trkpt lat="30.4342" lon="-97.897707" />
      <trkpt lat="30.43424" lon="-97.897378" />
      <trkpt lat="30.434228" lon="-97.897028" />
      <trkpt lat="30.434202" lon="-97.89668" />
      <trkpt lat="30.434144" lon="-97.895926" />
      <trkpt lat="30.433919" lon="-97.894218" />
      <trkpt lat="30.43362" lon="-97.89228" />
      <trkpt lat="30.433596" lon="-97.892126" />
      <trkpt lat="30.433474" lon="-97.891172" />
      <trkpt lat="30.433431" lon="-97.890793" />
      <trkpt lat="30.433367" lon="-97.890219" />
      <trkpt lat="30.433263" lon="-97.889405" />
      <trkpt lat="30.433197" lon="-97.889057" />
      <trkpt lat="30.433114" lon="-97.88884" />
      <trkpt lat="30.43299" lon="-97.888608" />
      <trkpt lat="30.432619" lon="-97.88806" />
      <trkpt lat="30.432468" lon="-97.887802" />
      <trkpt lat="30.432373" lon="-97.887616" />
      <trkpt lat="30.432326" lon="-97.887486" />
      <trkpt lat="30.432276" lon="-97.887304" />
      <trkpt lat="30.432235" lon="-97.88708" />
      <trkpt lat="30.43223" lon="-97.886667" />
      <trkpt lat="30.432261" lon="-97.886247" />
      <trkpt lat="30.432282" lon="-97.885962" />
      <trkpt lat="30.432352" lon="-97.885309" />
      <trkpt lat="30.432407" lon="-97.88492" />
      <trkpt lat="30.432422" lon="-97.884818" />
      <trkpt lat="30.432528" lon="-97.884495" />
      <trkpt lat="30.432626" lon="-97.884314" />
      <trkpt lat="30.432651" lon="-97.884267" />
      <trkpt lat="30.432768" lon="-97.884087" />
      <trkpt lat="30.43284" lon="-97.883997" />
      <trkpt lat="30.432883" lon="-97.883944" />
      <trkpt lat="30.432991" lon="-97.883864" />
      <trkpt lat="30.433056" lon="-97.883816" />
      <trkpt lat="30.43331" lon="-97.88364" />
      <trkpt lat="30.433335" lon="-97.883623" />
      <trkpt lat="30.433523" lon="-97.883538" />
      <trkpt lat="30.433605" lon="-97.883501" />
      <trkpt lat="30.433775" lon="-97.883448" />
      <trkpt lat="30.434011" lon="-97.883405" />
      <trkpt lat="30.434198" lon="-97.883401" />
      <trkpt lat="30.434387" lon="-97.883402" />
      <trkpt lat="30.434533" lon="-97.883403" />
      <trkpt lat="30.435438" lon="-97.883424" />
      <trkpt lat="30.435719" lon="-97.883431" />
      <trkpt lat="30.436007" lon="-97.883473" />
      <trkpt lat="30.436209" lon="-97.883518" />
      <trkpt lat="30.436375" lon="-97.883587" />
      <trkpt lat="30.436631" lon="-97.883713" />
      <trkpt lat="30.436692" lon="-97.883744" />
      <trkpt lat="30.43683" lon="-97.883767" />
      <trkpt lat="30.436959" lon="-97.88377" />
      <trkpt lat="30.437022" lon="-97.883772" />
      <trkpt lat="30.437298" lon="-97.883694" />
      <trkpt lat="30.437541" lon="-97.883565" />
      <trkpt lat="30.43769" lon="-97.883469" />
      <trkpt lat="30.437786" lon="-97.883363" />
      <trkpt lat="30.437915" lon="-97.883208" />
      <trkpt lat="30.438121" lon="-97.882913" />
      <trkpt lat="30.438275" lon="-97.882749" />
      <trkpt lat="30.438498" lon="-97.882527" />
      <trkpt lat="30.438575" lon="-97.882451" />
      <trkpt lat="30.439122" lon="-97.882027" />
      <trkpt lat="30.43929" lon="-97.881858" />
      <trkpt lat="30.439362" lon="-97.881757" />
      <trkpt lat="30.439398" lon="-97.881705" />
      <trkpt lat="30.439476" lon="-97.881518" />
      <trkpt lat="30.439485" lon="-97.881361" />
      <trkpt lat="30.439481" lon="-97.881101" />
      <trkpt lat="30.439383" lon="-97.880513" />
      <trkpt lat="30.439358" lon="-97.880354" />
      <trkpt lat="30.439319" lon="-97.880137" />
      <trkpt lat="30.439245" lon="-97.87986" />
      <trkpt lat="30.439201" lon="-97.879788" />
      <trkpt lat="30.439173" lon="-97.879742" />
      <trkpt lat="30.439046" lon="-97.879632" />
      <trkpt lat="30.43902" lon="-97.879616" />
      <trkpt lat="30.438957" lon="-97.879578" />
      <trkpt lat="30.438813" lon="-97.879557" />
      <trkpt lat="30.437825" lon="-97.879586" />
      <trkpt lat="30.437603" lon="-97.87962" />
      <trkpt lat="30.437452" lon="-97.879652" />
      <trkpt lat="30.437324" lon="-97.879697" />
      <trkpt lat="30.437092" lon="-97.879779" />
      <trkpt lat="30.436188" lon="-97.879849" />
      <trkpt lat="30.436457" lon="-97.879859" />
      <trkpt lat="30.436718" lon="-97.879842" />
      <trkpt lat="30.436929" lon="-97.879817" />
      <trkpt lat="30.437092" lon="-97.879779" />
      <trkpt lat="30.437324" lon="-97.879697" />
      <trkpt lat="30.437452" lon="-97.879652" />
      <trkpt lat="30.437603" lon="-97.87962" />
      <trkpt lat="30.437825" lon="-97.879586" />
      <trkpt lat="30.438813" lon="-97.879557" />
      <trkpt lat="30.438957" lon="-97.879578" />
      <trkpt lat="30.43902" lon="-97.879616" />
      <trkpt lat="30.439046" lon="-97.879632" />
      <trkpt lat="30.439173" lon="-97.879742" />
      <trkpt lat="30.439201" lon="-97.879788" />
      <trkpt lat="30.439245" lon="-97.87986" />
      <trkpt lat="30.439319" lon="-97.880137" />
      <trkpt lat="30.439358" lon="-97.880354" />
      <trkpt lat="30.439383" lon="-97.880513" />
      <trkpt lat="30.439481" lon="-97.881101" />
      <trkpt lat="30.439485" lon="-97.881361" />
      <trkpt lat="30.439476" lon="-97.881518" />
      <trkpt lat="30.439398" lon="-97.881705" />
      <trkpt lat="30.439362" lon="-97.881757" />
      <trkpt lat="30.43929" lon="-97.881858" />
      <trkpt lat="30.439122" lon="-97.882027" />
      <trkpt lat="30.438575" lon="-97.882451" />
      <trkpt lat="30.438498" lon="-97.882527" />
      <trkpt lat="30.438275" lon="-97.882749" />
      <trkpt lat="30.438121" lon="-97.882913" />
      <trkpt lat="30.437915" lon="-97.883208" />
      <trkpt lat="30.437786" lon="-97.883363" />
      <trkpt lat="30.43769" lon="-97.883469" />
      <trkpt lat="30.437541" lon="-97.883565" />
      <trkpt lat="30.437298" lon="-97.883694" />
      <trkpt lat="30.437022" lon="-97.883772" />
      <trkpt lat="30.436959" lon="-97.88377" />
      <trkpt lat="30.43683" lon="-97.883767" />
      <trkpt lat="30.436692" lon="-97.883744" />
      <trkpt lat="30.436631" lon="-97.883713" />
      <trkpt lat="30.436375" lon="-97.883587" />
      <trkpt lat="30.436209" lon="-97.883518" />
      <trkpt lat="30.436007" lon="-97.883473" />
      <trkpt lat="30.435719" lon="-97.883431" />
      <trkpt lat="30.435438" lon="-97.883424" />
      <trkpt lat="30.434533" lon="-97.883403" />
      <trkpt lat="30.434387" lon="-97.883402" />
      <trkpt lat="30.434198" lon="-97.883401" />
      <trkpt lat="30.434011" lon="-97.883405" />
      <trkpt lat="30.433775" lon="-97.883448" />
      <trkpt lat="30.433605" lon="-97.883501" />
      <trkpt lat="30.433523" lon="-97.883538" />
      <trkpt lat="30.433335" lon="-97.883623" />
      <trkpt lat="30.43331" lon="-97.88364" />
      <trkpt lat="30.433056" lon="-97.883816" />
      <trkpt lat="30.432991" lon="-97.883864" />
      <trkpt lat="30.432883" lon="-97.883944" />
      <trkpt lat="30.43284" lon="-97.883997" />
      <trkpt lat="30.432768" lon="-97.884087" />
      <trkpt lat="30.432651" lon="-97.884267" />
      <trkpt lat="30.432626" lon="-97.884314" />
      <trkpt lat="30.432528" lon="-97.884495" />
      <trkpt lat="30.432422" lon="-97.884818" />
      <trkpt lat="30.432407" lon="-97.88492" />
      <trkpt lat="30.432352" lon="-97.885309" />
      <trkpt lat="30.432282" lon="-97.885962" />
      <trkpt lat="30.432261" lon="-97.886247" />
      <trkpt lat="30.43223" lon="-97.886667" />
      <trkpt lat="30.432235" lon="-97.88708" />
      <trkpt lat="30.432276" lon="-97.887304" />
      <trkpt lat="30.432326" lon="-97.887486" />
      <trkpt lat="30.432373" lon="-97.887616" />
      <trkpt lat="30.432468" lon="-97.887802" />
      <trkpt lat="30.432619" lon="-97.88806" />
      <trkpt lat="30.43299" lon="-97.888608" />
      <trkpt lat="30.433114" lon="-97.88884" />
      <trkpt lat="30.433197" lon="-97.889057" />
      <trkpt lat="30.433263" lon="-97.889405" />
      <trkpt lat="30.433367" lon="-97.890219" />
      <trkpt lat="30.433431" lon="-97.890793" />
      <trkpt lat="30.433474" lon="-97.891172" />
      <trkpt lat="30.433596" lon="-97.892126" />
      <trkpt lat="30.43362" lon="-97.89228" />
      <trkpt lat="30.433919" lon="-97.894218" />
      <trkpt lat="30.434144" lon="-97.895926" />
      <trkpt lat="30.434202" lon="-97.89668" />
      <trkpt lat="30.434228" lon="-97.897028" />
      <trkpt lat="30.43424" lon="-97.897378" />
      <trkpt lat="30.4342" lon="-97.897707" />
      <trkpt lat="30.434008" lon="-97.89847" />
      <trkpt lat="30.434003" lon="-97.898504" />
      <trkpt lat="30.433964" lon="-97.898739" />
      <trkpt lat="30.433906" lon="-97.899188" />
      <trkpt lat="30.433901" lon="-97.899273" />
      <trkpt lat="30.433885" lon="-97.899547" />
      <trkpt lat="30.43386" lon="-97.89983" />
      <trkpt lat="30.433841" lon="-97.900045" />
      <trkpt lat="30.433793" lon="-97.900424" />
      <trkpt lat="30.43368" lon="-97.900848" />
      <trkpt lat="30.433585" lon="-97.901075" />
      <trkpt lat="30.433527" lon="-97.901233" />
      <trkpt lat="30.433504" lon="-97.901278" />
      <trkpt lat="30.433451" lon="-97.901378" />
      <trkpt lat="30.433335" lon="-97.901667" />
      <trkpt lat="30.433285" lon="-97.901863" />
      <trkpt lat="30.433258" lon="-97.902103" />
      <trkpt lat="30.433246" lon="-97.902296" />
      <trkpt lat="30.433269" lon="-97.902602" />
      <trkpt lat="30.433316" lon="-97.902837" />
      <trkpt lat="30.433369" lon="-97.903099" />
      <trkpt lat="30.433476" lon="-97.903413" />
      <trkpt lat="30.433558" lon="-97.903629" />
      <trkpt lat="30.433661" lon="-97.903803" />
      <trkpt lat="30.433766" lon="-97.903917" />
      <trkpt lat="30.433906" lon="-97.904001" />
      <trkpt lat="30.434081" lon="-97.904057" />
      <trkpt lat="30.434566" lon="-97.90418" />
      <trkpt lat="30.434732" lon="-97.904223" />
      <trkpt lat="30.435141" lon="-97.904278" />
      <trkpt lat="30.435889" lon="-97.904328" />
      <trkpt lat="30.436165" lon="-97.904327" />
      <trkpt lat="30.436341" lon="-97.904283" />
      <trkpt lat="30.436582" lon="-97.904187" />
      <trkpt lat="30.437125" lon="-97.903894" />
      <trkpt lat="30.4378" lon="-97.90337" />
      <trkpt lat="30.437986" lon="-97.903264" />
      <trkpt lat="30.438554" lon="-97.903099" />
      <trkpt lat="30.438651" lon="-97.903096" />
      <trkpt lat="30.438687" lon="-97.903095" />
      <trkpt lat="30.438778" lon="-97.903113" />
      <trkpt lat="30.438868" lon="-97.903196" />
      <trkpt lat="30.439037" lon="-97.903446" />
      <trkpt lat="30.439181" lon="-97.903732" />
      <trkpt lat="30.439265" lon="-97.90396" />
      <trkpt lat="30.439283" lon="-97.904127" />
      <trkpt lat="30.439264" lon="-97.904283" />
      <trkpt lat="30.439253" lon="-97.904326" />
      <trkpt lat="30.439224" lon="-97.904439" />
      <trkpt lat="30.439034" lon="-97.904829" />
      <trkpt lat="30.438943" lon="-97.905036" />
      <trkpt lat="30.438925" lon="-97.905106" />
      <trkpt lat="30.438873" lon="-97.905307" />
      <trkpt lat="30.438843" lon="-97.905536" />
      <trkpt lat="30.439268" lon="-97.905554" />
      <trkpt lat="30.438843" lon="-97.905536" />
      <trkpt lat="30.438873" lon="-97.905307" />
      <trkpt lat="30.438873" lon="-97.905307" />
      <trkpt lat="30.438925" lon="-97.905106" />
      <trkpt lat="30.438943" lon="-97.905036" />
      <trkpt lat="30.439034" lon="-97.904829" />
      <trkpt lat="30.439224" lon="-97.904439" />
      <trkpt lat="30.439253" lon="-97.904326" />
      <trkpt lat="30.439264" lon="-97.904283" />
      <trkpt lat="30.439283" lon="-97.904127" />
      <trkpt lat="30.439265" lon="-97.90396" />
      <trkpt lat="30.439181" lon="-97.903732" />
      <trkpt lat="30.439037" lon="-97.903446" />
      <trkpt lat="30.438868" lon="-97.903196" />
      <trkpt lat="30.438778" lon="-97.903113" />
      <trkpt lat="30.438687" lon="-97.903095" />
      <trkpt lat="30.438651" lon="-97.903096" />
      <trkpt lat="30.438554" lon="-97.903099" />
      <trkpt lat="30.437986" lon="-97.903264" />
      <trkpt lat="30.4378" lon="-97.90337" />
      <trkpt lat="30.437125" lon="-97.903894" />
      <trkpt lat="30.436582" lon="-97.904187" />
      <trkpt lat="30.436341" lon="-97.904283" />
      <trkpt lat="30.436165" lon="-97.904327" />
      <trkpt lat="30.435889" lon="-97.904328" />
      <trkpt lat="30.435141" lon="-97.904278" />
      <trkpt lat="30.434732" lon="-97.904223" />
      <trkpt lat="30.434566" lon="-97.90418" />
      <trkpt lat="30.434081" lon="-97.904057" />
      <trkpt lat="30.433906" lon="-97.904001" />
      <trkpt lat="30.433766" lon="-97.903917" />
      <trkpt lat="30.433661" lon="-97.903803" />
      <trkpt lat="30.433558" lon="-97.903629" />
      <trkpt lat="30.433476" lon="-97.903413" />
      <trkpt lat="30.433369" lon="-97.903099" />
      <trkpt lat="30.433316" lon="-97.902837" />
      <trkpt lat="30.433269" lon="-97.902602" />
      <trkpt lat="30.433246" lon="-97.902296" />
      <trkpt lat="30.433258" lon="-97.902103" />
      <trkpt lat="30.433285" lon="-97.901863" />
      <trkpt lat="30.433335" lon="-97.901667" />
      <trkpt lat="30.433451" lon="-97.901378" />
      <trkpt lat="30.433504" lon="-97.901278" />
      <trkpt lat="30.433527" lon="-97.901233" />
      <trkpt lat="30.433585" lon="-97.901075" />
      <trkpt lat="30.43368" lon="-97.900848" />
      <trkpt lat="30.433793" lon="-97.900424" />
      <trkpt lat="30.433841" lon="-97.900045" />
      <trkpt lat="30.43386" lon="-97.89983" />
      <trkpt lat="30.433885" lon="-97.899547" />
      <trkpt lat="30.433901" lon="-97.899273" />
      <trkpt lat="30.433906" lon="-97.899188" />
      <trkpt lat="30.433964" lon="-97.898739" />
      <trkpt lat="30.434003" lon="-97.898504" />
      <trkpt lat="30.434008" lon="-97.89847" />
      <trkpt lat="30.4342" lon="-97.897707" />
      <trkpt lat="30.43424" lon="-97.897378" />
      <trkpt lat="30.434228" lon="-97.897028" />
      <trkpt lat="30.434202" lon="-97.89668" />
      <trkpt lat="30.434144" lon="-97.895926" />
      <trkpt lat="30.433919" lon="-97.894218" />
      <trkpt lat="30.43362" lon="-97.89228" />
      <trkpt lat="30.433596" lon="-97.892126" />
      <trkpt lat="30.433474" lon="-97.891172" />
      <trkpt lat="30.433431" lon="-97.890793" />
      <trkpt lat="30.433367" lon="-97.890219" />
      <trkpt lat="30.433263" lon="-97.889405" />
      <trkpt lat="30.433197" lon="-97.889057" />
      <trkpt lat="30.433114" lon="-97.88884" />
      <trkpt lat="30.43299" lon="-97.888608" />
      <trkpt lat="30.432619" lon="-97.88806" />
      <trkpt lat="30.432468" lon="-97.887802" />
      <trkpt lat="30.432373" lon="-97.887616" />
      <trkpt lat="30.432326" lon="-97.887486" />
      <trkpt lat="30.432276" lon="-97.887304" />
      <trkpt lat="30.432235" lon="-97.88708" />
      <trkpt lat="30.43223" lon="-97.886667" />
      <trkpt lat="30.432261" lon="-97.886247" />
      <trkpt lat="30.432282" lon="-97.885962" />
      <trkpt lat="30.432352" lon="-97.885309" />
      <trkpt lat="30.432407" lon="-97.88492" />
      <trkpt lat="30.432422" lon="-97.884818" />
      <trkpt lat="30.432528" lon="-97.884495" />
      <trkpt lat="30.432626" lon="-97.884314" />
      <trkpt lat="30.432651" lon="-97.884267" />
      <trkpt lat="30.432768" lon="-97.884087" />
      <trkpt lat="30.43284" lon="-97.883997" />
      <trkpt lat="30.432883" lon="-97.883944" />
      <trkpt lat="30.432991" lon="-97.883864" />
      <trkpt lat="30.433056" lon="-97.883816" />
      <trkpt lat="30.43331" lon="-97.88364" />
      <trkpt lat="30.433335" lon="-97.883623" />
      <trkpt lat="30.433523" lon="-97.883538" />
      <trkpt lat="30.433605" lon="-97.883501" />
      <trkpt lat="30.433775" lon="-97.883448" />
      <trkpt lat="30.434011" lon="-97.883405" />
      <trkpt lat="30.434198" lon="-97.883401" />
      <trkpt lat="30.434387" lon="-97.883402" />
      <trkpt lat="30.434533" lon="-97.883403" />
      <trkpt lat="30.435438" lon="-97.883424" />
      <trkpt lat="30.435719" lon="-97.883431" />
      <trkpt lat="30.436007" lon="-97.883473" />
      <trkpt lat="30.436209" lon="-97.883518" />
      <trkpt lat="30.436375" lon="-97.883587" />
      <trkpt lat="30.436631" lon="-97.883713" />
      <trkpt lat="30.436692" lon="-97.883744" />
      <trkpt lat="30.43683" lon="-97.883767" />
      <trkpt lat="30.436959" lon="-97.88377" />
      <trkpt lat="30.437022" lon="-97.883772" />
      <trkpt lat="30.437298" lon="-97.883694" />
      <trkpt lat="30.437541" lon="-97.883565" />
      <trkpt lat="30.43769" lon="-97.883469" />
      <trkpt lat="30.437786" lon="-97.883363" />
      <trkpt lat="30.437915" lon="-97.883208" />
      <trkpt lat="30.438121" lon="-97.882913" />
      <trkpt lat="30.438275" lon="-97.882749" />
      <trkpt lat="30.438498" lon="-97.882527" />
      <trkpt lat="30.438575" lon="-97.882451" />
      <trkpt lat="30.439122" lon="-97.882027" />
      <trkpt lat="30.43929" lon="-97.881858" />
      <trkpt lat="30.439362" lon="-97.881757" />
      <trkpt lat="30.439398" lon="-97.881705" />
      <trkpt lat="30.439476" lon="-97.881518" />
      <trkpt lat="30.439485" lon="-97.881361" />
      <trkpt lat="30.439481" lon="-97.881101" />
      <trkpt lat="30.439383" lon="-97.880513" />
      <trkpt lat="30.439358" lon="-97.880354" />
      <trkpt lat="30.439319" lon="-97.880137" />
      <trkpt lat="30.439245" lon="-97.87986" />
      <trkpt lat="30.439201" lon="-97.879788" />
      <trkpt lat="30.439173" lon="-97.879742" />
      <trkpt lat="30.439046" lon="-97.879632" />
      <trkpt lat="30.43902" lon="-97.879616" />
      <trkpt lat="30.438957" lon="-97.879578" />
      <trkpt lat="30.438813" lon="-97.879557" />
      <trkpt lat="30.437825" lon="-97.879586" />
      <trkpt lat="30.437603" lon="-97.87962" />
      <trkpt lat="30.437452" lon="-97.879652" />
      <trkpt lat="30.437324" lon="-97.879697" />
      <trkpt lat="30.437092" lon="-97.879779" />
      <trkpt lat="30.436929" lon="-97.879817" />
      <trkpt lat="30.436718" lon="-97.879842" />
      <trkpt lat="30.436457" lon="-97.879859" />
      <trkpt lat="30.436188" lon="-97.879849" />
      <trkpt lat="30.435932" lon="-97.879803" />
      <trkpt lat="30.435747" lon="-97.879742" />
      <trkpt lat="30.435533" lon="-97.879617" />
      <trkpt lat="30.435144" lon="-97.879287" />
      <trkpt lat="30.434955" lon="-97.879192" />
      <trkpt lat="30.434528" lon="-97.879011" />
      <trkpt lat="30.43444" lon="-97.878951" />
      <trkpt lat="30.434351" lon="-97.878891" />
      <trkpt lat="30.434238" lon="-97.878728" />
      <trkpt lat="30.434127" lon="-97.878449" />
      <trkpt lat="30.434094" lon="-97.878211" />
      <trkpt lat="30.434113" lon="-97.877951" />
      <trkpt lat="30.434146" lon="-97.877766" />
      <trkpt lat="30.434275" lon="-97.877401" />
      <trkpt lat="30.43444" lon="-97.877118" />
      <trkpt lat="30.434619" lon="-97.876935" />
      <trkpt lat="30.43477" lon="-97.876811" />
      <trkpt lat="30.435114" lon="-97.876528" />
      <trkpt lat="30.435209" lon="-97.876471" />
      <trkpt lat="30.435347" lon="-97.876389" />
      <trkpt lat="30.435533" lon="-97.876312" />
      <trkpt lat="30.435789" lon="-97.876256" />
      <trkpt lat="30.436631" lon="-97.876116" />
      <trkpt lat="30.436912" lon="-97.876056" />
      <trkpt lat="30.437149" lon="-97.875977" />
      <trkpt lat="30.437491" lon="-97.875839" />
      <trkpt lat="30.437705" lon="-97.875798" />
      <trkpt lat="30.437952" lon="-97.875767" />
      <trkpt lat="30.438128" lon="-97.875689" />
      <trkpt lat="30.438301" lon="-97.875563" />
      <trkpt lat="30.43858" lon="-97.875301" />
      <trkpt lat="30.439025" lon="-97.874802" />
      <trkpt lat="30.43948" lon="-97.874237" />
      <trkpt lat="30.439692" lon="-97.873967" />
      <trkpt lat="30.439854" lon="-97.873724" />
      <trkpt lat="30.441026" lon="-97.871799" />
      <trkpt lat="30.441137" lon="-97.871591" />
      <trkpt lat="30.441204" lon="-97.871399" />
      <trkpt lat="30.441264" lon="-97.871199" />
      <trkpt lat="30.441295" lon="-97.871019" />
      <trkpt lat="30.441306" lon="-97.870871" />
      <trkpt lat="30.441304" lon="-97.870633" />
      <trkpt lat="30.441271" lon="-97.870377" />
      <trkpt lat="30.44122" lon="-97.870157" />
      <trkpt lat="30.441114" lon="-97.869696" />
      <trkpt lat="30.441069" lon="-97.869458" />
      <trkpt lat="30.44105" lon="-97.869249" />
      <trkpt lat="30.441058" lon="-97.86903" />
      <trkpt lat="30.44109" lon="-97.8688" />
      <trkpt lat="30.441139" lon="-97.868621" />
      <trkpt lat="30.441192" lon="-97.868481" />
      <trkpt lat="30.4413" lon="-97.868278" />
      <trkpt lat="30.441746" lon="-97.867434" />
      <trkpt lat="30.441895" lon="-97.867153" />
      <trkpt lat="30.442016" lon="-97.86692" />
      <trkpt lat="30.442113" lon="-97.866646" />
      <trkpt lat="30.442332" lon="-97.866022" />
      <trkpt lat="30.442455" lon="-97.865702" />
      <trkpt lat="30.442561" lon="-97.865479" />
      <trkpt lat="30.442642" lon="-97.865348" />
      <trkpt lat="30.442714" lon="-97.86523" />
      <trkpt lat="30.443117" lon="-97.864634" />
      <trkpt lat="30.443372" lon="-97.864276" />
      <trkpt lat="30.443975" lon="-97.863412" />
      <trkpt lat="30.444051" lon="-97.863303" />
      <trkpt lat="30.444627" lon="-97.862583" />
      <trkpt lat="30.444799" lon="-97.86239" />
      <trkpt lat="30.444864" lon="-97.862317" />
      <trkpt lat="30.445173" lon="-97.862045" />
      <trkpt lat="30.445273" lon="-97.861956" />
      <trkpt lat="30.44538" lon="-97.861807" />
      <trkpt lat="30.44551" lon="-97.86157" />
      <trkpt lat="30.445714" lon="-97.861211" />
      <trkpt lat="30.446302" lon="-97.860142" />
      <trkpt lat="30.446333" lon="-97.860086" />
      <trkpt lat="30.446464" lon="-97.859767" />
      <trkpt lat="30.446599" lon="-97.8592" />
      <trkpt lat="30.446699" lon="-97.858993" />
      <trkpt lat="30.446864" lon="-97.858809" />
      <trkpt lat="30.447026" lon="-97.858675" />
      <trkpt lat="30.448074" lon="-97.858115" />
      <trkpt lat="30.448304" lon="-97.857952" />
      <trkpt lat="30.448475" lon="-97.857783" />
      <trkpt lat="30.4487" lon="-97.857522" />
      <trkpt lat="30.448901" lon="-97.857214" />
      <trkpt lat="30.449528" lon="-97.856136" />
      <trkpt lat="30.449733" lon="-97.855678" />
      <trkpt lat="30.449883" lon="-97.855231" />
      <trkpt lat="30.450067" lon="-97.854685" />
      <trkpt lat="30.450228" lon="-97.854207" />
      <trkpt lat="30.450444" lon="-97.853693" />
      <trkpt lat="30.450652" lon="-97.853354" />
      <trkpt lat="30.450716" lon="-97.853241" />
      <trkpt lat="30.451011" lon="-97.852708" />
      <trkpt lat="30.451175" lon="-97.852369" />
      <trkpt lat="30.451234" lon="-97.852219" />
      <trkpt lat="30.451341" lon="-97.851938" />
      <trkpt lat="30.451864" lon="-97.85059" />
      <trkpt lat="30.451986" lon="-97.850248" />
      <trkpt lat="30.452082" lon="-97.85001" />
      <trkpt lat="30.452091" lon="-97.849988" />
      <trkpt lat="30.452234" lon="-97.849632" />
      <trkpt lat="30.452257" lon="-97.849574" />
      <trkpt lat="30.452473" lon="-97.849035" />
      <trkpt lat="30.452603" lon="-97.848756" />
      <trkpt lat="30.452728" lon="-97.848536" />
      <trkpt lat="30.452896" lon="-97.84831" />
      <trkpt lat="30.453005" lon="-97.848163" />
      <trkpt lat="30.453236" lon="-97.8479" />
      <trkpt lat="30.453514" lon="-97.847635" />
      <trkpt lat="30.454142" lon="-97.847063" />
      <trkpt lat="30.454359" lon="-97.846905" />
      <trkpt lat="30.454573" lon="-97.846774" />
      <trkpt lat="30.454981" lon="-97.846605" />
      <trkpt lat="30.455618" lon="-97.846437" />
      <trkpt lat="30.456376" lon="-97.846297" />
      <trkpt lat="30.456681" lon="-97.846196" />
      <trkpt lat="30.456904" lon="-97.846084" />
      <trkpt lat="30.457114" lon="-97.84597" />
      <trkpt lat="30.45734" lon="-97.845831" />
      <trkpt lat="30.45763" lon="-97.845509" />
      <trkpt lat="30.457849" lon="-97.845209" />
      <trkpt lat="30.458257" lon="-97.844664" />
      <trkpt lat="30.458558" lon="-97.844251" />
      <trkpt lat="30.458693" lon="-97.843955" />
      <trkpt lat="30.458805" lon="-97.843629" />
      <trkpt lat="30.45905" lon="-97.842681" />
      <trkpt lat="30.459161" lon="-97.842355" />
      <trkpt lat="30.459409" lon="-97.841786" />
      <trkpt lat="30.459605" lon="-97.841447" />
      <trkpt lat="30.459756" lon="-97.841231" />
      <trkpt lat="30.459965" lon="-97.841018" />
      <trkpt lat="30.460152" lon="-97.840882" />
      <trkpt lat="30.460224" lon="-97.840838" />
      <trkpt lat="30.460345" lon="-97.840763" />
      <trkpt lat="30.460627" lon="-97.8406" />
      <trkpt lat="30.460798" lon="-97.840497" />
      <trkpt lat="30.461298" lon="-97.841547" />
      <trkpt lat="30.461356" lon="-97.841635" />
      <trkpt lat="30.461483" lon="-97.841833" />
      <trkpt lat="30.461638" lon="-97.842041" />
      <trkpt lat="30.46189" lon="-97.842332" />
      <trkpt lat="30.462226" lon="-97.842618" />
      <trkpt lat="30.462563" lon="-97.842885" />
      <trkpt lat="30.462916" lon="-97.843163" />
      <trkpt lat="30.46292" lon="-97.843167" />
      <trkpt lat="30.463015" lon="-97.843242" />
      <trkpt lat="30.463122" lon="-97.843315" />
      <trkpt lat="30.46348" lon="-97.843557" />
      <trkpt lat="30.463608" lon="-97.843624" />
      <trkpt lat="30.463905" lon="-97.843746" />
      <trkpt lat="30.464062" lon="-97.843792" />
      <trkpt lat="30.46433" lon="-97.843843" />
      <trkpt lat="30.464666" lon="-97.843868" />
      <trkpt lat="30.465285" lon="-97.843846" />
      <trkpt lat="30.465605" lon="-97.843842" />
      <trkpt lat="30.465977" lon="-97.843836" />
      <trkpt lat="30.466071" lon="-97.843833" />
      <trkpt lat="30.46617" lon="-97.843831" />
      <trkpt lat="30.466721" lon="-97.843819" />
      <trkpt lat="30.467011" lon="-97.843861" />
      <trkpt lat="30.467146" lon="-97.843889" />
      <trkpt lat="30.467435" lon="-97.843956" />
      <trkpt lat="30.467849" lon="-97.844135" />
      <trkpt lat="30.468101" lon="-97.844266" />
      <trkpt lat="30.469107" lon="-97.844877" />
      <trkpt lat="30.469182" lon="-97.844922" />
      <trkpt lat="30.469291" lon="-97.844989" />
      <trkpt lat="30.469389" lon="-97.84505" />
      <trkpt lat="30.47061" lon="-97.845811" />
      <trkpt lat="30.470959" lon="-97.846029" />
      <trkpt lat="30.471301" lon="-97.846294" />
      <trkpt lat="30.471516" lon="-97.846497" />
      <trkpt lat="30.471749" lon="-97.846751" />
      <trkpt lat="30.4719" lon="-97.846934" />
      <trkpt lat="30.472118" lon="-97.847225" />
      <trkpt lat="30.472252" lon="-97.847478" />
      <trkpt lat="30.472316" lon="-97.8476" />
      <trkpt lat="30.472376" lon="-97.847554" />
      <trkpt lat="30.472662" lon="-97.847338" />
      <trkpt lat="30.472877" lon="-97.847158" />
      <trkpt lat="30.473052" lon="-97.846971" />
      <trkpt lat="30.473205" lon="-97.846775" />
      <trkpt lat="30.473235" lon="-97.846731" />
      <trkpt lat="30.473284" lon="-97.846657" />
      <trkpt lat="30.473371" lon="-97.846513" />
      <trkpt lat="30.473464" lon="-97.846328" />
      <trkpt lat="30.473498" lon="-97.846242" />
      <trkpt lat="30.473545" lon="-97.846121" />
      <trkpt lat="30.47361" lon="-97.845942" />
      <trkpt lat="30.474141" lon="-97.844229" />
      <trkpt lat="30.474175" lon="-97.844119" />
      <trkpt lat="30.474474" lon="-97.843168" />
      <trkpt lat="30.474724" lon="-97.842349" />
      <trkpt lat="30.474838" lon="-97.84197" />
      <trkpt lat="30.474879" lon="-97.841839" />
      <trkpt lat="30.474906" lon="-97.84175" />
      <trkpt lat="30.474938" lon="-97.841649" />
      <trkpt lat="30.475018" lon="-97.841399" />
      <trkpt lat="30.475067" lon="-97.841243" />
      <trkpt lat="30.475119" lon="-97.841076" />
      <trkpt lat="30.475241" lon="-97.840684" />
      <trkpt lat="30.475293" lon="-97.840516" />
      <trkpt lat="30.476001" lon="-97.838244" />
      <trkpt lat="30.476105" lon="-97.837905" />
      <trkpt lat="30.476145" lon="-97.837773" />
      <trkpt lat="30.47618" lon="-97.83766" />
      <trkpt lat="30.476302" lon="-97.837258" />
      <trkpt lat="30.476537" lon="-97.836513" />
      <trkpt lat="30.476637" lon="-97.836196" />
      <trkpt lat="30.476706" lon="-97.836001" />
      <trkpt lat="30.476799" lon="-97.835778" />
      <trkpt lat="30.47684" lon="-97.835688" />
      <trkpt lat="30.476882" lon="-97.835606" />
      <trkpt lat="30.476944" lon="-97.835494" />
      <trkpt lat="30.477006" lon="-97.835385" />
      <trkpt lat="30.477085" lon="-97.835264" />
      <trkpt lat="30.477157" lon="-97.835159" />
      <trkpt lat="30.47727" lon="-97.835015" />
      <trkpt lat="30.477367" lon="-97.8349" />
      <trkpt lat="30.477471" lon="-97.834791" />
      <trkpt lat="30.477563" lon="-97.834702" />
      <trkpt lat="30.477678" lon="-97.834608" />
      <trkpt lat="30.477743" lon="-97.834546" />
      <trkpt lat="30.477819" lon="-97.83449" />
      <trkpt lat="30.477911" lon="-97.834424" />
      <trkpt lat="30.478037" lon="-97.834343" />
      <trkpt lat="30.478303" lon="-97.83419" />
      <trkpt lat="30.478538" lon="-97.83407" />
      <trkpt lat="30.478787" lon="-97.833943" />
      <trkpt lat="30.47908" lon="-97.833793" />
      <trkpt lat="30.479133" lon="-97.833766" />
      <trkpt lat="30.479254" lon="-97.833702" />
      <trkpt lat="30.479505" lon="-97.833571" />
      <trkpt lat="30.480035" lon="-97.833314" />
      <trkpt lat="30.480098" lon="-97.833221" />
      <trkpt lat="30.4803" lon="-97.833117" />
      <trkpt lat="30.480339" lon="-97.833097" />
      <trkpt lat="30.480612" lon="-97.832955" />
      <trkpt lat="30.480673" lon="-97.832922" />
      <trkpt lat="30.480824" lon="-97.83284" />
      <trkpt lat="30.481338" lon="-97.832573" />
      <trkpt lat="30.481434" lon="-97.832523" />
      <trkpt lat="30.48156" lon="-97.832446" />
      <trkpt lat="30.481639" lon="-97.832404" />
      <trkpt lat="30.481932" lon="-97.832246" />
      <trkpt lat="30.481973" lon="-97.832226" />
      <trkpt lat="30.48225" lon="-97.832085" />
      <trkpt lat="30.483005" lon="-97.831765" />
      <trkpt lat="30.483162" lon="-97.831781" />
      <trkpt lat="30.483535" lon="-97.831622" />
      <trkpt lat="30.484068" lon="-97.831401" />
      <trkpt lat="30.484507" lon="-97.831229" />
      <trkpt lat="30.484579" lon="-97.831195" />
      <trkpt lat="30.485116" lon="-97.830973" />
      <trkpt lat="30.48563" lon="-97.830775" />
      <trkpt lat="30.486021" lon="-97.830612" />
      <trkpt lat="30.486201" lon="-97.83054" />
      <trkpt lat="30.486313" lon="-97.830495" />
      <trkpt lat="30.486985" lon="-97.830212" />
      <trkpt lat="30.487409" lon="-97.830047" />
      <trkpt lat="30.488042" lon="-97.829788" />
      <trkpt lat="30.488219" lon="-97.829721" />
      <trkpt lat="30.488827" lon="-97.829482" />
      <trkpt lat="30.489076" lon="-97.829383" />
      <trkpt lat="30.489433" lon="-97.829234" />
      <trkpt lat="30.4903" lon="-97.828875" />
      <trkpt lat="30.490708" lon="-97.828708" />
      <trkpt lat="30.491122" lon="-97.828544" />
      <trkpt lat="30.491923" lon="-97.828221" />
      <trkpt lat="30.492749" lon="-97.827878" />
      <trkpt lat="30.492966" lon="-97.827766" />
      <trkpt lat="30.493209" lon="-97.827612" />
      <trkpt lat="30.493346" lon="-97.827509" />
      <trkpt lat="30.493626" lon="-97.827253" />
      <trkpt lat="30.493974" lon="-97.826838" />
      <trkpt lat="30.494062" lon="-97.826894" />
      <trkpt lat="30.494201" lon="-97.826991" />
      <trkpt lat="30.494495" lon="-97.82717" />
      <trkpt lat="30.494783" lon="-97.827366" />
      <trkpt lat="30.494831" lon="-97.827396" />
      <trkpt lat="30.495377" lon="-97.827731" />
      <trkpt lat="30.495503" lon="-97.827786" />
      <trkpt lat="30.495628" lon="-97.82782" />
      <trkpt lat="30.495708" lon="-97.827835" />
      <trkpt lat="30.495789" lon="-97.827838" />
      <trkpt lat="30.49595" lon="-97.827827" />
      <trkpt lat="30.496304" lon="-97.827762" />
      <trkpt lat="30.496573" lon="-97.827717" />
      <trkpt lat="30.496603" lon="-97.827712" />
      <trkpt lat="30.496659" lon="-97.827703" />
      <trkpt lat="30.496707" lon="-97.827696" />
      <trkpt lat="30.496737" lon="-97.827691" />
      <trkpt lat="30.497427" lon="-97.827557" />
      <trkpt lat="30.497586" lon="-97.827535" />
      <trkpt lat="30.497686" lon="-97.827531" />
      <trkpt lat="30.497806" lon="-97.827549" />
      <trkpt lat="30.497926" lon="-97.827586" />
      <trkpt lat="30.49801" lon="-97.827617" />
      <trkpt lat="30.498093" lon="-97.827656" />
      <trkpt lat="30.498233" lon="-97.827736" />
      <trkpt lat="30.498342" lon="-97.827797" />
      <trkpt lat="30.498519" lon="-97.827878" />
      <trkpt lat="30.498659" lon="-97.827906" />
      <trkpt lat="30.498777" lon="-97.82792" />
      <trkpt lat="30.498804" lon="-97.82792" />
      <trkpt lat="30.498855" lon="-97.827922" />
      <trkpt lat="30.498907" lon="-97.827924" />
      <trkpt lat="30.498935" lon="-97.827926" />
      <trkpt lat="30.49919" lon="-97.82794" />
      <trkpt lat="30.499288" lon="-97.82795" />
      <trkpt lat="30.499385" lon="-97.827973" />
      <trkpt lat="30.499543" lon="-97.828047" />
      <trkpt lat="30.499704" lon="-97.828145" />
      <trkpt lat="30.50021" lon="-97.828512" />
      <trkpt lat="30.500363" lon="-97.82861" />
      <trkpt lat="30.500734" lon="-97.828743" />
      <trkpt lat="30.50076" lon="-97.828749" />
      <trkpt lat="30.500808" lon="-97.828768" />
      <trkpt lat="30.500894" lon="-97.828798" />
      <trkpt lat="30.500945" lon="-97.828817" />
      <trkpt lat="30.500973" lon="-97.828827" />
      <trkpt lat="30.502332" lon="-97.829298" />
      <trkpt lat="30.502524" lon="-97.82935" />
      <trkpt lat="30.502956" lon="-97.829434" />
      <trkpt lat="30.503295" lon="-97.829551" />
      <trkpt lat="30.503952" lon="-97.829834" />
      <trkpt lat="30.504064" lon="-97.829878" />
      <trkpt lat="30.504112" lon="-97.829897" />
      <trkpt lat="30.504165" lon="-97.829918" />
      <trkpt lat="30.504246" lon="-97.829951" />
      <trkpt lat="30.504655" lon="-97.830117" />
      <trkpt lat="30.50477" lon="-97.830166" />
      <trkpt lat="30.504791" lon="-97.830176" />
      <trkpt lat="30.504839" lon="-97.830199" />
      <trkpt lat="30.504865" lon="-97.830118" />
      <trkpt lat="30.504873" lon="-97.830091" />
      <trkpt lat="30.504913" lon="-97.829963" />
    </trkseg>
  </trk>
</gpx>