<?xml version='1.0' encoding='UTF-8'?>
<gpx version="1.1" creator="Antigravity Route Generator" xmlns="http://www.topografix.com/GPX/1/1">
  <trk>
    <name>Llano River &amp; Castell Run</name>
    <desc>Lakes &amp; Rivers (43.2 mi) - FM 152 -&gt; Castell -&gt; FM 2323</desc>
    <trkseg>
      <trkpt lat="30.758031" lon="-98.675269" />
      <trkpt lat="30.758344" lon="-98.67522" />
      <trkpt lat="30.758473" lon="-98.675206" />
      <trkpt lat="30.758633" lon="-98.675193" />
      <trkpt lat="30.758927" lon="-98.675184" />
      <trkpt lat="30.759155" lon="-98.675183" />
      <trkpt lat="30.759239" lon="-98.675183" />
      <trkpt lat="30.759519" lon="-98.675182" />
      <trkpt lat="30.759517" lon="-98.675647" />
      <trkpt lat="30.759517" lon="-98.675717" />
      <trkpt lat="30.759516" lon="-98.675913" />
      <trkpt lat="30.759515" lon="-98.676042" />
      <trkpt lat="30.759515" lon="-98.676127" />
      <trkpt lat="30.759519" lon="-98.676367" />
      <trkpt lat="30.75953" lon="-98.676704" />
      <trkpt lat="30.759532" lon="-98.677217" />
      <trkpt lat="30.759538" lon="-98.677781" />
      <trkpt lat="30.75953" lon="-98.678205" />
      <trkpt lat="30.759509" lon="-98.679371" />
      <trkpt lat="30.759519" lon="-98.680502" />
      <trkpt lat="30.75953" lon="-98.681624" />
      <trkpt lat="30.759531" lon="-98.681833" />
      <trkpt lat="30.759531" lon="-98.682127" />
      <trkpt lat="30.759534" lon="-98.682315" />
      <trkpt lat="30.759542" lon="-98.682759" />
      <trkpt lat="30.759545" lon="-98.683279" />
      <trkpt lat="30.759563" lon="-98.684274" />
      <trkpt lat="30.759582" lon="-98.684831" />
      <trkpt lat="30.759608" lon="-98.685334" />
      <trkpt lat="30.759647" lon="-98.685798" />
      <trkpt lat="30.759677" lon="-98.686131" />
      <trkpt lat="30.759685" lon="-98.686222" />
      <trkpt lat="30.759714" lon="-98.686461" />
      <trkpt lat="30.759784" lon="-98.687039" />
      <trkpt lat="30.759823" lon="-98.68727" />
      <trkpt lat="30.75997" lon="-98.688091" />
      <trkpt lat="30.760243" lon="-98.689327" />
      <trkpt lat="30.760255" lon="-98.689386" />
      <trkpt lat="30.760336" lon="-98.689787" />
      <trkpt lat="30.760516" lon="-98.690619" />
      <trkpt lat="30.760782" lon="-98.691868" />
      <trkpt lat="30.760967" lon="-98.692786" />
      <trkpt lat="30.761301" lon="-98.694244" />
      <trkpt lat="30.761839" lon="-98.69678" />
      <trkpt lat="30.76201" lon="-98.697572" />
      <trkpt lat="30.762132" lon="-98.698134" />
      <trkpt lat="30.762376" lon="-98.699292" />
      <trkpt lat="30.762494" lon="-98.69982" />
      <trkpt lat="30.762816" lon="-98.701444" />
      <trkpt lat="30.762921" lon="-98.702188" />
      <trkpt lat="30.762974" lon="-98.702524" />
      <trkpt lat="30.763008" lon="-98.703011" />
      <trkpt lat="30.763077" lon="-98.703683" />
      <trkpt lat="30.763127" lon="-98.704408" />
      <trkpt lat="30.763218" lon="-98.705446" />
      <trkpt lat="30.763273" lon="-98.705852" />
      <trkpt lat="30.76336" lon="-98.706319" />
      <trkpt lat="30.76338" lon="-98.706409" />
      <trkpt lat="30.763409" lon="-98.706505" />
      <trkpt lat="30.76346" lon="-98.70676" />
      <trkpt lat="30.763626" lon="-98.707358" />
      <trkpt lat="30.763706" lon="-98.707607" />
      <trkpt lat="30.763857" lon="-98.708005" />
      <trkpt lat="30.764" lon="-98.708361" />
      <trkpt lat="30.76427" lon="-98.708945" />
      <trkpt lat="30.764339" lon="-98.709082" />
      <trkpt lat="30.766339" lon="-98.712555" />
      <trkpt lat="30.766767" lon="-98.713288" />
      <trkpt lat="30.767277" lon="-98.714197" />
      <trkpt lat="30.767585" lon="-98.714826" />
      <trkpt lat="30.767819" lon="-98.715324" />
      <trkpt lat="30.768156" lon="-98.716141" />
      <trkpt lat="30.768432" lon="-98.716875" />
      <trkpt lat="30.768623" lon="-98.717429" />
      <trkpt lat="30.768717" lon="-98.717726" />
      <trkpt lat="30.768986" lon="-98.718739" />
      <trkpt lat="30.769055" lon="-98.719031" />
      <trkpt lat="30.769218" lon="-98.719801" />
      <trkpt lat="30.769348" lon="-98.72065" />
      <trkpt lat="30.769403" lon="-98.721063" />
      <trkpt lat="30.769449" lon="-98.721447" />
      <trkpt lat="30.769513" lon="-98.722165" />
      <trkpt lat="30.769543" lon="-98.722723" />
      <trkpt lat="30.769559" lon="-98.723331" />
      <trkpt lat="30.76956" lon="-98.724032" />
      <trkpt lat="30.769545" lon="-98.725041" />
      <trkpt lat="30.769547" lon="-98.725222" />
      <trkpt lat="30.76954" lon="-98.726333" />
      <trkpt lat="30.769539" lon="-98.727435" />
      <trkpt lat="30.769496" lon="-98.734956" />
      <trkpt lat="30.769483" lon="-98.737131" />
      <trkpt lat="30.769478" lon="-98.737622" />
      <trkpt lat="30.76947" lon="-98.738317" />
      <trkpt lat="30.769468" lon="-98.738944" />
      <trkpt lat="30.769463" lon="-98.740093" />
      <trkpt lat="30.769454" lon="-98.740984" />
      <trkpt lat="30.769443" lon="-98.743218" />
      <trkpt lat="30.76942" lon="-98.746476" />
      <trkpt lat="30.769418" lon="-98.747379" />
      <trkpt lat="30.769408" lon="-98.748173" />
      <trkpt lat="30.769394" lon="-98.751129" />
      <trkpt lat="30.769378" lon="-98.752735" />
      <trkpt lat="30.769354" lon="-98.75671" />
      <trkpt lat="30.769347" lon="-98.756984" />
      <trkpt lat="30.769324" lon="-98.757339" />
      <trkpt lat="30.769277" lon="-98.757761" />
      <trkpt lat="30.769182" lon="-98.758401" />
      <trkpt lat="30.768778" lon="-98.759852" />
      <trkpt lat="30.768526" lon="-98.760593" />
      <trkpt lat="30.768371" lon="-98.760935" />
      <trkpt lat="30.768269" lon="-98.761163" />
      <trkpt lat="30.767994" lon="-98.761795" />
      <trkpt lat="30.76763" lon="-98.762689" />
      <trkpt lat="30.767395" lon="-98.763267" />
      <trkpt lat="30.767371" lon="-98.763326" />
      <trkpt lat="30.76717" lon="-98.76397" />
      <trkpt lat="30.76706" lon="-98.764387" />
      <trkpt lat="30.766968" lon="-98.764811" />
      <trkpt lat="30.766894" lon="-98.765239" />
      <trkpt lat="30.766832" lon="-98.76573" />
      <trkpt lat="30.766794" lon="-98.766154" />
      <trkpt lat="30.766775" lon="-98.766579" />
      <trkpt lat="30.766771" lon="-98.768898" />
      <trkpt lat="30.766754" lon="-98.782032" />
      <trkpt lat="30.766744" lon="-98.785543" />
      <trkpt lat="30.766752" lon="-98.786902" />
      <trkpt lat="30.766739" lon="-98.787871" />
      <trkpt lat="30.766751" lon="-98.788766" />
      <trkpt lat="30.766753" lon="-98.788884" />
      <trkpt lat="30.766733" lon="-98.790085" />
      <trkpt lat="30.766711" lon="-98.790586" />
      <trkpt lat="30.766665" lon="-98.791144" />
      <trkpt lat="30.766607" lon="-98.791626" />
      <trkpt lat="30.766532" lon="-98.792106" />
      <trkpt lat="30.766437" lon="-98.792589" />
      <trkpt lat="30.766309" lon="-98.79314" />
      <trkpt lat="30.766161" lon="-98.793684" />
      <trkpt lat="30.766015" lon="-98.794154" />
      <trkpt lat="30.765855" lon="-98.794598" />
      <trkpt lat="30.763518" lon="-98.800445" />
      <trkpt lat="30.763263" lon="-98.801094" />
      <trkpt lat="30.761819" lon="-98.80469" />
      <trkpt lat="30.761198" lon="-98.806255" />
      <trkpt lat="30.760545" lon="-98.807874" />
      <trkpt lat="30.759969" lon="-98.809325" />
      <trkpt lat="30.759526" lon="-98.810431" />
      <trkpt lat="30.759023" lon="-98.811685" />
      <trkpt lat="30.757783" lon="-98.814814" />
      <trkpt lat="30.757689" lon="-98.81505" />
      <trkpt lat="30.757488" lon="-98.815537" />
      <trkpt lat="30.757219" lon="-98.816111" />
      <trkpt lat="30.757108" lon="-98.816348" />
      <trkpt lat="30.75692" lon="-98.816727" />
      <trkpt lat="30.75657" lon="-98.817366" />
      <trkpt lat="30.756328" lon="-98.817792" />
      <trkpt lat="30.755642" lon="-98.818911" />
      <trkpt lat="30.755046" lon="-98.819816" />
      <trkpt lat="30.753662" lon="-98.822038" />
      <trkpt lat="30.753372" lon="-98.822516" />
      <trkpt lat="30.753138" lon="-98.822928" />
      <trkpt lat="30.75288" lon="-98.823419" />
      <trkpt lat="30.752695" lon="-98.823795" />
      <trkpt lat="30.75243" lon="-98.824371" />
      <trkpt lat="30.752207" lon="-98.824908" />
      <trkpt lat="30.751947" lon="-98.825591" />
      <trkpt lat="30.751713" lon="-98.826265" />
      <trkpt lat="30.749901" lon="-98.832323" />
      <trkpt lat="30.749601" lon="-98.833307" />
      <trkpt lat="30.746368" lon="-98.84408" />
      <trkpt lat="30.746205" lon="-98.84468" />
      <trkpt lat="30.746069" lon="-98.845251" />
      <trkpt lat="30.746046" lon="-98.845348" />
      <trkpt lat="30.745909" lon="-98.846022" />
      <trkpt lat="30.745803" lon="-98.846641" />
      <trkpt lat="30.745716" lon="-98.847264" />
      <trkpt lat="30.745648" lon="-98.84789" />
      <trkpt lat="30.745599" lon="-98.848519" />
      <trkpt lat="30.74557" lon="-98.849149" />
      <trkpt lat="30.745552" lon="-98.850256" />
      <trkpt lat="30.745561" lon="-98.85129" />
      <trkpt lat="30.745576" lon="-98.854071" />
      <trkpt lat="30.745583" lon="-98.856843" />
      <trkpt lat="30.745599" lon="-98.858043" />
      <trkpt lat="30.745597" lon="-98.859228" />
      <trkpt lat="30.7456" lon="-98.85993" />
      <trkpt lat="30.745601" lon="-98.860136" />
      <trkpt lat="30.745617" lon="-98.864367" />
      <trkpt lat="30.74565" lon="-98.870312" />
      <trkpt lat="30.745651" lon="-98.870423" />
      <trkpt lat="30.745655" lon="-98.872816" />
      <trkpt lat="30.745688" lon="-98.880349" />
      <trkpt lat="30.745704" lon="-98.884148" />
      <trkpt lat="30.745716" lon="-98.885213" />
      <trkpt lat="30.745719" lon="-98.885951" />
      <trkpt lat="30.745719" lon="-98.886408" />
      <trkpt lat="30.745695" lon="-98.88684" />
      <trkpt lat="30.745647" lon="-98.887333" />
      <trkpt lat="30.745579" lon="-98.887822" />
      <trkpt lat="30.745489" lon="-98.888307" />
      <trkpt lat="30.745392" lon="-98.888732" />
      <trkpt lat="30.745261" lon="-98.889214" />
      <trkpt lat="30.744329" lon="-98.89217" />
      <trkpt lat="30.743803" lon="-98.893873" />
      <trkpt lat="30.743674" lon="-98.894348" />
      <trkpt lat="30.743622" lon="-98.894576" />
      <trkpt lat="30.743562" lon="-98.894834" />
      <trkpt lat="30.743468" lon="-98.895324" />
      <trkpt lat="30.743382" lon="-98.895881" />
      <trkpt lat="30.743322" lon="-98.896381" />
      <trkpt lat="30.74329" lon="-98.896777" />
      <trkpt lat="30.743281" lon="-98.896882" />
      <trkpt lat="30.743258" lon="-98.897386" />
      <trkpt lat="30.743253" lon="-98.897892" />
      <trkpt lat="30.743268" lon="-98.898398" />
      <trkpt lat="30.74352" lon="-98.901916" />
      <trkpt lat="30.743533" lon="-98.902167" />
      <trkpt lat="30.743542" lon="-98.902852" />
      <trkpt lat="30.743531" lon="-98.903537" />
      <trkpt lat="30.743503" lon="-98.904161" />
      <trkpt lat="30.743448" lon="-98.904855" />
      <trkpt lat="30.743378" lon="-98.905489" />
      <trkpt lat="30.743372" lon="-98.905546" />
      <trkpt lat="30.743276" lon="-98.906234" />
      <trkpt lat="30.743253" lon="-98.906358" />
      <trkpt lat="30.743061" lon="-98.907369" />
      <trkpt lat="30.742848" lon="-98.908347" />
      <trkpt lat="30.742641" lon="-98.909349" />
      <trkpt lat="30.742531" lon="-98.909963" />
      <trkpt lat="30.742442" lon="-98.910581" />
      <trkpt lat="30.742374" lon="-98.911203" />
      <trkpt lat="30.742201" lon="-98.913005" />
      <trkpt lat="30.742025" lon="-98.914842" />
      <trkpt lat="30.741933" lon="-98.915892" />
      <trkpt lat="30.741565" lon="-98.919755" />
      <trkpt lat="30.741329" lon="-98.922234" />
      <trkpt lat="30.740883" lon="-98.926885" />
      <trkpt lat="30.740781" lon="-98.927964" />
      <trkpt lat="30.740662" lon="-98.929201" />
      <trkpt lat="30.740551" lon="-98.930356" />
      <trkpt lat="30.740378" lon="-98.932225" />
      <trkpt lat="30.740299" lon="-98.933051" />
      <trkpt lat="30.739471" lon="-98.941688" />
      <trkpt lat="30.739428" lon="-98.942062" />
      <trkpt lat="30.739321" lon="-98.942807" />
      <trkpt lat="30.739194" lon="-98.943547" />
      <trkpt lat="30.739005" lon="-98.94443" />
      <trkpt lat="30.738603" lon="-98.946004" />
      <trkpt lat="30.73779" lon="-98.949239" />
      <trkpt lat="30.737711" lon="-98.949565" />
      <trkpt lat="30.737646" lon="-98.949886" />
      <trkpt lat="30.737607" lon="-98.950117" />
      <trkpt lat="30.737573" lon="-98.950347" />
      <trkpt lat="30.737554" lon="-98.950501" />
      <trkpt lat="30.737548" lon="-98.950575" />
      <trkpt lat="30.737541" lon="-98.950647" />
      <trkpt lat="30.737513" lon="-98.95097" />
      <trkpt lat="30.737493" lon="-98.951438" />
      <trkpt lat="30.737491" lon="-98.951867" />
      <trkpt lat="30.737493" lon="-98.95233" />
      <trkpt lat="30.737501" lon="-98.952809" />
      <trkpt lat="30.737508" lon="-98.953375" />
      <trkpt lat="30.737515" lon="-98.953769" />
      <trkpt lat="30.737526" lon="-98.954713" />
      <trkpt lat="30.736446" lon="-98.954723" />
      <trkpt lat="30.734185" lon="-98.954761" />
      <trkpt lat="30.733249" lon="-98.954832" />
      <trkpt lat="30.732095" lon="-98.954877" />
      <trkpt lat="30.73096" lon="-98.954872" />
      <trkpt lat="30.729739" lon="-98.954853" />
      <trkpt lat="30.728448" lon="-98.954788" />
      <trkpt lat="30.725389" lon="-98.954801" />
      <trkpt lat="30.725259" lon="-98.954807" />
      <trkpt lat="30.720643" lon="-98.954825" />
      <trkpt lat="30.719734" lon="-98.95484" />
      <trkpt lat="30.71909" lon="-98.954842" />
      <trkpt lat="30.71705" lon="-98.954828" />
      <trkpt lat="30.716345" lon="-98.954823" />
      <trkpt lat="30.713479" lon="-98.954841" />
      <trkpt lat="30.71174" lon="-98.954852" />
      <trkpt lat="30.709295" lon="-98.954886" />
      <trkpt lat="30.707988" lon="-98.954913" />
      <trkpt lat="30.706864" lon="-98.954916" />
      <trkpt lat="30.706597" lon="-98.95491" />
      <trkpt lat="30.706438" lon="-98.95492" />
      <trkpt lat="30.70628" lon="-98.954948" />
      <trkpt lat="30.706125" lon="-98.954993" />
      <trkpt lat="30.705974" lon="-98.955054" />
      <trkpt lat="30.705828" lon="-98.955131" />
      <trkpt lat="30.70569" lon="-98.955223" />
      <trkpt lat="30.705559" lon="-98.95533" />
      <trkpt lat="30.705503" lon="-98.955378" />
      <trkpt lat="30.705424" lon="-98.955464" />
      <trkpt lat="30.705316" lon="-98.955605" />
      <trkpt lat="30.705221" lon="-98.955757" />
      <trkpt lat="30.705139" lon="-98.955921" />
      <trkpt lat="30.705073" lon="-98.956093" />
      <trkpt lat="30.705023" lon="-98.956272" />
      <trkpt lat="30.704988" lon="-98.956456" />
      <trkpt lat="30.704971" lon="-98.956643" />
      <trkpt lat="30.704969" lon="-98.956885" />
      <trkpt lat="30.704975" lon="-98.957487" />
      <trkpt lat="30.704985" lon="-98.958002" />
      <trkpt lat="30.704979" lon="-98.958092" />
      <trkpt lat="30.704963" lon="-98.958211" />
      <trkpt lat="30.704904" lon="-98.958402" />
      <trkpt lat="30.704792" lon="-98.958563" />
      <trkpt lat="30.70472" lon="-98.958624" />
      <trkpt lat="30.704617" lon="-98.958678" />
      <trkpt lat="30.704445" lon="-98.958722" />
      <trkpt lat="30.703044" lon="-98.958748" />
      <trkpt lat="30.702878" lon="-98.958731" />
      <trkpt lat="30.702771" lon="-98.958704" />
      <trkpt lat="30.702666" lon="-98.958669" />
      <trkpt lat="30.702571" lon="-98.958621" />
      <trkpt lat="30.702434" lon="-98.958537" />
      <trkpt lat="30.702304" lon="-98.958437" />
      <trkpt lat="30.7023" lon="-98.958802" />
      <trkpt lat="30.702309" lon="-98.959836" />
      <trkpt lat="30.702306" lon="-98.960027" />
      <trkpt lat="30.702293" lon="-98.960153" />
      <trkpt lat="30.702272" lon="-98.960277" />
      <trkpt lat="30.702243" lon="-98.960399" />
      <trkpt lat="30.702205" lon="-98.960518" />
      <trkpt lat="30.702111" lon="-98.960748" />
      <trkpt lat="30.70206" lon="-98.96086" />
      <trkpt lat="30.702001" lon="-98.960967" />
      <trkpt lat="30.701935" lon="-98.961069" />
      <trkpt lat="30.701862" lon="-98.961164" />
      <trkpt lat="30.701782" lon="-98.961252" />
      <trkpt lat="30.701697" lon="-98.961332" />
      <trkpt lat="30.701607" lon="-98.961405" />
      <trkpt lat="30.701512" lon="-98.961469" />
      <trkpt lat="30.701365" lon="-98.961548" />
      <trkpt lat="30.701166" lon="-98.961632" />
      <trkpt lat="30.700962" lon="-98.961696" />
      <trkpt lat="30.700553" lon="-98.961783" />
      <trkpt lat="30.699768" lon="-98.961977" />
      <trkpt lat="30.699663" lon="-98.962012" />
      <trkpt lat="30.699561" lon="-98.962055" />
      <trkpt lat="30.699461" lon="-98.962107" />
      <trkpt lat="30.699365" lon="-98.962166" />
      <trkpt lat="30.699273" lon="-98.962234" />
      <trkpt lat="30.699185" lon="-98.962308" />
      <trkpt lat="30.699043" lon="-98.962447" />
      <trkpt lat="30.698967" lon="-98.962536" />
      <trkpt lat="30.698897" lon="-98.962632" />
      <trkpt lat="30.698833" lon="-98.962733" />
      <trkpt lat="30.698777" lon="-98.96284" />
      <trkpt lat="30.698751" lon="-98.962895" />
      <trkpt lat="30.698705" lon="-98.96301" />
      <trkpt lat="30.698692" lon="-98.963051" />
      <trkpt lat="30.698667" lon="-98.963128" />
      <trkpt lat="30.698636" lon="-98.963249" />
      <trkpt lat="30.698573" lon="-98.963672" />
      <trkpt lat="30.698538" lon="-98.963877" />
      <trkpt lat="30.698498" lon="-98.964059" />
      <trkpt lat="30.695757" lon="-98.964239" />
      <trkpt lat="30.695155" lon="-98.964269" />
      <trkpt lat="30.693685" lon="-98.964341" />
      <trkpt lat="30.692021" lon="-98.964633" />
      <trkpt lat="30.687389" lon="-98.964958" />
      <trkpt lat="30.685869" lon="-98.965061" />
      <trkpt lat="30.685897" lon="-98.965487" />
      <trkpt lat="30.685888" lon="-98.965699" />
      <trkpt lat="30.68585" lon="-98.965989" />
      <trkpt lat="30.685828" lon="-98.966383" />
      <trkpt lat="30.68576" lon="-98.966667" />
      <trkpt lat="30.685741" lon="-98.966887" />
      <trkpt lat="30.685752" lon="-98.967281" />
      <trkpt lat="30.68577" lon="-98.967424" />
      <trkpt lat="30.685807" lon="-98.967551" />
      <trkpt lat="30.685859" lon="-98.967771" />
      <trkpt lat="30.685814" lon="-98.967903" />
      <trkpt lat="30.685708" lon="-98.967982" />
      <trkpt lat="30.685603" lon="-98.968089" />
      <trkpt lat="30.685568" lon="-98.968234" />
      <trkpt lat="30.685577" lon="-98.968339" />
      <trkpt lat="30.685616" lon="-98.968423" />
      <trkpt lat="30.685724" lon="-98.968533" />
      <trkpt lat="30.685871" lon="-98.968684" />
      <trkpt lat="30.685963" lon="-98.968791" />
      <trkpt lat="30.68601" lon="-98.968914" />
      <trkpt lat="30.685994" lon="-98.969042" />
      <trkpt lat="30.685915" lon="-98.96916" />
      <trkpt lat="30.685783" lon="-98.969246" />
      <trkpt lat="30.685572" lon="-98.969364" />
      <trkpt lat="30.685481" lon="-98.969409" />
      <trkpt lat="30.685379" lon="-98.969459" />
      <trkpt lat="30.685479" lon="-98.969628" />
      <trkpt lat="30.685374" lon="-98.970104" />
      <trkpt lat="30.685355" lon="-98.970227" />
      <trkpt lat="30.685347" lon="-98.970304" />
      <trkpt lat="30.68538" lon="-98.970394" />
      <trkpt lat="30.685492" lon="-98.97054" />
      <trkpt lat="30.685639" lon="-98.970759" />
      <trkpt lat="30.685703" lon="-98.970876" />
      <trkpt lat="30.685706" lon="-98.971006" />
      <trkpt lat="30.685695" lon="-98.97113" />
      <trkpt lat="30.685675" lon="-98.971363" />
      <trkpt lat="30.685615" lon="-98.971752" />
      <trkpt lat="30.685526" lon="-98.972162" />
      <trkpt lat="30.685721" lon="-98.973428" />
      <trkpt lat="30.686315" lon="-98.973574" />
      <trkpt lat="30.686659" lon="-98.97376" />
      <trkpt lat="30.686957" lon="-98.974078" />
      <trkpt lat="30.687599" lon="-98.974344" />
      <trkpt lat="30.688309" lon="-98.97506" />
      <trkpt lat="30.688744" lon="-98.97575" />
      <trkpt lat="30.688813" lon="-98.976413" />
      <trkpt lat="30.689202" lon="-98.977394" />
      <trkpt lat="30.689569" lon="-98.977368" />
      <trkpt lat="30.689729" lon="-98.977182" />
      <trkpt lat="30.689959" lon="-98.976678" />
      <trkpt lat="30.690005" lon="-98.976121" />
      <trkpt lat="30.690393" lon="-98.976122" />
      <trkpt lat="30.692685" lon="-98.976918" />
      <trkpt lat="30.693694" lon="-98.977078" />
      <trkpt lat="30.694794" lon="-98.977025" />
      <trkpt lat="30.695917" lon="-98.97676" />
      <trkpt lat="30.696398" lon="-98.976734" />
      <trkpt lat="30.697459" lon="-98.976276" />
      <trkpt lat="30.697363" lon="-98.97417" />
      <trkpt lat="30.697359" lon="-98.973737" />
      <trkpt lat="30.697375" lon="-98.973304" />
      <trkpt lat="30.697432" lon="-98.972647" />
      <trkpt lat="30.697641" lon="-98.971072" />
      <trkpt lat="30.698001" lon="-98.968095" />
      <trkpt lat="30.698498" lon="-98.964059" />
      <trkpt lat="30.698538" lon="-98.963877" />
      <trkpt lat="30.698573" lon="-98.963672" />
      <trkpt lat="30.698636" lon="-98.963249" />
      <trkpt lat="30.698667" lon="-98.963128" />
      <trkpt lat="30.698692" lon="-98.963051" />
      <trkpt lat="30.698705" lon="-98.96301" />
      <trkpt lat="30.698751" lon="-98.962895" />
      <trkpt lat="30.698777" lon="-98.96284" />
      <trkpt lat="30.698833" lon="-98.962733" />
      <trkpt lat="30.698897" lon="-98.962632" />
      <trkpt lat="30.698967" lon="-98.962536" />
      <trkpt lat="30.699043" lon="-98.962447" />
      <trkpt lat="30.699185" lon="-98.962308" />
      <trkpt lat="30.699273" lon="-98.962234" />
      <trkpt lat="30.699365" lon="-98.962166" />
      <trkpt lat="30.699461" lon="-98.962107" />
      <trkpt lat="30.699561" lon="-98.962055" />
      <trkpt lat="30.699663" lon="-98.962012" />
      <trkpt lat="30.699768" lon="-98.961977" />
      <trkpt lat="30.700553" lon="-98.961783" />
      <trkpt lat="30.700962" lon="-98.961696" />
      <trkpt lat="30.701166" lon="-98.961632" />
      <trkpt lat="30.701365" lon="-98.961548" />
      <trkpt lat="30.701512" lon="-98.961469" />
      <trkpt lat="30.701607" lon="-98.961405" />
      <trkpt lat="30.701697" lon="-98.961332" />
      <trkpt lat="30.701782" lon="-98.961252" />
      <trkpt lat="30.701862" lon="-98.961164" />
      <trkpt lat="30.701935" lon="-98.961069" />
      <trkpt lat="30.702001" lon="-98.960967" />
      <trkpt lat="30.70206" lon="-98.96086" />
      <trkpt lat="30.702111" lon="-98.960748" />
      <trkpt lat="30.702205" lon="-98.960518" />
      <trkpt lat="30.702243" lon="-98.960399" />
      <trkpt lat="30.702272" lon="-98.960277" />
      <trkpt lat="30.702293" lon="-98.960153" />
      <trkpt lat="30.702306" lon="-98.960027" />
      <trkpt lat="30.702309" lon="-98.959836" />
      <trkpt lat="30.7023" lon="-98.958802" />
      <trkpt lat="30.702304" lon="-98.958437" />
      <trkpt lat="30.702434" lon="-98.958537" />
      <trkpt lat="30.702571" lon="-98.958621" />
      <trkpt lat="30.702666" lon="-98.958669" />
      <trkpt lat="30.702771" lon="-98.958704" />
      <trkpt lat="30.702878" lon="-98.958731" />
      <trkpt lat="30.703044" lon="-98.958748" />
      <trkpt lat="30.704445" lon="-98.958722" />
      <trkpt lat="30.704617" lon="-98.958678" />
      <trkpt lat="30.70472" lon="-98.958624" />
      <trkpt lat="30.704792" lon="-98.958563" />
      <trkpt lat="30.704904" lon="-98.958402" />
      <trkpt lat="30.704963" lon="-98.958211" />
      <trkpt lat="30.704979" lon="-98.958092" />
      <trkpt lat="30.704985" lon="-98.958002" />
      <trkpt lat="30.704975" lon="-98.957487" />
      <trkpt lat="30.704969" lon="-98.956885" />
      <trkpt lat="30.704971" lon="-98.956643" />
      <trkpt lat="30.704988" lon="-98.956456" />
      <trkpt lat="30.705023" lon="-98.956272" />
      <trkpt lat="30.705073" lon="-98.956093" />
      <trkpt lat="30.705139" lon="-98.955921" />
      <trkpt lat="30.705221" lon="-98.955757" />
      <trkpt lat="30.705316" lon="-98.955605" />
      <trkpt lat="30.705424" lon="-98.955464" />
      <trkpt lat="30.705503" lon="-98.955378" />
      <trkpt lat="30.705559" lon="-98.95533" />
      <trkpt lat="30.70569" lon="-98.955223" />
      <trkpt lat="30.705828" lon="-98.955131" />
      <trkpt lat="30.705974" lon="-98.955054" />
      <trkpt lat="30.706125" lon="-98.954993" />
      <trkpt lat="30.70628" lon="-98.954948" />
      <trkpt lat="30.706438" lon="-98.95492" />
      <trkpt lat="30.706597" lon="-98.95491" />
      <trkpt lat="30.706864" lon="-98.954916" />
      <trkpt lat="30.707988" lon="-98.954913" />
      <trkpt lat="30.709295" lon="-98.954886" />
      <trkpt lat="30.71174" lon="-98.954852" />
      <trkpt lat="30.713479" lon="-98.954841" />
      <trkpt lat="30.716345" lon="-98.954823" />
      <trkpt lat="30.71705" lon="-98.954828" />
      <trkpt lat="30.71909" lon="-98.954842" />
      <trkpt lat="30.719734" lon="-98.95484" />
      <trkpt lat="30.720643" lon="-98.954825" />
      <trkpt lat="30.725259" lon="-98.954807" />
      <trkpt lat="30.725389" lon="-98.954801" />
      <trkpt lat="30.728448" lon="-98.954788" />
      <trkpt lat="30.729739" lon="-98.954853" />
      <trkpt lat="30.73096" lon="-98.954872" />
      <trkpt lat="30.732095" lon="-98.954877" />
      <trkpt lat="30.733249" lon="-98.954832" />
      <trkpt lat="30.734185" lon="-98.954761" />
      <trkpt lat="30.736446" lon="-98.954723" />
      <trkpt lat="30.737526" lon="-98.954713" />
      <trkpt lat="30.73756" lon="-98.956903" />
      <trkpt lat="30.737566" lon="-98.957798" />
      <trkpt lat="30.737595" lon="-98.95974" />
      <trkpt lat="30.737607" lon="-98.96013" />
      <trkpt lat="30.737632" lon="-98.960597" />
      <trkpt lat="30.737689" lon="-98.961275" />
      <trkpt lat="30.737758" lon="-98.961952" />
      <trkpt lat="30.738084" lon="-98.963813" />
      <trkpt lat="30.738517" lon="-98.966378" />
      <trkpt lat="30.738657" lon="-98.967612" />
      <trkpt lat="30.738689" lon="-98.968075" />
      <trkpt lat="30.738727" lon="-98.968638" />
      <trkpt lat="30.738723" lon="-98.972328" />
      <trkpt lat="30.738692" lon="-98.981648" />
      <trkpt lat="30.738676" lon="-98.984358" />
      <trkpt lat="30.738703" lon="-98.985518" />
      <trkpt lat="30.738751" lon="-98.986299" />
      <trkpt lat="30.739132" lon="-98.990016" />
      <trkpt lat="30.739784" lon="-98.996878" />
      <trkpt lat="30.739979" lon="-98.99878" />
      <trkpt lat="30.740115" lon="-99.000135" />
      <trkpt lat="30.740905" lon="-99.008167" />
      <trkpt lat="30.740966" lon="-99.008949" />
      <trkpt lat="30.740986" lon="-99.00961" />
      <trkpt lat="30.740966" lon="-99.010301" />
      <trkpt lat="30.740851" lon="-99.011086" />
      <trkpt lat="30.740712" lon="-99.011678" />
      <trkpt lat="30.740473" lon="-99.012461" />
      <trkpt lat="30.739844" lon="-99.014181" />
      <trkpt lat="30.739589" lon="-99.014996" />
      <trkpt lat="30.739485" lon="-99.015547" />
      <trkpt lat="30.739401" lon="-99.016307" />
      <trkpt lat="30.739363" lon="-99.017194" />
      <trkpt lat="30.739342" lon="-99.017779" />
      <trkpt lat="30.739167" lon="-99.022459" />
      <trkpt lat="30.739068" lon="-99.025018" />
      <trkpt lat="30.738916" lon="-99.029042" />
      <trkpt lat="30.738898" lon="-99.029519" />
      <trkpt lat="30.738797" lon="-99.032144" />
      <trkpt lat="30.738684" lon="-99.034698" />
      <trkpt lat="30.738619" lon="-99.03668" />
      <trkpt lat="30.738614" lon="-99.037376" />
      <trkpt lat="30.738657" lon="-99.03856" />
      <trkpt lat="30.738822" lon="-99.042387" />
      <trkpt lat="30.738847" lon="-99.043372" />
      <trkpt lat="30.738812" lon="-99.044332" />
      <trkpt lat="30.738754" lon="-99.045119" />
      <trkpt lat="30.738639" lon="-99.04607" />
      <trkpt lat="30.73843" lon="-99.047795" />
      <trkpt lat="30.738197" lon="-99.050002" />
      <trkpt lat="30.738126" lon="-99.050764" />
      <trkpt lat="30.738095" lon="-99.051507" />
      <trkpt lat="30.738097" lon="-99.052318" />
      <trkpt lat="30.738102" lon="-99.054924" />
      <trkpt lat="30.738131" lon="-99.069018" />
      <trkpt lat="30.738202" lon="-99.074118" />
      <trkpt lat="30.738207" lon="-99.074681" />
      <trkpt lat="30.738238" lon="-99.07734" />
      <trkpt lat="30.738376" lon="-99.085893" />
      <trkpt lat="30.738481" lon="-99.092581" />
      <trkpt lat="30.738524" lon="-99.095317" />
      <trkpt lat="30.738512" lon="-99.100737" />
      <trkpt lat="30.738508" lon="-99.106515" />
      <trkpt lat="30.738515" lon="-99.10904" />
      <trkpt lat="30.738501" lon="-99.11134" />
      <trkpt lat="30.738502" lon="-99.111709" />
      <trkpt lat="30.738505" lon="-99.116758" />
      <trkpt lat="30.738507" lon="-99.117676" />
      <trkpt lat="30.738526" lon="-99.119183" />
      <trkpt lat="30.738544" lon="-99.119807" />
      <trkpt lat="30.738634" lon="-99.122917" />
      <trkpt lat="30.738742" lon="-99.129379" />
      <trkpt lat="30.738956" lon="-99.142596" />
      <trkpt lat="30.738982" lon="-99.143732" />
      <trkpt lat="30.739243" lon="-99.158694" />
      <trkpt lat="30.739259" lon="-99.160778" />
      <trkpt lat="30.739254" lon="-99.161888" />
      <trkpt lat="30.739232" lon="-99.170729" />
      <trkpt lat="30.73931" lon="-99.171331" />
      <trkpt lat="30.739409" lon="-99.17181" />
      <trkpt lat="30.739589" lon="-99.172323" />
      <trkpt lat="30.739843" lon="-99.172871" />
      <trkpt lat="30.744878" lon="-99.178353" />
      <trkpt lat="30.745275" lon="-99.17879" />
      <trkpt lat="30.745515" lon="-99.179124" />
      <trkpt lat="30.745828" lon="-99.179662" />
      <trkpt lat="30.7459" lon="-99.179789" />
      <trkpt lat="30.746067" lon="-99.180084" />
      <trkpt lat="30.746251" lon="-99.180461" />
      <trkpt lat="30.746376" lon="-99.180751" />
      <trkpt lat="30.746429" lon="-99.180872" />
      <trkpt lat="30.746587" lon="-99.181336" />
      <trkpt lat="30.746643" lon="-99.181563" />
      <trkpt lat="30.746788" lon="-99.182089" />
      <trkpt lat="30.746936" lon="-99.182791" />
      <trkpt lat="30.746996" lon="-99.183331" />
      <trkpt lat="30.747021" lon="-99.183551" />
      <trkpt lat="30.7471" lon="-99.185249" />
      <trkpt lat="30.747139" lon="-99.185984" />
      <trkpt lat="30.747157" lon="-99.186337" />
      <trkpt lat="30.747258" lon="-99.188245" />
      <trkpt lat="30.747261" lon="-99.188311" />
      <trkpt lat="30.747307" lon="-99.189079" />
      <trkpt lat="30.74733" lon="-99.189946" />
      <trkpt lat="30.747341" lon="-99.190342" />
      <trkpt lat="30.747349" lon="-99.191418" />
      <trkpt lat="30.74736" lon="-99.193014" />
      <trkpt lat="30.747371" lon="-99.19458" />
      <trkpt lat="30.747368" lon="-99.196871" />
      <trkpt lat="30.747365" lon="-99.198918" />
      <trkpt lat="30.747394" lon="-99.201887" />
      <trkpt lat="30.747399" lon="-99.202817" />
      <trkpt lat="30.747403" lon="-99.203575" />
      <trkpt lat="30.747432" lon="-99.205031" />
      <trkpt lat="30.747485" lon="-99.208233" />
      <trkpt lat="30.747493" lon="-99.209397" />
      <trkpt lat="30.747522" lon="-99.211187" />
      <trkpt lat="30.747524" lon="-99.211463" />
      <trkpt lat="30.747526" lon="-99.211889" />
      <trkpt lat="30.74753" lon="-99.212627" />
      <trkpt lat="30.747552" lon="-99.214044" />
      <trkpt lat="30.747592" lon="-99.215591" />
      <trkpt lat="30.747657" lon="-99.217126" />
      <trkpt lat="30.747729" lon="-99.219097" />
      <trkpt lat="30.747765" lon="-99.220117" />
      <trkpt lat="30.747794" lon="-99.220995" />
      <trkpt lat="30.747819" lon="-99.22173" />
      <trkpt lat="30.747923" lon="-99.224418" />
      <trkpt lat="30.747937" lon="-99.224954" />
      <trkpt lat="30.747969" lon="-99.225831" />
      <trkpt lat="30.748017" lon="-99.226856" />
      <trkpt lat="30.748041" lon="-99.226995" />
      <trkpt lat="30.74809" lon="-99.227283" />
      <trkpt lat="30.74831" lon="-99.227986" />
      <trkpt lat="30.748676" lon="-99.229092" />
      <trkpt lat="30.748555" lon="-99.229097" />
      <trkpt lat="30.747975" lon="-99.22912" />
    </trkseg>
  </trk>
</gpx>