<?xml version='1.0' encoding='UTF-8'?>
<gpx version="1.1" creator="Antigravity Route Generator" xmlns="http://www.topografix.com/GPX/1/1">
  <trk>
    <name>Lost Pines &amp; Bastrop State Park Loop</name>
    <desc>Savannah &amp; Prairie Sweeps (27.8 mi) - FM 1441 -&gt; Park Road 1 -&gt; Smithville -&gt; Bastrop</desc>
    <trkseg>
      <trkpt lat="30.110006" lon="-97.315061" />
      <trkpt lat="30.110313" lon="-97.315069" />
      <trkpt lat="30.110534" lon="-97.315075" />
      <trkpt lat="30.110588" lon="-97.315076" />
      <trkpt lat="30.110589" lon="-97.315006" />
      <trkpt lat="30.110593" lon="-97.314846" />
      <trkpt lat="30.110599" lon="-97.314573" />
      <trkpt lat="30.110613" lon="-97.313922" />
      <trkpt lat="30.110615" lon="-97.313846" />
      <trkpt lat="30.110615" lon="-97.313805" />
      <trkpt lat="30.110619" lon="-97.313267" />
      <trkpt lat="30.110623" lon="-97.313114" />
      <trkpt lat="30.110628" lon="-97.31266" />
      <trkpt lat="30.11063" lon="-97.312532" />
      <trkpt lat="30.110631" lon="-97.312492" />
      <trkpt lat="30.110636" lon="-97.312211" />
      <trkpt lat="30.110641" lon="-97.311716" />
      <trkpt lat="30.110648" lon="-97.311405" />
      <trkpt lat="30.110657" lon="-97.310657" />
      <trkpt lat="30.11066" lon="-97.310413" />
      <trkpt lat="30.110662" lon="-97.31026" />
      <trkpt lat="30.110663" lon="-97.310165" />
      <trkpt lat="30.110664" lon="-97.310111" />
      <trkpt lat="30.110665" lon="-97.309981" />
      <trkpt lat="30.110668" lon="-97.309761" />
      <trkpt lat="30.110673" lon="-97.309285" />
      <trkpt lat="30.110679" lon="-97.308754" />
      <trkpt lat="30.110681" lon="-97.308685" />
      <trkpt lat="30.110687" lon="-97.308477" />
      <trkpt lat="30.110693" lon="-97.308188" />
      <trkpt lat="30.110706" lon="-97.307534" />
      <trkpt lat="30.111468" lon="-97.30756" />
      <trkpt lat="30.11164" lon="-97.307567" />
      <trkpt lat="30.11181" lon="-97.307574" />
      <trkpt lat="30.111935" lon="-97.307582" />
      <trkpt lat="30.112433" lon="-97.307626" />
      <trkpt lat="30.112884" lon="-97.307666" />
      <trkpt lat="30.114875" lon="-97.307817" />
      <trkpt lat="30.115277" lon="-97.30784" />
      <trkpt lat="30.116618" lon="-97.307965" />
      <trkpt lat="30.116951" lon="-97.307999" />
      <trkpt lat="30.117073" lon="-97.30801" />
      <trkpt lat="30.117501" lon="-97.308043" />
      <trkpt lat="30.117669" lon="-97.308073" />
      <trkpt lat="30.118282" lon="-97.308182" />
      <trkpt lat="30.118302" lon="-97.308184" />
      <trkpt lat="30.11867" lon="-97.308286" />
      <trkpt lat="30.11888" lon="-97.308352" />
      <trkpt lat="30.119283" lon="-97.3085" />
      <trkpt lat="30.119424" lon="-97.308559" />
      <trkpt lat="30.11978" lon="-97.308719" />
      <trkpt lat="30.119885" lon="-97.308773" />
      <trkpt lat="30.120126" lon="-97.308898" />
      <trkpt lat="30.120964" lon="-97.309375" />
      <trkpt lat="30.121127" lon="-97.309468" />
      <trkpt lat="30.124551" lon="-97.311406" />
      <trkpt lat="30.125189" lon="-97.311767" />
      <trkpt lat="30.125429" lon="-97.311902" />
      <trkpt lat="30.12605" lon="-97.312254" />
      <trkpt lat="30.127784" lon="-97.313242" />
      <trkpt lat="30.128923" lon="-97.313891" />
      <trkpt lat="30.129394" lon="-97.314159" />
      <trkpt lat="30.129566" lon="-97.314257" />
      <trkpt lat="30.130558" lon="-97.31482" />
      <trkpt lat="30.130951" lon="-97.315017" />
      <trkpt lat="30.131351" lon="-97.315194" />
      <trkpt lat="30.131812" lon="-97.315368" />
      <trkpt lat="30.131932" lon="-97.315407" />
      <trkpt lat="30.132286" lon="-97.315523" />
      <trkpt lat="30.132762" lon="-97.315653" />
      <trkpt lat="30.133034" lon="-97.315707" />
      <trkpt lat="30.133242" lon="-97.315733" />
      <trkpt lat="30.133625" lon="-97.315773" />
      <trkpt lat="30.1339" lon="-97.315802" />
      <trkpt lat="30.134263" lon="-97.315864" />
      <trkpt lat="30.134832" lon="-97.315948" />
      <trkpt lat="30.135747" lon="-97.316101" />
      <trkpt lat="30.136628" lon="-97.316249" />
      <trkpt lat="30.137692" lon="-97.316388" />
      <trkpt lat="30.137821" lon="-97.316406" />
      <trkpt lat="30.139737" lon="-97.316675" />
      <trkpt lat="30.140433" lon="-97.316786" />
      <trkpt lat="30.141779" lon="-97.316964" />
      <trkpt lat="30.142207" lon="-97.317022" />
      <trkpt lat="30.142733" lon="-97.317094" />
      <trkpt lat="30.143196" lon="-97.317158" />
      <trkpt lat="30.143502" lon="-97.317199" />
      <trkpt lat="30.144028" lon="-97.317271" />
      <trkpt lat="30.145902" lon="-97.317544" />
      <trkpt lat="30.147345" lon="-97.317744" />
      <trkpt lat="30.148157" lon="-97.317856" />
      <trkpt lat="30.148415" lon="-97.317892" />
      <trkpt lat="30.149323" lon="-97.318018" />
      <trkpt lat="30.149412" lon="-97.31803" />
      <trkpt lat="30.14972" lon="-97.31807" />
      <trkpt lat="30.149909" lon="-97.318094" />
      <trkpt lat="30.149966" lon="-97.318101" />
      <trkpt lat="30.150149" lon="-97.318124" />
      <trkpt lat="30.15086" lon="-97.318215" />
      <trkpt lat="30.150999" lon="-97.318236" />
      <trkpt lat="30.151656" lon="-97.318334" />
      <trkpt lat="30.151872" lon="-97.318366" />
      <trkpt lat="30.152272" lon="-97.318425" />
      <trkpt lat="30.152654" lon="-97.318482" />
      <trkpt lat="30.152723" lon="-97.318493" />
      <trkpt lat="30.152904" lon="-97.318515" />
      <trkpt lat="30.152929" lon="-97.318518" />
      <trkpt lat="30.153332" lon="-97.318577" />
      <trkpt lat="30.153714" lon="-97.318612" />
      <trkpt lat="30.153916" lon="-97.318648" />
      <trkpt lat="30.154255" lon="-97.318707" />
      <trkpt lat="30.15479" lon="-97.31877" />
      <trkpt lat="30.155298" lon="-97.318812" />
      <trkpt lat="30.155767" lon="-97.318835" />
      <trkpt lat="30.155839" lon="-97.318839" />
      <trkpt lat="30.156599" lon="-97.318829" />
      <trkpt lat="30.157247" lon="-97.318797" />
      <trkpt lat="30.157331" lon="-97.31879" />
      <trkpt lat="30.157506" lon="-97.318775" />
      <trkpt lat="30.157999" lon="-97.318723" />
      <trkpt lat="30.158695" lon="-97.318625" />
      <trkpt lat="30.158973" lon="-97.31859" />
      <trkpt lat="30.159656" lon="-97.318504" />
      <trkpt lat="30.159696" lon="-97.318499" />
      <trkpt lat="30.160451" lon="-97.318404" />
      <trkpt lat="30.160636" lon="-97.318382" />
      <trkpt lat="30.160803" lon="-97.318362" />
      <trkpt lat="30.161241" lon="-97.31831" />
      <trkpt lat="30.161298" lon="-97.318303" />
      <trkpt lat="30.161942" lon="-97.318219" />
      <trkpt lat="30.162311" lon="-97.318172" />
      <trkpt lat="30.162789" lon="-97.318111" />
      <trkpt lat="30.16347" lon="-97.318024" />
      <trkpt lat="30.164295" lon="-97.31792" />
      <trkpt lat="30.164792" lon="-97.317857" />
      <trkpt lat="30.165314" lon="-97.317791" />
      <trkpt lat="30.165505" lon="-97.317766" />
      <trkpt lat="30.165748" lon="-97.317735" />
      <trkpt lat="30.165993" lon="-97.317704" />
      <trkpt lat="30.166371" lon="-97.317656" />
      <trkpt lat="30.166763" lon="-97.317606" />
      <trkpt lat="30.167734" lon="-97.317483" />
      <trkpt lat="30.169028" lon="-97.317318" />
      <trkpt lat="30.169318" lon="-97.317282" />
      <trkpt lat="30.169499" lon="-97.317259" />
      <trkpt lat="30.16965" lon="-97.31724" />
      <trkpt lat="30.17112" lon="-97.317055" />
      <trkpt lat="30.171652" lon="-97.316988" />
      <trkpt lat="30.17202" lon="-97.316942" />
      <trkpt lat="30.173019" lon="-97.316817" />
      <trkpt lat="30.1731" lon="-97.316805" />
      <trkpt lat="30.173238" lon="-97.316782" />
      <trkpt lat="30.17402" lon="-97.316691" />
      <trkpt lat="30.174103" lon="-97.316681" />
      <trkpt lat="30.174739" lon="-97.316595" />
      <trkpt lat="30.175268" lon="-97.316526" />
      <trkpt lat="30.175534" lon="-97.31649" />
      <trkpt lat="30.176435" lon="-97.316369" />
      <trkpt lat="30.179293" lon="-97.316003" />
      <trkpt lat="30.180376" lon="-97.315866" />
      <trkpt lat="30.180446" lon="-97.315857" />
      <trkpt lat="30.181036" lon="-97.315783" />
      <trkpt lat="30.181407" lon="-97.315736" />
      <trkpt lat="30.182018" lon="-97.315658" />
      <trkpt lat="30.184581" lon="-97.315334" />
      <trkpt lat="30.185683" lon="-97.315199" />
      <trkpt lat="30.185754" lon="-97.31519" />
      <trkpt lat="30.192169" lon="-97.314379" />
      <trkpt lat="30.192753" lon="-97.314304" />
      <trkpt lat="30.19318" lon="-97.314249" />
      <trkpt lat="30.193252" lon="-97.31424" />
      <trkpt lat="30.194923" lon="-97.314026" />
      <trkpt lat="30.196399" lon="-97.313837" />
      <trkpt lat="30.196729" lon="-97.313795" />
      <trkpt lat="30.19719" lon="-97.313736" />
      <trkpt lat="30.197331" lon="-97.313719" />
      <trkpt lat="30.197617" lon="-97.313685" />
      <trkpt lat="30.198526" lon="-97.313576" />
      <trkpt lat="30.198981" lon="-97.313536" />
      <trkpt lat="30.199019" lon="-97.313533" />
      <trkpt lat="30.199338" lon="-97.313504" />
      <trkpt lat="30.199794" lon="-97.313475" />
      <trkpt lat="30.199844" lon="-97.313472" />
      <trkpt lat="30.200206" lon="-97.313453" />
      <trkpt lat="30.200469" lon="-97.313447" />
      <trkpt lat="30.200695" lon="-97.313441" />
      <trkpt lat="30.201046" lon="-97.313433" />
      <trkpt lat="30.201235" lon="-97.313428" />
      <trkpt lat="30.201972" lon="-97.31344" />
      <trkpt lat="30.202023" lon="-97.312096" />
      <trkpt lat="30.202023" lon="-97.312029" />
      <trkpt lat="30.202025" lon="-97.311721" />
      <trkpt lat="30.20202" lon="-97.311607" />
      <trkpt lat="30.202008" lon="-97.311346" />
      <trkpt lat="30.201974" lon="-97.310973" />
      <trkpt lat="30.201922" lon="-97.310604" />
      <trkpt lat="30.201852" lon="-97.310237" />
      <trkpt lat="30.201767" lon="-97.309875" />
      <trkpt lat="30.201662" lon="-97.30952" />
      <trkpt lat="30.201541" lon="-97.309172" />
      <trkpt lat="30.201407" lon="-97.308831" />
      <trkpt lat="30.201256" lon="-97.308502" />
      <trkpt lat="30.200553" lon="-97.307152" />
      <trkpt lat="30.200502" lon="-97.30706" />
      <trkpt lat="30.200403" lon="-97.306884" />
      <trkpt lat="30.200273" lon="-97.306619" />
      <trkpt lat="30.200154" lon="-97.306344" />
      <trkpt lat="30.200048" lon="-97.306062" />
      <trkpt lat="30.199959" lon="-97.305773" />
      <trkpt lat="30.199883" lon="-97.305479" />
      <trkpt lat="30.199775" lon="-97.304849" />
      <trkpt lat="30.199451" lon="-97.302999" />
      <trkpt lat="30.199352" lon="-97.30245" />
      <trkpt lat="30.199247" lon="-97.301738" />
      <trkpt lat="30.199197" lon="-97.301423" />
      <trkpt lat="30.199159" lon="-97.301176" />
      <trkpt lat="30.199084" lon="-97.300697" />
      <trkpt lat="30.199059" lon="-97.30054" />
      <trkpt lat="30.198928" lon="-97.299836" />
      <trkpt lat="30.198674" lon="-97.298438" />
      <trkpt lat="30.198547" lon="-97.297701" />
      <trkpt lat="30.198473" lon="-97.297283" />
      <trkpt lat="30.198336" lon="-97.29647" />
      <trkpt lat="30.197978" lon="-97.294365" />
      <trkpt lat="30.197554" lon="-97.291922" />
      <trkpt lat="30.196791" lon="-97.292079" />
      <trkpt lat="30.196585" lon="-97.292121" />
      <trkpt lat="30.196473" lon="-97.292146" />
      <trkpt lat="30.19618" lon="-97.292212" />
      <trkpt lat="30.195703" lon="-97.29232" />
      <trkpt lat="30.194944" lon="-97.292491" />
      <trkpt lat="30.194183" lon="-97.292663" />
      <trkpt lat="30.193626" lon="-97.292789" />
      <trkpt lat="30.192933" lon="-97.292947" />
      <trkpt lat="30.19267" lon="-97.293007" />
      <trkpt lat="30.192399" lon="-97.293054" />
      <trkpt lat="30.191643" lon="-97.293201" />
      <trkpt lat="30.191457" lon="-97.292078" />
      <trkpt lat="30.191386" lon="-97.291737" />
      <trkpt lat="30.191322" lon="-97.291385" />
      <trkpt lat="30.190017" lon="-97.291679" />
      <trkpt lat="30.189188" lon="-97.291879" />
      <trkpt lat="30.188513" lon="-97.29208" />
      <trkpt lat="30.188055" lon="-97.292236" />
      <trkpt lat="30.187449" lon="-97.292474" />
      <trkpt lat="30.186797" lon="-97.292759" />
      <trkpt lat="30.185185" lon="-97.293562" />
      <trkpt lat="30.184515" lon="-97.293924" />
      <trkpt lat="30.183233" lon="-97.294628" />
      <trkpt lat="30.183111" lon="-97.29469" />
      <trkpt lat="30.182072" lon="-97.295214" />
      <trkpt lat="30.181872" lon="-97.295345" />
      <trkpt lat="30.181287" lon="-97.295499" />
      <trkpt lat="30.181197" lon="-97.295503" />
      <trkpt lat="30.180723" lon="-97.295413" />
      <trkpt lat="30.179853" lon="-97.295012" />
      <trkpt lat="30.179437" lon="-97.294885" />
      <trkpt lat="30.178874" lon="-97.294809" />
      <trkpt lat="30.178518" lon="-97.294737" />
      <trkpt lat="30.178239" lon="-97.294586" />
      <trkpt lat="30.177764" lon="-97.294268" />
      <trkpt lat="30.177676" lon="-97.29421" />
      <trkpt lat="30.177472" lon="-97.294066" />
      <trkpt lat="30.177118" lon="-97.29381" />
      <trkpt lat="30.176388" lon="-97.293293" />
      <trkpt lat="30.176329" lon="-97.293251" />
      <trkpt lat="30.176108" lon="-97.293099" />
      <trkpt lat="30.175648" lon="-97.292782" />
      <trkpt lat="30.174741" lon="-97.292202" />
      <trkpt lat="30.17457" lon="-97.292061" />
      <trkpt lat="30.174561" lon="-97.29202" />
      <trkpt lat="30.174523" lon="-97.291838" />
      <trkpt lat="30.174617" lon="-97.290378" />
      <trkpt lat="30.174653" lon="-97.289613" />
      <trkpt lat="30.174653" lon="-97.289611" />
      <trkpt lat="30.17472" lon="-97.2886" />
      <trkpt lat="30.174751" lon="-97.287885" />
      <trkpt lat="30.174748" lon="-97.287797" />
      <trkpt lat="30.17484" lon="-97.287295" />
      <trkpt lat="30.17486" lon="-97.286841" />
      <trkpt lat="30.174873" lon="-97.286551" />
      <trkpt lat="30.174887" lon="-97.286237" />
      <trkpt lat="30.174904" lon="-97.285852" />
      <trkpt lat="30.174939" lon="-97.284758" />
      <trkpt lat="30.174942" lon="-97.284653" />
      <trkpt lat="30.174937" lon="-97.283627" />
      <trkpt lat="30.174936" lon="-97.283492" />
      <trkpt lat="30.174937" lon="-97.28322" />
      <trkpt lat="30.174938" lon="-97.282993" />
      <trkpt lat="30.174939" lon="-97.282684" />
      <trkpt lat="30.174939" lon="-97.282258" />
      <trkpt lat="30.174938" lon="-97.281612" />
      <trkpt lat="30.174926" lon="-97.280879" />
      <trkpt lat="30.174916" lon="-97.280346" />
      <trkpt lat="30.174919" lon="-97.279862" />
      <trkpt lat="30.174922" lon="-97.279262" />
      <trkpt lat="30.174927" lon="-97.27849" />
      <trkpt lat="30.174939" lon="-97.277231" />
      <trkpt lat="30.174953" lon="-97.275692" />
      <trkpt lat="30.174963" lon="-97.275074" />
      <trkpt lat="30.174977" lon="-97.274652" />
      <trkpt lat="30.175006" lon="-97.273735" />
      <trkpt lat="30.175062" lon="-97.27263" />
      <trkpt lat="30.175064" lon="-97.272261" />
      <trkpt lat="30.17505" lon="-97.271891" />
      <trkpt lat="30.174912" lon="-97.269662" />
      <trkpt lat="30.174902" lon="-97.269505" />
      <trkpt lat="30.174892" lon="-97.26888" />
      <trkpt lat="30.174565" lon="-97.268887" />
      <trkpt lat="30.174531" lon="-97.267696" />
      <trkpt lat="30.174518" lon="-97.26704" />
      <trkpt lat="30.1745" lon="-97.26522" />
      <trkpt lat="30.174486" lon="-97.263724" />
      <trkpt lat="30.174474" lon="-97.262474" />
      <trkpt lat="30.174465" lon="-97.261566" />
      <trkpt lat="30.174465" lon="-97.260982" />
      <trkpt lat="30.174457" lon="-97.260472" />
      <trkpt lat="30.174448" lon="-97.260128" />
      <trkpt lat="30.174438" lon="-97.260034" />
      <trkpt lat="30.174397" lon="-97.259597" />
      <trkpt lat="30.174331" lon="-97.259115" />
      <trkpt lat="30.174311" lon="-97.258994" />
      <trkpt lat="30.174237" lon="-97.258634" />
      <trkpt lat="30.174146" lon="-97.258279" />
      <trkpt lat="30.174036" lon="-97.257932" />
      <trkpt lat="30.173906" lon="-97.257592" />
      <trkpt lat="30.173439" lon="-97.256486" />
      <trkpt lat="30.173411" lon="-97.256419" />
      <trkpt lat="30.172662" lon="-97.25479" />
      <trkpt lat="30.172077" lon="-97.253473" />
      <trkpt lat="30.171352" lon="-97.251845" />
      <trkpt lat="30.170004" lon="-97.248819" />
      <trkpt lat="30.169364" lon="-97.247381" />
      <trkpt lat="30.16916" lon="-97.246924" />
      <trkpt lat="30.168685" lon="-97.245858" />
      <trkpt lat="30.168264" lon="-97.244912" />
      <trkpt lat="30.16797" lon="-97.24425" />
      <trkpt lat="30.16781" lon="-97.243892" />
      <trkpt lat="30.167107" lon="-97.242313" />
      <trkpt lat="30.166346" lon="-97.240617" />
      <trkpt lat="30.166" lon="-97.239845" />
      <trkpt lat="30.165835" lon="-97.239521" />
      <trkpt lat="30.165657" lon="-97.239207" />
      <trkpt lat="30.165463" lon="-97.238905" />
      <trkpt lat="30.165258" lon="-97.238615" />
      <trkpt lat="30.165039" lon="-97.238337" />
      <trkpt lat="30.16481" lon="-97.238073" />
      <trkpt lat="30.164705" lon="-97.237962" />
      <trkpt lat="30.164094" lon="-97.237362" />
      <trkpt lat="30.163857" lon="-97.237139" />
      <trkpt lat="30.162245" lon="-97.235637" />
      <trkpt lat="30.160327" lon="-97.233817" />
      <trkpt lat="30.159865" lon="-97.233381" />
      <trkpt lat="30.159734" lon="-97.233258" />
      <trkpt lat="30.158051" lon="-97.231671" />
      <trkpt lat="30.157444" lon="-97.231104" />
      <trkpt lat="30.157291" lon="-97.230961" />
      <trkpt lat="30.155622" lon="-97.229387" />
      <trkpt lat="30.155565" lon="-97.229333" />
      <trkpt lat="30.155035" lon="-97.228832" />
      <trkpt lat="30.152389" lon="-97.226338" />
      <trkpt lat="30.152267" lon="-97.226223" />
      <trkpt lat="30.151999" lon="-97.225971" />
      <trkpt lat="30.151743" lon="-97.225741" />
      <trkpt lat="30.151216" lon="-97.226635" />
      <trkpt lat="30.150797" lon="-97.227345" />
      <trkpt lat="30.150757" lon="-97.227413" />
      <trkpt lat="30.150083" lon="-97.228546" />
      <trkpt lat="30.149536" lon="-97.229467" />
      <trkpt lat="30.148655" lon="-97.23095" />
      <trkpt lat="30.147776" lon="-97.23243" />
      <trkpt lat="30.147763" lon="-97.232446" />
      <trkpt lat="30.147443" lon="-97.232995" />
      <trkpt lat="30.146894" lon="-97.233925" />
      <trkpt lat="30.146613" lon="-97.234402" />
      <trkpt lat="30.146064" lon="-97.235332" />
      <trkpt lat="30.145625" lon="-97.236068" />
      <trkpt lat="30.145591" lon="-97.236125" />
      <trkpt lat="30.145288" lon="-97.236687" />
      <trkpt lat="30.145206" lon="-97.236836" />
      <trkpt lat="30.145044" lon="-97.237158" />
      <trkpt lat="30.144895" lon="-97.23749" />
      <trkpt lat="30.144763" lon="-97.237829" />
      <trkpt lat="30.144635" lon="-97.238207" />
      <trkpt lat="30.144538" lon="-97.238553" />
      <trkpt lat="30.14442" lon="-97.239001" />
      <trkpt lat="30.144049" lon="-97.240406" />
      <trkpt lat="30.143697" lon="-97.241736" />
      <trkpt lat="30.143316" lon="-97.243198" />
      <trkpt lat="30.142861" lon="-97.24494" />
      <trkpt lat="30.142655" lon="-97.245733" />
      <trkpt lat="30.142455" lon="-97.246498" />
      <trkpt lat="30.14203" lon="-97.248136" />
      <trkpt lat="30.14197" lon="-97.248367" />
      <trkpt lat="30.141824" lon="-97.248836" />
      <trkpt lat="30.141717" lon="-97.249135" />
      <trkpt lat="30.141706" lon="-97.249166" />
      <trkpt lat="30.141659" lon="-97.249296" />
      <trkpt lat="30.141475" lon="-97.249746" />
      <trkpt lat="30.141277" lon="-97.250152" />
      <trkpt lat="30.141108" lon="-97.250499" />
      <trkpt lat="30.141074" lon="-97.25056" />
      <trkpt lat="30.140905" lon="-97.25086" />
      <trkpt lat="30.140872" lon="-97.250913" />
      <trkpt lat="30.140685" lon="-97.25121" />
      <trkpt lat="30.140451" lon="-97.251548" />
      <trkpt lat="30.140247" lon="-97.251819" />
      <trkpt lat="30.140166" lon="-97.251927" />
      <trkpt lat="30.139901" lon="-97.252244" />
      <trkpt lat="30.139606" lon="-97.252565" />
      <trkpt lat="30.139332" lon="-97.252832" />
      <trkpt lat="30.138586" lon="-97.253494" />
      <trkpt lat="30.137792" lon="-97.254207" />
      <trkpt lat="30.136909" lon="-97.255016" />
      <trkpt lat="30.136769" lon="-97.255149" />
      <trkpt lat="30.136493" lon="-97.255436" />
      <trkpt lat="30.136228" lon="-97.255739" />
      <trkpt lat="30.135977" lon="-97.256057" />
      <trkpt lat="30.135784" lon="-97.256329" />
      <trkpt lat="30.135708" lon="-97.256437" />
      <trkpt lat="30.135483" lon="-97.256783" />
      <trkpt lat="30.135277" lon="-97.257143" />
      <trkpt lat="30.135085" lon="-97.257513" />
      <trkpt lat="30.13491" lon="-97.257895" />
      <trkpt lat="30.134546" lon="-97.258792" />
      <trkpt lat="30.134247" lon="-97.2595" />
      <trkpt lat="30.134106" lon="-97.259827" />
      <trkpt lat="30.133782" lon="-97.260514" />
      <trkpt lat="30.133121" lon="-97.261864" />
      <trkpt lat="30.132627" lon="-97.262823" />
      <trkpt lat="30.132317" lon="-97.263328" />
      <trkpt lat="30.132049" lon="-97.263718" />
      <trkpt lat="30.131997" lon="-97.263787" />
      <trkpt lat="30.131769" lon="-97.264093" />
      <trkpt lat="30.130917" lon="-97.265124" />
      <trkpt lat="30.130598" lon="-97.265513" />
      <trkpt lat="30.128543" lon="-97.268023" />
      <trkpt lat="30.12753" lon="-97.269253" />
      <trkpt lat="30.126977" lon="-97.269929" />
      <trkpt lat="30.125978" lon="-97.271149" />
      <trkpt lat="30.125237" lon="-97.272054" />
      <trkpt lat="30.124567" lon="-97.272862" />
      <trkpt lat="30.123668" lon="-97.273946" />
      <trkpt lat="30.123635" lon="-97.273987" />
      <trkpt lat="30.122788" lon="-97.275027" />
      <trkpt lat="30.121437" lon="-97.276676" />
      <trkpt lat="30.120926" lon="-97.277299" />
      <trkpt lat="30.120049" lon="-97.278346" />
      <trkpt lat="30.119467" lon="-97.279091" />
      <trkpt lat="30.119023" lon="-97.279615" />
      <trkpt lat="30.116783" lon="-97.28233" />
      <trkpt lat="30.115868" lon="-97.283463" />
      <trkpt lat="30.115088" lon="-97.284405" />
      <trkpt lat="30.11504" lon="-97.284463" />
      <trkpt lat="30.114746" lon="-97.284818" />
      <trkpt lat="30.114452" lon="-97.28519" />
      <trkpt lat="30.114173" lon="-97.285578" />
      <trkpt lat="30.113913" lon="-97.28598" />
      <trkpt lat="30.113683" lon="-97.286373" />
      <trkpt lat="30.113546" lon="-97.286633" />
      <trkpt lat="30.113347" lon="-97.287065" />
      <trkpt lat="30.113162" lon="-97.287507" />
      <trkpt lat="30.112997" lon="-97.287959" />
      <trkpt lat="30.112455" lon="-97.289672" />
      <trkpt lat="30.11239" lon="-97.289863" />
      <trkpt lat="30.112139" lon="-97.290604" />
      <trkpt lat="30.11213" lon="-97.290633" />
      <trkpt lat="30.111935" lon="-97.291226" />
      <trkpt lat="30.111706" lon="-97.29192" />
      <trkpt lat="30.11157" lon="-97.292333" />
      <trkpt lat="30.111502" lon="-97.292538" />
      <trkpt lat="30.111449" lon="-97.292704" />
      <trkpt lat="30.111324" lon="-97.29311" />
      <trkpt lat="30.11122" lon="-97.293512" />
      <trkpt lat="30.111208" lon="-97.293574" />
      <trkpt lat="30.111159" lon="-97.293813" />
      <trkpt lat="30.111075" lon="-97.294301" />
      <trkpt lat="30.110965" lon="-97.294263" />
      <trkpt lat="30.110873" lon="-97.294222" />
      <trkpt lat="30.110777" lon="-97.29417" />
      <trkpt lat="30.110681" lon="-97.294093" />
      <trkpt lat="30.11064" lon="-97.294058" />
      <trkpt lat="30.110564" lon="-97.293978" />
      <trkpt lat="30.110523" lon="-97.293939" />
      <trkpt lat="30.110505" lon="-97.293911" />
      <trkpt lat="30.11047" lon="-97.293857" />
      <trkpt lat="30.110361" lon="-97.293667" />
      <trkpt lat="30.110039" lon="-97.292973" />
      <trkpt lat="30.109955" lon="-97.292793" />
      <trkpt lat="30.109951" lon="-97.292784" />
      <trkpt lat="30.109701" lon="-97.292248" />
      <trkpt lat="30.109069" lon="-97.290887" />
      <trkpt lat="30.108589" lon="-97.289841" />
      <trkpt lat="30.10839" lon="-97.289465" />
      <trkpt lat="30.108175" lon="-97.289102" />
      <trkpt lat="30.107853" lon="-97.288619" />
      <trkpt lat="30.10764" lon="-97.288328" />
      <trkpt lat="30.107415" lon="-97.28805" />
      <trkpt lat="30.107379" lon="-97.288006" />
      <trkpt lat="30.107099" lon="-97.2877" />
      <trkpt lat="30.106806" lon="-97.287413" />
      <trkpt lat="30.106719" lon="-97.287338" />
      <trkpt lat="30.106406" lon="-97.287069" />
      <trkpt lat="30.106399" lon="-97.287063" />
      <trkpt lat="30.106304" lon="-97.286981" />
      <trkpt lat="30.10583" lon="-97.286597" />
      <trkpt lat="30.105669" lon="-97.286468" />
      <trkpt lat="30.104847" lon="-97.285808" />
      <trkpt lat="30.104527" lon="-97.285551" />
      <trkpt lat="30.104221" lon="-97.285302" />
      <trkpt lat="30.103942" lon="-97.285087" />
      <trkpt lat="30.103653" lon="-97.284839" />
      <trkpt lat="30.103148" lon="-97.284351" />
      <trkpt lat="30.103004" lon="-97.284269" />
      <trkpt lat="30.102912" lon="-97.284226" />
      <trkpt lat="30.102841" lon="-97.284213" />
      <trkpt lat="30.102762" lon="-97.284203" />
      <trkpt lat="30.102731" lon="-97.2842" />
      <trkpt lat="30.102703" lon="-97.284197" />
      <trkpt lat="30.102655" lon="-97.284211" />
      <trkpt lat="30.102106" lon="-97.284378" />
      <trkpt lat="30.102057" lon="-97.284218" />
      <trkpt lat="30.102014" lon="-97.28406" />
      <trkpt lat="30.101827" lon="-97.283334" />
      <trkpt lat="30.101197" lon="-97.281081" />
      <trkpt lat="30.101041" lon="-97.280397" />
      <trkpt lat="30.100839" lon="-97.279541" />
      <trkpt lat="30.100765" lon="-97.279136" />
      <trkpt lat="30.100612" lon="-97.278643" />
      <trkpt lat="30.100403" lon="-97.278061" />
      <trkpt lat="30.100287" lon="-97.277574" />
      <trkpt lat="30.10003" lon="-97.276958" />
      <trkpt lat="30.099845" lon="-97.276526" />
      <trkpt lat="30.099109" lon="-97.274806" />
      <trkpt lat="30.097868" lon="-97.271906" />
      <trkpt lat="30.097683" lon="-97.271523" />
      <trkpt lat="30.097481" lon="-97.271151" />
      <trkpt lat="30.097266" lon="-97.27079" />
      <trkpt lat="30.097035" lon="-97.270441" />
      <trkpt lat="30.096791" lon="-97.270106" />
      <trkpt lat="30.096533" lon="-97.269784" />
      <trkpt lat="30.095588" lon="-97.26869" />
      <trkpt lat="30.094416" lon="-97.267333" />
      <trkpt lat="30.094052" lon="-97.266921" />
      <trkpt lat="30.093796" lon="-97.266595" />
      <trkpt lat="30.093557" lon="-97.266253" />
      <trkpt lat="30.093337" lon="-97.265897" />
      <trkpt lat="30.09313" lon="-97.265528" />
      <trkpt lat="30.092945" lon="-97.265145" />
      <trkpt lat="30.092776" lon="-97.264752" />
      <trkpt lat="30.092626" lon="-97.264349" />
      <trkpt lat="30.092498" lon="-97.263936" />
      <trkpt lat="30.092386" lon="-97.263517" />
      <trkpt lat="30.091985" lon="-97.262003" />
      <trkpt lat="30.091211" lon="-97.259152" />
      <trkpt lat="30.090986" lon="-97.258321" />
      <trkpt lat="30.090574" lon="-97.256825" />
      <trkpt lat="30.090312" lon="-97.255875" />
      <trkpt lat="30.089937" lon="-97.254572" />
      <trkpt lat="30.089769" lon="-97.254113" />
      <trkpt lat="30.08958" lon="-97.253663" />
      <trkpt lat="30.089371" lon="-97.253224" />
      <trkpt lat="30.089146" lon="-97.252796" />
      <trkpt lat="30.088905" lon="-97.252382" />
      <trkpt lat="30.088797" lon="-97.252215" />
      <trkpt lat="30.086549" lon="-97.248635" />
      <trkpt lat="30.086228" lon="-97.247565" />
      <trkpt lat="30.086771" lon="-97.248434" />
      <trkpt lat="30.087565" lon="-97.249706" />
      <trkpt lat="30.088534" lon="-97.251259" />
      <trkpt lat="30.088651" lon="-97.251446" />
      <trkpt lat="30.089015" lon="-97.252029" />
      <trkpt lat="30.089728" lon="-97.253172" />
      <trkpt lat="30.089955" lon="-97.253581" />
      <trkpt lat="30.090131" lon="-97.253933" />
      <trkpt lat="30.090166" lon="-97.254003" />
      <trkpt lat="30.090337" lon="-97.254391" />
      <trkpt lat="30.090493" lon="-97.254789" />
      <trkpt lat="30.090634" lon="-97.255191" />
      <trkpt lat="30.090784" lon="-97.255703" />
      <trkpt lat="30.091098" lon="-97.256972" />
      <trkpt lat="30.091387" lon="-97.258141" />
      <trkpt lat="30.091811" lon="-97.259855" />
      <trkpt lat="30.092095" lon="-97.261002" />
      <trkpt lat="30.092318" lon="-97.261871" />
      <trkpt lat="30.092445" lon="-97.262407" />
      <trkpt lat="30.092601" lon="-97.263066" />
      <trkpt lat="30.092766" lon="-97.263762" />
      <trkpt lat="30.09286" lon="-97.264122" />
      <trkpt lat="30.09297" lon="-97.264475" />
      <trkpt lat="30.093099" lon="-97.26482" />
      <trkpt lat="30.093245" lon="-97.265155" />
      <trkpt lat="30.093409" lon="-97.265481" />
      <trkpt lat="30.093588" lon="-97.265796" />
      <trkpt lat="30.093779" lon="-97.266099" />
      <trkpt lat="30.093987" lon="-97.266388" />
      <trkpt lat="30.094211" lon="-97.266664" />
      <trkpt lat="30.094524" lon="-97.26701" />
      <trkpt lat="30.095768" lon="-97.26845" />
      <trkpt lat="30.096841" lon="-97.269693" />
      <trkpt lat="30.097249" lon="-97.270173" />
      <trkpt lat="30.097425" lon="-97.270408" />
      <trkpt lat="30.097588" lon="-97.270655" />
      <trkpt lat="30.09774" lon="-97.270915" />
      <trkpt lat="30.097875" lon="-97.271183" />
      <trkpt lat="30.097995" lon="-97.271461" />
      <trkpt lat="30.09808" lon="-97.271689" />
      <trkpt lat="30.099161" lon="-97.274214" />
      <trkpt lat="30.099639" lon="-97.275287" />
      <trkpt lat="30.09998" lon="-97.276127" />
      <trkpt lat="30.100274" lon="-97.276822" />
      <trkpt lat="30.100519" lon="-97.277399" />
      <trkpt lat="30.10071" lon="-97.277909" />
      <trkpt lat="30.100885" lon="-97.278429" />
      <trkpt lat="30.101016" lon="-97.278894" />
      <trkpt lat="30.101217" lon="-97.279669" />
      <trkpt lat="30.101687" lon="-97.281382" />
      <trkpt lat="30.101968" lon="-97.282438" />
      <trkpt lat="30.102361" lon="-97.283842" />
      <trkpt lat="30.10258" lon="-97.284627" />
      <trkpt lat="30.103426" lon="-97.287651" />
      <trkpt lat="30.103704" lon="-97.288623" />
      <trkpt lat="30.103999" lon="-97.28968" />
      <trkpt lat="30.1042" lon="-97.290447" />
      <trkpt lat="30.104297" lon="-97.290827" />
      <trkpt lat="30.104754" lon="-97.292585" />
      <trkpt lat="30.104829" lon="-97.292957" />
      <trkpt lat="30.104907" lon="-97.293378" />
      <trkpt lat="30.104952" lon="-97.293619" />
      <trkpt lat="30.105039" lon="-97.294174" />
      <trkpt lat="30.105058" lon="-97.294294" />
      <trkpt lat="30.10515" lon="-97.295153" />
      <trkpt lat="30.105166" lon="-97.295344" />
      <trkpt lat="30.105227" lon="-97.296077" />
      <trkpt lat="30.10524" lon="-97.296262" />
      <trkpt lat="30.105251" lon="-97.29744" />
      <trkpt lat="30.105205" lon="-97.300504" />
      <trkpt lat="30.105176" lon="-97.302443" />
      <trkpt lat="30.105283" lon="-97.30329" />
      <trkpt lat="30.105345" lon="-97.303958" />
      <trkpt lat="30.105389" lon="-97.304591" />
      <trkpt lat="30.105401" lon="-97.305146" />
      <trkpt lat="30.105426" lon="-97.30615" />
      <trkpt lat="30.105419" lon="-97.306512" />
      <trkpt lat="30.105415" lon="-97.306791" />
      <trkpt lat="30.105515" lon="-97.307057" />
      <trkpt lat="30.105556" lon="-97.307148" />
      <trkpt lat="30.10557" lon="-97.307166" />
      <trkpt lat="30.105614" lon="-97.307225" />
      <trkpt lat="30.1057" lon="-97.307292" />
      <trkpt lat="30.105901" lon="-97.30744" />
      <trkpt lat="30.106011" lon="-97.307443" />
      <trkpt lat="30.106298" lon="-97.307448" />
      <trkpt lat="30.106702" lon="-97.307458" />
      <trkpt lat="30.106994" lon="-97.307465" />
      <trkpt lat="30.107426" lon="-97.30747" />
      <trkpt lat="30.108567" lon="-97.307494" />
      <trkpt lat="30.109436" lon="-97.307508" />
      <trkpt lat="30.109764" lon="-97.307516" />
      <trkpt lat="30.109961" lon="-97.307522" />
      <trkpt lat="30.110167" lon="-97.307525" />
      <trkpt lat="30.110706" lon="-97.307534" />
      <trkpt lat="30.110693" lon="-97.308188" />
      <trkpt lat="30.110687" lon="-97.308477" />
      <trkpt lat="30.110681" lon="-97.308685" />
      <trkpt lat="30.110679" lon="-97.308754" />
      <trkpt lat="30.110673" lon="-97.309285" />
      <trkpt lat="30.110668" lon="-97.309761" />
      <trkpt lat="30.110665" lon="-97.309981" />
      <trkpt lat="30.110664" lon="-97.310111" />
      <trkpt lat="30.110663" lon="-97.310165" />
      <trkpt lat="30.110662" lon="-97.31026" />
      <trkpt lat="30.11066" lon="-97.310413" />
      <trkpt lat="30.110657" lon="-97.310657" />
      <trkpt lat="30.110648" lon="-97.311405" />
      <trkpt lat="30.110641" lon="-97.311716" />
      <trkpt lat="30.110636" lon="-97.312211" />
      <trkpt lat="30.110631" lon="-97.312492" />
      <trkpt lat="30.11063" lon="-97.312532" />
      <trkpt lat="30.110628" lon="-97.31266" />
      <trkpt lat="30.110623" lon="-97.313114" />
      <trkpt lat="30.110619" lon="-97.313267" />
      <trkpt lat="30.110615" lon="-97.313805" />
      <trkpt lat="30.110615" lon="-97.313846" />
      <trkpt lat="30.110613" lon="-97.313922" />
      <trkpt lat="30.110599" lon="-97.314573" />
      <trkpt lat="30.110593" lon="-97.314846" />
      <trkpt lat="30.110589" lon="-97.315006" />
      <trkpt lat="30.110588" lon="-97.315076" />
      <trkpt lat="30.110534" lon="-97.315075" />
      <trkpt lat="30.110313" lon="-97.315069" />
      <trkpt lat="30.110006" lon="-97.315061" />
    </trkseg>
  </trk>
</gpx>