<?xml version='1.0' encoding='UTF-8'?>
<gpx version="1.1" creator="Antigravity Route Generator" xmlns="http://www.topografix.com/GPX/1/1">
  <trk>
    <name>Mason Mountain Ridge Run</name>
    <desc>Savannah &amp; Prairie Sweeps (57.3 mi) - TX 29 West -&gt; Art Road -&gt; US 87 -&gt; Mason</desc>
    <trkseg>
      <trkpt lat="30.747975" lon="-99.22912" />
      <trkpt lat="30.747124" lon="-99.229153" />
      <trkpt lat="30.747001" lon="-99.229157" />
      <trkpt lat="30.746956" lon="-99.229161" />
      <trkpt lat="30.746783" lon="-99.229198" />
      <trkpt lat="30.746766" lon="-99.229213" />
      <trkpt lat="30.746647" lon="-99.229322" />
      <trkpt lat="30.745618" lon="-99.228281" />
      <trkpt lat="30.745507" lon="-99.228182" />
      <trkpt lat="30.744047" lon="-99.226676" />
      <trkpt lat="30.743277" lon="-99.225882" />
      <trkpt lat="30.742088" lon="-99.224595" />
      <trkpt lat="30.74183" lon="-99.22423" />
      <trkpt lat="30.741664" lon="-99.223951" />
      <trkpt lat="30.741611" lon="-99.223817" />
      <trkpt lat="30.741571" lon="-99.223715" />
      <trkpt lat="30.741406" lon="-99.223125" />
      <trkpt lat="30.741371" lon="-99.222871" />
      <trkpt lat="30.741258" lon="-99.222052" />
      <trkpt lat="30.741157" lon="-99.221537" />
      <trkpt lat="30.740963" lon="-99.220829" />
      <trkpt lat="30.740686" lon="-99.220207" />
      <trkpt lat="30.740382" lon="-99.219713" />
      <trkpt lat="30.740032" lon="-99.219273" />
      <trkpt lat="30.739543" lon="-99.218876" />
      <trkpt lat="30.738888" lon="-99.218415" />
      <trkpt lat="30.738381" lon="-99.218093" />
      <trkpt lat="30.737674" lon="-99.217725" />
      <trkpt lat="30.736617" lon="-99.217132" />
      <trkpt lat="30.736039" lon="-99.216806" />
      <trkpt lat="30.735364" lon="-99.216352" />
      <trkpt lat="30.735059" lon="-99.216087" />
      <trkpt lat="30.734526" lon="-99.215668" />
      <trkpt lat="30.732507" lon="-99.213619" />
      <trkpt lat="30.731345" lon="-99.212407" />
      <trkpt lat="30.730865" lon="-99.21187" />
      <trkpt lat="30.727868" lon="-99.208104" />
      <trkpt lat="30.725138" lon="-99.20465" />
      <trkpt lat="30.722786" lon="-99.201603" />
      <trkpt lat="30.722168" lon="-99.200916" />
      <trkpt lat="30.721283" lon="-99.200047" />
      <trkpt lat="30.718679" lon="-99.197617" />
      <trkpt lat="30.71827" lon="-99.197234" />
      <trkpt lat="30.71692" lon="-99.195916" />
      <trkpt lat="30.715555" lon="-99.194597" />
      <trkpt lat="30.713609" lon="-99.192751" />
      <trkpt lat="30.713157" lon="-99.192419" />
      <trkpt lat="30.705358" lon="-99.185066" />
      <trkpt lat="30.704477" lon="-99.184125" />
      <trkpt lat="30.70396" lon="-99.183482" />
      <trkpt lat="30.702733" lon="-99.18154" />
      <trkpt lat="30.699338" lon="-99.175949" />
      <trkpt lat="30.695578" lon="-99.169717" />
      <trkpt lat="30.694559" lon="-99.16815" />
      <trkpt lat="30.694202" lon="-99.167409" />
      <trkpt lat="30.6936" lon="-99.165919" />
      <trkpt lat="30.691247" lon="-99.159138" />
      <trkpt lat="30.690435" lon="-99.156692" />
      <trkpt lat="30.689688" lon="-99.15446" />
      <trkpt lat="30.688609" lon="-99.151113" />
      <trkpt lat="30.686311" lon="-99.144311" />
      <trkpt lat="30.685121" lon="-99.140652" />
      <trkpt lat="30.684438" lon="-99.138807" />
      <trkpt lat="30.684018" lon="-99.137829" />
      <trkpt lat="30.683525" lon="-99.136908" />
      <trkpt lat="30.682224" lon="-99.134784" />
      <trkpt lat="30.679862" lon="-99.130953" />
      <trkpt lat="30.677241" lon="-99.126608" />
      <trkpt lat="30.676503" lon="-99.125449" />
      <trkpt lat="30.675841" lon="-99.124377" />
      <trkpt lat="30.6743" lon="-99.122016" />
      <trkpt lat="30.672067" lon="-99.118154" />
      <trkpt lat="30.671245" lon="-99.116695" />
      <trkpt lat="30.6706" lon="-99.11574" />
      <trkpt lat="30.669769" lon="-99.114839" />
      <trkpt lat="30.669271" lon="-99.114377" />
      <trkpt lat="30.668505" lon="-99.11383" />
      <trkpt lat="30.66566" lon="-99.112273" />
      <trkpt lat="30.663863" lon="-99.111298" />
      <trkpt lat="30.663521" lon="-99.111115" />
      <trkpt lat="30.662299" lon="-99.110459" />
      <trkpt lat="30.660054" lon="-99.10923" />
      <trkpt lat="30.659394" lon="-99.108875" />
      <trkpt lat="30.658935" lon="-99.108627" />
      <trkpt lat="30.658786" lon="-99.108537" />
      <trkpt lat="30.658455" lon="-99.108337" />
      <trkpt lat="30.657624" lon="-99.10779" />
      <trkpt lat="30.655843" lon="-99.106535" />
      <trkpt lat="30.651819" lon="-99.103724" />
      <trkpt lat="30.650259" lon="-99.10264" />
      <trkpt lat="30.648511" lon="-99.101425" />
      <trkpt lat="30.646803" lon="-99.100232" />
      <trkpt lat="30.646262" lon="-99.099775" />
      <trkpt lat="30.645857" lon="-99.099369" />
      <trkpt lat="30.645367" lon="-99.098887" />
      <trkpt lat="30.645104" lon="-99.098618" />
      <trkpt lat="30.644771" lon="-99.098392" />
      <trkpt lat="30.644628" lon="-99.09831" />
      <trkpt lat="30.644381" lon="-99.098213" />
      <trkpt lat="30.644129" lon="-99.098163" />
      <trkpt lat="30.643847" lon="-99.098141" />
      <trkpt lat="30.643393" lon="-99.098127" />
      <trkpt lat="30.636884" lon="-99.098019" />
      <trkpt lat="30.631847" lon="-99.097931" />
      <trkpt lat="30.625786" lon="-99.097835" />
      <trkpt lat="30.625041" lon="-99.097856" />
      <trkpt lat="30.624537" lon="-99.097937" />
      <trkpt lat="30.624291" lon="-99.098009" />
      <trkpt lat="30.624047" lon="-99.098103" />
      <trkpt lat="30.623564" lon="-99.098343" />
      <trkpt lat="30.620171" lon="-99.10029" />
      <trkpt lat="30.618515" lon="-99.101241" />
      <trkpt lat="30.617832" lon="-99.101649" />
      <trkpt lat="30.617226" lon="-99.102088" />
      <trkpt lat="30.612743" lon="-99.105634" />
      <trkpt lat="30.612199" lon="-99.106008" />
      <trkpt lat="30.611692" lon="-99.106274" />
      <trkpt lat="30.611379" lon="-99.106404" />
      <trkpt lat="30.610959" lon="-99.10654" />
      <trkpt lat="30.607083" lon="-99.107634" />
      <trkpt lat="30.60704" lon="-99.107647" />
      <trkpt lat="30.603356" lon="-99.108727" />
      <trkpt lat="30.602142" lon="-99.109088" />
      <trkpt lat="30.601653" lon="-99.109205" />
      <trkpt lat="30.600478" lon="-99.109393" />
      <trkpt lat="30.599884" lon="-99.109543" />
      <trkpt lat="30.590117" lon="-99.112433" />
      <trkpt lat="30.589469" lon="-99.112638" />
      <trkpt lat="30.589162" lon="-99.112754" />
      <trkpt lat="30.588936" lon="-99.112862" />
      <trkpt lat="30.588596" lon="-99.113046" />
      <trkpt lat="30.588326" lon="-99.113223" />
      <trkpt lat="30.587903" lon="-99.113543" />
      <trkpt lat="30.58684" lon="-99.114407" />
      <trkpt lat="30.586648" lon="-99.114551" />
      <trkpt lat="30.58578" lon="-99.11527" />
      <trkpt lat="30.585048" lon="-99.115876" />
      <trkpt lat="30.584752" lon="-99.116082" />
      <trkpt lat="30.584506" lon="-99.116225" />
      <trkpt lat="30.584017" lon="-99.116432" />
      <trkpt lat="30.583493" lon="-99.116573" />
      <trkpt lat="30.583036" lon="-99.116626" />
      <trkpt lat="30.579126" lon="-99.116656" />
      <trkpt lat="30.578876" lon="-99.116668" />
      <trkpt lat="30.578468" lon="-99.116723" />
      <trkpt lat="30.578063" lon="-99.116829" />
      <trkpt lat="30.577675" lon="-99.116983" />
      <trkpt lat="30.576944" lon="-99.117372" />
      <trkpt lat="30.576114" lon="-99.117809" />
      <trkpt lat="30.575693" lon="-99.118002" />
      <trkpt lat="30.575126" lon="-99.118188" />
      <trkpt lat="30.574566" lon="-99.118295" />
      <trkpt lat="30.571381" lon="-99.11854" />
      <trkpt lat="30.567556" lon="-99.118959" />
      <trkpt lat="30.566948" lon="-99.118984" />
      <trkpt lat="30.566361" lon="-99.118952" />
      <trkpt lat="30.565038" lon="-99.118843" />
      <trkpt lat="30.564731" lon="-99.118833" />
      <trkpt lat="30.564326" lon="-99.118877" />
      <trkpt lat="30.564008" lon="-99.118958" />
      <trkpt lat="30.563783" lon="-99.119037" />
      <trkpt lat="30.563363" lon="-99.119232" />
      <trkpt lat="30.563052" lon="-99.119447" />
      <trkpt lat="30.561209" lon="-99.121005" />
      <trkpt lat="30.55868" lon="-99.123157" />
      <trkpt lat="30.55823" lon="-99.123593" />
      <trkpt lat="30.557032" lon="-99.124903" />
      <trkpt lat="30.556479" lon="-99.125428" />
      <trkpt lat="30.556274" lon="-99.125593" />
      <trkpt lat="30.556089" lon="-99.125715" />
      <trkpt lat="30.555133" lon="-99.126317" />
      <trkpt lat="30.554893" lon="-99.126504" />
      <trkpt lat="30.554609" lon="-99.12678" />
      <trkpt lat="30.554396" lon="-99.127046" />
      <trkpt lat="30.554198" lon="-99.127338" />
      <trkpt lat="30.553193" lon="-99.128992" />
      <trkpt lat="30.552854" lon="-99.129574" />
      <trkpt lat="30.552642" lon="-99.129977" />
      <trkpt lat="30.552452" lon="-99.130403" />
      <trkpt lat="30.551797" lon="-99.132052" />
      <trkpt lat="30.551564" lon="-99.132593" />
      <trkpt lat="30.55143" lon="-99.132849" />
      <trkpt lat="30.55123" lon="-99.133157" />
      <trkpt lat="30.550848" lon="-99.133597" />
      <trkpt lat="30.550623" lon="-99.133796" />
      <trkpt lat="30.550388" lon="-99.13397" />
      <trkpt lat="30.550127" lon="-99.134126" />
      <trkpt lat="30.549915" lon="-99.134228" />
      <trkpt lat="30.549457" lon="-99.134385" />
      <trkpt lat="30.548181" lon="-99.134688" />
      <trkpt lat="30.547807" lon="-99.134763" />
      <trkpt lat="30.54743" lon="-99.134803" />
      <trkpt lat="30.547053" lon="-99.134799" />
      <trkpt lat="30.546685" lon="-99.134753" />
      <trkpt lat="30.546417" lon="-99.134695" />
      <trkpt lat="30.546162" lon="-99.134617" />
      <trkpt lat="30.545098" lon="-99.134186" />
      <trkpt lat="30.544717" lon="-99.13405" />
      <trkpt lat="30.544249" lon="-99.133932" />
      <trkpt lat="30.543719" lon="-99.133872" />
      <trkpt lat="30.54319" lon="-99.133859" />
      <trkpt lat="30.542664" lon="-99.133875" />
      <trkpt lat="30.542172" lon="-99.133878" />
      <trkpt lat="30.541169" lon="-99.133886" />
      <trkpt lat="30.538972" lon="-99.133812" />
      <trkpt lat="30.536728" lon="-99.133775" />
      <trkpt lat="30.535684" lon="-99.133751" />
      <trkpt lat="30.534566" lon="-99.133739" />
      <trkpt lat="30.534006" lon="-99.133754" />
      <trkpt lat="30.533456" lon="-99.133794" />
      <trkpt lat="30.532671" lon="-99.133916" />
      <trkpt lat="30.52932" lon="-99.134567" />
      <trkpt lat="30.528549" lon="-99.134737" />
      <trkpt lat="30.523972" lon="-99.136028" />
      <trkpt lat="30.518464" lon="-99.137361" />
      <trkpt lat="30.515583" lon="-99.138206" />
      <trkpt lat="30.515054" lon="-99.138306" />
      <trkpt lat="30.514519" lon="-99.138319" />
      <trkpt lat="30.514167" lon="-99.138279" />
      <trkpt lat="30.513782" lon="-99.138197" />
      <trkpt lat="30.513277" lon="-99.13801" />
      <trkpt lat="30.512651" lon="-99.137731" />
      <trkpt lat="30.512517" lon="-99.137671" />
      <trkpt lat="30.512399" lon="-99.13762" />
      <trkpt lat="30.508236" lon="-99.135807" />
      <trkpt lat="30.506501" lon="-99.135052" />
      <trkpt lat="30.50573" lon="-99.134719" />
      <trkpt lat="30.500611" lon="-99.132502" />
      <trkpt lat="30.499525" lon="-99.132047" />
      <trkpt lat="30.498781" lon="-99.1317" />
      <trkpt lat="30.498579" lon="-99.131614" />
      <trkpt lat="30.496989" lon="-99.130935" />
      <trkpt lat="30.496413" lon="-99.130689" />
      <trkpt lat="30.495929" lon="-99.130532" />
      <trkpt lat="30.495492" lon="-99.130454" />
      <trkpt lat="30.495184" lon="-99.130444" />
      <trkpt lat="30.494894" lon="-99.130455" />
      <trkpt lat="30.492289" lon="-99.130791" />
      <trkpt lat="30.492133" lon="-99.130796" />
      <trkpt lat="30.491578" lon="-99.130814" />
      <trkpt lat="30.491116" lon="-99.13079" />
      <trkpt lat="30.490757" lon="-99.130749" />
      <trkpt lat="30.488996" lon="-99.130431" />
      <trkpt lat="30.488114" lon="-99.130315" />
      <trkpt lat="30.487482" lon="-99.130297" />
      <trkpt lat="30.484108" lon="-99.130271" />
      <trkpt lat="30.483924" lon="-99.130269" />
      <trkpt lat="30.481499" lon="-99.130281" />
      <trkpt lat="30.481128" lon="-99.12966" />
      <trkpt lat="30.479049" lon="-99.126069" />
      <trkpt lat="30.478798" lon="-99.125614" />
      <trkpt lat="30.478593" lon="-99.125285" />
      <trkpt lat="30.478337" lon="-99.125014" />
      <trkpt lat="30.477986" lon="-99.12475" />
      <trkpt lat="30.477459" lon="-99.124418" />
      <trkpt lat="30.477307" lon="-99.124388" />
      <trkpt lat="30.476988" lon="-99.124321" />
      <trkpt lat="30.476786" lon="-99.124117" />
      <trkpt lat="30.476619" lon="-99.123884" />
      <trkpt lat="30.476463" lon="-99.123506" />
      <trkpt lat="30.476328" lon="-99.12317" />
      <trkpt lat="30.476117" lon="-99.122742" />
      <trkpt lat="30.475772" lon="-99.122435" />
      <trkpt lat="30.47501" lon="-99.121863" />
      <trkpt lat="30.472671" lon="-99.120513" />
      <trkpt lat="30.470998" lon="-99.119612" />
      <trkpt lat="30.470815" lon="-99.119585" />
      <trkpt lat="30.469211" lon="-99.118764" />
      <trkpt lat="30.468981" lon="-99.118579" />
      <trkpt lat="30.468661" lon="-99.118473" />
      <trkpt lat="30.468179" lon="-99.118129" />
      <trkpt lat="30.467973" lon="-99.118102" />
      <trkpt lat="30.466621" lon="-99.117413" />
      <trkpt lat="30.464742" lon="-99.11519" />
      <trkpt lat="30.462933" lon="-99.112358" />
      <trkpt lat="30.462658" lon="-99.112146" />
      <trkpt lat="30.462543" lon="-99.111775" />
      <trkpt lat="30.461123" lon="-99.109499" />
      <trkpt lat="30.461031" lon="-99.109076" />
      <trkpt lat="30.467083" lon="-99.108814" />
      <trkpt lat="30.468409" lon="-99.108355" />
      <trkpt lat="30.472126" lon="-99.10707" />
      <trkpt lat="30.47247" lon="-99.106779" />
      <trkpt lat="30.474259" lon="-99.103261" />
      <trkpt lat="30.478547" lon="-99.09707" />
      <trkpt lat="30.478754" lon="-99.096567" />
      <trkpt lat="30.478891" lon="-99.096514" />
      <trkpt lat="30.481161" lon="-99.093287" />
      <trkpt lat="30.48162" lon="-99.092466" />
      <trkpt lat="30.482738" lon="-99.090809" />
      <trkpt lat="30.483214" lon="-99.090052" />
      <trkpt lat="30.483361" lon="-99.09003" />
      <trkpt lat="30.483482" lon="-99.090021" />
      <trkpt lat="30.483581" lon="-99.09008" />
      <trkpt lat="30.483625" lon="-99.090147" />
      <trkpt lat="30.48364" lon="-99.090263" />
      <trkpt lat="30.483662" lon="-99.09031" />
      <trkpt lat="30.483704" lon="-99.090342" />
      <trkpt lat="30.483804" lon="-99.090389" />
      <trkpt lat="30.483828" lon="-99.090401" />
      <trkpt lat="30.483704" lon="-99.090342" />
      <trkpt lat="30.483662" lon="-99.09031" />
      <trkpt lat="30.48364" lon="-99.090263" />
      <trkpt lat="30.483625" lon="-99.090147" />
      <trkpt lat="30.483581" lon="-99.09008" />
      <trkpt lat="30.483482" lon="-99.090021" />
      <trkpt lat="30.483361" lon="-99.09003" />
      <trkpt lat="30.483214" lon="-99.090052" />
      <trkpt lat="30.483797" lon="-99.089424" />
      <trkpt lat="30.486663" lon="-99.086222" />
      <trkpt lat="30.487695" lon="-99.085773" />
      <trkpt lat="30.488268" lon="-99.08564" />
      <trkpt lat="30.491477" lon="-99.084503" />
      <trkpt lat="30.4926" lon="-99.08453" />
      <trkpt lat="30.493219" lon="-99.084662" />
      <trkpt lat="30.494159" lon="-99.085086" />
      <trkpt lat="30.494777" lon="-99.08551" />
      <trkpt lat="30.495098" lon="-99.085589" />
      <trkpt lat="30.495763" lon="-99.085854" />
      <trkpt lat="30.496153" lon="-99.08588" />
      <trkpt lat="30.496198" lon="-99.086013" />
      <trkpt lat="30.496634" lon="-99.086145" />
      <trkpt lat="30.498376" lon="-99.087019" />
      <trkpt lat="30.498558" lon="-99.087037" />
      <trkpt lat="30.498618" lon="-99.087046" />
      <trkpt lat="30.498699" lon="-99.087059" />
      <trkpt lat="30.498857" lon="-99.086972" />
      <trkpt lat="30.498932" lon="-99.086956" />
      <trkpt lat="30.499291" lon="-99.086787" />
      <trkpt lat="30.500189" lon="-99.086622" />
      <trkpt lat="30.5018" lon="-99.086623" />
      <trkpt lat="30.502922" lon="-99.087205" />
      <trkpt lat="30.505718" lon="-99.089032" />
      <trkpt lat="30.507689" lon="-99.089059" />
      <trkpt lat="30.509316" lon="-99.090092" />
      <trkpt lat="30.510714" lon="-99.091204" />
      <trkpt lat="30.512021" lon="-99.092105" />
      <trkpt lat="30.512364" lon="-99.092264" />
      <trkpt lat="30.512594" lon="-99.092237" />
      <trkpt lat="30.513257" lon="-99.091793" />
      <trkpt lat="30.512731" lon="-99.090834" />
      <trkpt lat="30.512617" lon="-99.09012" />
      <trkpt lat="30.512646" lon="-99.088867" />
      <trkpt lat="30.512663" lon="-99.088161" />
      <trkpt lat="30.512878" lon="-99.08717" />
      <trkpt lat="30.512893" lon="-99.087102" />
      <trkpt lat="30.513214" lon="-99.086361" />
      <trkpt lat="30.513581" lon="-99.085831" />
      <trkpt lat="30.513718" lon="-99.085805" />
      <trkpt lat="30.513902" lon="-99.085276" />
      <trkpt lat="30.515259" lon="-99.083286" />
      <trkpt lat="30.51569" lon="-99.082655" />
      <trkpt lat="30.516057" lon="-99.082285" />
      <trkpt lat="30.522732" lon="-99.079588" />
      <trkpt lat="30.523044" lon="-99.079382" />
      <trkpt lat="30.523116" lon="-99.079331" />
      <trkpt lat="30.523138" lon="-99.079316" />
      <trkpt lat="30.523275" lon="-99.079233" />
      <trkpt lat="30.523539" lon="-99.079086" />
      <trkpt lat="30.523621" lon="-99.079064" />
      <trkpt lat="30.523738" lon="-99.07905" />
      <trkpt lat="30.523872" lon="-99.079073" />
      <trkpt lat="30.524622" lon="-99.079335" />
      <trkpt lat="30.524842" lon="-99.079367" />
      <trkpt lat="30.525178" lon="-99.079294" />
      <trkpt lat="30.530061" lon="-99.076515" />
      <trkpt lat="30.5308" lon="-99.076136" />
      <trkpt lat="30.531394" lon="-99.075804" />
      <trkpt lat="30.531689" lon="-99.075508" />
      <trkpt lat="30.532147" lon="-99.074954" />
      <trkpt lat="30.534708" lon="-99.072208" />
      <trkpt lat="30.535496" lon="-99.071253" />
      <trkpt lat="30.535879" lon="-99.070909" />
      <trkpt lat="30.536209" lon="-99.070793" />
      <trkpt lat="30.537359" lon="-99.070651" />
      <trkpt lat="30.537603" lon="-99.070479" />
      <trkpt lat="30.537755" lon="-99.070156" />
      <trkpt lat="30.537797" lon="-99.069557" />
      <trkpt lat="30.537655" lon="-99.069026" />
      <trkpt lat="30.536998" lon="-99.067448" />
      <trkpt lat="30.536096" lon="-99.06578" />
      <trkpt lat="30.534179" lon="-99.061748" />
      <trkpt lat="30.534159" lon="-99.060872" />
      <trkpt lat="30.534067" lon="-99.060488" />
      <trkpt lat="30.533875" lon="-99.060209" />
      <trkpt lat="30.532606" lon="-99.059173" />
      <trkpt lat="30.531445" lon="-99.05818" />
      <trkpt lat="30.531245" lon="-99.057908" />
      <trkpt lat="30.531143" lon="-99.057615" />
      <trkpt lat="30.531097" lon="-99.057299" />
      <trkpt lat="30.53108" lon="-99.055579" />
      <trkpt lat="30.530721" lon="-99.052926" />
      <trkpt lat="30.530575" lon="-99.052143" />
      <trkpt lat="30.530453" lon="-99.051895" />
      <trkpt lat="30.529325" lon="-99.051115" />
      <trkpt lat="30.528819" lon="-99.050516" />
      <trkpt lat="30.528526" lon="-99.050035" />
      <trkpt lat="30.528238" lon="-99.049586" />
      <trkpt lat="30.528033" lon="-99.049187" />
      <trkpt lat="30.526952" lon="-99.044968" />
      <trkpt lat="30.526532" lon="-99.043014" />
      <trkpt lat="30.526304" lon="-99.042323" />
      <trkpt lat="30.52606" lon="-99.041927" />
      <trkpt lat="30.524421" lon="-99.040113" />
      <trkpt lat="30.523726" lon="-99.0394" />
      <trkpt lat="30.523562" lon="-99.039136" />
      <trkpt lat="30.522619" lon="-99.036805" />
      <trkpt lat="30.520776" lon="-99.032142" />
      <trkpt lat="30.520661" lon="-99.031535" />
      <trkpt lat="30.520649" lon="-99.030662" />
      <trkpt lat="30.520693" lon="-99.024164" />
      <trkpt lat="30.520719" lon="-99.023634" />
      <trkpt lat="30.521845" lon="-99.019005" />
      <trkpt lat="30.523051" lon="-99.014074" />
      <trkpt lat="30.524243" lon="-99.014138" />
      <trkpt lat="30.525398" lon="-99.014095" />
      <trkpt lat="30.526609" lon="-99.013956" />
      <trkpt lat="30.528993" lon="-99.013677" />
      <trkpt lat="30.530029" lon="-99.01358" />
      <trkpt lat="30.532672" lon="-99.013258" />
      <trkpt lat="30.538281" lon="-99.012625" />
      <trkpt lat="30.540619" lon="-99.012357" />
      <trkpt lat="30.542578" lon="-99.012003" />
      <trkpt lat="30.548205" lon="-99.011037" />
      <trkpt lat="30.554959" lon="-99.009879" />
      <trkpt lat="30.556132" lon="-99.009718" />
      <trkpt lat="30.557656" lon="-99.009685" />
      <trkpt lat="30.55967" lon="-99.009761" />
      <trkpt lat="30.564835" lon="-99.009836" />
      <trkpt lat="30.565984" lon="-99.010075" />
      <trkpt lat="30.566529" lon="-99.010203" />
      <trkpt lat="30.567428" lon="-99.010449" />
      <trkpt lat="30.567868" lon="-99.010568" />
      <trkpt lat="30.572754" lon="-99.011909" />
      <trkpt lat="30.576262" lon="-99.012854" />
      <trkpt lat="30.582924" lon="-99.014669" />
      <trkpt lat="30.583946" lon="-99.014936" />
      <trkpt lat="30.584689" lon="-99.015197" />
      <trkpt lat="30.585323" lon="-99.015447" />
      <trkpt lat="30.586089" lon="-99.016016" />
      <trkpt lat="30.586791" lon="-99.016724" />
      <trkpt lat="30.594124" lon="-99.025972" />
      <trkpt lat="30.594799" lon="-99.027002" />
      <trkpt lat="30.595436" lon="-99.028257" />
      <trkpt lat="30.596498" lon="-99.031411" />
      <trkpt lat="30.596969" lon="-99.032688" />
      <trkpt lat="30.5978" lon="-99.035016" />
      <trkpt lat="30.599056" lon="-99.038589" />
      <trkpt lat="30.59985" lon="-99.040252" />
      <trkpt lat="30.60081" lon="-99.04214" />
      <trkpt lat="30.603544" lon="-99.047258" />
      <trkpt lat="30.606009" lon="-99.051785" />
      <trkpt lat="30.607053" lon="-99.053792" />
      <trkpt lat="30.607144" lon="-99.053955" />
      <trkpt lat="30.608078" lon="-99.055626" />
      <trkpt lat="30.608715" lon="-99.056528" />
      <trkpt lat="30.609417" lon="-99.057289" />
      <trkpt lat="30.610109" lon="-99.057858" />
      <trkpt lat="30.610802" lon="-99.058351" />
      <trkpt lat="30.617145" lon="-99.063019" />
      <trkpt lat="30.620903" lon="-99.065808" />
      <trkpt lat="30.624117" lon="-99.068213" />
      <trkpt lat="30.624748" lon="-99.06863" />
      <trkpt lat="30.625552" lon="-99.069273" />
      <trkpt lat="30.626369" lon="-99.069917" />
      <trkpt lat="30.627237" lon="-99.07084" />
      <trkpt lat="30.627858" lon="-99.071752" />
      <trkpt lat="30.630449" lon="-99.076011" />
      <trkpt lat="30.631289" lon="-99.077395" />
      <trkpt lat="30.632459" lon="-99.079236" />
      <trkpt lat="30.632783" lon="-99.079747" />
      <trkpt lat="30.63428" lon="-99.08174" />
      <trkpt lat="30.635167" lon="-99.083071" />
      <trkpt lat="30.635967" lon="-99.084293" />
      <trkpt lat="30.637078" lon="-99.086236" />
      <trkpt lat="30.638379" lon="-99.088253" />
      <trkpt lat="30.639358" lon="-99.089712" />
      <trkpt lat="30.640576" lon="-99.091482" />
      <trkpt lat="30.641873" lon="-99.093322" />
      <trkpt lat="30.642323" lon="-99.09396" />
      <trkpt lat="30.643024" lon="-99.094953" />
      <trkpt lat="30.644054" lon="-99.096436" />
      <trkpt lat="30.644738" lon="-99.097432" />
      <trkpt lat="30.645752" lon="-99.098778" />
      <trkpt lat="30.646022" lon="-99.09911" />
      <trkpt lat="30.646548" lon="-99.099636" />
      <trkpt lat="30.647259" lon="-99.100194" />
      <trkpt lat="30.648284" lon="-99.10087" />
      <trkpt lat="30.652668" lon="-99.103938" />
      <trkpt lat="30.657144" lon="-99.107082" />
      <trkpt lat="30.658676" lon="-99.108123" />
      <trkpt lat="30.658897" lon="-99.108249" />
      <trkpt lat="30.659295" lon="-99.108477" />
      <trkpt lat="30.659628" lon="-99.108669" />
      <trkpt lat="30.66008" lon="-99.108895" />
      <trkpt lat="30.662395" lon="-99.11015" />
      <trkpt lat="30.663639" lon="-99.11083" />
      <trkpt lat="30.665762" lon="-99.111984" />
      <trkpt lat="30.666788" lon="-99.112521" />
      <trkpt lat="30.668772" lon="-99.113659" />
      <trkpt lat="30.6694" lon="-99.11412" />
      <trkpt lat="30.669926" lon="-99.114538" />
      <trkpt lat="30.670054" lon="-99.114633" />
      <trkpt lat="30.670387" lon="-99.114978" />
      <trkpt lat="30.670876" lon="-99.115568" />
      <trkpt lat="30.671402" lon="-99.116405" />
      <trkpt lat="30.671873" lon="-99.117113" />
      <trkpt lat="30.672343" lon="-99.118003" />
      <trkpt lat="30.673396" lon="-99.119774" />
      <trkpt lat="30.67418" lon="-99.121383" />
      <trkpt lat="30.674687" lon="-99.122381" />
      <trkpt lat="30.675841" lon="-99.124377" />
      <trkpt lat="30.676503" lon="-99.125449" />
      <trkpt lat="30.677241" lon="-99.126608" />
      <trkpt lat="30.679862" lon="-99.130953" />
      <trkpt lat="30.682224" lon="-99.134784" />
      <trkpt lat="30.683525" lon="-99.136908" />
      <trkpt lat="30.684018" lon="-99.137829" />
      <trkpt lat="30.684438" lon="-99.138807" />
      <trkpt lat="30.685121" lon="-99.140652" />
      <trkpt lat="30.686311" lon="-99.144311" />
      <trkpt lat="30.688609" lon="-99.151113" />
      <trkpt lat="30.689688" lon="-99.15446" />
      <trkpt lat="30.690435" lon="-99.156692" />
      <trkpt lat="30.691247" lon="-99.159138" />
      <trkpt lat="30.6936" lon="-99.165919" />
      <trkpt lat="30.694202" lon="-99.167409" />
      <trkpt lat="30.694559" lon="-99.16815" />
      <trkpt lat="30.695578" lon="-99.169717" />
      <trkpt lat="30.699338" lon="-99.175949" />
      <trkpt lat="30.702733" lon="-99.18154" />
      <trkpt lat="30.70396" lon="-99.183482" />
      <trkpt lat="30.704477" lon="-99.184125" />
      <trkpt lat="30.705358" lon="-99.185066" />
      <trkpt lat="30.713157" lon="-99.192419" />
      <trkpt lat="30.713609" lon="-99.192751" />
      <trkpt lat="30.715555" lon="-99.194597" />
      <trkpt lat="30.71692" lon="-99.195916" />
      <trkpt lat="30.71827" lon="-99.197234" />
      <trkpt lat="30.718679" lon="-99.197617" />
      <trkpt lat="30.721283" lon="-99.200047" />
      <trkpt lat="30.722168" lon="-99.200916" />
      <trkpt lat="30.722786" lon="-99.201603" />
      <trkpt lat="30.725138" lon="-99.20465" />
      <trkpt lat="30.727868" lon="-99.208104" />
      <trkpt lat="30.730865" lon="-99.21187" />
      <trkpt lat="30.731345" lon="-99.212407" />
      <trkpt lat="30.732507" lon="-99.213619" />
      <trkpt lat="30.734526" lon="-99.215668" />
      <trkpt lat="30.735059" lon="-99.216087" />
      <trkpt lat="30.735364" lon="-99.216352" />
      <trkpt lat="30.736039" lon="-99.216806" />
      <trkpt lat="30.736617" lon="-99.217132" />
      <trkpt lat="30.737674" lon="-99.217725" />
      <trkpt lat="30.738381" lon="-99.218093" />
      <trkpt lat="30.738888" lon="-99.218415" />
      <trkpt lat="30.739543" lon="-99.218876" />
      <trkpt lat="30.740032" lon="-99.219273" />
      <trkpt lat="30.740382" lon="-99.219713" />
      <trkpt lat="30.740686" lon="-99.220207" />
      <trkpt lat="30.740963" lon="-99.220829" />
      <trkpt lat="30.741157" lon="-99.221537" />
      <trkpt lat="30.741258" lon="-99.222052" />
      <trkpt lat="30.741371" lon="-99.222871" />
      <trkpt lat="30.741406" lon="-99.223125" />
      <trkpt lat="30.741571" lon="-99.223715" />
      <trkpt lat="30.741611" lon="-99.223817" />
      <trkpt lat="30.741664" lon="-99.223951" />
      <trkpt lat="30.74183" lon="-99.22423" />
      <trkpt lat="30.742088" lon="-99.224595" />
      <trkpt lat="30.743277" lon="-99.225882" />
      <trkpt lat="30.744047" lon="-99.226676" />
      <trkpt lat="30.745507" lon="-99.228182" />
      <trkpt lat="30.745618" lon="-99.228281" />
      <trkpt lat="30.746647" lon="-99.229322" />
      <trkpt lat="30.746766" lon="-99.229213" />
      <trkpt lat="30.746783" lon="-99.229198" />
      <trkpt lat="30.746956" lon="-99.229161" />
      <trkpt lat="30.747001" lon="-99.229157" />
      <trkpt lat="30.747124" lon="-99.229153" />
      <trkpt lat="30.747975" lon="-99.22912" />
    </trkseg>
  </trk>
</gpx>