<?xml version='1.0' encoding='UTF-8'?>
<gpx version="1.1" creator="Antigravity Route Generator" xmlns="http://www.topografix.com/GPX/1/1">
  <trk>
    <name>North Gabriel River Sweep</name>
    <desc>Savannah &amp; Prairie Sweeps (22.1 mi) - TX 29 @ CR 200 -&gt; CR 200 -&gt; CR 201 -&gt; CR 214 -&gt; RM 243 -&gt; CR 210 -&gt; US 183</desc>
    <trkseg>
      <trkpt lat="30.674918" lon="-97.932008" />
      <trkpt lat="30.675521" lon="-97.932167" />
      <trkpt lat="30.676315" lon="-97.932336" />
      <trkpt lat="30.676521" lon="-97.932372" />
      <trkpt lat="30.678031" lon="-97.932769" />
      <trkpt lat="30.680299" lon="-97.93344" />
      <trkpt lat="30.680665" lon="-97.933541" />
      <trkpt lat="30.681165" lon="-97.933686" />
      <trkpt lat="30.681582" lon="-97.933807" />
      <trkpt lat="30.681996" lon="-97.933937" />
      <trkpt lat="30.682474" lon="-97.9341" />
      <trkpt lat="30.6833" lon="-97.934486" />
      <trkpt lat="30.68448" lon="-97.934956" />
      <trkpt lat="30.687173" lon="-97.93611" />
      <trkpt lat="30.687805" lon="-97.93639" />
      <trkpt lat="30.688052" lon="-97.936469" />
      <trkpt lat="30.688375" lon="-97.936572" />
      <trkpt lat="30.68855" lon="-97.936605" />
      <trkpt lat="30.688698" lon="-97.936601" />
      <trkpt lat="30.688931" lon="-97.93655" />
      <trkpt lat="30.689262" lon="-97.936451" />
      <trkpt lat="30.689421" lon="-97.936389" />
      <trkpt lat="30.689634" lon="-97.936307" />
      <trkpt lat="30.689879" lon="-97.936886" />
      <trkpt lat="30.689992" lon="-97.937107" />
      <trkpt lat="30.69008" lon="-97.93729" />
      <trkpt lat="30.690295" lon="-97.937696" />
      <trkpt lat="30.690356" lon="-97.937908" />
      <trkpt lat="30.690373" lon="-97.938075" />
      <trkpt lat="30.690351" lon="-97.938239" />
      <trkpt lat="30.690253" lon="-97.938524" />
      <trkpt lat="30.690094" lon="-97.938995" />
      <trkpt lat="30.690025" lon="-97.939193" />
      <trkpt lat="30.689928" lon="-97.939545" />
      <trkpt lat="30.689906" lon="-97.939725" />
      <trkpt lat="30.689908" lon="-97.939852" />
      <trkpt lat="30.689951" lon="-97.940086" />
      <trkpt lat="30.689976" lon="-97.940192" />
      <trkpt lat="30.690028" lon="-97.940266" />
      <trkpt lat="30.690255" lon="-97.940548" />
      <trkpt lat="30.690498" lon="-97.940807" />
      <trkpt lat="30.690623" lon="-97.940923" />
      <trkpt lat="30.69082" lon="-97.941027" />
      <trkpt lat="30.691548" lon="-97.941359" />
      <trkpt lat="30.69293" lon="-97.941931" />
      <trkpt lat="30.693663" lon="-97.942237" />
      <trkpt lat="30.69369" lon="-97.942249" />
      <trkpt lat="30.693979" lon="-97.94237" />
      <trkpt lat="30.694037" lon="-97.942394" />
      <trkpt lat="30.69576" lon="-97.943115" />
      <trkpt lat="30.695839" lon="-97.943147" />
      <trkpt lat="30.696264" lon="-97.94332" />
      <trkpt lat="30.696303" lon="-97.943336" />
      <trkpt lat="30.696847" lon="-97.943558" />
      <trkpt lat="30.697097" lon="-97.94366" />
      <trkpt lat="30.697219" lon="-97.94371" />
      <trkpt lat="30.697559" lon="-97.943848" />
      <trkpt lat="30.698866" lon="-97.944388" />
      <trkpt lat="30.699091" lon="-97.944482" />
      <trkpt lat="30.699125" lon="-97.944496" />
      <trkpt lat="30.699247" lon="-97.944546" />
      <trkpt lat="30.699343" lon="-97.944586" />
      <trkpt lat="30.699935" lon="-97.944829" />
      <trkpt lat="30.700239" lon="-97.944955" />
      <trkpt lat="30.700283" lon="-97.944973" />
      <trkpt lat="30.70034" lon="-97.945001" />
      <trkpt lat="30.700554" lon="-97.945108" />
      <trkpt lat="30.700814" lon="-97.945261" />
      <trkpt lat="30.700898" lon="-97.945326" />
      <trkpt lat="30.700949" lon="-97.945361" />
      <trkpt lat="30.701331" lon="-97.945667" />
      <trkpt lat="30.701598" lon="-97.945893" />
      <trkpt lat="30.701631" lon="-97.945921" />
      <trkpt lat="30.701688" lon="-97.945971" />
      <trkpt lat="30.702744" lon="-97.946838" />
      <trkpt lat="30.703003" lon="-97.94705" />
      <trkpt lat="30.703733" lon="-97.947636" />
      <trkpt lat="30.704222" lon="-97.948034" />
      <trkpt lat="30.704861" lon="-97.948546" />
      <trkpt lat="30.705143" lon="-97.948754" />
      <trkpt lat="30.705628" lon="-97.949113" />
      <trkpt lat="30.706247" lon="-97.949593" />
      <trkpt lat="30.706434" lon="-97.94974" />
      <trkpt lat="30.706649" lon="-97.949918" />
      <trkpt lat="30.707181" lon="-97.950446" />
      <trkpt lat="30.707194" lon="-97.950458" />
      <trkpt lat="30.707515" lon="-97.950764" />
      <trkpt lat="30.707812" lon="-97.951032" />
      <trkpt lat="30.708109" lon="-97.951278" />
      <trkpt lat="30.708198" lon="-97.951342" />
      <trkpt lat="30.708283" lon="-97.951418" />
      <trkpt lat="30.708453" lon="-97.951563" />
      <trkpt lat="30.709324" lon="-97.952289" />
      <trkpt lat="30.709458" lon="-97.952445" />
      <trkpt lat="30.709557" lon="-97.952645" />
      <trkpt lat="30.709656" lon="-97.952852" />
      <trkpt lat="30.709735" lon="-97.95307" />
      <trkpt lat="30.709957" lon="-97.953677" />
      <trkpt lat="30.710334" lon="-97.954729" />
      <trkpt lat="30.710698" lon="-97.955768" />
      <trkpt lat="30.710969" lon="-97.956508" />
      <trkpt lat="30.711044" lon="-97.95682" />
      <trkpt lat="30.711229" lon="-97.957531" />
      <trkpt lat="30.711324" lon="-97.957966" />
      <trkpt lat="30.711405" lon="-97.95839" />
      <trkpt lat="30.711429" lon="-97.958491" />
      <trkpt lat="30.711471" lon="-97.958714" />
      <trkpt lat="30.711515" lon="-97.958875" />
      <trkpt lat="30.711574" lon="-97.959088" />
      <trkpt lat="30.711716" lon="-97.959362" />
      <trkpt lat="30.711992" lon="-97.959681" />
      <trkpt lat="30.712812" lon="-97.960526" />
      <trkpt lat="30.713119" lon="-97.960846" />
      <trkpt lat="30.713254" lon="-97.961035" />
      <trkpt lat="30.713278" lon="-97.961069" />
      <trkpt lat="30.713454" lon="-97.961381" />
      <trkpt lat="30.713551" lon="-97.96165" />
      <trkpt lat="30.713695" lon="-97.962031" />
      <trkpt lat="30.713908" lon="-97.962535" />
      <trkpt lat="30.714038" lon="-97.962771" />
      <trkpt lat="30.714048" lon="-97.962785" />
      <trkpt lat="30.714115" lon="-97.962878" />
      <trkpt lat="30.714278" lon="-97.963033" />
      <trkpt lat="30.714419" lon="-97.963136" />
      <trkpt lat="30.715145" lon="-97.963555" />
      <trkpt lat="30.715335" lon="-97.963669" />
      <trkpt lat="30.71576" lon="-97.963926" />
      <trkpt lat="30.716745" lon="-97.964496" />
      <trkpt lat="30.717586" lon="-97.965009" />
      <trkpt lat="30.718347" lon="-97.96543" />
      <trkpt lat="30.718827" lon="-97.965684" />
      <trkpt lat="30.719712" lon="-97.966137" />
      <trkpt lat="30.720157" lon="-97.96635" />
      <trkpt lat="30.72031" lon="-97.966429" />
      <trkpt lat="30.720508" lon="-97.966554" />
      <trkpt lat="30.720933" lon="-97.966851" />
      <trkpt lat="30.721064" lon="-97.966933" />
      <trkpt lat="30.722619" lon="-97.967969" />
      <trkpt lat="30.723825" lon="-97.968793" />
      <trkpt lat="30.724598" lon="-97.969314" />
      <trkpt lat="30.725017" lon="-97.969591" />
      <trkpt lat="30.725424" lon="-97.96986" />
      <trkpt lat="30.725984" lon="-97.970233" />
      <trkpt lat="30.726095" lon="-97.970307" />
      <trkpt lat="30.727049" lon="-97.970944" />
      <trkpt lat="30.728296" lon="-97.971757" />
      <trkpt lat="30.729014" lon="-97.972226" />
      <trkpt lat="30.729112" lon="-97.972317" />
      <trkpt lat="30.729171" lon="-97.972414" />
      <trkpt lat="30.729252" lon="-97.972579" />
      <trkpt lat="30.729472" lon="-97.97351" />
      <trkpt lat="30.729547" lon="-97.973808" />
      <trkpt lat="30.729662" lon="-97.9741" />
      <trkpt lat="30.729829" lon="-97.974456" />
      <trkpt lat="30.730293" lon="-97.975074" />
      <trkpt lat="30.730307" lon="-97.975092" />
      <trkpt lat="30.7308" lon="-97.975722" />
      <trkpt lat="30.731298" lon="-97.976275" />
      <trkpt lat="30.73151" lon="-97.976511" />
      <trkpt lat="30.73194" lon="-97.976953" />
      <trkpt lat="30.731957" lon="-97.976969" />
      <trkpt lat="30.732038" lon="-97.977053" />
      <trkpt lat="30.73211" lon="-97.977126" />
      <trkpt lat="30.732303" lon="-97.977324" />
      <trkpt lat="30.732318" lon="-97.97734" />
      <trkpt lat="30.732522" lon="-97.977614" />
      <trkpt lat="30.732673" lon="-97.977817" />
      <trkpt lat="30.732894" lon="-97.978113" />
      <trkpt lat="30.733057" lon="-97.978322" />
      <trkpt lat="30.733086" lon="-97.978366" />
      <trkpt lat="30.733153" lon="-97.978446" />
      <trkpt lat="30.73323" lon="-97.978514" />
      <trkpt lat="30.733313" lon="-97.978568" />
      <trkpt lat="30.733358" lon="-97.978589" />
      <trkpt lat="30.734002" lon="-97.978817" />
      <trkpt lat="30.73474" lon="-97.979123" />
      <trkpt lat="30.734909" lon="-97.979217" />
      <trkpt lat="30.73542" lon="-97.979501" />
      <trkpt lat="30.735458" lon="-97.97952" />
      <trkpt lat="30.735909" lon="-97.979748" />
      <trkpt lat="30.736831" lon="-97.980138" />
      <trkpt lat="30.73703" lon="-97.980272" />
      <trkpt lat="30.737225" lon="-97.980416" />
      <trkpt lat="30.73735" lon="-97.980566" />
      <trkpt lat="30.737505" lon="-97.980795" />
      <trkpt lat="30.737606" lon="-97.980989" />
      <trkpt lat="30.737833" lon="-97.981424" />
      <trkpt lat="30.737925" lon="-97.98158" />
      <trkpt lat="30.737994" lon="-97.981676" />
      <trkpt lat="30.738065" lon="-97.981759" />
      <trkpt lat="30.738146" lon="-97.981822" />
      <trkpt lat="30.738231" lon="-97.981879" />
      <trkpt lat="30.73831" lon="-97.981936" />
      <trkpt lat="30.738477" lon="-97.982021" />
      <trkpt lat="30.738668" lon="-97.982124" />
      <trkpt lat="30.738851" lon="-97.982244" />
      <trkpt lat="30.73888" lon="-97.982266" />
      <trkpt lat="30.739026" lon="-97.982379" />
      <trkpt lat="30.739263" lon="-97.982574" />
      <trkpt lat="30.739413" lon="-97.982708" />
      <trkpt lat="30.739631" lon="-97.982891" />
      <trkpt lat="30.739754" lon="-97.982995" />
      <trkpt lat="30.740551" lon="-97.983798" />
      <trkpt lat="30.741246" lon="-97.984498" />
      <trkpt lat="30.741305" lon="-97.984556" />
      <trkpt lat="30.741488" lon="-97.984736" />
      <trkpt lat="30.741803" lon="-97.985041" />
      <trkpt lat="30.742125" lon="-97.985371" />
      <trkpt lat="30.742249" lon="-97.985498" />
      <trkpt lat="30.74235" lon="-97.985646" />
      <trkpt lat="30.742421" lon="-97.98574" />
      <trkpt lat="30.742486" lon="-97.985839" />
      <trkpt lat="30.742609" lon="-97.986023" />
      <trkpt lat="30.742923" lon="-97.986508" />
      <trkpt lat="30.74334" lon="-97.98714" />
      <trkpt lat="30.743696" lon="-97.987681" />
      <trkpt lat="30.744033" lon="-97.988191" />
      <trkpt lat="30.74482" lon="-97.989383" />
      <trkpt lat="30.744955" lon="-97.989568" />
      <trkpt lat="30.745064" lon="-97.989667" />
      <trkpt lat="30.74517" lon="-97.989746" />
      <trkpt lat="30.745805" lon="-97.99005" />
      <trkpt lat="30.746735" lon="-97.990495" />
      <trkpt lat="30.747276" lon="-97.99076" />
      <trkpt lat="30.747393" lon="-97.990826" />
      <trkpt lat="30.747609" lon="-97.990946" />
      <trkpt lat="30.748618" lon="-97.991688" />
      <trkpt lat="30.748774" lon="-97.991795" />
      <trkpt lat="30.749043" lon="-97.99203" />
      <trkpt lat="30.749359" lon="-97.992337" />
      <trkpt lat="30.751761" lon="-97.994828" />
      <trkpt lat="30.752961" lon="-97.996083" />
      <trkpt lat="30.75332" lon="-97.996459" />
      <trkpt lat="30.75422" lon="-97.997417" />
      <trkpt lat="30.754721" lon="-97.997959" />
      <trkpt lat="30.754989" lon="-97.99825" />
      <trkpt lat="30.756648" lon="-98.000096" />
      <trkpt lat="30.756732" lon="-98.000189" />
      <trkpt lat="30.756787" lon="-98.00025" />
      <trkpt lat="30.757185" lon="-98.000693" />
      <trkpt lat="30.757622" lon="-98.001179" />
      <trkpt lat="30.758038" lon="-98.001645" />
      <trkpt lat="30.758873" lon="-98.002581" />
      <trkpt lat="30.758918" lon="-98.00263" />
      <trkpt lat="30.759538" lon="-98.003325" />
      <trkpt lat="30.759615" lon="-98.003408" />
      <trkpt lat="30.759714" lon="-98.003521" />
      <trkpt lat="30.760089" lon="-98.003935" />
      <trkpt lat="30.760184" lon="-98.004048" />
      <trkpt lat="30.760347" lon="-98.004224" />
      <trkpt lat="30.760381" lon="-98.00426" />
      <trkpt lat="30.760513" lon="-98.0044" />
      <trkpt lat="30.760562" lon="-98.004455" />
      <trkpt lat="30.761114" lon="-98.005069" />
      <trkpt lat="30.761363" lon="-98.005346" />
      <trkpt lat="30.761451" lon="-98.005454" />
      <trkpt lat="30.761499" lon="-98.005515" />
      <trkpt lat="30.761662" lon="-98.005759" />
      <trkpt lat="30.761699" lon="-98.005819" />
      <trkpt lat="30.761838" lon="-98.006047" />
      <trkpt lat="30.76191" lon="-98.006164" />
      <trkpt lat="30.761987" lon="-98.006291" />
      <trkpt lat="30.762285" lon="-98.006778" />
      <trkpt lat="30.762622" lon="-98.007317" />
      <trkpt lat="30.762642" lon="-98.007348" />
      <trkpt lat="30.762681" lon="-98.007405" />
      <trkpt lat="30.76275" lon="-98.007508" />
      <trkpt lat="30.762833" lon="-98.007638" />
      <trkpt lat="30.762965" lon="-98.007843" />
      <trkpt lat="30.763046" lon="-98.007969" />
      <trkpt lat="30.763052" lon="-98.007979" />
      <trkpt lat="30.763171" lon="-98.008165" />
      <trkpt lat="30.763262" lon="-98.008307" />
      <trkpt lat="30.763427" lon="-98.008572" />
      <trkpt lat="30.763555" lon="-98.008777" />
      <trkpt lat="30.763591" lon="-98.008835" />
      <trkpt lat="30.763661" lon="-98.008947" />
      <trkpt lat="30.763876" lon="-98.009292" />
      <trkpt lat="30.764091" lon="-98.00964" />
      <trkpt lat="30.764308" lon="-98.009993" />
      <trkpt lat="30.764319" lon="-98.01001" />
      <trkpt lat="30.764341" lon="-98.010046" />
      <trkpt lat="30.764672" lon="-98.010572" />
      <trkpt lat="30.764749" lon="-98.010697" />
      <trkpt lat="30.764804" lon="-98.010787" />
      <trkpt lat="30.764871" lon="-98.010896" />
      <trkpt lat="30.765079" lon="-98.011317" />
      <trkpt lat="30.765259" lon="-98.01168" />
      <trkpt lat="30.76531" lon="-98.011791" />
      <trkpt lat="30.765442" lon="-98.012057" />
      <trkpt lat="30.765527" lon="-98.01224" />
      <trkpt lat="30.765552" lon="-98.012291" />
      <trkpt lat="30.765626" lon="-98.012438" />
      <trkpt lat="30.765639" lon="-98.012463" />
      <trkpt lat="30.765985" lon="-98.013188" />
      <trkpt lat="30.766036" lon="-98.013286" />
      <trkpt lat="30.76607" lon="-98.013351" />
      <trkpt lat="30.766187" lon="-98.013573" />
      <trkpt lat="30.766212" lon="-98.01362" />
      <trkpt lat="30.76623" lon="-98.013656" />
      <trkpt lat="30.766527" lon="-98.014268" />
      <trkpt lat="30.767115" lon="-98.015482" />
      <trkpt lat="30.767171" lon="-98.015602" />
      <trkpt lat="30.767802" lon="-98.016959" />
      <trkpt lat="30.76806" lon="-98.017392" />
      <trkpt lat="30.768973" lon="-98.014929" />
      <trkpt lat="30.769524" lon="-98.013659" />
      <trkpt lat="30.769855" lon="-98.013047" />
      <trkpt lat="30.770562" lon="-98.011742" />
      <trkpt lat="30.770619" lon="-98.011602" />
      <trkpt lat="30.77101" lon="-98.01065" />
      <trkpt lat="30.771171" lon="-98.010258" />
      <trkpt lat="30.771314" lon="-98.009909" />
      <trkpt lat="30.771848" lon="-98.008609" />
      <trkpt lat="30.772945" lon="-98.005934" />
      <trkpt lat="30.773975" lon="-98.003427" />
      <trkpt lat="30.774135" lon="-98.003037" />
      <trkpt lat="30.774904" lon="-98.001162" />
      <trkpt lat="30.775411" lon="-97.999929" />
      <trkpt lat="30.775818" lon="-97.998912" />
      <trkpt lat="30.776638" lon="-97.996816" />
      <trkpt lat="30.776922" lon="-97.996103" />
      <trkpt lat="30.777766" lon="-97.993984" />
      <trkpt lat="30.777776" lon="-97.99396" />
      <trkpt lat="30.778218" lon="-97.993006" />
      <trkpt lat="30.778464" lon="-97.992604" />
      <trkpt lat="30.778599" lon="-97.992467" />
      <trkpt lat="30.77868" lon="-97.992384" />
      <trkpt lat="30.779588" lon="-97.991515" />
      <trkpt lat="30.780934" lon="-97.990229" />
      <trkpt lat="30.781315" lon="-97.989864" />
      <trkpt lat="30.78141" lon="-97.989763" />
      <trkpt lat="30.781841" lon="-97.989302" />
      <trkpt lat="30.7819" lon="-97.989226" />
      <trkpt lat="30.782388" lon="-97.988597" />
      <trkpt lat="30.782457" lon="-97.988509" />
      <trkpt lat="30.78251" lon="-97.988426" />
      <trkpt lat="30.782621" lon="-97.988245" />
      <trkpt lat="30.782694" lon="-97.988134" />
      <trkpt lat="30.782743" lon="-97.988056" />
      <trkpt lat="30.788148" lon="-97.978588" />
      <trkpt lat="30.789036" lon="-97.977009" />
      <trkpt lat="30.789952" lon="-97.975406" />
      <trkpt lat="30.791079" lon="-97.973403" />
      <trkpt lat="30.79166" lon="-97.972384" />
      <trkpt lat="30.791958" lon="-97.971862" />
      <trkpt lat="30.792731" lon="-97.970512" />
      <trkpt lat="30.793562" lon="-97.969061" />
      <trkpt lat="30.793669" lon="-97.968873" />
      <trkpt lat="30.793748" lon="-97.968735" />
      <trkpt lat="30.793945" lon="-97.968396" />
      <trkpt lat="30.794388" lon="-97.967631" />
      <trkpt lat="30.794514" lon="-97.967387" />
      <trkpt lat="30.794587" lon="-97.967245" />
      <trkpt lat="30.794767" lon="-97.966858" />
      <trkpt lat="30.79498" lon="-97.96634" />
      <trkpt lat="30.795161" lon="-97.965857" />
      <trkpt lat="30.795207" lon="-97.965717" />
      <trkpt lat="30.795669" lon="-97.964315" />
      <trkpt lat="30.795853" lon="-97.964014" />
      <trkpt lat="30.796055" lon="-97.963791" />
      <trkpt lat="30.796297" lon="-97.963601" />
      <trkpt lat="30.796539" lon="-97.96349" />
      <trkpt lat="30.796838" lon="-97.963411" />
      <trkpt lat="30.797246" lon="-97.963342" />
      <trkpt lat="30.797439" lon="-97.963417" />
      <trkpt lat="30.798069" lon="-97.96368" />
      <trkpt lat="30.798438" lon="-97.963877" />
      <trkpt lat="30.798536" lon="-97.963929" />
      <trkpt lat="30.799176" lon="-97.964341" />
      <trkpt lat="30.800222" lon="-97.965059" />
      <trkpt lat="30.80024" lon="-97.965072" />
      <trkpt lat="30.800284" lon="-97.965102" />
      <trkpt lat="30.801133" lon="-97.965625" />
      <trkpt lat="30.802128" lon="-97.966041" />
      <trkpt lat="30.802254" lon="-97.966095" />
      <trkpt lat="30.802839" lon="-97.966372" />
      <trkpt lat="30.805011" lon="-97.967278" />
      <trkpt lat="30.805192" lon="-97.967358" />
      <trkpt lat="30.805804" lon="-97.967628" />
      <trkpt lat="30.806331" lon="-97.967759" />
      <trkpt lat="30.806957" lon="-97.967805" />
      <trkpt lat="30.807693" lon="-97.967755" />
      <trkpt lat="30.808346" lon="-97.967692" />
      <trkpt lat="30.808726" lon="-97.967575" />
      <trkpt lat="30.809679" lon="-97.967162" />
      <trkpt lat="30.810056" lon="-97.967058" />
      <trkpt lat="30.810443" lon="-97.967025" />
      <trkpt lat="30.811078" lon="-97.96702" />
      <trkpt lat="30.811231" lon="-97.967019" />
      <trkpt lat="30.811252" lon="-97.967019" />
      <trkpt lat="30.811831" lon="-97.96698" />
      <trkpt lat="30.812472" lon="-97.966828" />
      <trkpt lat="30.813144" lon="-97.966554" />
      <trkpt lat="30.813776" lon="-97.966071" />
      <trkpt lat="30.814238" lon="-97.965699" />
      <trkpt lat="30.814726" lon="-97.965306" />
      <trkpt lat="30.818074" lon="-97.962639" />
      <trkpt lat="30.818415" lon="-97.962327" />
      <trkpt lat="30.818675" lon="-97.961981" />
      <trkpt lat="30.818843" lon="-97.961799" />
      <trkpt lat="30.819081" lon="-97.961279" />
      <trkpt lat="30.81942" lon="-97.960309" />
      <trkpt lat="30.819626" lon="-97.959511" />
      <trkpt lat="30.819666" lon="-97.959201" />
      <trkpt lat="30.819724" lon="-97.95876" />
      <trkpt lat="30.819766" lon="-97.957415" />
      <trkpt lat="30.819773" lon="-97.957262" />
      <trkpt lat="30.819773" lon="-97.957034" />
      <trkpt lat="30.81983" lon="-97.955983" />
      <trkpt lat="30.819774" lon="-97.955473" />
      <trkpt lat="30.81969" lon="-97.955095" />
      <trkpt lat="30.819393" lon="-97.95453" />
      <trkpt lat="30.819178" lon="-97.95405" />
      <trkpt lat="30.819096" lon="-97.953732" />
      <trkpt lat="30.819054" lon="-97.95357" />
      <trkpt lat="30.819051" lon="-97.95351" />
      <trkpt lat="30.819036" lon="-97.953196" />
      <trkpt lat="30.819028" lon="-97.953028" />
      <trkpt lat="30.819022" lon="-97.952906" />
      <trkpt lat="30.819064" lon="-97.952548" />
      <trkpt lat="30.819283" lon="-97.950666" />
      <trkpt lat="30.819352" lon="-97.950079" />
      <trkpt lat="30.819385" lon="-97.949626" />
      <trkpt lat="30.819349" lon="-97.949323" />
      <trkpt lat="30.819336" lon="-97.949213" />
      <trkpt lat="30.819254" lon="-97.948935" />
      <trkpt lat="30.818897" lon="-97.947915" />
      <trkpt lat="30.818551" lon="-97.946788" />
      <trkpt lat="30.818472" lon="-97.946393" />
      <trkpt lat="30.81836" lon="-97.94579" />
      <trkpt lat="30.818064" lon="-97.94407" />
      <trkpt lat="30.817965" lon="-97.943244" />
      <trkpt lat="30.817973" lon="-97.942644" />
      <trkpt lat="30.817974" lon="-97.942598" />
      <trkpt lat="30.818122" lon="-97.941868" />
      <trkpt lat="30.818679" lon="-97.939838" />
      <trkpt lat="30.818851" lon="-97.939211" />
      <trkpt lat="30.819078" lon="-97.938383" />
      <trkpt lat="30.819394" lon="-97.93735" />
      <trkpt lat="30.819651" lon="-97.936715" />
      <trkpt lat="30.819972" lon="-97.936168" />
      <trkpt lat="30.820541" lon="-97.935416" />
      <trkpt lat="30.820928" lon="-97.934807" />
      <trkpt lat="30.820987" lon="-97.934715" />
      <trkpt lat="30.821077" lon="-97.934514" />
      <trkpt lat="30.821186" lon="-97.934187" />
      <trkpt lat="30.821227" lon="-97.934032" />
      <trkpt lat="30.821439" lon="-97.93324" />
      <trkpt lat="30.821664" lon="-97.932398" />
      <trkpt lat="30.821837" lon="-97.931782" />
      <trkpt lat="30.822557" lon="-97.929505" />
      <trkpt lat="30.823036" lon="-97.928056" />
      <trkpt lat="30.823159" lon="-97.927807" />
      <trkpt lat="30.823256" lon="-97.92761" />
      <trkpt lat="30.823503" lon="-97.927328" />
      <trkpt lat="30.823793" lon="-97.927105" />
      <trkpt lat="30.823965" lon="-97.927033" />
      <trkpt lat="30.824255" lon="-97.926931" />
      <trkpt lat="30.824587" lon="-97.926906" />
      <trkpt lat="30.825004" lon="-97.926987" />
      <trkpt lat="30.826386" lon="-97.927515" />
      <trkpt lat="30.829086" lon="-97.928535" />
      <trkpt lat="30.829254" lon="-97.928558" />
      <trkpt lat="30.829522" lon="-97.928565" />
      <trkpt lat="30.829753" lon="-97.928512" />
      <trkpt lat="30.830004" lon="-97.928409" />
      <trkpt lat="30.830191" lon="-97.928319" />
      <trkpt lat="30.830329" lon="-97.928218" />
      <trkpt lat="30.830537" lon="-97.928016" />
      <trkpt lat="30.830775" lon="-97.927635" />
      <trkpt lat="30.830846" lon="-97.927454" />
      <trkpt lat="30.832594" lon="-97.921201" />
      <trkpt lat="30.832834" lon="-97.92035" />
      <trkpt lat="30.833593" lon="-97.91767" />
      <trkpt lat="30.834375" lon="-97.91491" />
      <trkpt lat="30.834946" lon="-97.912893" />
      <trkpt lat="30.835102" lon="-97.912422" />
      <trkpt lat="30.83527" lon="-97.912014" />
      <trkpt lat="30.835418" lon="-97.911657" />
      <trkpt lat="30.835484" lon="-97.911499" />
      <trkpt lat="30.835557" lon="-97.911323" />
      <trkpt lat="30.835855" lon="-97.910604" />
      <trkpt lat="30.83603" lon="-97.910137" />
      <trkpt lat="30.836654" lon="-97.908219" />
      <trkpt lat="30.837097" lon="-97.906726" />
      <trkpt lat="30.837879" lon="-97.904193" />
      <trkpt lat="30.838243" lon="-97.90297" />
      <trkpt lat="30.838757" lon="-97.903174" />
      <trkpt lat="30.838788" lon="-97.903188" />
      <trkpt lat="30.839911" lon="-97.903664" />
      <trkpt lat="30.84141" lon="-97.90432" />
      <trkpt lat="30.841719" lon="-97.904424" />
      <trkpt lat="30.843215" lon="-97.904881" />
      <trkpt lat="30.844009" lon="-97.905115" />
      <trkpt lat="30.844174" lon="-97.905153" />
      <trkpt lat="30.847001" lon="-97.906047" />
      <trkpt lat="30.848087" lon="-97.906477" />
      <trkpt lat="30.848391" lon="-97.906604" />
      <trkpt lat="30.84986" lon="-97.907201" />
      <trkpt lat="30.851546" lon="-97.907887" />
      <trkpt lat="30.852872" lon="-97.908503" />
      <trkpt lat="30.857428" lon="-97.910354" />
      <trkpt lat="30.860459" lon="-97.911638" />
      <trkpt lat="30.86075" lon="-97.911771" />
      <trkpt lat="30.866454" lon="-97.914273" />
      <trkpt lat="30.866731" lon="-97.914392" />
      <trkpt lat="30.868494" lon="-97.915151" />
      <trkpt lat="30.876273" lon="-97.918283" />
      <trkpt lat="30.880226" lon="-97.919949" />
      <trkpt lat="30.880551" lon="-97.920087" />
      <trkpt lat="30.881248" lon="-97.920382" />
      <trkpt lat="30.882176" lon="-97.920779" />
      <trkpt lat="30.882499" lon="-97.920925" />
      <trkpt lat="30.882657" lon="-97.921004" />
      <trkpt lat="30.882778" lon="-97.921069" />
      <trkpt lat="30.882898" lon="-97.921134" />
      <trkpt lat="30.88318" lon="-97.921304" />
      <trkpt lat="30.883351" lon="-97.921418" />
      <trkpt lat="30.883512" lon="-97.921549" />
      <trkpt lat="30.88368" lon="-97.921685" />
      <trkpt lat="30.883836" lon="-97.92183" />
      <trkpt lat="30.884029" lon="-97.92202" />
      <trkpt lat="30.884194" lon="-97.922196" />
      <trkpt lat="30.884361" lon="-97.922388" />
      <trkpt lat="30.884507" lon="-97.922571" />
      <trkpt lat="30.884636" lon="-97.922753" />
      <trkpt lat="30.884791" lon="-97.92298" />
      <trkpt lat="30.88488" lon="-97.923121" />
      <trkpt lat="30.884916" lon="-97.923177" />
      <trkpt lat="30.885041" lon="-97.923391" />
      <trkpt lat="30.885637" lon="-97.924447" />
      <trkpt lat="30.885907" lon="-97.924932" />
      <trkpt lat="30.886457" lon="-97.925935" />
      <trkpt lat="30.886739" lon="-97.926448" />
      <trkpt lat="30.887282" lon="-97.92739" />
      <trkpt lat="30.8873" lon="-97.927391" />
    </trkseg>
  </trk>
</gpx>