<?xml version='1.0' encoding='UTF-8'?>
<gpx version="1.1" creator="Antigravity Route Generator" xmlns="http://www.topografix.com/GPX/1/1">
  <trk>
    <name>Oakalla &amp; Berry Creek Valley Run</name>
    <desc>Savannah &amp; Prairie Sweeps (35.5 mi) - US 183 -&gt; FM 963 North to Oakalla -&gt; FM 963 West through Berry Creek Valley -&gt; Burnet</desc>
    <trkseg>
      <trkpt lat="30.8873" lon="-97.927391" />
      <trkpt lat="30.88745" lon="-97.9274" />
      <trkpt lat="30.887544" lon="-97.927398" />
      <trkpt lat="30.887628" lon="-97.92744" />
      <trkpt lat="30.889015" lon="-97.927986" />
      <trkpt lat="30.889192" lon="-97.927438" />
      <trkpt lat="30.889407" lon="-97.926739" />
      <trkpt lat="30.889796" lon="-97.925558" />
      <trkpt lat="30.889838" lon="-97.925431" />
      <trkpt lat="30.889877" lon="-97.925276" />
      <trkpt lat="30.889924" lon="-97.925155" />
      <trkpt lat="30.889955" lon="-97.925076" />
      <trkpt lat="30.890034" lon="-97.924816" />
      <trkpt lat="30.890645" lon="-97.922888" />
      <trkpt lat="30.890971" lon="-97.921794" />
      <trkpt lat="30.891222" lon="-97.921015" />
      <trkpt lat="30.891401" lon="-97.920449" />
      <trkpt lat="30.891591" lon="-97.919847" />
      <trkpt lat="30.891687" lon="-97.919534" />
      <trkpt lat="30.892075" lon="-97.918267" />
      <trkpt lat="30.892495" lon="-97.916905" />
      <trkpt lat="30.892983" lon="-97.915334" />
      <trkpt lat="30.893393" lon="-97.914029" />
      <trkpt lat="30.893734" lon="-97.912935" />
      <trkpt lat="30.893824" lon="-97.912645" />
      <trkpt lat="30.893885" lon="-97.912449" />
      <trkpt lat="30.894101" lon="-97.911752" />
      <trkpt lat="30.894311" lon="-97.911079" />
      <trkpt lat="30.894419" lon="-97.910723" />
      <trkpt lat="30.894552" lon="-97.910295" />
      <trkpt lat="30.894602" lon="-97.910133" />
      <trkpt lat="30.89495" lon="-97.908995" />
      <trkpt lat="30.895312" lon="-97.907831" />
      <trkpt lat="30.895464" lon="-97.907333" />
      <trkpt lat="30.895724" lon="-97.906478" />
      <trkpt lat="30.895902" lon="-97.905895" />
      <trkpt lat="30.896188" lon="-97.905005" />
      <trkpt lat="30.896444" lon="-97.904136" />
      <trkpt lat="30.896544" lon="-97.903872" />
      <trkpt lat="30.89667" lon="-97.903591" />
      <trkpt lat="30.896806" lon="-97.903338" />
      <trkpt lat="30.896967" lon="-97.903096" />
      <trkpt lat="30.897132" lon="-97.902863" />
      <trkpt lat="30.897304" lon="-97.902694" />
      <trkpt lat="30.897484" lon="-97.902509" />
      <trkpt lat="30.897611" lon="-97.902441" />
      <trkpt lat="30.89776" lon="-97.902328" />
      <trkpt lat="30.897986" lon="-97.902176" />
      <trkpt lat="30.898321" lon="-97.902015" />
      <trkpt lat="30.898717" lon="-97.901858" />
      <trkpt lat="30.899083" lon="-97.901726" />
      <trkpt lat="30.89985" lon="-97.901449" />
      <trkpt lat="30.902022" lon="-97.900652" />
      <trkpt lat="30.902424" lon="-97.900518" />
      <trkpt lat="30.902786" lon="-97.900411" />
      <trkpt lat="30.903187" lon="-97.900336" />
      <trkpt lat="30.903566" lon="-97.900284" />
      <trkpt lat="30.903757" lon="-97.900273" />
      <trkpt lat="30.904761" lon="-97.900214" />
      <trkpt lat="30.904871" lon="-97.900208" />
      <trkpt lat="30.906772" lon="-97.900119" />
      <trkpt lat="30.907888" lon="-97.900037" />
      <trkpt lat="30.90897" lon="-97.899987" />
      <trkpt lat="30.909297" lon="-97.899971" />
      <trkpt lat="30.909547" lon="-97.899931" />
      <trkpt lat="30.909793" lon="-97.899882" />
      <trkpt lat="30.910017" lon="-97.899811" />
      <trkpt lat="30.910239" lon="-97.899718" />
      <trkpt lat="30.910539" lon="-97.899563" />
      <trkpt lat="30.910824" lon="-97.899366" />
      <trkpt lat="30.91104" lon="-97.899178" />
      <trkpt lat="30.911203" lon="-97.899006" />
      <trkpt lat="30.911451" lon="-97.898714" />
      <trkpt lat="30.912135" lon="-97.897801" />
      <trkpt lat="30.912522" lon="-97.897297" />
      <trkpt lat="30.912674" lon="-97.897097" />
      <trkpt lat="30.912911" lon="-97.896799" />
      <trkpt lat="30.91308" lon="-97.896592" />
      <trkpt lat="30.913278" lon="-97.896393" />
      <trkpt lat="30.913433" lon="-97.896243" />
      <trkpt lat="30.913583" lon="-97.896136" />
      <trkpt lat="30.913755" lon="-97.896021" />
      <trkpt lat="30.913932" lon="-97.89592" />
      <trkpt lat="30.914112" lon="-97.895833" />
      <trkpt lat="30.914337" lon="-97.895745" />
      <trkpt lat="30.914611" lon="-97.895672" />
      <trkpt lat="30.91488" lon="-97.895625" />
      <trkpt lat="30.915064" lon="-97.895608" />
      <trkpt lat="30.915312" lon="-97.895595" />
      <trkpt lat="30.915518" lon="-97.895606" />
      <trkpt lat="30.915748" lon="-97.895643" />
      <trkpt lat="30.915891" lon="-97.895674" />
      <trkpt lat="30.916107" lon="-97.895751" />
      <trkpt lat="30.916297" lon="-97.895813" />
      <trkpt lat="30.916369" lon="-97.895848" />
      <trkpt lat="30.918157" lon="-97.896608" />
      <trkpt lat="30.918298" lon="-97.896666" />
      <trkpt lat="30.920127" lon="-97.897494" />
      <trkpt lat="30.920487" lon="-97.897657" />
      <trkpt lat="30.922608" lon="-97.898573" />
      <trkpt lat="30.925432" lon="-97.899798" />
      <trkpt lat="30.92661" lon="-97.900306" />
      <trkpt lat="30.926679" lon="-97.900336" />
      <trkpt lat="30.928492" lon="-97.901119" />
      <trkpt lat="30.929138" lon="-97.901397" />
      <trkpt lat="30.929267" lon="-97.901453" />
      <trkpt lat="30.929764" lon="-97.901667" />
      <trkpt lat="30.931042" lon="-97.902197" />
      <trkpt lat="30.931887" lon="-97.902578" />
      <trkpt lat="30.932558" lon="-97.902858" />
      <trkpt lat="30.938869" lon="-97.905443" />
      <trkpt lat="30.939703" lon="-97.905813" />
      <trkpt lat="30.940003" lon="-97.905915" />
      <trkpt lat="30.94024" lon="-97.905966" />
      <trkpt lat="30.940586" lon="-97.906" />
      <trkpt lat="30.940781" lon="-97.906008" />
      <trkpt lat="30.940884" lon="-97.906013" />
      <trkpt lat="30.940911" lon="-97.906011" />
      <trkpt lat="30.941243" lon="-97.905985" />
      <trkpt lat="30.941631" lon="-97.905907" />
      <trkpt lat="30.942003" lon="-97.905736" />
      <trkpt lat="30.942347" lon="-97.905539" />
      <trkpt lat="30.942646" lon="-97.905294" />
      <trkpt lat="30.943007" lon="-97.904939" />
      <trkpt lat="30.943386" lon="-97.904463" />
      <trkpt lat="30.943483" lon="-97.904266" />
      <trkpt lat="30.943613" lon="-97.904" />
      <trkpt lat="30.944047" lon="-97.902737" />
      <trkpt lat="30.944071" lon="-97.902667" />
      <trkpt lat="30.944155" lon="-97.902425" />
      <trkpt lat="30.944399" lon="-97.901606" />
      <trkpt lat="30.944409" lon="-97.901573" />
      <trkpt lat="30.944862" lon="-97.900116" />
      <trkpt lat="30.945127" lon="-97.899316" />
      <trkpt lat="30.94527" lon="-97.898883" />
      <trkpt lat="30.945521" lon="-97.898126" />
      <trkpt lat="30.945607" lon="-97.897884" />
      <trkpt lat="30.945681" lon="-97.897711" />
      <trkpt lat="30.945796" lon="-97.897503" />
      <trkpt lat="30.945996" lon="-97.897188" />
      <trkpt lat="30.946005" lon="-97.897173" />
      <trkpt lat="30.94619" lon="-97.896957" />
      <trkpt lat="30.946252" lon="-97.896886" />
      <trkpt lat="30.946404" lon="-97.89671" />
      <trkpt lat="30.946718" lon="-97.896445" />
      <trkpt lat="30.947015" lon="-97.896263" />
      <trkpt lat="30.947503" lon="-97.896027" />
      <trkpt lat="30.947953" lon="-97.895906" />
      <trkpt lat="30.948297" lon="-97.895869" />
      <trkpt lat="30.948641" lon="-97.895869" />
      <trkpt lat="30.948927" lon="-97.895891" />
      <trkpt lat="30.949245" lon="-97.895965" />
      <trkpt lat="30.949549" lon="-97.896078" />
      <trkpt lat="30.950081" lon="-97.896294" />
      <trkpt lat="30.95362" lon="-97.897814" />
      <trkpt lat="30.955829" lon="-97.898738" />
      <trkpt lat="30.956832" lon="-97.899158" />
      <trkpt lat="30.956946" lon="-97.899219" />
      <trkpt lat="30.957229" lon="-97.899358" />
      <trkpt lat="30.957548" lon="-97.89955" />
      <trkpt lat="30.957935" lon="-97.899861" />
      <trkpt lat="30.958403" lon="-97.900315" />
      <trkpt lat="30.958817" lon="-97.900817" />
      <trkpt lat="30.959102" lon="-97.901251" />
      <trkpt lat="30.959147" lon="-97.901319" />
      <trkpt lat="30.959175" lon="-97.901363" />
      <trkpt lat="30.960149" lon="-97.903085" />
      <trkpt lat="30.960342" lon="-97.903412" />
      <trkpt lat="30.960525" lon="-97.903708" />
      <trkpt lat="30.960719" lon="-97.903994" />
      <trkpt lat="30.960937" lon="-97.90428" />
      <trkpt lat="30.961119" lon="-97.904488" />
      <trkpt lat="30.96136" lon="-97.904729" />
      <trkpt lat="30.96163" lon="-97.904986" />
      <trkpt lat="30.961936" lon="-97.905217" />
      <trkpt lat="30.962197" lon="-97.905398" />
      <trkpt lat="30.962562" lon="-97.90563" />
      <trkpt lat="30.963271" lon="-97.906052" />
      <trkpt lat="30.964629" lon="-97.90689" />
      <trkpt lat="30.965541" lon="-97.907426" />
      <trkpt lat="30.965758" lon="-97.907553" />
      <trkpt lat="30.966342" lon="-97.907905" />
      <trkpt lat="30.966732" lon="-97.908144" />
      <trkpt lat="30.967633" lon="-97.908675" />
      <trkpt lat="30.968503" lon="-97.909187" />
      <trkpt lat="30.969296" lon="-97.909746" />
      <trkpt lat="30.970322" lon="-97.910563" />
      <trkpt lat="30.970829" lon="-97.911052" />
      <trkpt lat="30.971915" lon="-97.912137" />
      <trkpt lat="30.973206" lon="-97.913454" />
      <trkpt lat="30.973525" lon="-97.913779" />
      <trkpt lat="30.974139" lon="-97.914403" />
      <trkpt lat="30.975404" lon="-97.915689" />
      <trkpt lat="30.975464" lon="-97.915749" />
      <trkpt lat="30.975505" lon="-97.915792" />
      <trkpt lat="30.975588" lon="-97.915876" />
      <trkpt lat="30.977333" lon="-97.91765" />
      <trkpt lat="30.977887" lon="-97.918148" />
      <trkpt lat="30.978346" lon="-97.91844" />
      <trkpt lat="30.978936" lon="-97.918795" />
      <trkpt lat="30.979726" lon="-97.919222" />
      <trkpt lat="30.980152" lon="-97.919452" />
      <trkpt lat="30.98016" lon="-97.919456" />
      <trkpt lat="30.980656" lon="-97.919691" />
      <trkpt lat="30.980676" lon="-97.919697" />
      <trkpt lat="30.981277" lon="-97.919894" />
      <trkpt lat="30.981256" lon="-97.919997" />
      <trkpt lat="30.981246" lon="-97.920109" />
      <trkpt lat="30.981256" lon="-97.920199" />
      <trkpt lat="30.981288" lon="-97.920279" />
      <trkpt lat="30.981403" lon="-97.920401" />
      <trkpt lat="30.981528" lon="-97.920466" />
      <trkpt lat="30.981725" lon="-97.920578" />
      <trkpt lat="30.981751" lon="-97.920589" />
      <trkpt lat="30.982428" lon="-97.920892" />
      <trkpt lat="30.982646" lon="-97.92099" />
      <trkpt lat="30.98285" lon="-97.921077" />
      <trkpt lat="30.983186" lon="-97.92122" />
      <trkpt lat="30.98337" lon="-97.921333" />
      <trkpt lat="30.983549" lon="-97.921492" />
      <trkpt lat="30.983644" lon="-97.9216" />
      <trkpt lat="30.983797" lon="-97.92181" />
      <trkpt lat="30.983982" lon="-97.922029" />
      <trkpt lat="30.984198" lon="-97.922219" />
      <trkpt lat="30.984348" lon="-97.922329" />
      <trkpt lat="30.984624" lon="-97.922495" />
      <trkpt lat="30.985147" lon="-97.922834" />
      <trkpt lat="30.985442" lon="-97.923042" />
      <trkpt lat="30.985816" lon="-97.923344" />
      <trkpt lat="30.98592" lon="-97.923427" />
      <trkpt lat="30.986136" lon="-97.923636" />
      <trkpt lat="30.986199" lon="-97.923696" />
      <trkpt lat="30.986267" lon="-97.923783" />
      <trkpt lat="30.986357" lon="-97.923909" />
      <trkpt lat="30.986426" lon="-97.924084" />
      <trkpt lat="30.986448" lon="-97.92415" />
      <trkpt lat="30.986453" lon="-97.924191" />
      <trkpt lat="30.986466" lon="-97.924296" />
      <trkpt lat="30.986471" lon="-97.92446" />
      <trkpt lat="30.98647" lon="-97.924586" />
      <trkpt lat="30.986456" lon="-97.924703" />
      <trkpt lat="30.986431" lon="-97.924871" />
      <trkpt lat="30.986399" lon="-97.925021" />
      <trkpt lat="30.986358" lon="-97.925162" />
      <trkpt lat="30.986336" lon="-97.925236" />
      <trkpt lat="30.986282" lon="-97.925379" />
      <trkpt lat="30.986226" lon="-97.925517" />
      <trkpt lat="30.986167" lon="-97.92564" />
      <trkpt lat="30.98583" lon="-97.926165" />
      <trkpt lat="30.985636" lon="-97.926437" />
      <trkpt lat="30.985143" lon="-97.927168" />
      <trkpt lat="30.984977" lon="-97.92742" />
      <trkpt lat="30.983708" lon="-97.929302" />
      <trkpt lat="30.983547" lon="-97.929521" />
      <trkpt lat="30.983331" lon="-97.929752" />
      <trkpt lat="30.983219" lon="-97.929867" />
      <trkpt lat="30.982429" lon="-97.930602" />
      <trkpt lat="30.982212" lon="-97.930837" />
      <trkpt lat="30.981859" lon="-97.931276" />
      <trkpt lat="30.981121" lon="-97.932332" />
      <trkpt lat="30.980856" lon="-97.932653" />
      <trkpt lat="30.980729" lon="-97.932801" />
      <trkpt lat="30.980595" lon="-97.932936" />
      <trkpt lat="30.980396" lon="-97.9331" />
      <trkpt lat="30.98025" lon="-97.933196" />
      <trkpt lat="30.979998" lon="-97.933331" />
      <trkpt lat="30.979844" lon="-97.933397" />
      <trkpt lat="30.978664" lon="-97.93382" />
      <trkpt lat="30.977693" lon="-97.934177" />
      <trkpt lat="30.977424" lon="-97.934301" />
      <trkpt lat="30.97728" lon="-97.934375" />
      <trkpt lat="30.977016" lon="-97.93454" />
      <trkpt lat="30.976785" lon="-97.934703" />
      <trkpt lat="30.976523" lon="-97.93493" />
      <trkpt lat="30.976012" lon="-97.935429" />
      <trkpt lat="30.975875" lon="-97.935572" />
      <trkpt lat="30.97538" lon="-97.936086" />
      <trkpt lat="30.975246" lon="-97.936225" />
      <trkpt lat="30.975095" lon="-97.93641" />
      <trkpt lat="30.974927" lon="-97.936688" />
      <trkpt lat="30.974781" lon="-97.936975" />
      <trkpt lat="30.974673" lon="-97.93724" />
      <trkpt lat="30.974593" lon="-97.937497" />
      <trkpt lat="30.974524" lon="-97.937809" />
      <trkpt lat="30.974428" lon="-97.938415" />
      <trkpt lat="30.974204" lon="-97.939836" />
      <trkpt lat="30.974153" lon="-97.940153" />
      <trkpt lat="30.973859" lon="-97.941966" />
      <trkpt lat="30.973542" lon="-97.943997" />
      <trkpt lat="30.973224" lon="-97.945998" />
      <trkpt lat="30.973109" lon="-97.946344" />
      <trkpt lat="30.973047" lon="-97.94653" />
      <trkpt lat="30.972923" lon="-97.946827" />
      <trkpt lat="30.972784" lon="-97.947064" />
      <trkpt lat="30.972749" lon="-97.947119" />
      <trkpt lat="30.972659" lon="-97.947262" />
      <trkpt lat="30.972123" lon="-97.948025" />
      <trkpt lat="30.971742" lon="-97.948576" />
      <trkpt lat="30.971517" lon="-97.948873" />
      <trkpt lat="30.971119" lon="-97.949383" />
      <trkpt lat="30.970871" lon="-97.949655" />
      <trkpt lat="30.970597" lon="-97.949899" />
      <trkpt lat="30.970384" lon="-97.950089" />
      <trkpt lat="30.970126" lon="-97.950273" />
      <trkpt lat="30.969634" lon="-97.950643" />
      <trkpt lat="30.967929" lon="-97.951925" />
      <trkpt lat="30.967494" lon="-97.952257" />
      <trkpt lat="30.966541" lon="-97.952985" />
      <trkpt lat="30.965686" lon="-97.953637" />
      <trkpt lat="30.964738" lon="-97.954349" />
      <trkpt lat="30.964683" lon="-97.95439" />
      <trkpt lat="30.963533" lon="-97.955267" />
      <trkpt lat="30.96238" lon="-97.956129" />
      <trkpt lat="30.96235" lon="-97.956154" />
      <trkpt lat="30.962226" lon="-97.956258" />
      <trkpt lat="30.962204" lon="-97.956277" />
      <trkpt lat="30.962025" lon="-97.956444" />
      <trkpt lat="30.961977" lon="-97.956513" />
      <trkpt lat="30.961921" lon="-97.956592" />
      <trkpt lat="30.96183" lon="-97.956727" />
      <trkpt lat="30.961729" lon="-97.956902" />
      <trkpt lat="30.961636" lon="-97.957103" />
      <trkpt lat="30.961158" lon="-97.958024" />
      <trkpt lat="30.961026" lon="-97.958325" />
      <trkpt lat="30.960967" lon="-97.958426" />
      <trkpt lat="30.9609" lon="-97.958523" />
      <trkpt lat="30.960771" lon="-97.958661" />
      <trkpt lat="30.96074" lon="-97.95869" />
      <trkpt lat="30.960628" lon="-97.958794" />
      <trkpt lat="30.960404" lon="-97.958906" />
      <trkpt lat="30.960095" lon="-97.958998" />
      <trkpt lat="30.959837" lon="-97.959023" />
      <trkpt lat="30.959661" lon="-97.959031" />
      <trkpt lat="30.959232" lon="-97.959012" />
      <trkpt lat="30.958481" lon="-97.958996" />
      <trkpt lat="30.958165" lon="-97.959048" />
      <trkpt lat="30.958053" lon="-97.959078" />
      <trkpt lat="30.957857" lon="-97.959173" />
      <trkpt lat="30.957664" lon="-97.959306" />
      <trkpt lat="30.957486" lon="-97.959478" />
      <trkpt lat="30.957362" lon="-97.959635" />
      <trkpt lat="30.956873" lon="-97.960544" />
      <trkpt lat="30.956622" lon="-97.960969" />
      <trkpt lat="30.956049" lon="-97.961805" />
      <trkpt lat="30.955725" lon="-97.962295" />
      <trkpt lat="30.955643" lon="-97.962432" />
      <trkpt lat="30.955549" lon="-97.962564" />
      <trkpt lat="30.955414" lon="-97.962717" />
      <trkpt lat="30.955221" lon="-97.962861" />
      <trkpt lat="30.954961" lon="-97.962977" />
      <trkpt lat="30.954902" lon="-97.963004" />
      <trkpt lat="30.954683" lon="-97.963051" />
      <trkpt lat="30.954419" lon="-97.963056" />
      <trkpt lat="30.953928" lon="-97.962946" />
      <trkpt lat="30.952831" lon="-97.962673" />
      <trkpt lat="30.95261" lon="-97.962652" />
      <trkpt lat="30.952393" lon="-97.962667" />
      <trkpt lat="30.95216" lon="-97.962754" />
      <trkpt lat="30.952098" lon="-97.962777" />
      <trkpt lat="30.952009" lon="-97.962832" />
      <trkpt lat="30.951862" lon="-97.962924" />
      <trkpt lat="30.951632" lon="-97.963149" />
      <trkpt lat="30.951507" lon="-97.963353" />
      <trkpt lat="30.951411" lon="-97.963569" />
      <trkpt lat="30.951385" lon="-97.963628" />
      <trkpt lat="30.951224" lon="-97.964132" />
      <trkpt lat="30.950977" lon="-97.965051" />
      <trkpt lat="30.950327" lon="-97.967404" />
      <trkpt lat="30.950011" lon="-97.968556" />
      <trkpt lat="30.949796" lon="-97.969325" />
      <trkpt lat="30.949142" lon="-97.971623" />
      <trkpt lat="30.948852" lon="-97.972625" />
      <trkpt lat="30.948766" lon="-97.972847" />
      <trkpt lat="30.94867" lon="-97.973059" />
      <trkpt lat="30.948511" lon="-97.973352" />
      <trkpt lat="30.948299" lon="-97.973651" />
      <trkpt lat="30.947571" lon="-97.97461" />
      <trkpt lat="30.947422" lon="-97.974867" />
      <trkpt lat="30.947316" lon="-97.975078" />
      <trkpt lat="30.947192" lon="-97.975374" />
      <trkpt lat="30.947062" lon="-97.975784" />
      <trkpt lat="30.946912" lon="-97.976456" />
      <trkpt lat="30.946869" lon="-97.976686" />
      <trkpt lat="30.946814" lon="-97.976975" />
      <trkpt lat="30.946755" lon="-97.977204" />
      <trkpt lat="30.946644" lon="-97.977879" />
      <trkpt lat="30.946517" lon="-97.978486" />
      <trkpt lat="30.946181" lon="-97.980095" />
      <trkpt lat="30.946111" lon="-97.980331" />
      <trkpt lat="30.945971" lon="-97.980633" />
      <trkpt lat="30.945834" lon="-97.980848" />
      <trkpt lat="30.945308" lon="-97.981559" />
      <trkpt lat="30.944606" lon="-97.982573" />
      <trkpt lat="30.944516" lon="-97.982755" />
      <trkpt lat="30.944435" lon="-97.983" />
      <trkpt lat="30.9444" lon="-97.983212" />
      <trkpt lat="30.944379" lon="-97.9834" />
      <trkpt lat="30.944392" lon="-97.983644" />
      <trkpt lat="30.944418" lon="-97.983882" />
      <trkpt lat="30.944461" lon="-97.984062" />
      <trkpt lat="30.944477" lon="-97.984113" />
      <trkpt lat="30.944507" lon="-97.984206" />
      <trkpt lat="30.944598" lon="-97.984401" />
      <trkpt lat="30.944658" lon="-97.984498" />
      <trkpt lat="30.944821" lon="-97.984688" />
      <trkpt lat="30.945671" lon="-97.98547" />
      <trkpt lat="30.946597" lon="-97.986474" />
      <trkpt lat="30.946687" lon="-97.986583" />
      <trkpt lat="30.946814" lon="-97.986766" />
      <trkpt lat="30.946908" lon="-97.98694" />
      <trkpt lat="30.946991" lon="-97.98711" />
      <trkpt lat="30.947103" lon="-97.98739" />
      <trkpt lat="30.947148" lon="-97.987582" />
      <trkpt lat="30.94718" lon="-97.987853" />
      <trkpt lat="30.947199" lon="-97.988315" />
      <trkpt lat="30.947127" lon="-97.988735" />
      <trkpt lat="30.947024" lon="-97.989104" />
      <trkpt lat="30.946977" lon="-97.989244" />
      <trkpt lat="30.946754" lon="-97.989831" />
      <trkpt lat="30.946368" lon="-97.990845" />
      <trkpt lat="30.946246" lon="-97.99109" />
      <trkpt lat="30.946074" lon="-97.991309" />
      <trkpt lat="30.945923" lon="-97.991462" />
      <trkpt lat="30.945735" lon="-97.991582" />
      <trkpt lat="30.94556" lon="-97.991654" />
      <trkpt lat="30.945463" lon="-97.991676" />
      <trkpt lat="30.945289" lon="-97.991716" />
      <trkpt lat="30.944995" lon="-97.991728" />
      <trkpt lat="30.944501" lon="-97.991741" />
      <trkpt lat="30.944274" lon="-97.991816" />
      <trkpt lat="30.944064" lon="-97.991926" />
      <trkpt lat="30.943909" lon="-97.992053" />
      <trkpt lat="30.943785" lon="-97.992176" />
      <trkpt lat="30.94367" lon="-97.992326" />
      <trkpt lat="30.943544" lon="-97.992553" />
      <trkpt lat="30.942953" lon="-97.994207" />
      <trkpt lat="30.942923" lon="-97.994298" />
      <trkpt lat="30.942715" lon="-97.994905" />
      <trkpt lat="30.942605" lon="-97.995262" />
      <trkpt lat="30.942413" lon="-97.995908" />
      <trkpt lat="30.942258" lon="-97.996541" />
      <trkpt lat="30.942017" lon="-97.99735" />
      <trkpt lat="30.941651" lon="-97.998402" />
      <trkpt lat="30.94148" lon="-97.998841" />
      <trkpt lat="30.941377" lon="-97.999043" />
      <trkpt lat="30.941273" lon="-97.999236" />
      <trkpt lat="30.941133" lon="-97.999423" />
      <trkpt lat="30.941009" lon="-97.999573" />
      <trkpt lat="30.94091" lon="-97.999675" />
      <trkpt lat="30.940793" lon="-97.999765" />
      <trkpt lat="30.940502" lon="-97.99995" />
      <trkpt lat="30.940399" lon="-97.999989" />
      <trkpt lat="30.940341" lon="-98.00001" />
      <trkpt lat="30.939758" lon="-98.000305" />
      <trkpt lat="30.939633" lon="-98.000415" />
      <trkpt lat="30.9395" lon="-98.000532" />
      <trkpt lat="30.939256" lon="-98.000831" />
      <trkpt lat="30.939211" lon="-98.0009" />
      <trkpt lat="30.939133" lon="-98.001019" />
      <trkpt lat="30.939045" lon="-98.001203" />
      <trkpt lat="30.938903" lon="-98.001543" />
      <trkpt lat="30.938857" lon="-98.001687" />
      <trkpt lat="30.938848" lon="-98.001715" />
      <trkpt lat="30.938794" lon="-98.001915" />
      <trkpt lat="30.937887" lon="-98.004819" />
      <trkpt lat="30.937822" lon="-98.005028" />
      <trkpt lat="30.937791" lon="-98.005128" />
      <trkpt lat="30.937113" lon="-98.007318" />
      <trkpt lat="30.936951" lon="-98.007841" />
      <trkpt lat="30.936651" lon="-98.008729" />
      <trkpt lat="30.936174" lon="-98.010313" />
      <trkpt lat="30.936158" lon="-98.010366" />
      <trkpt lat="30.93558" lon="-98.012195" />
      <trkpt lat="30.935316" lon="-98.013127" />
      <trkpt lat="30.935154" lon="-98.013561" />
      <trkpt lat="30.93492" lon="-98.013985" />
      <trkpt lat="30.934752" lon="-98.014185" />
      <trkpt lat="30.934596" lon="-98.014306" />
      <trkpt lat="30.934326" lon="-98.01449" />
      <trkpt lat="30.933326" lon="-98.015032" />
      <trkpt lat="30.933082" lon="-98.015219" />
      <trkpt lat="30.932961" lon="-98.015326" />
      <trkpt lat="30.932871" lon="-98.015404" />
      <trkpt lat="30.932661" lon="-98.015619" />
      <trkpt lat="30.932372" lon="-98.015946" />
      <trkpt lat="30.932211" lon="-98.016158" />
      <trkpt lat="30.932072" lon="-98.01636" />
      <trkpt lat="30.930891" lon="-98.018299" />
      <trkpt lat="30.930521" lon="-98.018897" />
      <trkpt lat="30.929081" lon="-98.021225" />
      <trkpt lat="30.928758" lon="-98.021747" />
      <trkpt lat="30.928602" lon="-98.022014" />
      <trkpt lat="30.928531" lon="-98.022136" />
      <trkpt lat="30.927917" lon="-98.023135" />
      <trkpt lat="30.9277" lon="-98.023499" />
      <trkpt lat="30.927542" lon="-98.023734" />
      <trkpt lat="30.927525" lon="-98.023766" />
      <trkpt lat="30.927468" lon="-98.023879" />
      <trkpt lat="30.927388" lon="-98.024019" />
      <trkpt lat="30.927286" lon="-98.024169" />
      <trkpt lat="30.927192" lon="-98.024281" />
      <trkpt lat="30.927048" lon="-98.024416" />
      <trkpt lat="30.926945" lon="-98.024501" />
      <trkpt lat="30.926804" lon="-98.024596" />
      <trkpt lat="30.926045" lon="-98.02523" />
      <trkpt lat="30.925357" lon="-98.025814" />
      <trkpt lat="30.924724" lon="-98.026358" />
      <trkpt lat="30.924052" lon="-98.026936" />
      <trkpt lat="30.923406" lon="-98.027499" />
      <trkpt lat="30.922996" lon="-98.027856" />
      <trkpt lat="30.921051" lon="-98.029513" />
      <trkpt lat="30.92058" lon="-98.029881" />
      <trkpt lat="30.920111" lon="-98.030301" />
      <trkpt lat="30.919144" lon="-98.031069" />
      <trkpt lat="30.919086" lon="-98.031115" />
      <trkpt lat="30.918571" lon="-98.031493" />
      <trkpt lat="30.915961" lon="-98.033406" />
      <trkpt lat="30.914026" lon="-98.03484" />
      <trkpt lat="30.912997" lon="-98.035579" />
      <trkpt lat="30.912717" lon="-98.035798" />
      <trkpt lat="30.912599" lon="-98.035901" />
      <trkpt lat="30.912483" lon="-98.036002" />
      <trkpt lat="30.912441" lon="-98.036038" />
      <trkpt lat="30.91203" lon="-98.03641" />
      <trkpt lat="30.911822" lon="-98.036615" />
      <trkpt lat="30.911476" lon="-98.036976" />
      <trkpt lat="30.910034" lon="-98.038515" />
      <trkpt lat="30.909838" lon="-98.038715" />
      <trkpt lat="30.909105" lon="-98.03942" />
      <trkpt lat="30.908952" lon="-98.039528" />
      <trkpt lat="30.908548" lon="-98.039813" />
      <trkpt lat="30.907823" lon="-98.040315" />
      <trkpt lat="30.907311" lon="-98.040618" />
      <trkpt lat="30.906549" lon="-98.041069" />
      <trkpt lat="30.905934" lon="-98.041422" />
      <trkpt lat="30.905615" lon="-98.041566" />
      <trkpt lat="30.904304" lon="-98.042156" />
      <trkpt lat="30.904092" lon="-98.042251" />
      <trkpt lat="30.903401" lon="-98.04261" />
      <trkpt lat="30.903321" lon="-98.042652" />
      <trkpt lat="30.903279" lon="-98.042676" />
      <trkpt lat="30.902885" lon="-98.042904" />
      <trkpt lat="30.901257" lon="-98.043959" />
      <trkpt lat="30.900696" lon="-98.04432" />
      <trkpt lat="30.9003" lon="-98.044575" />
      <trkpt lat="30.89982" lon="-98.044884" />
      <trkpt lat="30.89959" lon="-98.045032" />
      <trkpt lat="30.898082" lon="-98.046089" />
      <trkpt lat="30.897929" lon="-98.04619" />
      <trkpt lat="30.89777" lon="-98.046295" />
      <trkpt lat="30.897068" lon="-98.046726" />
      <trkpt lat="30.896828" lon="-98.046847" />
      <trkpt lat="30.896424" lon="-98.047024" />
      <trkpt lat="30.896045" lon="-98.047172" />
      <trkpt lat="30.894462" lon="-98.0477" />
      <trkpt lat="30.893491" lon="-98.048033" />
      <trkpt lat="30.893301" lon="-98.048111" />
      <trkpt lat="30.893128" lon="-98.048183" />
      <trkpt lat="30.892719" lon="-98.048379" />
      <trkpt lat="30.892379" lon="-98.048567" />
      <trkpt lat="30.892052" lon="-98.048769" />
      <trkpt lat="30.891734" lon="-98.049002" />
      <trkpt lat="30.891276" lon="-98.049376" />
      <trkpt lat="30.890931" lon="-98.04967" />
      <trkpt lat="30.890466" lon="-98.050065" />
      <trkpt lat="30.890426" lon="-98.050099" />
      <trkpt lat="30.890304" lon="-98.050224" />
      <trkpt lat="30.890017" lon="-98.050485" />
      <trkpt lat="30.889872" lon="-98.050606" />
      <trkpt lat="30.889712" lon="-98.05074" />
      <trkpt lat="30.889687" lon="-98.050761" />
      <trkpt lat="30.889372" lon="-98.050997" />
      <trkpt lat="30.889157" lon="-98.051144" />
      <trkpt lat="30.888719" lon="-98.051419" />
      <trkpt lat="30.888376" lon="-98.051605" />
      <trkpt lat="30.888117" lon="-98.051727" />
      <trkpt lat="30.888019" lon="-98.051773" />
      <trkpt lat="30.88753" lon="-98.051968" />
      <trkpt lat="30.887245" lon="-98.05206" />
      <trkpt lat="30.886882" lon="-98.052167" />
      <trkpt lat="30.88652" lon="-98.052249" />
      <trkpt lat="30.886363" lon="-98.052279" />
      <trkpt lat="30.886098" lon="-98.05233" />
      <trkpt lat="30.885738" lon="-98.052372" />
      <trkpt lat="30.885496" lon="-98.052385" />
      <trkpt lat="30.885461" lon="-98.052387" />
      <trkpt lat="30.885084" lon="-98.052389" />
      <trkpt lat="30.88485" lon="-98.05238" />
      <trkpt lat="30.884553" lon="-98.052356" />
      <trkpt lat="30.884096" lon="-98.052225" />
      <trkpt lat="30.883953" lon="-98.052201" />
      <trkpt lat="30.883892" lon="-98.052191" />
      <trkpt lat="30.883367" lon="-98.052058" />
      <trkpt lat="30.882976" lon="-98.051928" />
      <trkpt lat="30.882533" lon="-98.051756" />
      <trkpt lat="30.882129" lon="-98.051584" />
      <trkpt lat="30.881719" lon="-98.05141" />
      <trkpt lat="30.880875" lon="-98.051029" />
      <trkpt lat="30.880236" lon="-98.050857" />
      <trkpt lat="30.879939" lon="-98.05072" />
      <trkpt lat="30.877908" lon="-98.049833" />
      <trkpt lat="30.87549" lon="-98.048776" />
      <trkpt lat="30.872104" lon="-98.04731" />
      <trkpt lat="30.871943" lon="-98.047225" />
      <trkpt lat="30.871666" lon="-98.04711" />
      <trkpt lat="30.871438" lon="-98.047035" />
      <trkpt lat="30.871155" lon="-98.046972" />
      <trkpt lat="30.870778" lon="-98.046948" />
      <trkpt lat="30.870643" lon="-98.046943" />
      <trkpt lat="30.87027" lon="-98.046984" />
      <trkpt lat="30.870113" lon="-98.047017" />
      <trkpt lat="30.8699" lon="-98.047075" />
      <trkpt lat="30.869695" lon="-98.047146" />
      <trkpt lat="30.869488" lon="-98.047238" />
      <trkpt lat="30.869286" lon="-98.047351" />
      <trkpt lat="30.869109" lon="-98.047464" />
      <trkpt lat="30.868917" lon="-98.047609" />
      <trkpt lat="30.868757" lon="-98.04775" />
      <trkpt lat="30.868584" lon="-98.04792" />
      <trkpt lat="30.868425" lon="-98.048102" />
      <trkpt lat="30.868288" lon="-98.048287" />
      <trkpt lat="30.868154" lon="-98.048486" />
      <trkpt lat="30.868034" lon="-98.048699" />
      <trkpt lat="30.867928" lon="-98.048922" />
      <trkpt lat="30.867815" lon="-98.049197" />
      <trkpt lat="30.867517" lon="-98.050234" />
      <trkpt lat="30.866664" lon="-98.052739" />
      <trkpt lat="30.865915" lon="-98.055012" />
      <trkpt lat="30.864624" lon="-98.05895" />
      <trkpt lat="30.864381" lon="-98.059723" />
      <trkpt lat="30.863814" lon="-98.061557" />
      <trkpt lat="30.863533" lon="-98.062437" />
      <trkpt lat="30.863071" lon="-98.063891" />
      <trkpt lat="30.86271" lon="-98.065074" />
      <trkpt lat="30.862535" lon="-98.065747" />
      <trkpt lat="30.862436" lon="-98.066363" />
      <trkpt lat="30.862253" lon="-98.067388" />
      <trkpt lat="30.862121" lon="-98.068327" />
      <trkpt lat="30.862026" lon="-98.069671" />
      <trkpt lat="30.861969" lon="-98.070974" />
      <trkpt lat="30.861849" lon="-98.07417" />
      <trkpt lat="30.861738" lon="-98.076419" />
      <trkpt lat="30.861733" lon="-98.076552" />
      <trkpt lat="30.861504" lon="-98.082117" />
      <trkpt lat="30.861483" lon="-98.082673" />
      <trkpt lat="30.861301" lon="-98.087357" />
      <trkpt lat="30.861299" lon="-98.0874" />
      <trkpt lat="30.86108" lon="-98.092399" />
      <trkpt lat="30.861055" lon="-98.092954" />
      <trkpt lat="30.860954" lon="-98.095656" />
      <trkpt lat="30.860952" lon="-98.095698" />
      <trkpt lat="30.860903" lon="-98.09684" />
      <trkpt lat="30.86085" lon="-98.098083" />
      <trkpt lat="30.860803" lon="-98.099191" />
      <trkpt lat="30.860732" lon="-98.101141" />
      <trkpt lat="30.860629" lon="-98.103443" />
      <trkpt lat="30.860582" lon="-98.104067" />
      <trkpt lat="30.860516" lon="-98.104702" />
      <trkpt lat="30.860483" lon="-98.10493" />
      <trkpt lat="30.860406" lon="-98.105446" />
      <trkpt lat="30.860354" lon="-98.105806" />
      <trkpt lat="30.860295" lon="-98.106139" />
      <trkpt lat="30.860269" lon="-98.106289" />
      <trkpt lat="30.860167" lon="-98.106776" />
      <trkpt lat="30.860143" lon="-98.106879" />
      <trkpt lat="30.860024" lon="-98.107394" />
      <trkpt lat="30.859926" lon="-98.10774" />
      <trkpt lat="30.859855" lon="-98.107988" />
      <trkpt lat="30.859588" lon="-98.108709" />
      <trkpt lat="30.859034" lon="-98.110597" />
      <trkpt lat="30.859004" lon="-98.110694" />
      <trkpt lat="30.858541" lon="-98.112095" />
      <trkpt lat="30.857219" lon="-98.116407" />
      <trkpt lat="30.856831" lon="-98.117646" />
      <trkpt lat="30.856711" lon="-98.118029" />
      <trkpt lat="30.856229" lon="-98.119566" />
      <trkpt lat="30.856192" lon="-98.119671" />
      <trkpt lat="30.855721" lon="-98.121188" />
      <trkpt lat="30.855583" lon="-98.12163" />
      <trkpt lat="30.855344" lon="-98.12242" />
      <trkpt lat="30.855226" lon="-98.122806" />
      <trkpt lat="30.854744" lon="-98.124281" />
      <trkpt lat="30.854105" lon="-98.126723" />
      <trkpt lat="30.853974" lon="-98.127125" />
      <trkpt lat="30.853752" lon="-98.127765" />
      <trkpt lat="30.85346" lon="-98.128749" />
      <trkpt lat="30.853243" lon="-98.129409" />
      <trkpt lat="30.852998" lon="-98.130155" />
      <trkpt lat="30.85264" lon="-98.131274" />
      <trkpt lat="30.851981" lon="-98.133344" />
      <trkpt lat="30.851863" lon="-98.133702" />
      <trkpt lat="30.851094" lon="-98.136103" />
      <trkpt lat="30.850944" lon="-98.136568" />
      <trkpt lat="30.850605" lon="-98.137655" />
      <trkpt lat="30.850199" lon="-98.138943" />
      <trkpt lat="30.848878" lon="-98.143102" />
      <trkpt lat="30.848566" lon="-98.144086" />
      <trkpt lat="30.848483" lon="-98.144348" />
      <trkpt lat="30.848445" lon="-98.144467" />
      <trkpt lat="30.848181" lon="-98.1453" />
      <trkpt lat="30.847966" lon="-98.145977" />
      <trkpt lat="30.847735" lon="-98.146703" />
      <trkpt lat="30.847581" lon="-98.147189" />
      <trkpt lat="30.847421" lon="-98.147772" />
      <trkpt lat="30.847367" lon="-98.148029" />
      <trkpt lat="30.847323" lon="-98.148324" />
      <trkpt lat="30.847279" lon="-98.148688" />
      <trkpt lat="30.847258" lon="-98.149051" />
      <trkpt lat="30.847252" lon="-98.149356" />
      <trkpt lat="30.847257" lon="-98.149637" />
      <trkpt lat="30.847264" lon="-98.149737" />
      <trkpt lat="30.847289" lon="-98.150099" />
      <trkpt lat="30.84734" lon="-98.150501" />
      <trkpt lat="30.847404" lon="-98.150801" />
      <trkpt lat="30.84749" lon="-98.1512" />
      <trkpt lat="30.848479" lon="-98.154244" />
      <trkpt lat="30.848792" lon="-98.155206" />
      <trkpt lat="30.849109" lon="-98.156236" />
      <trkpt lat="30.849237" lon="-98.15695" />
      <trkpt lat="30.849291" lon="-98.157557" />
      <trkpt lat="30.849292" lon="-98.158082" />
      <trkpt lat="30.849237" lon="-98.158752" />
      <trkpt lat="30.849183" lon="-98.159117" />
      <trkpt lat="30.849101" lon="-98.159475" />
      <trkpt lat="30.849054" lon="-98.159663" />
      <trkpt lat="30.848995" lon="-98.159896" />
      <trkpt lat="30.848605" lon="-98.161092" />
      <trkpt lat="30.847836" lon="-98.163484" />
      <trkpt lat="30.847804" lon="-98.163584" />
      <trkpt lat="30.847479" lon="-98.164597" />
      <trkpt lat="30.847309" lon="-98.16516" />
      <trkpt lat="30.847062" lon="-98.165978" />
      <trkpt lat="30.846994" lon="-98.16619" />
      <trkpt lat="30.846943" lon="-98.166425" />
      <trkpt lat="30.846868" lon="-98.166828" />
      <trkpt lat="30.846815" lon="-98.167159" />
      <trkpt lat="30.846782" lon="-98.167623" />
      <trkpt lat="30.846774" lon="-98.167973" />
      <trkpt lat="30.846802" lon="-98.168659" />
      <trkpt lat="30.846797" lon="-98.169511" />
      <trkpt lat="30.846738" lon="-98.1706" />
      <trkpt lat="30.84669" lon="-98.170968" />
      <trkpt lat="30.846616" lon="-98.171315" />
      <trkpt lat="30.846523" lon="-98.171682" />
      <trkpt lat="30.846411" lon="-98.172018" />
      <trkpt lat="30.846387" lon="-98.172082" />
      <trkpt lat="30.846197" lon="-98.172558" />
      <trkpt lat="30.846107" lon="-98.172724" />
      <trkpt lat="30.846037" lon="-98.172865" />
      <trkpt lat="30.845941" lon="-98.173033" />
      <trkpt lat="30.845802" lon="-98.173251" />
      <trkpt lat="30.845764" lon="-98.17331" />
      <trkpt lat="30.845536" lon="-98.173649" />
      <trkpt lat="30.845487" lon="-98.17371" />
      <trkpt lat="30.844815" lon="-98.174544" />
      <trkpt lat="30.844152" lon="-98.175366" />
      <trkpt lat="30.844011" lon="-98.175542" />
      <trkpt lat="30.843363" lon="-98.176291" />
      <trkpt lat="30.842475" lon="-98.177293" />
      <trkpt lat="30.841822" lon="-98.178046" />
      <trkpt lat="30.841531" lon="-98.178382" />
      <trkpt lat="30.840886" lon="-98.179126" />
      <trkpt lat="30.839968" lon="-98.180167" />
      <trkpt lat="30.839829" lon="-98.180324" />
      <trkpt lat="30.838456" lon="-98.181901" />
      <trkpt lat="30.837775" lon="-98.182684" />
      <trkpt lat="30.837046" lon="-98.183663" />
      <trkpt lat="30.836839" lon="-98.183958" />
      <trkpt lat="30.836777" lon="-98.184053" />
      <trkpt lat="30.835771" lon="-98.185581" />
      <trkpt lat="30.835062" lon="-98.186653" />
      <trkpt lat="30.834768" lon="-98.187116" />
      <trkpt lat="30.834514" lon="-98.187497" />
      <trkpt lat="30.834027" lon="-98.188325" />
      <trkpt lat="30.833941" lon="-98.188471" />
      <trkpt lat="30.833008" lon="-98.190358" />
      <trkpt lat="30.83281" lon="-98.190758" />
      <trkpt lat="30.832012" lon="-98.192111" />
      <trkpt lat="30.831872" lon="-98.192349" />
      <trkpt lat="30.831612" lon="-98.192799" />
      <trkpt lat="30.831266" lon="-98.193309" />
      <trkpt lat="30.831069" lon="-98.193546" />
      <trkpt lat="30.83091" lon="-98.193705" />
      <trkpt lat="30.830661" lon="-98.193944" />
      <trkpt lat="30.830438" lon="-98.194113" />
      <trkpt lat="30.830193" lon="-98.194281" />
      <trkpt lat="30.829923" lon="-98.194399" />
      <trkpt lat="30.829658" lon="-98.194501" />
      <trkpt lat="30.829538" lon="-98.194536" />
      <trkpt lat="30.829406" lon="-98.194575" />
      <trkpt lat="30.829137" lon="-98.194621" />
      <trkpt lat="30.829097" lon="-98.194625" />
      <trkpt lat="30.828566" lon="-98.194672" />
      <trkpt lat="30.8276" lon="-98.194806" />
      <trkpt lat="30.827572" lon="-98.194817" />
      <trkpt lat="30.826229" lon="-98.195352" />
      <trkpt lat="30.825541" lon="-98.195819" />
      <trkpt lat="30.825173" lon="-98.196001" />
      <trkpt lat="30.824684" lon="-98.196205" />
      <trkpt lat="30.824227" lon="-98.196363" />
      <trkpt lat="30.823503" lon="-98.196552" />
      <trkpt lat="30.822576" lon="-98.196794" />
      <trkpt lat="30.821641" lon="-98.197011" />
      <trkpt lat="30.821532" lon="-98.19704" />
      <trkpt lat="30.820513" lon="-98.197293" />
      <trkpt lat="30.819388" lon="-98.197593" />
      <trkpt lat="30.818312" lon="-98.197855" />
      <trkpt lat="30.818079" lon="-98.197924" />
      <trkpt lat="30.818043" lon="-98.197935" />
      <trkpt lat="30.817395" lon="-98.198159" />
      <trkpt lat="30.817312" lon="-98.198192" />
      <trkpt lat="30.817139" lon="-98.198262" />
      <trkpt lat="30.816912" lon="-98.198377" />
      <trkpt lat="30.8167" lon="-98.198501" />
      <trkpt lat="30.816463" lon="-98.19866" />
      <trkpt lat="30.816061" lon="-98.198931" />
      <trkpt lat="30.81536" lon="-98.199326" />
      <trkpt lat="30.814769" lon="-98.199648" />
      <trkpt lat="30.814436" lon="-98.199819" />
      <trkpt lat="30.814353" lon="-98.199855" />
      <trkpt lat="30.814242" lon="-98.199903" />
      <trkpt lat="30.81255" lon="-98.200654" />
      <trkpt lat="30.8124" lon="-98.200722" />
      <trkpt lat="30.812215" lon="-98.200806" />
      <trkpt lat="30.810194" lon="-98.201726" />
      <trkpt lat="30.809473" lon="-98.202066" />
      <trkpt lat="30.80908" lon="-98.202277" />
      <trkpt lat="30.807701" lon="-98.202975" />
      <trkpt lat="30.807581" lon="-98.203036" />
      <trkpt lat="30.80706" lon="-98.203285" />
      <trkpt lat="30.806965" lon="-98.20333" />
      <trkpt lat="30.80607" lon="-98.203776" />
      <trkpt lat="30.805851" lon="-98.203865" />
      <trkpt lat="30.80502" lon="-98.204286" />
      <trkpt lat="30.804132" lon="-98.20473" />
      <trkpt lat="30.803293" lon="-98.205149" />
      <trkpt lat="30.802999" lon="-98.205287" />
      <trkpt lat="30.802398" lon="-98.205569" />
      <trkpt lat="30.802242" lon="-98.205634" />
      <trkpt lat="30.801981" lon="-98.205744" />
      <trkpt lat="30.80163" lon="-98.205892" />
      <trkpt lat="30.801235" lon="-98.206058" />
      <trkpt lat="30.801096" lon="-98.206116" />
      <trkpt lat="30.800345" lon="-98.206432" />
      <trkpt lat="30.799197" lon="-98.206901" />
      <trkpt lat="30.799009" lon="-98.206992" />
      <trkpt lat="30.798845" lon="-98.207083" />
      <trkpt lat="30.79866" lon="-98.207209" />
      <trkpt lat="30.798525" lon="-98.207318" />
      <trkpt lat="30.798481" lon="-98.207354" />
      <trkpt lat="30.798313" lon="-98.207516" />
      <trkpt lat="30.798154" lon="-98.207699" />
      <trkpt lat="30.798022" lon="-98.207877" />
      <trkpt lat="30.797888" lon="-98.208087" />
      <trkpt lat="30.797776" lon="-98.208302" />
      <trkpt lat="30.797678" lon="-98.208523" />
      <trkpt lat="30.797444" lon="-98.20918" />
      <trkpt lat="30.797128" lon="-98.210035" />
      <trkpt lat="30.796802" lon="-98.210916" />
      <trkpt lat="30.796657" lon="-98.211338" />
      <trkpt lat="30.796527" lon="-98.211625" />
      <trkpt lat="30.796386" lon="-98.211898" />
      <trkpt lat="30.796226" lon="-98.212165" />
      <trkpt lat="30.796123" lon="-98.212298" />
      <trkpt lat="30.795967" lon="-98.21248" />
      <trkpt lat="30.795856" lon="-98.212591" />
      <trkpt lat="30.795623" lon="-98.212801" />
      <trkpt lat="30.795463" lon="-98.212965" />
      <trkpt lat="30.794655" lon="-98.213304" />
      <trkpt lat="30.794274" lon="-98.213461" />
      <trkpt lat="30.792523" lon="-98.214202" />
      <trkpt lat="30.792144" lon="-98.214337" />
      <trkpt lat="30.79152" lon="-98.214594" />
      <trkpt lat="30.791141" lon="-98.214754" />
      <trkpt lat="30.79019" lon="-98.215159" />
      <trkpt lat="30.789838" lon="-98.215308" />
      <trkpt lat="30.789697" lon="-98.215368" />
      <trkpt lat="30.789413" lon="-98.215489" />
      <trkpt lat="30.789405" lon="-98.215492" />
      <trkpt lat="30.788757" lon="-98.215757" />
      <trkpt lat="30.787986" lon="-98.216064" />
      <trkpt lat="30.787657" lon="-98.216195" />
      <trkpt lat="30.787374" lon="-98.216283" />
      <trkpt lat="30.78735" lon="-98.21629" />
      <trkpt lat="30.787041" lon="-98.216364" />
      <trkpt lat="30.78672" lon="-98.216425" />
      <trkpt lat="30.786418" lon="-98.216455" />
      <trkpt lat="30.785986" lon="-98.216451" />
      <trkpt lat="30.78573" lon="-98.216438" />
      <trkpt lat="30.785522" lon="-98.216416" />
      <trkpt lat="30.785168" lon="-98.216378" />
      <trkpt lat="30.784696" lon="-98.2163" />
      <trkpt lat="30.784516" lon="-98.216274" />
      <trkpt lat="30.783781" lon="-98.216168" />
      <trkpt lat="30.783767" lon="-98.216167" />
      <trkpt lat="30.783459" lon="-98.216149" />
      <trkpt lat="30.782934" lon="-98.216144" />
      <trkpt lat="30.782894" lon="-98.216147" />
      <trkpt lat="30.782379" lon="-98.216185" />
      <trkpt lat="30.781733" lon="-98.216239" />
      <trkpt lat="30.779883" lon="-98.216393" />
      <trkpt lat="30.779358" lon="-98.216407" />
      <trkpt lat="30.778092" lon="-98.216371" />
      <trkpt lat="30.777495" lon="-98.216369" />
      <trkpt lat="30.777072" lon="-98.216399" />
      <trkpt lat="30.776984" lon="-98.216411" />
      <trkpt lat="30.776704" lon="-98.21645" />
      <trkpt lat="30.776356" lon="-98.216518" />
      <trkpt lat="30.775984" lon="-98.216612" />
      <trkpt lat="30.775456" lon="-98.216794" />
      <trkpt lat="30.774945" lon="-98.216992" />
      <trkpt lat="30.77493" lon="-98.217" />
      <trkpt lat="30.774661" lon="-98.217137" />
      <trkpt lat="30.774336" lon="-98.217309" />
      <trkpt lat="30.773846" lon="-98.217569" />
      <trkpt lat="30.773742" lon="-98.217625" />
      <trkpt lat="30.773623" lon="-98.217688" />
      <trkpt lat="30.77298" lon="-98.218061" />
      <trkpt lat="30.772298" lon="-98.218414" />
      <trkpt lat="30.771437" lon="-98.218946" />
      <trkpt lat="30.771214" lon="-98.219154" />
      <trkpt lat="30.771187" lon="-98.219184" />
    </trkseg>
  </trk>
</gpx>