<?xml version='1.0' encoding='UTF-8'?>
<gpx version="1.1" creator="Antigravity Route Generator" xmlns="http://www.topografix.com/GPX/1/1">
  <trk>
    <name>Pedernales Wine Country Sweep</name>
    <desc>German Towns &amp; Culture (77.7 mi) - FM 2093 Tivydale -&gt; US 290 Wine Road -&gt; Stonewall</desc>
    <trkseg>
      <trkpt lat="30.275297" lon="-98.872096" />
      <trkpt lat="30.275204" lon="-98.872187" />
      <trkpt lat="30.275091" lon="-98.872296" />
      <trkpt lat="30.275165" lon="-98.872394" />
      <trkpt lat="30.275769" lon="-98.873201" />
      <trkpt lat="30.276032" lon="-98.873569" />
      <trkpt lat="30.276274" lon="-98.873907" />
      <trkpt lat="30.276366" lon="-98.874036" />
      <trkpt lat="30.27644" lon="-98.874138" />
      <trkpt lat="30.276502" lon="-98.874223" />
      <trkpt lat="30.276581" lon="-98.874331" />
      <trkpt lat="30.277036" lon="-98.874955" />
      <trkpt lat="30.277294" lon="-98.875309" />
      <trkpt lat="30.277523" lon="-98.875623" />
      <trkpt lat="30.277589" lon="-98.875713" />
      <trkpt lat="30.277649" lon="-98.875795" />
      <trkpt lat="30.277752" lon="-98.875938" />
      <trkpt lat="30.278724" lon="-98.877274" />
      <trkpt lat="30.278804" lon="-98.877384" />
      <trkpt lat="30.278857" lon="-98.877456" />
      <trkpt lat="30.28002" lon="-98.879043" />
      <trkpt lat="30.280238" lon="-98.879356" />
      <trkpt lat="30.280279" lon="-98.879416" />
      <trkpt lat="30.280445" lon="-98.879642" />
      <trkpt lat="30.280543" lon="-98.87978" />
      <trkpt lat="30.280597" lon="-98.879855" />
      <trkpt lat="30.280932" lon="-98.880328" />
      <trkpt lat="30.281203" lon="-98.880709" />
      <trkpt lat="30.281536" lon="-98.881185" />
      <trkpt lat="30.281738" lon="-98.881473" />
      <trkpt lat="30.282386" lon="-98.882396" />
      <trkpt lat="30.282814" lon="-98.882995" />
      <trkpt lat="30.283055" lon="-98.883332" />
      <trkpt lat="30.283579" lon="-98.884066" />
      <trkpt lat="30.283856" lon="-98.884449" />
      <trkpt lat="30.284101" lon="-98.884788" />
      <trkpt lat="30.28422" lon="-98.884951" />
      <trkpt lat="30.284327" lon="-98.8851" />
      <trkpt lat="30.284632" lon="-98.885522" />
      <trkpt lat="30.284769" lon="-98.88571" />
      <trkpt lat="30.284945" lon="-98.885829" />
      <trkpt lat="30.285097" lon="-98.886026" />
      <trkpt lat="30.285155" lon="-98.886101" />
      <trkpt lat="30.285214" lon="-98.886283" />
      <trkpt lat="30.285279" lon="-98.886438" />
      <trkpt lat="30.285329" lon="-98.886577" />
      <trkpt lat="30.285387" lon="-98.886804" />
      <trkpt lat="30.28539" lon="-98.886814" />
      <trkpt lat="30.285409" lon="-98.886885" />
      <trkpt lat="30.285424" lon="-98.886976" />
      <trkpt lat="30.285447" lon="-98.887069" />
      <trkpt lat="30.285469" lon="-98.887161" />
      <trkpt lat="30.285496" lon="-98.887276" />
      <trkpt lat="30.285528" lon="-98.887513" />
      <trkpt lat="30.285503" lon="-98.887628" />
      <trkpt lat="30.285519" lon="-98.8879" />
      <trkpt lat="30.285524" lon="-98.888159" />
      <trkpt lat="30.285513" lon="-98.888401" />
      <trkpt lat="30.285481" lon="-98.888692" />
      <trkpt lat="30.285439" lon="-98.888918" />
      <trkpt lat="30.285381" lon="-98.889161" />
      <trkpt lat="30.285308" lon="-98.889405" />
      <trkpt lat="30.285276" lon="-98.889512" />
      <trkpt lat="30.284868" lon="-98.890896" />
      <trkpt lat="30.284761" lon="-98.891255" />
      <trkpt lat="30.284157" lon="-98.893262" />
      <trkpt lat="30.283776" lon="-98.894512" />
      <trkpt lat="30.283703" lon="-98.89475" />
      <trkpt lat="30.283564" lon="-98.895182" />
      <trkpt lat="30.283497" lon="-98.895425" />
      <trkpt lat="30.283275" lon="-98.896159" />
      <trkpt lat="30.283009" lon="-98.897118" />
      <trkpt lat="30.282712" lon="-98.898094" />
      <trkpt lat="30.281283" lon="-98.902801" />
      <trkpt lat="30.280885" lon="-98.90414" />
      <trkpt lat="30.280462" lon="-98.905562" />
      <trkpt lat="30.280377" lon="-98.905833" />
      <trkpt lat="30.2802" lon="-98.906439" />
      <trkpt lat="30.279904" lon="-98.907468" />
      <trkpt lat="30.279827" lon="-98.907847" />
      <trkpt lat="30.279771" lon="-98.908228" />
      <trkpt lat="30.279727" lon="-98.908926" />
      <trkpt lat="30.279716" lon="-98.913325" />
      <trkpt lat="30.279712" lon="-98.914836" />
      <trkpt lat="30.279707" lon="-98.916791" />
      <trkpt lat="30.279701" lon="-98.919127" />
      <trkpt lat="30.279692" lon="-98.92039" />
      <trkpt lat="30.27969" lon="-98.920609" />
      <trkpt lat="30.279672" lon="-98.923036" />
      <trkpt lat="30.279668" lon="-98.923438" />
      <trkpt lat="30.279643" lon="-98.926006" />
      <trkpt lat="30.279633" lon="-98.927048" />
      <trkpt lat="30.279594" lon="-98.931068" />
      <trkpt lat="30.279577" lon="-98.932804" />
      <trkpt lat="30.279579" lon="-98.933792" />
      <trkpt lat="30.279595" lon="-98.934497" />
      <trkpt lat="30.27963" lon="-98.93494" />
      <trkpt lat="30.279686" lon="-98.93543" />
      <trkpt lat="30.279732" lon="-98.935683" />
      <trkpt lat="30.279866" lon="-98.936372" />
      <trkpt lat="30.279932" lon="-98.936605" />
      <trkpt lat="30.280071" lon="-98.937102" />
      <trkpt lat="30.280389" lon="-98.938205" />
      <trkpt lat="30.281248" lon="-98.941192" />
      <trkpt lat="30.282749" lon="-98.946414" />
      <trkpt lat="30.283047" lon="-98.947394" />
      <trkpt lat="30.28318" lon="-98.947755" />
      <trkpt lat="30.283328" lon="-98.948116" />
      <trkpt lat="30.28372" lon="-98.94895" />
      <trkpt lat="30.284132" lon="-98.949782" />
      <trkpt lat="30.285836" lon="-98.953176" />
      <trkpt lat="30.286819" lon="-98.955162" />
      <trkpt lat="30.287514" lon="-98.956565" />
      <trkpt lat="30.288013" lon="-98.957575" />
      <trkpt lat="30.289314" lon="-98.960218" />
      <trkpt lat="30.290506" lon="-98.962639" />
      <trkpt lat="30.291562" lon="-98.964817" />
      <trkpt lat="30.291738" lon="-98.965257" />
      <trkpt lat="30.291858" lon="-98.965922" />
      <trkpt lat="30.291802" lon="-98.966587" />
      <trkpt lat="30.291636" lon="-98.967746" />
      <trkpt lat="30.291325" lon="-98.969304" />
      <trkpt lat="30.290969" lon="-98.970964" />
      <trkpt lat="30.290858" lon="-98.971662" />
      <trkpt lat="30.29082" lon="-98.972402" />
      <trkpt lat="30.29082" lon="-98.973239" />
      <trkpt lat="30.290872" lon="-98.973446" />
      <trkpt lat="30.291228" lon="-98.974859" />
      <trkpt lat="30.293592" lon="-98.981111" />
      <trkpt lat="30.294873" lon="-98.984494" />
      <trkpt lat="30.297049" lon="-98.990623" />
      <trkpt lat="30.297379" lon="-98.991521" />
      <trkpt lat="30.297537" lon="-98.992379" />
      <trkpt lat="30.297643" lon="-98.993555" />
      <trkpt lat="30.297643" lon="-98.9944" />
      <trkpt lat="30.297659" lon="-98.995335" />
      <trkpt lat="30.297665" lon="-98.995721" />
      <trkpt lat="30.297779" lon="-98.997147" />
      <trkpt lat="30.297985" lon="-98.997808" />
      <trkpt lat="30.298949" lon="-98.999491" />
      <trkpt lat="30.29912" lon="-98.999757" />
      <trkpt lat="30.299342" lon="-99.000186" />
      <trkpt lat="30.299542" lon="-99.000503" />
      <trkpt lat="30.29969" lon="-99.000804" />
      <trkpt lat="30.299838" lon="-99.001139" />
      <trkpt lat="30.300046" lon="-99.001688" />
      <trkpt lat="30.300139" lon="-99.002622" />
      <trkpt lat="30.300116" lon="-99.003229" />
      <trkpt lat="30.29991" lon="-99.00418" />
      <trkpt lat="30.299636" lon="-99.004814" />
      <trkpt lat="30.298823" lon="-99.006323" />
      <trkpt lat="30.298542" lon="-99.007275" />
      <trkpt lat="30.298102" lon="-99.009068" />
      <trkpt lat="30.297637" lon="-99.010048" />
      <trkpt lat="30.297156" lon="-99.011181" />
      <trkpt lat="30.295459" lon="-99.014854" />
      <trkpt lat="30.295296" lon="-99.015721" />
      <trkpt lat="30.295281" lon="-99.016768" />
      <trkpt lat="30.295435" lon="-99.018058" />
      <trkpt lat="30.295629" lon="-99.019687" />
      <trkpt lat="30.295967" lon="-99.023155" />
      <trkpt lat="30.296018" lon="-99.023671" />
      <trkpt lat="30.296355" lon="-99.027137" />
      <trkpt lat="30.2964" lon="-99.027817" />
      <trkpt lat="30.296441" lon="-99.02839" />
      <trkpt lat="30.292538" lon="-99.028384" />
      <trkpt lat="30.292443" lon="-99.028383" />
      <trkpt lat="30.288966" lon="-99.028364" />
      <trkpt lat="30.288966" lon="-99.028364" />
      <trkpt lat="30.292443" lon="-99.028383" />
      <trkpt lat="30.292538" lon="-99.028384" />
      <trkpt lat="30.296441" lon="-99.02839" />
      <trkpt lat="30.296444" lon="-99.028879" />
      <trkpt lat="30.296014" lon="-99.033126" />
      <trkpt lat="30.296008" lon="-99.033181" />
      <trkpt lat="30.295823" lon="-99.035219" />
      <trkpt lat="30.295795" lon="-99.036003" />
      <trkpt lat="30.295808" lon="-99.036226" />
      <trkpt lat="30.29598" lon="-99.037655" />
      <trkpt lat="30.296286" lon="-99.038642" />
      <trkpt lat="30.296583" lon="-99.039339" />
      <trkpt lat="30.296944" lon="-99.03994" />
      <trkpt lat="30.299723" lon="-99.044468" />
      <trkpt lat="30.300316" lon="-99.045519" />
      <trkpt lat="30.300862" lon="-99.046774" />
      <trkpt lat="30.301131" lon="-99.047708" />
      <trkpt lat="30.301909" lon="-99.051227" />
      <trkpt lat="30.301992" lon="-99.051506" />
      <trkpt lat="30.302539" lon="-99.053941" />
      <trkpt lat="30.302659" lon="-99.054617" />
      <trkpt lat="30.302696" lon="-99.055432" />
      <trkpt lat="30.302691" lon="-99.056599" />
      <trkpt lat="30.302688" lon="-99.057321" />
      <trkpt lat="30.302687" lon="-99.057492" />
      <trkpt lat="30.302641" lon="-99.058222" />
      <trkpt lat="30.302539" lon="-99.059306" />
      <trkpt lat="30.3024" lon="-99.060679" />
      <trkpt lat="30.301798" lon="-99.066075" />
      <trkpt lat="30.30076" lon="-99.076075" />
      <trkpt lat="30.299575" lon="-99.086439" />
      <trkpt lat="30.299426" lon="-99.087898" />
      <trkpt lat="30.29938" lon="-99.08837" />
      <trkpt lat="30.299389" lon="-99.090162" />
      <trkpt lat="30.299392" lon="-99.090969" />
      <trkpt lat="30.299437" lon="-99.095192" />
      <trkpt lat="30.299454" lon="-99.099174" />
      <trkpt lat="30.299436" lon="-99.10544" />
      <trkpt lat="30.299482" lon="-99.117477" />
      <trkpt lat="30.299464" lon="-99.122938" />
      <trkpt lat="30.299482" lon="-99.13062" />
      <trkpt lat="30.299482" lon="-99.132111" />
      <trkpt lat="30.299445" lon="-99.132691" />
      <trkpt lat="30.299223" lon="-99.135309" />
      <trkpt lat="30.299065" lon="-99.137658" />
      <trkpt lat="30.298769" lon="-99.141724" />
      <trkpt lat="30.29863" lon="-99.143774" />
      <trkpt lat="30.29825" lon="-99.148677" />
      <trkpt lat="30.297963" lon="-99.151938" />
      <trkpt lat="30.29776" lon="-99.154793" />
      <trkpt lat="30.297657" lon="-99.156241" />
      <trkpt lat="30.297583" lon="-99.157013" />
      <trkpt lat="30.297481" lon="-99.158558" />
      <trkpt lat="30.29699" lon="-99.165371" />
      <trkpt lat="30.296999" lon="-99.166175" />
      <trkpt lat="30.297166" lon="-99.16698" />
      <trkpt lat="30.297463" lon="-99.167763" />
      <trkpt lat="30.297889" lon="-99.1686" />
      <trkpt lat="30.299399" lon="-99.170961" />
      <trkpt lat="30.29988" lon="-99.17184" />
      <trkpt lat="30.300112" lon="-99.172355" />
      <trkpt lat="30.300306" lon="-99.172967" />
      <trkpt lat="30.300418" lon="-99.1736" />
      <trkpt lat="30.300436" lon="-99.174168" />
      <trkpt lat="30.300399" lon="-99.176947" />
      <trkpt lat="30.300381" lon="-99.185777" />
      <trkpt lat="30.300325" lon="-99.192418" />
      <trkpt lat="30.300316" lon="-99.194821" />
      <trkpt lat="30.300193" lon="-99.207314" />
      <trkpt lat="30.300202" lon="-99.208634" />
      <trkpt lat="30.300184" lon="-99.210125" />
      <trkpt lat="30.300147" lon="-99.21387" />
      <trkpt lat="30.300119" lon="-99.215844" />
      <trkpt lat="30.300091" lon="-99.218998" />
      <trkpt lat="30.300082" lon="-99.222152" />
      <trkpt lat="30.300045" lon="-99.226766" />
      <trkpt lat="30.300024" lon="-99.23276" />
      <trkpt lat="30.300008" lon="-99.235563" />
      <trkpt lat="30.3" lon="-99.236515" />
      <trkpt lat="30.299969" lon="-99.239811" />
      <trkpt lat="30.299983" lon="-99.241092" />
      <trkpt lat="30.299992" lon="-99.241899" />
      <trkpt lat="30.299998" lon="-99.242213" />
      <trkpt lat="30.299825" lon="-99.242183" />
      <trkpt lat="30.299697" lon="-99.242157" />
      <trkpt lat="30.299517" lon="-99.24212" />
      <trkpt lat="30.299206" lon="-99.242041" />
      <trkpt lat="30.298927" lon="-99.241916" />
      <trkpt lat="30.298815" lon="-99.241866" />
      <trkpt lat="30.29796" lon="-99.241415" />
      <trkpt lat="30.297268" lon="-99.24105" />
      <trkpt lat="30.296089" lon="-99.240428" />
      <trkpt lat="30.295933" lon="-99.240346" />
      <trkpt lat="30.293216" lon="-99.238914" />
      <trkpt lat="30.292751" lon="-99.238616" />
      <trkpt lat="30.292252" lon="-99.238204" />
      <trkpt lat="30.291876" lon="-99.237813" />
      <trkpt lat="30.291488" lon="-99.237323" />
      <trkpt lat="30.291131" lon="-99.23676" />
      <trkpt lat="30.289247" lon="-99.233523" />
      <trkpt lat="30.288917" lon="-99.232962" />
      <trkpt lat="30.288467" lon="-99.232197" />
      <trkpt lat="30.288213" lon="-99.23176" />
      <trkpt lat="30.286725" lon="-99.229214" />
      <trkpt lat="30.285851" lon="-99.227697" />
      <trkpt lat="30.285688" lon="-99.227368" />
      <trkpt lat="30.285544" lon="-99.227029" />
      <trkpt lat="30.285378" lon="-99.226553" />
      <trkpt lat="30.285236" lon="-99.226014" />
      <trkpt lat="30.285067" lon="-99.225329" />
      <trkpt lat="30.284964" lon="-99.224912" />
      <trkpt lat="30.283852" lon="-99.220402" />
      <trkpt lat="30.282672" lon="-99.215613" />
      <trkpt lat="30.282567" lon="-99.215209" />
      <trkpt lat="30.282464" lon="-99.214856" />
      <trkpt lat="30.2823" lon="-99.21441" />
      <trkpt lat="30.282138" lon="-99.214046" />
      <trkpt lat="30.281914" lon="-99.213615" />
      <trkpt lat="30.281712" lon="-99.213283" />
      <trkpt lat="30.281421" lon="-99.212882" />
      <trkpt lat="30.281187" lon="-99.212602" />
      <trkpt lat="30.280906" lon="-99.212314" />
      <trkpt lat="30.2766" lon="-99.208436" />
      <trkpt lat="30.275817" lon="-99.207701" />
      <trkpt lat="30.274361" lon="-99.206389" />
      <trkpt lat="30.274107" lon="-99.206115" />
      <trkpt lat="30.273861" lon="-99.205813" />
      <trkpt lat="30.273577" lon="-99.205402" />
      <trkpt lat="30.273373" lon="-99.205054" />
      <trkpt lat="30.273157" lon="-99.204613" />
      <trkpt lat="30.272974" lon="-99.204159" />
      <trkpt lat="30.272857" lon="-99.203799" />
      <trkpt lat="30.272721" lon="-99.203248" />
      <trkpt lat="30.272682" lon="-99.202972" />
      <trkpt lat="30.270006" lon="-99.189452" />
      <trkpt lat="30.268794" lon="-99.183328" />
      <trkpt lat="30.268487" lon="-99.181484" />
      <trkpt lat="30.267491" lon="-99.17513" />
      <trkpt lat="30.267474" lon="-99.175021" />
      <trkpt lat="30.266825" lon="-99.170876" />
      <trkpt lat="30.266744" lon="-99.170503" />
      <trkpt lat="30.266688" lon="-99.170311" />
      <trkpt lat="30.266612" lon="-99.170083" />
      <trkpt lat="30.266546" lon="-99.16993" />
      <trkpt lat="30.266472" lon="-99.169769" />
      <trkpt lat="30.266367" lon="-99.169573" />
      <trkpt lat="30.266262" lon="-99.1694" />
      <trkpt lat="30.266143" lon="-99.169227" />
      <trkpt lat="30.26602" lon="-99.169065" />
      <trkpt lat="30.265857" lon="-99.168876" />
      <trkpt lat="30.265693" lon="-99.168703" />
      <trkpt lat="30.265537" lon="-99.168571" />
      <trkpt lat="30.265377" lon="-99.168455" />
      <trkpt lat="30.265184" lon="-99.168329" />
      <trkpt lat="30.264929" lon="-99.168194" />
      <trkpt lat="30.264718" lon="-99.168105" />
      <trkpt lat="30.264533" lon="-99.168046" />
      <trkpt lat="30.264389" lon="-99.168006" />
      <trkpt lat="30.26426" lon="-99.167976" />
      <trkpt lat="30.264134" lon="-99.167956" />
      <trkpt lat="30.263931" lon="-99.167938" />
      <trkpt lat="30.261446" lon="-99.167913" />
      <trkpt lat="30.261039" lon="-99.167891" />
      <trkpt lat="30.260844" lon="-99.167858" />
      <trkpt lat="30.260564" lon="-99.167779" />
      <trkpt lat="30.260298" lon="-99.167681" />
      <trkpt lat="30.260036" lon="-99.167554" />
      <trkpt lat="30.259753" lon="-99.167368" />
      <trkpt lat="30.259513" lon="-99.16718" />
      <trkpt lat="30.259156" lon="-99.166815" />
      <trkpt lat="30.258925" lon="-99.166511" />
      <trkpt lat="30.258766" lon="-99.166252" />
      <trkpt lat="30.258631" lon="-99.165977" />
      <trkpt lat="30.258514" lon="-99.165688" />
      <trkpt lat="30.258419" lon="-99.165402" />
      <trkpt lat="30.258346" lon="-99.165109" />
      <trkpt lat="30.258306" lon="-99.164873" />
      <trkpt lat="30.258279" lon="-99.164547" />
      <trkpt lat="30.258263" lon="-99.162991" />
      <trkpt lat="30.258264" lon="-99.159281" />
      <trkpt lat="30.258064" lon="-99.152904" />
      <trkpt lat="30.257923" lon="-99.146207" />
      <trkpt lat="30.257844" lon="-99.142431" />
      <trkpt lat="30.257796" lon="-99.141411" />
      <trkpt lat="30.257772" lon="-99.141147" />
      <trkpt lat="30.257756" lon="-99.140962" />
      <trkpt lat="30.257686" lon="-99.140349" />
      <trkpt lat="30.257539" lon="-99.139358" />
      <trkpt lat="30.25722" lon="-99.137416" />
      <trkpt lat="30.256497" lon="-99.133014" />
      <trkpt lat="30.25579" lon="-99.128629" />
      <trkpt lat="30.255134" lon="-99.124705" />
      <trkpt lat="30.254814" lon="-99.122787" />
      <trkpt lat="30.254429" lon="-99.120406" />
      <trkpt lat="30.254009" lon="-99.117792" />
      <trkpt lat="30.253525" lon="-99.114853" />
      <trkpt lat="30.25339" lon="-99.114147" />
      <trkpt lat="30.253311" lon="-99.113825" />
      <trkpt lat="30.253231" lon="-99.113524" />
      <trkpt lat="30.252922" lon="-99.112613" />
      <trkpt lat="30.252437" lon="-99.111292" />
      <trkpt lat="30.250716" lon="-99.106528" />
      <trkpt lat="30.249144" lon="-99.102187" />
      <trkpt lat="30.248608" lon="-99.100694" />
      <trkpt lat="30.248494" lon="-99.100344" />
      <trkpt lat="30.248352" lon="-99.099819" />
      <trkpt lat="30.248211" lon="-99.099133" />
      <trkpt lat="30.247958" lon="-99.097689" />
      <trkpt lat="30.24795" lon="-99.097641" />
      <trkpt lat="30.247558" lon="-99.095398" />
      <trkpt lat="30.247435" lon="-99.094623" />
      <trkpt lat="30.247394" lon="-99.094254" />
      <trkpt lat="30.247363" lon="-99.093553" />
      <trkpt lat="30.24738" lon="-99.092885" />
      <trkpt lat="30.247403" lon="-99.092622" />
      <trkpt lat="30.247442" lon="-99.092337" />
      <trkpt lat="30.247522" lon="-99.091885" />
      <trkpt lat="30.247598" lon="-99.091457" />
      <trkpt lat="30.247674" lon="-99.091098" />
      <trkpt lat="30.247712" lon="-99.090904" />
      <trkpt lat="30.248447" lon="-99.087106" />
      <trkpt lat="30.249211" lon="-99.083125" />
      <trkpt lat="30.249256" lon="-99.082854" />
      <trkpt lat="30.249281" lon="-99.082616" />
      <trkpt lat="30.249286" lon="-99.082176" />
      <trkpt lat="30.249265" lon="-99.081922" />
      <trkpt lat="30.249231" lon="-99.081662" />
      <trkpt lat="30.249159" lon="-99.081325" />
      <trkpt lat="30.24747" lon="-99.075127" />
      <trkpt lat="30.247358" lon="-99.074674" />
      <trkpt lat="30.247261" lon="-99.074224" />
      <trkpt lat="30.247189" lon="-99.073688" />
      <trkpt lat="30.247137" lon="-99.073146" />
      <trkpt lat="30.247108" lon="-99.072505" />
      <trkpt lat="30.247043" lon="-99.071486" />
      <trkpt lat="30.247016" lon="-99.070946" />
      <trkpt lat="30.246991" lon="-99.070376" />
      <trkpt lat="30.246936" lon="-99.069413" />
      <trkpt lat="30.246884" lon="-99.068863" />
      <trkpt lat="30.246795" lon="-99.068342" />
      <trkpt lat="30.246722" lon="-99.067976" />
      <trkpt lat="30.246629" lon="-99.067571" />
      <trkpt lat="30.246552" lon="-99.067294" />
      <trkpt lat="30.246422" lon="-99.066895" />
      <trkpt lat="30.246273" lon="-99.06647" />
      <trkpt lat="30.246083" lon="-99.065984" />
      <trkpt lat="30.245787" lon="-99.065224" />
      <trkpt lat="30.245563" lon="-99.064652" />
      <trkpt lat="30.245364" lon="-99.064059" />
      <trkpt lat="30.245182" lon="-99.063388" />
      <trkpt lat="30.245072" lon="-99.062853" />
      <trkpt lat="30.245007" lon="-99.062416" />
      <trkpt lat="30.244951" lon="-99.061865" />
      <trkpt lat="30.24491" lon="-99.061071" />
      <trkpt lat="30.244869" lon="-99.060272" />
      <trkpt lat="30.24481" lon="-99.058916" />
      <trkpt lat="30.244796" lon="-99.058112" />
      <trkpt lat="30.244832" lon="-99.055834" />
      <trkpt lat="30.244836" lon="-99.055307" />
      <trkpt lat="30.244826" lon="-99.054931" />
      <trkpt lat="30.244721" lon="-99.053668" />
      <trkpt lat="30.244676" lon="-99.053079" />
      <trkpt lat="30.244566" lon="-99.051825" />
      <trkpt lat="30.244468" lon="-99.051157" />
      <trkpt lat="30.244411" lon="-99.050853" />
      <trkpt lat="30.244326" lon="-99.050466" />
      <trkpt lat="30.244147" lon="-99.049751" />
      <trkpt lat="30.243728" lon="-99.048076" />
      <trkpt lat="30.243061" lon="-99.045439" />
      <trkpt lat="30.242994" lon="-99.045119" />
      <trkpt lat="30.242967" lon="-99.044898" />
      <trkpt lat="30.242957" lon="-99.044544" />
      <trkpt lat="30.242981" lon="-99.043539" />
      <trkpt lat="30.243011" lon="-99.043037" />
      <trkpt lat="30.243062" lon="-99.041116" />
      <trkpt lat="30.243096" lon="-99.03965" />
      <trkpt lat="30.243103" lon="-99.039497" />
      <trkpt lat="30.243144" lon="-99.037927" />
      <trkpt lat="30.2433" lon="-99.032216" />
      <trkpt lat="30.243339" lon="-99.030424" />
      <trkpt lat="30.243427" lon="-99.027314" />
      <trkpt lat="30.243473" lon="-99.025695" />
      <trkpt lat="30.243489" lon="-99.024978" />
      <trkpt lat="30.243504" lon="-99.02432" />
      <trkpt lat="30.243512" lon="-99.023939" />
      <trkpt lat="30.243507" lon="-99.023434" />
      <trkpt lat="30.243475" lon="-99.022986" />
      <trkpt lat="30.243423" lon="-99.022535" />
      <trkpt lat="30.243122" lon="-99.020291" />
      <trkpt lat="30.243073" lon="-99.019944" />
      <trkpt lat="30.243027" lon="-99.019508" />
      <trkpt lat="30.242713" lon="-99.015102" />
      <trkpt lat="30.242703" lon="-99.014976" />
      <trkpt lat="30.242617" lon="-99.013858" />
      <trkpt lat="30.242279" lon="-99.009319" />
      <trkpt lat="30.241923" lon="-99.004477" />
      <trkpt lat="30.241805" lon="-99.002859" />
      <trkpt lat="30.241744" lon="-99.002084" />
      <trkpt lat="30.241639" lon="-99.001387" />
      <trkpt lat="30.241553" lon="-99.000944" />
      <trkpt lat="30.241458" lon="-99.000569" />
      <trkpt lat="30.241363" lon="-99.000237" />
      <trkpt lat="30.240553" lon="-98.997816" />
      <trkpt lat="30.240446" lon="-98.997436" />
      <trkpt lat="30.240407" lon="-98.997294" />
      <trkpt lat="30.240372" lon="-98.997017" />
      <trkpt lat="30.240351" lon="-98.99676" />
      <trkpt lat="30.240355" lon="-98.9965" />
      <trkpt lat="30.240368" lon="-98.996242" />
      <trkpt lat="30.240424" lon="-98.995912" />
      <trkpt lat="30.24086" lon="-98.994223" />
      <trkpt lat="30.241178" lon="-98.992997" />
      <trkpt lat="30.24126" lon="-98.992458" />
      <trkpt lat="30.241304" lon="-98.992163" />
      <trkpt lat="30.241357" lon="-98.991358" />
      <trkpt lat="30.241377" lon="-98.990621" />
      <trkpt lat="30.241423" lon="-98.986589" />
      <trkpt lat="30.241442" lon="-98.984937" />
      <trkpt lat="30.241463" lon="-98.982434" />
      <trkpt lat="30.241473" lon="-98.981838" />
      <trkpt lat="30.241544" lon="-98.978692" />
      <trkpt lat="30.241573" lon="-98.976345" />
      <trkpt lat="30.241576" lon="-98.976103" />
      <trkpt lat="30.241603" lon="-98.973913" />
      <trkpt lat="30.241604" lon="-98.973787" />
      <trkpt lat="30.241609" lon="-98.973429" />
      <trkpt lat="30.241622" lon="-98.972535" />
      <trkpt lat="30.241634" lon="-98.971761" />
      <trkpt lat="30.241638" lon="-98.971456" />
      <trkpt lat="30.241654" lon="-98.971162" />
      <trkpt lat="30.241688" lon="-98.970588" />
      <trkpt lat="30.241712" lon="-98.969767" />
      <trkpt lat="30.241711" lon="-98.969628" />
      <trkpt lat="30.241709" lon="-98.969226" />
      <trkpt lat="30.241727" lon="-98.968888" />
      <trkpt lat="30.24173" lon="-98.968243" />
      <trkpt lat="30.24174" lon="-98.966951" />
      <trkpt lat="30.24176" lon="-98.965288" />
      <trkpt lat="30.241776" lon="-98.964042" />
      <trkpt lat="30.241778" lon="-98.962816" />
      <trkpt lat="30.241779" lon="-98.961961" />
      <trkpt lat="30.241744" lon="-98.960603" />
      <trkpt lat="30.241741" lon="-98.960447" />
      <trkpt lat="30.241651" lon="-98.957622" />
      <trkpt lat="30.241643" lon="-98.956984" />
      <trkpt lat="30.241638" lon="-98.956533" />
      <trkpt lat="30.241644" lon="-98.956233" />
      <trkpt lat="30.241646" lon="-98.95619" />
      <trkpt lat="30.241649" lon="-98.956113" />
      <trkpt lat="30.241682" lon="-98.955947" />
      <trkpt lat="30.241733" lon="-98.95574" />
      <trkpt lat="30.241796" lon="-98.955562" />
      <trkpt lat="30.241882" lon="-98.955393" />
      <trkpt lat="30.241981" lon="-98.955244" />
      <trkpt lat="30.242033" lon="-98.955161" />
      <trkpt lat="30.242093" lon="-98.955085" />
      <trkpt lat="30.242195" lon="-98.954976" />
      <trkpt lat="30.242317" lon="-98.954861" />
      <trkpt lat="30.24245" lon="-98.954769" />
      <trkpt lat="30.242592" lon="-98.954692" />
      <trkpt lat="30.242743" lon="-98.954625" />
      <trkpt lat="30.242908" lon="-98.954571" />
      <trkpt lat="30.243071" lon="-98.954549" />
      <trkpt lat="30.243418" lon="-98.954541" />
      <trkpt lat="30.243956" lon="-98.954541" />
      <trkpt lat="30.244165" lon="-98.9545" />
      <trkpt lat="30.244446" lon="-98.954403" />
      <trkpt lat="30.244647" lon="-98.954295" />
      <trkpt lat="30.244776" lon="-98.954206" />
      <trkpt lat="30.245012" lon="-98.953986" />
      <trkpt lat="30.245229" lon="-98.953712" />
      <trkpt lat="30.245318" lon="-98.953564" />
      <trkpt lat="30.245392" lon="-98.953403" />
      <trkpt lat="30.245468" lon="-98.95323" />
      <trkpt lat="30.245537" lon="-98.952991" />
      <trkpt lat="30.245574" lon="-98.952809" />
      <trkpt lat="30.245596" lon="-98.952632" />
      <trkpt lat="30.245749" lon="-98.951339" />
      <trkpt lat="30.245883" lon="-98.950203" />
      <trkpt lat="30.245984" lon="-98.949251" />
      <trkpt lat="30.246257" lon="-98.946827" />
      <trkpt lat="30.246325" lon="-98.946351" />
      <trkpt lat="30.246413" lon="-98.945889" />
      <trkpt lat="30.246502" lon="-98.945504" />
      <trkpt lat="30.246617" lon="-98.945094" />
      <trkpt lat="30.246911" lon="-98.944237" />
      <trkpt lat="30.247081" lon="-98.943835" />
      <trkpt lat="30.247668" lon="-98.942608" />
      <trkpt lat="30.247781" lon="-98.942347" />
      <trkpt lat="30.247892" lon="-98.942026" />
      <trkpt lat="30.248004" lon="-98.941636" />
      <trkpt lat="30.248072" lon="-98.941314" />
      <trkpt lat="30.248132" lon="-98.941022" />
      <trkpt lat="30.248189" lon="-98.940448" />
      <trkpt lat="30.248209" lon="-98.93997" />
      <trkpt lat="30.248187" lon="-98.936048" />
      <trkpt lat="30.248191" lon="-98.93325" />
      <trkpt lat="30.248192" lon="-98.932843" />
      <trkpt lat="30.248199" lon="-98.932056" />
      <trkpt lat="30.248247" lon="-98.931014" />
      <trkpt lat="30.248304" lon="-98.930134" />
      <trkpt lat="30.248377" lon="-98.929041" />
      <trkpt lat="30.24853" lon="-98.926723" />
      <trkpt lat="30.248581" lon="-98.925804" />
      <trkpt lat="30.248727" lon="-98.923546" />
      <trkpt lat="30.248801" lon="-98.92252" />
      <trkpt lat="30.24885" lon="-98.921183" />
      <trkpt lat="30.248851" lon="-98.920818" />
      <trkpt lat="30.248855" lon="-98.920521" />
      <trkpt lat="30.24888" lon="-98.918885" />
      <trkpt lat="30.24889" lon="-98.918246" />
      <trkpt lat="30.248897" lon="-98.917823" />
      <trkpt lat="30.248921" lon="-98.917458" />
      <trkpt lat="30.248949" lon="-98.917283" />
      <trkpt lat="30.248986" lon="-98.917118" />
      <trkpt lat="30.249032" lon="-98.916958" />
      <trkpt lat="30.249088" lon="-98.916793" />
      <trkpt lat="30.249224" lon="-98.916502" />
      <trkpt lat="30.249337" lon="-98.916324" />
      <trkpt lat="30.249452" lon="-98.91617" />
      <trkpt lat="30.249658" lon="-98.915949" />
      <trkpt lat="30.249894" lon="-98.915752" />
      <trkpt lat="30.250596" lon="-98.915288" />
      <trkpt lat="30.250823" lon="-98.915121" />
      <trkpt lat="30.25107" lon="-98.914882" />
      <trkpt lat="30.251285" lon="-98.914625" />
      <trkpt lat="30.251382" lon="-98.914464" />
      <trkpt lat="30.251475" lon="-98.914294" />
      <trkpt lat="30.251545" lon="-98.914141" />
      <trkpt lat="30.251609" lon="-98.913991" />
      <trkpt lat="30.251664" lon="-98.913804" />
      <trkpt lat="30.251724" lon="-98.913556" />
      <trkpt lat="30.251745" lon="-98.91345" />
      <trkpt lat="30.25176" lon="-98.913286" />
      <trkpt lat="30.251764" lon="-98.912952" />
      <trkpt lat="30.251766" lon="-98.911857" />
      <trkpt lat="30.251741" lon="-98.908163" />
      <trkpt lat="30.251739" lon="-98.907855" />
      <trkpt lat="30.251725" lon="-98.906903" />
      <trkpt lat="30.251717" lon="-98.906373" />
      <trkpt lat="30.251716" lon="-98.904516" />
      <trkpt lat="30.25172" lon="-98.903943" />
      <trkpt lat="30.25172" lon="-98.903906" />
      <trkpt lat="30.251724" lon="-98.901587" />
      <trkpt lat="30.251727" lon="-98.900302" />
      <trkpt lat="30.251723" lon="-98.899716" />
      <trkpt lat="30.251717" lon="-98.899232" />
      <trkpt lat="30.25171" lon="-98.898909" />
      <trkpt lat="30.251707" lon="-98.898751" />
      <trkpt lat="30.251691" lon="-98.898323" />
      <trkpt lat="30.251675" lon="-98.898108" />
      <trkpt lat="30.251661" lon="-98.897878" />
      <trkpt lat="30.251631" lon="-98.897436" />
      <trkpt lat="30.251616" lon="-98.897209" />
      <trkpt lat="30.251595" lon="-98.896889" />
      <trkpt lat="30.251579" lon="-98.896662" />
      <trkpt lat="30.251571" lon="-98.896554" />
      <trkpt lat="30.251505" lon="-98.895662" />
      <trkpt lat="30.251501" lon="-98.895611" />
      <trkpt lat="30.251479" lon="-98.895319" />
      <trkpt lat="30.251448" lon="-98.89496" />
      <trkpt lat="30.251394" lon="-98.894354" />
      <trkpt lat="30.251358" lon="-98.893707" />
      <trkpt lat="30.251321" lon="-98.893031" />
      <trkpt lat="30.251034" lon="-98.888898" />
      <trkpt lat="30.25104" lon="-98.888538" />
      <trkpt lat="30.251051" lon="-98.888439" />
      <trkpt lat="30.251074" lon="-98.888224" />
      <trkpt lat="30.251144" lon="-98.887878" />
      <trkpt lat="30.25126" lon="-98.887517" />
      <trkpt lat="30.25137" lon="-98.88726" />
      <trkpt lat="30.251509" lon="-98.886994" />
      <trkpt lat="30.252706" lon="-98.885251" />
      <trkpt lat="30.253671" lon="-98.883838" />
      <trkpt lat="30.25409" lon="-98.883224" />
      <trkpt lat="30.254434" lon="-98.882721" />
      <trkpt lat="30.255265" lon="-98.881487" />
      <trkpt lat="30.255282" lon="-98.881463" />
      <trkpt lat="30.255298" lon="-98.881439" />
      <trkpt lat="30.255861" lon="-98.880621" />
      <trkpt lat="30.256014" lon="-98.880282" />
      <trkpt lat="30.256091" lon="-98.880039" />
      <trkpt lat="30.256159" lon="-98.879729" />
      <trkpt lat="30.256183" lon="-98.879471" />
      <trkpt lat="30.256181" lon="-98.879234" />
      <trkpt lat="30.256165" lon="-98.878519" />
      <trkpt lat="30.256146" lon="-98.878084" />
      <trkpt lat="30.256132" lon="-98.877812" />
      <trkpt lat="30.256112" lon="-98.877439" />
      <trkpt lat="30.256117" lon="-98.87715" />
      <trkpt lat="30.256128" lon="-98.876645" />
      <trkpt lat="30.256131" lon="-98.876022" />
      <trkpt lat="30.256121" lon="-98.875381" />
      <trkpt lat="30.256105" lon="-98.874307" />
      <trkpt lat="30.256088" lon="-98.873207" />
      <trkpt lat="30.256083" lon="-98.872877" />
      <trkpt lat="30.256078" lon="-98.871671" />
      <trkpt lat="30.256061" lon="-98.870326" />
      <trkpt lat="30.25606" lon="-98.869522" />
      <trkpt lat="30.256059" lon="-98.867479" />
      <trkpt lat="30.2561" lon="-98.864841" />
      <trkpt lat="30.256066" lon="-98.862122" />
      <trkpt lat="30.256059" lon="-98.86133" />
      <trkpt lat="30.256075" lon="-98.860604" />
      <trkpt lat="30.256119" lon="-98.858071" />
      <trkpt lat="30.256143" lon="-98.856101" />
      <trkpt lat="30.25615" lon="-98.855572" />
      <trkpt lat="30.256139" lon="-98.855368" />
      <trkpt lat="30.256128" lon="-98.855307" />
      <trkpt lat="30.256108" lon="-98.8552" />
      <trkpt lat="30.256088" lon="-98.855089" />
      <trkpt lat="30.256036" lon="-98.854931" />
      <trkpt lat="30.255916" lon="-98.854723" />
      <trkpt lat="30.255759" lon="-98.854495" />
      <trkpt lat="30.254344" lon="-98.852831" />
      <trkpt lat="30.254266" lon="-98.852744" />
      <trkpt lat="30.254037" lon="-98.85247" />
      <trkpt lat="30.253978" lon="-98.85238" />
      <trkpt lat="30.253882" lon="-98.852234" />
      <trkpt lat="30.253799" lon="-98.852031" />
      <trkpt lat="30.253737" lon="-98.851786" />
      <trkpt lat="30.253717" lon="-98.851523" />
      <trkpt lat="30.253717" lon="-98.85147" />
      <trkpt lat="30.253717" lon="-98.851036" />
      <trkpt lat="30.253717" lon="-98.849784" />
      <trkpt lat="30.253718" lon="-98.849443" />
      <trkpt lat="30.253718" lon="-98.849126" />
      <trkpt lat="30.253718" lon="-98.848988" />
      <trkpt lat="30.25362" lon="-98.848955" />
      <trkpt lat="30.25238" lon="-98.848534" />
      <trkpt lat="30.250878" lon="-98.848024" />
      <trkpt lat="30.250478" lon="-98.847871" />
      <trkpt lat="30.250009" lon="-98.847735" />
      <trkpt lat="30.249779" lon="-98.847669" />
      <trkpt lat="30.249557" lon="-98.847604" />
      <trkpt lat="30.249499" lon="-98.847588" />
      <trkpt lat="30.24925" lon="-98.847516" />
      <trkpt lat="30.248543" lon="-98.847268" />
      <trkpt lat="30.24812" lon="-98.847131" />
      <trkpt lat="30.247759" lon="-98.847021" />
      <trkpt lat="30.247679" lon="-98.846997" />
      <trkpt lat="30.247643" lon="-98.846986" />
      <trkpt lat="30.247597" lon="-98.846971" />
      <trkpt lat="30.246857" lon="-98.846726" />
      <trkpt lat="30.246537" lon="-98.846596" />
      <trkpt lat="30.246221" lon="-98.846441" />
      <trkpt lat="30.245948" lon="-98.84627" />
      <trkpt lat="30.245656" lon="-98.846065" />
      <trkpt lat="30.245394" lon="-98.845839" />
      <trkpt lat="30.244668" lon="-98.845177" />
      <trkpt lat="30.243523" lon="-98.844161" />
      <trkpt lat="30.242637" lon="-98.843375" />
      <trkpt lat="30.242304" lon="-98.843087" />
      <trkpt lat="30.241581" lon="-98.842463" />
      <trkpt lat="30.240997" lon="-98.841873" />
      <trkpt lat="30.24043" lon="-98.841176" />
      <trkpt lat="30.240411" lon="-98.841146" />
      <trkpt lat="30.239767" lon="-98.840134" />
      <trkpt lat="30.239325" lon="-98.839438" />
      <trkpt lat="30.238807" lon="-98.838623" />
      <trkpt lat="30.238251" lon="-98.837748" />
      <trkpt lat="30.236485" lon="-98.834885" />
      <trkpt lat="30.235379" lon="-98.833132" />
      <trkpt lat="30.235176" lon="-98.832812" />
      <trkpt lat="30.233732" lon="-98.830529" />
      <trkpt lat="30.233448" lon="-98.83008" />
      <trkpt lat="30.23309" lon="-98.829514" />
      <trkpt lat="30.231834" lon="-98.827619" />
      <trkpt lat="30.231597" lon="-98.827261" />
      <trkpt lat="30.22875" lon="-98.822954" />
      <trkpt lat="30.228495" lon="-98.822511" />
      <trkpt lat="30.228349" lon="-98.822242" />
      <trkpt lat="30.228123" lon="-98.821766" />
      <trkpt lat="30.227924" lon="-98.821224" />
      <trkpt lat="30.227764" lon="-98.820686" />
      <trkpt lat="30.227582" lon="-98.819895" />
      <trkpt lat="30.226992" lon="-98.817182" />
      <trkpt lat="30.226821" lon="-98.8164" />
      <trkpt lat="30.22627" lon="-98.813888" />
      <trkpt lat="30.226064" lon="-98.812947" />
      <trkpt lat="30.225631" lon="-98.810901" />
      <trkpt lat="30.225501" lon="-98.810109" />
      <trkpt lat="30.225424" lon="-98.809247" />
      <trkpt lat="30.225391" lon="-98.808321" />
      <trkpt lat="30.225363" lon="-98.807459" />
      <trkpt lat="30.225345" lon="-98.806929" />
      <trkpt lat="30.225276" lon="-98.804801" />
      <trkpt lat="30.225265" lon="-98.804485" />
      <trkpt lat="30.225252" lon="-98.804084" />
      <trkpt lat="30.225237" lon="-98.803547" />
      <trkpt lat="30.225144" lon="-98.800425" />
      <trkpt lat="30.225099" lon="-98.798872" />
      <trkpt lat="30.225083" lon="-98.798468" />
      <trkpt lat="30.225072" lon="-98.798165" />
      <trkpt lat="30.225007" lon="-98.796512" />
      <trkpt lat="30.22499" lon="-98.796279" />
      <trkpt lat="30.224914" lon="-98.795407" />
      <trkpt lat="30.224737" lon="-98.793572" />
      <trkpt lat="30.224417" lon="-98.790566" />
      <trkpt lat="30.224383" lon="-98.790248" />
      <trkpt lat="30.224369" lon="-98.790115" />
      <trkpt lat="30.223879" lon="-98.785896" />
      <trkpt lat="30.223366" lon="-98.781416" />
      <trkpt lat="30.223023" lon="-98.778305" />
      <trkpt lat="30.2228" lon="-98.777146" />
      <trkpt lat="30.222587" lon="-98.776181" />
      <trkpt lat="30.221864" lon="-98.772705" />
      <trkpt lat="30.22166" lon="-98.770741" />
      <trkpt lat="30.221433" lon="-98.767902" />
      <trkpt lat="30.221423" lon="-98.767779" />
      <trkpt lat="30.22133" lon="-98.766608" />
      <trkpt lat="30.221326" lon="-98.766568" />
      <trkpt lat="30.221054" lon="-98.763272" />
      <trkpt lat="30.220949" lon="-98.761988" />
      <trkpt lat="30.220917" lon="-98.761648" />
      <trkpt lat="30.220807" lon="-98.760034" />
      <trkpt lat="30.220751" lon="-98.759079" />
      <trkpt lat="30.220761" lon="-98.758528" />
      <trkpt lat="30.220786" lon="-98.757053" />
      <trkpt lat="30.220806" lon="-98.755852" />
      <trkpt lat="30.220816" lon="-98.755259" />
      <trkpt lat="30.220824" lon="-98.754747" />
      <trkpt lat="30.220826" lon="-98.754616" />
      <trkpt lat="30.220886" lon="-98.752848" />
      <trkpt lat="30.220974" lon="-98.750303" />
      <trkpt lat="30.221004" lon="-98.749388" />
      <trkpt lat="30.22101" lon="-98.749207" />
      <trkpt lat="30.22102" lon="-98.748908" />
      <trkpt lat="30.221033" lon="-98.74812" />
      <trkpt lat="30.221039" lon="-98.747728" />
      <trkpt lat="30.221079" lon="-98.747329" />
      <trkpt lat="30.221138" lon="-98.745479" />
      <trkpt lat="30.22115" lon="-98.745086" />
      <trkpt lat="30.221271" lon="-98.743994" />
      <trkpt lat="30.22153" lon="-98.743039" />
      <trkpt lat="30.221799" lon="-98.741976" />
      <trkpt lat="30.22217" lon="-98.740507" />
      <trkpt lat="30.222851" lon="-98.737503" />
      <trkpt lat="30.222872" lon="-98.73741" />
      <trkpt lat="30.22327" lon="-98.735409" />
      <trkpt lat="30.223449" lon="-98.734521" />
      <trkpt lat="30.22357" lon="-98.73319" />
      <trkpt lat="30.223568" lon="-98.732064" />
      <trkpt lat="30.223567" lon="-98.731335" />
      <trkpt lat="30.223565" lon="-98.729891" />
      <trkpt lat="30.223563" lon="-98.728533" />
      <trkpt lat="30.223563" lon="-98.728406" />
      <trkpt lat="30.223494" lon="-98.727483" />
      <trkpt lat="30.223467" lon="-98.727138" />
      <trkpt lat="30.223455" lon="-98.726984" />
      <trkpt lat="30.223382" lon="-98.726201" />
      <trkpt lat="30.223375" lon="-98.72612" />
      <trkpt lat="30.223359" lon="-98.726012" />
      <trkpt lat="30.223347" lon="-98.725943" />
      <trkpt lat="30.223215" lon="-98.724757" />
      <trkpt lat="30.22319" lon="-98.724532" />
      <trkpt lat="30.223125" lon="-98.72391" />
      <trkpt lat="30.223064" lon="-98.723173" />
      <trkpt lat="30.22306" lon="-98.723127" />
      <trkpt lat="30.222979" lon="-98.721852" />
      <trkpt lat="30.222976" lon="-98.721807" />
      <trkpt lat="30.222961" lon="-98.720617" />
      <trkpt lat="30.222948" lon="-98.719573" />
      <trkpt lat="30.222939" lon="-98.718964" />
      <trkpt lat="30.222902" lon="-98.718277" />
      <trkpt lat="30.22281" lon="-98.717589" />
      <trkpt lat="30.222791" lon="-98.717451" />
      <trkpt lat="30.222694" lon="-98.717056" />
      <trkpt lat="30.222411" lon="-98.715906" />
      <trkpt lat="30.222368" lon="-98.71578" />
      <trkpt lat="30.221734" lon="-98.713299" />
      <trkpt lat="30.22109" lon="-98.710779" />
      <trkpt lat="30.220835" lon="-98.709812" />
      <trkpt lat="30.220739" lon="-98.709364" />
      <trkpt lat="30.22066" lon="-98.708864" />
      <trkpt lat="30.220575" lon="-98.70816" />
      <trkpt lat="30.220585" lon="-98.707226" />
      <trkpt lat="30.220612" lon="-98.706626" />
      <trkpt lat="30.220696" lon="-98.705757" />
      <trkpt lat="30.220796" lon="-98.704327" />
      <trkpt lat="30.220965" lon="-98.701916" />
      <trkpt lat="30.221064" lon="-98.700466" />
      <trkpt lat="30.221178" lon="-98.698794" />
      <trkpt lat="30.221187" lon="-98.69801" />
      <trkpt lat="30.221132" lon="-98.695757" />
      <trkpt lat="30.221196" lon="-98.69476" />
      <trkpt lat="30.22141" lon="-98.69388" />
      <trkpt lat="30.221582" lon="-98.693379" />
      <trkpt lat="30.221716" lon="-98.692989" />
      <trkpt lat="30.222819" lon="-98.690393" />
      <trkpt lat="30.225053" lon="-98.685273" />
      <trkpt lat="30.225574" lon="-98.684107" />
      <trkpt lat="30.225778" lon="-98.683704" />
      <trkpt lat="30.22612" lon="-98.683127" />
      <trkpt lat="30.226538" lon="-98.682569" />
      <trkpt lat="30.226758" lon="-98.682305" />
      <trkpt lat="30.227192" lon="-98.681784" />
      <trkpt lat="30.228175" lon="-98.680706" />
      <trkpt lat="30.228937" lon="-98.679882" />
      <trkpt lat="30.22912" lon="-98.679693" />
      <trkpt lat="30.229697" lon="-98.679181" />
      <trkpt lat="30.230093" lon="-98.67892" />
      <trkpt lat="30.23121" lon="-98.678185" />
      <trkpt lat="30.232227" lon="-98.677515" />
      <trkpt lat="30.232484" lon="-98.677323" />
      <trkpt lat="30.232857" lon="-98.677043" />
      <trkpt lat="30.233515" lon="-98.676411" />
      <trkpt lat="30.234175" lon="-98.67563" />
      <trkpt lat="30.234719" lon="-98.674808" />
      <trkpt lat="30.23512" lon="-98.674053" />
      <trkpt lat="30.235528" lon="-98.673023" />
      <trkpt lat="30.235853" lon="-98.671786" />
      <trkpt lat="30.235924" lon="-98.671185" />
      <trkpt lat="30.23599" lon="-98.670625" />
      <trkpt lat="30.235999" lon="-98.669051" />
      <trkpt lat="30.235953" lon="-98.667689" />
      <trkpt lat="30.235953" lon="-98.667345" />
      <trkpt lat="30.235934" lon="-98.666927" />
      <trkpt lat="30.235864" lon="-98.66539" />
      <trkpt lat="30.235863" lon="-98.665331" />
      <trkpt lat="30.235852" lon="-98.664712" />
      <trkpt lat="30.23579" lon="-98.66285" />
      <trkpt lat="30.235741" lon="-98.660449" />
      <trkpt lat="30.235695" lon="-98.659269" />
      <trkpt lat="30.235634" lon="-98.657776" />
      <trkpt lat="30.235611" lon="-98.657209" />
      <trkpt lat="30.23561" lon="-98.657139" />
      <trkpt lat="30.235593" lon="-98.656297" />
      <trkpt lat="30.23555" lon="-98.65529" />
      <trkpt lat="30.235459" lon="-98.653175" />
      <trkpt lat="30.23542" lon="-98.652172" />
      <trkpt lat="30.235384" lon="-98.65097" />
      <trkpt lat="30.235319" lon="-98.649166" />
      <trkpt lat="30.235284" lon="-98.648195" />
      <trkpt lat="30.235261" lon="-98.647555" />
      <trkpt lat="30.23525" lon="-98.647231" />
      <trkpt lat="30.235118" lon="-98.643277" />
      <trkpt lat="30.235103" lon="-98.642898" />
      <trkpt lat="30.2351" lon="-98.642805" />
      <trkpt lat="30.235053" lon="-98.641529" />
      <trkpt lat="30.235011" lon="-98.640431" />
      <trkpt lat="30.234914" lon="-98.637881" />
      <trkpt lat="30.234859" lon="-98.637119" />
      <trkpt lat="30.234868" lon="-98.636738" />
      <trkpt lat="30.234866" lon="-98.636558" />
      <trkpt lat="30.234767" lon="-98.634077" />
      <trkpt lat="30.234692" lon="-98.632184" />
      <trkpt lat="30.234627" lon="-98.629496" />
      <trkpt lat="30.234619" lon="-98.62913" />
      <trkpt lat="30.234606" lon="-98.628664" />
      <trkpt lat="30.234589" lon="-98.628238" />
      <trkpt lat="30.234578" lon="-98.627935" />
      <trkpt lat="30.234506" lon="-98.626111" />
      <trkpt lat="30.234488" lon="-98.625543" />
      <trkpt lat="30.234488" lon="-98.625328" />
      <trkpt lat="30.234479" lon="-98.624899" />
      <trkpt lat="30.234461" lon="-98.624376" />
      <trkpt lat="30.234367" lon="-98.621584" />
      <trkpt lat="30.234221" lon="-98.617533" />
      <trkpt lat="30.234239" lon="-98.616664" />
      <trkpt lat="30.234284" lon="-98.615715" />
      <trkpt lat="30.234416" lon="-98.614604" />
      <trkpt lat="30.23463" lon="-98.613384" />
      <trkpt lat="30.234948" lon="-98.611934" />
      <trkpt lat="30.23513" lon="-98.611104" />
      <trkpt lat="30.235216" lon="-98.610657" />
      <trkpt lat="30.235471" lon="-98.609304" />
      <trkpt lat="30.235681" lon="-98.60817" />
      <trkpt lat="30.235823" lon="-98.607529" />
      <trkpt lat="30.237428" lon="-98.599294" />
      <trkpt lat="30.237701" lon="-98.597961" />
      <trkpt lat="30.238142" lon="-98.595804" />
      <trkpt lat="30.238624" lon="-98.592953" />
      <trkpt lat="30.238739" lon="-98.592304" />
      <trkpt lat="30.239523" lon="-98.587909" />
      <trkpt lat="30.239532" lon="-98.587858" />
      <trkpt lat="30.239856" lon="-98.586097" />
      <trkpt lat="30.240149" lon="-98.584423" />
      <trkpt lat="30.240165" lon="-98.584334" />
      <trkpt lat="30.24018" lon="-98.584251" />
      <trkpt lat="30.24073" lon="-98.581137" />
      <trkpt lat="30.240806" lon="-98.58072" />
      <trkpt lat="30.240922" lon="-98.580086" />
      <trkpt lat="30.241545" lon="-98.5766" />
      <trkpt lat="30.241613" lon="-98.576225" />
      <trkpt lat="30.241713" lon="-98.575661" />
      <trkpt lat="30.241872" lon="-98.574764" />
      <trkpt lat="30.242387" lon="-98.571867" />
      <trkpt lat="30.242434" lon="-98.571591" />
      <trkpt lat="30.242646" lon="-98.570346" />
      <trkpt lat="30.242709" lon="-98.569971" />
      <trkpt lat="30.242796" lon="-98.569485" />
      <trkpt lat="30.243081" lon="-98.567805" />
      <trkpt lat="30.243254" lon="-98.566748" />
      <trkpt lat="30.243347" lon="-98.566073" />
      <trkpt lat="30.243359" lon="-98.565957" />
      <trkpt lat="30.243418" lon="-98.565394" />
      <trkpt lat="30.243419" lon="-98.565375" />
      <trkpt lat="30.243469" lon="-98.564712" />
      <trkpt lat="30.24357" lon="-98.56256" />
      <trkpt lat="30.243606" lon="-98.561795" />
      <trkpt lat="30.24363" lon="-98.561267" />
      <trkpt lat="30.243645" lon="-98.560966" />
      <trkpt lat="30.243703" lon="-98.560472" />
      <trkpt lat="30.243781" lon="-98.559982" />
      <trkpt lat="30.24388" lon="-98.559497" />
      <trkpt lat="30.243999" lon="-98.559019" />
      <trkpt lat="30.244137" lon="-98.558547" />
      <trkpt lat="30.244467" lon="-98.557499" />
      <trkpt lat="30.244693" lon="-98.55678" />
      <trkpt lat="30.245195" lon="-98.555185" />
      <trkpt lat="30.245491" lon="-98.554262" />
      <trkpt lat="30.245604" lon="-98.553843" />
      <trkpt lat="30.245698" lon="-98.553419" />
      <trkpt lat="30.245775" lon="-98.55299" />
      <trkpt lat="30.245802" lon="-98.552784" />
      <trkpt lat="30.245832" lon="-98.552557" />
      <trkpt lat="30.245872" lon="-98.552121" />
      <trkpt lat="30.245893" lon="-98.551683" />
      <trkpt lat="30.245894" lon="-98.551474" />
      <trkpt lat="30.245895" lon="-98.551245" />
      <trkpt lat="30.245877" lon="-98.550686" />
      <trkpt lat="30.245788" lon="-98.547918" />
      <trkpt lat="30.245727" lon="-98.546343" />
      <trkpt lat="30.245651" lon="-98.544131" />
      <trkpt lat="30.245602" lon="-98.542675" />
      <trkpt lat="30.245568" lon="-98.541682" />
      <trkpt lat="30.24557" lon="-98.541247" />
      <trkpt lat="30.24559" lon="-98.540813" />
      <trkpt lat="30.245628" lon="-98.54038" />
      <trkpt lat="30.24565" lon="-98.540196" />
      <trkpt lat="30.245702" lon="-98.539925" />
      <trkpt lat="30.245798" lon="-98.539528" />
      <trkpt lat="30.245903" lon="-98.539171" />
      <trkpt lat="30.246023" lon="-98.538821" />
      <trkpt lat="30.246078" lon="-98.538676" />
      <trkpt lat="30.246233" lon="-98.538312" />
      <trkpt lat="30.246392" lon="-98.537983" />
      <trkpt lat="30.246565" lon="-98.537664" />
      <trkpt lat="30.246752" lon="-98.537356" />
      <trkpt lat="30.246954" lon="-98.537059" />
      <trkpt lat="30.247168" lon="-98.536776" />
      <trkpt lat="30.247243" lon="-98.536684" />
      <trkpt lat="30.247275" lon="-98.536638" />
      <trkpt lat="30.247977" lon="-98.535616" />
      <trkpt lat="30.248711" lon="-98.534548" />
      <trkpt lat="30.250352" lon="-98.532162" />
      <trkpt lat="30.250862" lon="-98.531392" />
      <trkpt lat="30.25126" lon="-98.530792" />
      <trkpt lat="30.251438" lon="-98.530523" />
      <trkpt lat="30.252047" lon="-98.52958" />
      <trkpt lat="30.252271" lon="-98.529219" />
      <trkpt lat="30.252576" lon="-98.52877" />
      <trkpt lat="30.253073" lon="-98.527988" />
      <trkpt lat="30.253171" lon="-98.527834" />
      <trkpt lat="30.253303" lon="-98.52756" />
      <trkpt lat="30.253428" lon="-98.527253" />
      <trkpt lat="30.253539" lon="-98.526928" />
      <trkpt lat="30.253621" lon="-98.526629" />
      <trkpt lat="30.253687" lon="-98.526326" />
      <trkpt lat="30.253737" lon="-98.526017" />
      <trkpt lat="30.253763" lon="-98.52572" />
      <trkpt lat="30.253786" lon="-98.525394" />
      <trkpt lat="30.253786" lon="-98.525082" />
      <trkpt lat="30.253769" lon="-98.524769" />
      <trkpt lat="30.253772" lon="-98.52377" />
      <trkpt lat="30.253774" lon="-98.523136" />
      <trkpt lat="30.253778" lon="-98.522634" />
      <trkpt lat="30.253796" lon="-98.520537" />
      <trkpt lat="30.253803" lon="-98.519758" />
      <trkpt lat="30.253821" lon="-98.517568" />
      <trkpt lat="30.253836" lon="-98.516063" />
      <trkpt lat="30.253837" lon="-98.515835" />
      <trkpt lat="30.253842" lon="-98.515093" />
      <trkpt lat="30.253848" lon="-98.514041" />
      <trkpt lat="30.253849" lon="-98.513878" />
      <trkpt lat="30.253849" lon="-98.513862" />
      <trkpt lat="30.253858" lon="-98.512513" />
      <trkpt lat="30.253872" lon="-98.510224" />
      <trkpt lat="30.253879" lon="-98.509158" />
      <trkpt lat="30.253904" lon="-98.506302" />
      <trkpt lat="30.253922" lon="-98.504315" />
      <trkpt lat="30.253931" lon="-98.503274" />
      <trkpt lat="30.253956" lon="-98.50006" />
      <trkpt lat="30.253967" lon="-98.498555" />
      <trkpt lat="30.253973" lon="-98.497888" />
      <trkpt lat="30.253975" lon="-98.497605" />
      <trkpt lat="30.253975" lon="-98.497555" />
      <trkpt lat="30.253995" lon="-98.497116" />
      <trkpt lat="30.254035" lon="-98.496679" />
      <trkpt lat="30.254092" lon="-98.496245" />
      <trkpt lat="30.254168" lon="-98.495815" />
      <trkpt lat="30.254262" lon="-98.495389" />
      <trkpt lat="30.254374" lon="-98.494969" />
      <trkpt lat="30.254502" lon="-98.494555" />
      <trkpt lat="30.255616" lon="-98.491503" />
      <trkpt lat="30.255881" lon="-98.490774" />
      <trkpt lat="30.25718" lon="-98.487317" />
      <trkpt lat="30.257429" lon="-98.486665" />
      <trkpt lat="30.258547" lon="-98.483524" />
      <trkpt lat="30.259628" lon="-98.480621" />
      <trkpt lat="30.260424" lon="-98.478445" />
      <trkpt lat="30.260594" lon="-98.47798" />
      <trkpt lat="30.261865" lon="-98.474521" />
      <trkpt lat="30.262349" lon="-98.473198" />
      <trkpt lat="30.262724" lon="-98.472171" />
      <trkpt lat="30.262738" lon="-98.472135" />
      <trkpt lat="30.263112" lon="-98.47113" />
      <trkpt lat="30.263247" lon="-98.470765" />
      <trkpt lat="30.264036" lon="-98.468616" />
      <trkpt lat="30.264402" lon="-98.46762" />
      <trkpt lat="30.264948" lon="-98.466134" />
      <trkpt lat="30.265058" lon="-98.465835" />
      <trkpt lat="30.266265" lon="-98.462549" />
      <trkpt lat="30.266953" lon="-98.460693" />
      <trkpt lat="30.267472" lon="-98.459275" />
      <trkpt lat="30.267675" lon="-98.458719" />
      <trkpt lat="30.268623" lon="-98.456156" />
      <trkpt lat="30.268672" lon="-98.456023" />
      <trkpt lat="30.268771" lon="-98.455754" />
      <trkpt lat="30.268866" lon="-98.455454" />
      <trkpt lat="30.26903" lon="-98.454934" />
      <trkpt lat="30.269178" lon="-98.45429" />
      <trkpt lat="30.269304" lon="-98.453645" />
      <trkpt lat="30.269539" lon="-98.452346" />
      <trkpt lat="30.270094" lon="-98.449287" />
      <trkpt lat="30.270217" lon="-98.448598" />
      <trkpt lat="30.270531" lon="-98.446844" />
      <trkpt lat="30.271062" lon="-98.443914" />
      <trkpt lat="30.271123" lon="-98.443502" />
      <trkpt lat="30.271144" lon="-98.443324" />
      <trkpt lat="30.27118" lon="-98.442891" />
      <trkpt lat="30.271195" lon="-98.442457" />
      <trkpt lat="30.271222" lon="-98.439764" />
      <trkpt lat="30.271227" lon="-98.439324" />
      <trkpt lat="30.271236" lon="-98.438444" />
      <trkpt lat="30.271241" lon="-98.437883" />
      <trkpt lat="30.271244" lon="-98.437587" />
      <trkpt lat="30.271251" lon="-98.436938" />
      <trkpt lat="30.27128" lon="-98.434459" />
      <trkpt lat="30.27129" lon="-98.433682" />
      <trkpt lat="30.271291" lon="-98.433575" />
      <trkpt lat="30.271288" lon="-98.43341" />
      <trkpt lat="30.271277" lon="-98.432883" />
      <trkpt lat="30.271254" lon="-98.43227" />
      <trkpt lat="30.271176" lon="-98.430498" />
      <trkpt lat="30.271145" lon="-98.429755" />
      <trkpt lat="30.27108" lon="-98.428193" />
      <trkpt lat="30.271082" lon="-98.427758" />
      <trkpt lat="30.271105" lon="-98.427325" />
      <trkpt lat="30.271149" lon="-98.426893" />
      <trkpt lat="30.271187" lon="-98.426647" />
      <trkpt lat="30.271263" lon="-98.426279" />
      <trkpt lat="30.27136" lon="-98.425918" />
      <trkpt lat="30.271363" lon="-98.425909" />
      <trkpt lat="30.271475" lon="-98.425564" />
      <trkpt lat="30.271581" lon="-98.425292" />
      <trkpt lat="30.271609" lon="-98.425219" />
      <trkpt lat="30.271762" lon="-98.424884" />
      <trkpt lat="30.271902" lon="-98.424613" />
      <trkpt lat="30.272069" lon="-98.424344" />
      <trkpt lat="30.2721" lon="-98.424295" />
      <trkpt lat="30.272206" lon="-98.424123" />
      <trkpt lat="30.27256" lon="-98.423596" />
      <trkpt lat="30.273298" lon="-98.422527" />
      <trkpt lat="30.273579" lon="-98.422114" />
      <trkpt lat="30.274042" lon="-98.421432" />
      <trkpt lat="30.274408" lon="-98.420927" />
      <trkpt lat="30.274447" lon="-98.420873" />
      <trkpt lat="30.275326" lon="-98.419658" />
      <trkpt lat="30.275465" lon="-98.419459" />
      <trkpt lat="30.275605" lon="-98.419245" />
      <trkpt lat="30.275774" lon="-98.418974" />
      <trkpt lat="30.275949" lon="-98.418668" />
      <trkpt lat="30.276179" lon="-98.418278" />
      <trkpt lat="30.276269" lon="-98.418122" />
      <trkpt lat="30.276345" lon="-98.417966" />
      <trkpt lat="30.276425" lon="-98.417783" />
      <trkpt lat="30.276497" lon="-98.417581" />
      <trkpt lat="30.276542" lon="-98.417423" />
      <trkpt lat="30.276574" lon="-98.417285" />
      <trkpt lat="30.276594" lon="-98.417178" />
      <trkpt lat="30.2766" lon="-98.417147" />
      <trkpt lat="30.276621" lon="-98.417039" />
      <trkpt lat="30.276642" lon="-98.416879" />
      <trkpt lat="30.27665" lon="-98.416741" />
      <trkpt lat="30.276655" lon="-98.416571" />
      <trkpt lat="30.276657" lon="-98.416426" />
      <trkpt lat="30.276672" lon="-98.415338" />
      <trkpt lat="30.276689" lon="-98.414226" />
      <trkpt lat="30.2767" lon="-98.413164" />
      <trkpt lat="30.276713" lon="-98.411993" />
      <trkpt lat="30.276714" lon="-98.411925" />
      <trkpt lat="30.276722" lon="-98.411473" />
      <trkpt lat="30.276731" lon="-98.410888" />
      <trkpt lat="30.27675" lon="-98.409793" />
      <trkpt lat="30.277003" lon="-98.409798" />
    </trkseg>
  </trk>
</gpx>