<?xml version='1.0' encoding='UTF-8'?>
<gpx version="1.1" creator="Antigravity Route Generator" xmlns="http://www.topografix.com/GPX/1/1">
  <trk>
    <name>Round Top &amp; Fayetteville Country Lane</name>
    <desc>Savannah &amp; Prairie Sweeps (28.3 mi) - FM 1291 -&gt; Round Top -&gt; FM 2503 -&gt; Shelby</desc>
    <trkseg>
      <trkpt lat="29.904022" lon="-96.677977" />
      <trkpt lat="29.904217" lon="-96.678222" />
      <trkpt lat="29.904571" lon="-96.678669" />
      <trkpt lat="29.905099" lon="-96.679318" />
      <trkpt lat="29.905142" lon="-96.679383" />
      <trkpt lat="29.905195" lon="-96.679506" />
      <trkpt lat="29.905233" lon="-96.679603" />
      <trkpt lat="29.90525" lon="-96.679682" />
      <trkpt lat="29.905255" lon="-96.679757" />
      <trkpt lat="29.905239" lon="-96.68032" />
      <trkpt lat="29.905249" lon="-96.680775" />
      <trkpt lat="29.905251" lon="-96.681637" />
      <trkpt lat="29.905251" lon="-96.682301" />
      <trkpt lat="29.905252" lon="-96.682598" />
      <trkpt lat="29.90526" lon="-96.682694" />
      <trkpt lat="29.905279" lon="-96.682815" />
      <trkpt lat="29.905306" lon="-96.68293" />
      <trkpt lat="29.905346" lon="-96.683055" />
      <trkpt lat="29.905401" lon="-96.683187" />
      <trkpt lat="29.905466" lon="-96.683332" />
      <trkpt lat="29.905531" lon="-96.683469" />
      <trkpt lat="29.906001" lon="-96.684449" />
      <trkpt lat="29.907504" lon="-96.687611" />
      <trkpt lat="29.907874" lon="-96.688424" />
      <trkpt lat="29.908179" lon="-96.689051" />
      <trkpt lat="29.908297" lon="-96.689267" />
      <trkpt lat="29.908512" lon="-96.689602" />
      <trkpt lat="29.908805" lon="-96.68998" />
      <trkpt lat="29.911872" lon="-96.693713" />
      <trkpt lat="29.912581" lon="-96.694581" />
      <trkpt lat="29.912689" lon="-96.694718" />
      <trkpt lat="29.914125" lon="-96.69655" />
      <trkpt lat="29.915182" lon="-96.697926" />
      <trkpt lat="29.915507" lon="-96.698341" />
      <trkpt lat="29.916283" lon="-96.699314" />
      <trkpt lat="29.916925" lon="-96.700138" />
      <trkpt lat="29.916971" lon="-96.700199" />
      <trkpt lat="29.917403" lon="-96.700766" />
      <trkpt lat="29.917859" lon="-96.701311" />
      <trkpt lat="29.918397" lon="-96.70185" />
      <trkpt lat="29.918828" lon="-96.702215" />
      <trkpt lat="29.919411" lon="-96.702627" />
      <trkpt lat="29.919818" lon="-96.702873" />
      <trkpt lat="29.920374" lon="-96.703169" />
      <trkpt lat="29.921112" lon="-96.703445" />
      <trkpt lat="29.921517" lon="-96.703565" />
      <trkpt lat="29.921926" lon="-96.703656" />
      <trkpt lat="29.922593" lon="-96.703756" />
      <trkpt lat="29.923317" lon="-96.70381" />
      <trkpt lat="29.925264" lon="-96.703923" />
      <trkpt lat="29.929562" lon="-96.704173" />
      <trkpt lat="29.93051" lon="-96.70424" />
      <trkpt lat="29.930939" lon="-96.70426" />
      <trkpt lat="29.931479" lon="-96.704356" />
      <trkpt lat="29.932109" lon="-96.704506" />
      <trkpt lat="29.932773" lon="-96.704744" />
      <trkpt lat="29.933311" lon="-96.705003" />
      <trkpt lat="29.933751" lon="-96.705225" />
      <trkpt lat="29.93418" lon="-96.705498" />
      <trkpt lat="29.934581" lon="-96.705794" />
      <trkpt lat="29.935113" lon="-96.706227" />
      <trkpt lat="29.935444" lon="-96.706558" />
      <trkpt lat="29.935952" lon="-96.707158" />
      <trkpt lat="29.936696" lon="-96.708066" />
      <trkpt lat="29.937675" lon="-96.709286" />
      <trkpt lat="29.938624" lon="-96.710475" />
      <trkpt lat="29.939078" lon="-96.711035" />
      <trkpt lat="29.939807" lon="-96.71195" />
      <trkpt lat="29.940356" lon="-96.71265" />
      <trkpt lat="29.940685" lon="-96.713045" />
      <trkpt lat="29.941036" lon="-96.713467" />
      <trkpt lat="29.941786" lon="-96.714389" />
      <trkpt lat="29.94271" lon="-96.715546" />
      <trkpt lat="29.943655" lon="-96.716739" />
      <trkpt lat="29.944561" lon="-96.717862" />
      <trkpt lat="29.945097" lon="-96.718546" />
      <trkpt lat="29.945409" lon="-96.718945" />
      <trkpt lat="29.946365" lon="-96.720116" />
      <trkpt lat="29.94777" lon="-96.721855" />
      <trkpt lat="29.94845" lon="-96.722688" />
      <trkpt lat="29.949199" lon="-96.723628" />
      <trkpt lat="29.949415" lon="-96.723908" />
      <trkpt lat="29.949704" lon="-96.724282" />
      <trkpt lat="29.949902" lon="-96.724557" />
      <trkpt lat="29.950095" lon="-96.72487" />
      <trkpt lat="29.950205" lon="-96.725048" />
      <trkpt lat="29.950341" lon="-96.725269" />
      <trkpt lat="29.950465" lon="-96.72552" />
      <trkpt lat="29.950693" lon="-96.725982" />
      <trkpt lat="29.950882" lon="-96.726443" />
      <trkpt lat="29.951031" lon="-96.726845" />
      <trkpt lat="29.951289" lon="-96.727745" />
      <trkpt lat="29.951414" lon="-96.728367" />
      <trkpt lat="29.951536" lon="-96.72936" />
      <trkpt lat="29.95162" lon="-96.730189" />
      <trkpt lat="29.9517" lon="-96.731076" />
      <trkpt lat="29.951916" lon="-96.733273" />
      <trkpt lat="29.95208" lon="-96.734209" />
      <trkpt lat="29.952256" lon="-96.735107" />
      <trkpt lat="29.95227" lon="-96.735167" />
      <trkpt lat="29.952356" lon="-96.735525" />
      <trkpt lat="29.952806" lon="-96.736999" />
      <trkpt lat="29.953578" lon="-96.738968" />
      <trkpt lat="29.95421" lon="-96.740465" />
      <trkpt lat="29.954404" lon="-96.740985" />
      <trkpt lat="29.954895" lon="-96.742477" />
      <trkpt lat="29.955098" lon="-96.743228" />
      <trkpt lat="29.955111" lon="-96.743295" />
      <trkpt lat="29.955386" lon="-96.744695" />
      <trkpt lat="29.95541" lon="-96.744847" />
      <trkpt lat="29.955498" lon="-96.745395" />
      <trkpt lat="29.955585" lon="-96.746183" />
      <trkpt lat="29.955663" lon="-96.747317" />
      <trkpt lat="29.955664" lon="-96.748022" />
      <trkpt lat="29.955666" lon="-96.748326" />
      <trkpt lat="29.955664" lon="-96.748835" />
      <trkpt lat="29.955648" lon="-96.749425" />
      <trkpt lat="29.955607" lon="-96.750429" />
      <trkpt lat="29.955559" lon="-96.751243" />
      <trkpt lat="29.95553" lon="-96.751973" />
      <trkpt lat="29.955489" lon="-96.752706" />
      <trkpt lat="29.955462" lon="-96.753586" />
      <trkpt lat="29.955447" lon="-96.753955" />
      <trkpt lat="29.955412" lon="-96.754867" />
      <trkpt lat="29.955364" lon="-96.755928" />
      <trkpt lat="29.955306" lon="-96.757055" />
      <trkpt lat="29.955236" lon="-96.758357" />
      <trkpt lat="29.955256" lon="-96.759006" />
      <trkpt lat="29.955304" lon="-96.759595" />
      <trkpt lat="29.955362" lon="-96.760082" />
      <trkpt lat="29.955434" lon="-96.760537" />
      <trkpt lat="29.955563" lon="-96.761151" />
      <trkpt lat="29.955733" lon="-96.761692" />
      <trkpt lat="29.95581" lon="-96.761939" />
      <trkpt lat="29.955986" lon="-96.762412" />
      <trkpt lat="29.956191" lon="-96.762924" />
      <trkpt lat="29.956342" lon="-96.763222" />
      <trkpt lat="29.956726" lon="-96.763866" />
      <trkpt lat="29.957082" lon="-96.764394" />
      <trkpt lat="29.957751" lon="-96.765269" />
      <trkpt lat="29.958389" lon="-96.766108" />
      <trkpt lat="29.958955" lon="-96.766829" />
      <trkpt lat="29.959679" lon="-96.767719" />
      <trkpt lat="29.959823" lon="-96.767897" />
      <trkpt lat="29.960549" lon="-96.768849" />
      <trkpt lat="29.961014" lon="-96.769429" />
      <trkpt lat="29.96179" lon="-96.770394" />
      <trkpt lat="29.963846" lon="-96.773017" />
      <trkpt lat="29.964399" lon="-96.773715" />
      <trkpt lat="29.965664" lon="-96.775341" />
      <trkpt lat="29.96585" lon="-96.775498" />
      <trkpt lat="29.965985" lon="-96.775563" />
      <trkpt lat="29.966166" lon="-96.775595" />
      <trkpt lat="29.966315" lon="-96.775587" />
      <trkpt lat="29.966494" lon="-96.77556" />
      <trkpt lat="29.966868" lon="-96.775185" />
      <trkpt lat="29.966901" lon="-96.775149" />
      <trkpt lat="29.966966" lon="-96.77508" />
      <trkpt lat="29.967882" lon="-96.774096" />
      <trkpt lat="29.969535" lon="-96.772382" />
      <trkpt lat="29.971739" lon="-96.770097" />
      <trkpt lat="29.972238" lon="-96.769573" />
      <trkpt lat="29.972956" lon="-96.768839" />
      <trkpt lat="29.973088" lon="-96.768697" />
      <trkpt lat="29.973535" lon="-96.768228" />
      <trkpt lat="29.973881" lon="-96.767888" />
      <trkpt lat="29.974117" lon="-96.767657" />
      <trkpt lat="29.974808" lon="-96.767003" />
      <trkpt lat="29.97495" lon="-96.766876" />
      <trkpt lat="29.975384" lon="-96.766486" />
      <trkpt lat="29.975454" lon="-96.766423" />
      <trkpt lat="29.976068" lon="-96.765964" />
      <trkpt lat="29.976231" lon="-96.765863" />
      <trkpt lat="29.977591" lon="-96.76482" />
      <trkpt lat="29.977893" lon="-96.764578" />
      <trkpt lat="29.978339" lon="-96.764151" />
      <trkpt lat="29.978446" lon="-96.764044" />
      <trkpt lat="29.978803" lon="-96.763688" />
      <trkpt lat="29.979336" lon="-96.763174" />
      <trkpt lat="29.980173" lon="-96.762352" />
      <trkpt lat="29.980964" lon="-96.761546" />
      <trkpt lat="29.980983" lon="-96.76153" />
      <trkpt lat="29.982885" lon="-96.759671" />
      <trkpt lat="29.983777" lon="-96.758811" />
      <trkpt lat="29.984122" lon="-96.758466" />
      <trkpt lat="29.984497" lon="-96.758114" />
      <trkpt lat="29.984841" lon="-96.757755" />
      <trkpt lat="29.985225" lon="-96.757404" />
      <trkpt lat="29.985748" lon="-96.757005" />
      <trkpt lat="29.986616" lon="-96.756314" />
      <trkpt lat="29.98683" lon="-96.756151" />
      <trkpt lat="29.988082" lon="-96.755196" />
      <trkpt lat="29.990733" lon="-96.753138" />
      <trkpt lat="29.992735" lon="-96.751596" />
      <trkpt lat="29.993065" lon="-96.751342" />
      <trkpt lat="29.993811" lon="-96.750766" />
      <trkpt lat="29.994628" lon="-96.750115" />
      <trkpt lat="29.994752" lon="-96.750016" />
      <trkpt lat="29.995982" lon="-96.749049" />
      <trkpt lat="29.996991" lon="-96.748266" />
      <trkpt lat="29.997207" lon="-96.748099" />
      <trkpt lat="29.998528" lon="-96.747061" />
      <trkpt lat="29.99899" lon="-96.746707" />
      <trkpt lat="29.999021" lon="-96.746683" />
      <trkpt lat="29.999108" lon="-96.746611" />
      <trkpt lat="29.999229" lon="-96.74651" />
      <trkpt lat="29.999368" lon="-96.746395" />
      <trkpt lat="30.000883" lon="-96.745222" />
      <trkpt lat="30.001702" lon="-96.744643" />
      <trkpt lat="30.001951" lon="-96.744489" />
      <trkpt lat="30.002839" lon="-96.744042" />
      <trkpt lat="30.003403" lon="-96.743822" />
      <trkpt lat="30.004293" lon="-96.743485" />
      <trkpt lat="30.006669" lon="-96.742552" />
      <trkpt lat="30.007341" lon="-96.742251" />
      <trkpt lat="30.00796" lon="-96.741886" />
      <trkpt lat="30.008625" lon="-96.741326" />
      <trkpt lat="30.008861" lon="-96.741101" />
      <trkpt lat="30.009398" lon="-96.740547" />
      <trkpt lat="30.011808" lon="-96.738044" />
      <trkpt lat="30.012917" lon="-96.736874" />
      <trkpt lat="30.013034" lon="-96.736751" />
      <trkpt lat="30.013608" lon="-96.736156" />
      <trkpt lat="30.014148" lon="-96.735591" />
      <trkpt lat="30.014644" lon="-96.735073" />
      <trkpt lat="30.014984" lon="-96.734717" />
      <trkpt lat="30.015252" lon="-96.734436" />
      <trkpt lat="30.015339" lon="-96.734345" />
      <trkpt lat="30.015473" lon="-96.734204" />
      <trkpt lat="30.015788" lon="-96.733872" />
      <trkpt lat="30.016243" lon="-96.733393" />
      <trkpt lat="30.016259" lon="-96.733376" />
      <trkpt lat="30.016853" lon="-96.732792" />
      <trkpt lat="30.017661" lon="-96.731954" />
      <trkpt lat="30.017886" lon="-96.731728" />
      <trkpt lat="30.017917" lon="-96.731697" />
      <trkpt lat="30.018415" lon="-96.731195" />
      <trkpt lat="30.019187" lon="-96.730365" />
      <trkpt lat="30.019681" lon="-96.729834" />
      <trkpt lat="30.020033" lon="-96.729469" />
      <trkpt lat="30.020327" lon="-96.729164" />
      <trkpt lat="30.021203" lon="-96.728254" />
      <trkpt lat="30.022062" lon="-96.72733" />
      <trkpt lat="30.022885" lon="-96.726471" />
      <trkpt lat="30.022678" lon="-96.72619" />
      <trkpt lat="30.022566" lon="-96.726039" />
      <trkpt lat="30.022406" lon="-96.725847" />
      <trkpt lat="30.022299" lon="-96.725707" />
      <trkpt lat="30.02223" lon="-96.72559" />
      <trkpt lat="30.022159" lon="-96.725449" />
      <trkpt lat="30.02199" lon="-96.725151" />
      <trkpt lat="30.021919" lon="-96.725004" />
      <trkpt lat="30.021888" lon="-96.724921" />
      <trkpt lat="30.02186" lon="-96.72485" />
      <trkpt lat="30.02172" lon="-96.724519" />
      <trkpt lat="30.02168" lon="-96.724343" />
      <trkpt lat="30.02164" lon="-96.724099" />
      <trkpt lat="30.021555" lon="-96.723708" />
      <trkpt lat="30.021463" lon="-96.723346" />
      <trkpt lat="30.021338" lon="-96.722915" />
      <trkpt lat="30.021213" lon="-96.722519" />
      <trkpt lat="30.021071" lon="-96.72223" />
      <trkpt lat="30.02091" lon="-96.721842" />
      <trkpt lat="30.020803" lon="-96.721686" />
      <trkpt lat="30.020773" lon="-96.721638" />
      <trkpt lat="30.020683" lon="-96.721491" />
      <trkpt lat="30.020563" lon="-96.721311" />
      <trkpt lat="30.020364" lon="-96.721064" />
      <trkpt lat="30.019422" lon="-96.720057" />
      <trkpt lat="30.019131" lon="-96.71971" />
      <trkpt lat="30.018968" lon="-96.719515" />
      <trkpt lat="30.01844" lon="-96.718955" />
      <trkpt lat="30.018171" lon="-96.718637" />
      <trkpt lat="30.017858" lon="-96.718249" />
      <trkpt lat="30.017637" lon="-96.717955" />
      <trkpt lat="30.017399" lon="-96.717629" />
      <trkpt lat="30.017229" lon="-96.717374" />
      <trkpt lat="30.017142" lon="-96.717243" />
      <trkpt lat="30.016933" lon="-96.716858" />
      <trkpt lat="30.01653" lon="-96.716223" />
      <trkpt lat="30.016388" lon="-96.715988" />
      <trkpt lat="30.015828" lon="-96.715059" />
      <trkpt lat="30.015169" lon="-96.713983" />
      <trkpt lat="30.014678" lon="-96.713212" />
      <trkpt lat="30.014339" lon="-96.712627" />
      <trkpt lat="30.013992" lon="-96.712048" />
      <trkpt lat="30.013767" lon="-96.711659" />
      <trkpt lat="30.013616" lon="-96.711338" />
      <trkpt lat="30.013474" lon="-96.711004" />
      <trkpt lat="30.013397" lon="-96.710763" />
      <trkpt lat="30.013319" lon="-96.71049" />
      <trkpt lat="30.013205" lon="-96.709859" />
      <trkpt lat="30.013152" lon="-96.709488" />
      <trkpt lat="30.013059" lon="-96.708515" />
      <trkpt lat="30.013012" lon="-96.708024" />
      <trkpt lat="30.012948" lon="-96.706991" />
      <trkpt lat="30.012733" lon="-96.704561" />
      <trkpt lat="30.012711" lon="-96.704366" />
      <trkpt lat="30.012659" lon="-96.704055" />
      <trkpt lat="30.012492" lon="-96.703289" />
      <trkpt lat="30.012336" lon="-96.702773" />
      <trkpt lat="30.012021" lon="-96.701989" />
      <trkpt lat="30.011728" lon="-96.701212" />
      <trkpt lat="30.011574" lon="-96.700782" />
      <trkpt lat="30.011384" lon="-96.70021" />
      <trkpt lat="30.011244" lon="-96.699421" />
      <trkpt lat="30.011206" lon="-96.698947" />
      <trkpt lat="30.011157" lon="-96.698443" />
      <trkpt lat="30.011114" lon="-96.69651" />
      <trkpt lat="30.011112" lon="-96.696325" />
      <trkpt lat="30.011111" lon="-96.695909" />
      <trkpt lat="30.011068" lon="-96.695327" />
      <trkpt lat="30.011008" lon="-96.694872" />
      <trkpt lat="30.010911" lon="-96.694378" />
      <trkpt lat="30.010832" lon="-96.694043" />
      <trkpt lat="30.010723" lon="-96.693674" />
      <trkpt lat="30.01056" lon="-96.693218" />
      <trkpt lat="30.009895" lon="-96.691521" />
      <trkpt lat="30.008663" lon="-96.688397" />
      <trkpt lat="30.008133" lon="-96.687052" />
      <trkpt lat="30.007799" lon="-96.686094" />
      <trkpt lat="30.007237" lon="-96.684339" />
      <trkpt lat="30.004859" lon="-96.676858" />
      <trkpt lat="30.004263" lon="-96.674958" />
      <trkpt lat="30.004148" lon="-96.674616" />
      <trkpt lat="30.003571" lon="-96.672798" />
      <trkpt lat="30.003455" lon="-96.672462" />
      <trkpt lat="30.003302" lon="-96.672058" />
      <trkpt lat="30.003033" lon="-96.671505" />
      <trkpt lat="30.002696" lon="-96.670977" />
      <trkpt lat="30.002314" lon="-96.670492" />
      <trkpt lat="30.002016" lon="-96.670177" />
      <trkpt lat="29.998998" lon="-96.667352" />
      <trkpt lat="29.998618" lon="-96.666972" />
      <trkpt lat="29.998366" lon="-96.666698" />
      <trkpt lat="29.998" lon="-96.666224" />
      <trkpt lat="29.997691" lon="-96.665706" />
      <trkpt lat="29.997407" lon="-96.665118" />
      <trkpt lat="29.997233" lon="-96.664667" />
      <trkpt lat="29.997124" lon="-96.664272" />
      <trkpt lat="29.997012" lon="-96.663747" />
      <trkpt lat="29.996861" lon="-96.66288" />
      <trkpt lat="29.996751" lon="-96.662239" />
      <trkpt lat="29.996735" lon="-96.662118" />
      <trkpt lat="29.996652" lon="-96.661598" />
      <trkpt lat="29.996607" lon="-96.661331" />
      <trkpt lat="29.996498" lon="-96.660694" />
      <trkpt lat="29.996345" lon="-96.660011" />
      <trkpt lat="29.996327" lon="-96.659956" />
      <trkpt lat="29.996131" lon="-96.659349" />
      <trkpt lat="29.995856" lon="-96.658717" />
      <trkpt lat="29.995388" lon="-96.657841" />
      <trkpt lat="29.995333" lon="-96.657731" />
      <trkpt lat="29.995073" lon="-96.65712" />
      <trkpt lat="29.99487" lon="-96.656482" />
      <trkpt lat="29.994727" lon="-96.655822" />
      <trkpt lat="29.994671" lon="-96.655429" />
      <trkpt lat="29.994477" lon="-96.653904" />
      <trkpt lat="29.994355" lon="-96.653063" />
      <trkpt lat="29.994331" lon="-96.652909" />
      <trkpt lat="29.994217" lon="-96.651958" />
      <trkpt lat="29.994122" lon="-96.651128" />
      <trkpt lat="29.99395" lon="-96.649917" />
      <trkpt lat="29.993912" lon="-96.649607" />
      <trkpt lat="29.993776" lon="-96.648337" />
      <trkpt lat="29.993741" lon="-96.647709" />
      <trkpt lat="29.993654" lon="-96.645182" />
      <trkpt lat="29.993646" lon="-96.644945" />
      <trkpt lat="29.993611" lon="-96.644366" />
      <trkpt lat="29.993585" lon="-96.644112" />
      <trkpt lat="29.993565" lon="-96.643957" />
      <trkpt lat="29.9935" lon="-96.643537" />
      <trkpt lat="29.993381" lon="-96.642991" />
      <trkpt lat="29.993179" lon="-96.642422" />
      <trkpt lat="29.992956" lon="-96.641941" />
      <trkpt lat="29.992607" lon="-96.641372" />
      <trkpt lat="29.99223" lon="-96.640802" />
      <trkpt lat="29.991246" lon="-96.639385" />
      <trkpt lat="29.990661" lon="-96.638513" />
      <trkpt lat="29.990266" lon="-96.637967" />
      <trkpt lat="29.990009" lon="-96.637611" />
      <trkpt lat="29.989179" lon="-96.636404" />
      <trkpt lat="29.988694" lon="-96.635663" />
      <trkpt lat="29.988246" lon="-96.634921" />
      <trkpt lat="29.988027" lon="-96.634517" />
      <trkpt lat="29.987848" lon="-96.634102" />
      <trkpt lat="29.987649" lon="-96.633616" />
      <trkpt lat="29.987404" lon="-96.632937" />
      <trkpt lat="29.987155" lon="-96.632184" />
      <trkpt lat="29.98703" lon="-96.631827" />
      <trkpt lat="29.986153" lon="-96.629299" />
      <trkpt lat="29.985887" lon="-96.628618" />
      <trkpt lat="29.985518" lon="-96.627822" />
      <trkpt lat="29.985108" lon="-96.62702" />
      <trkpt lat="29.98469" lon="-96.62623" />
      <trkpt lat="29.984252" lon="-96.625384" />
      <trkpt lat="29.983822" lon="-96.624524" />
      <trkpt lat="29.982928" lon="-96.622796" />
      <trkpt lat="29.982714" lon="-96.622391" />
      <trkpt lat="29.981904" lon="-96.62086" />
      <trkpt lat="29.981621" lon="-96.620317" />
      <trkpt lat="29.981469" lon="-96.620024" />
      <trkpt lat="29.980702" lon="-96.61852" />
      <trkpt lat="29.980386" lon="-96.61795" />
      <trkpt lat="29.98008" lon="-96.617341" />
      <trkpt lat="29.979851" lon="-96.616875" />
      <trkpt lat="29.979645" lon="-96.616476" />
      <trkpt lat="29.979408" lon="-96.616038" />
      <trkpt lat="29.979133" lon="-96.615514" />
      <trkpt lat="29.978803" lon="-96.614861" />
      <trkpt lat="29.978527" lon="-96.614341" />
      <trkpt lat="29.978169" lon="-96.613731" />
      <trkpt lat="29.977897" lon="-96.613244" />
      <trkpt lat="29.977767" lon="-96.613" />
      <trkpt lat="29.977699" lon="-96.612873" />
      <trkpt lat="29.977152" lon="-96.611974" />
      <trkpt lat="29.976601" lon="-96.611006" />
      <trkpt lat="29.976395" lon="-96.610625" />
      <trkpt lat="29.976186" lon="-96.61018" />
      <trkpt lat="29.976141" lon="-96.610078" />
      <trkpt lat="29.976" lon="-96.609758" />
      <trkpt lat="29.975877" lon="-96.609413" />
      <trkpt lat="29.975764" lon="-96.609074" />
      <trkpt lat="29.975754" lon="-96.609044" />
      <trkpt lat="29.97561" lon="-96.608656" />
      <trkpt lat="29.975466" lon="-96.608233" />
      <trkpt lat="29.975319" lon="-96.607869" />
      <trkpt lat="29.975108" lon="-96.607432" />
      <trkpt lat="29.97487" lon="-96.607005" />
      <trkpt lat="29.974572" lon="-96.606566" />
      <trkpt lat="29.974503" lon="-96.606482" />
      <trkpt lat="29.973833" lon="-96.605668" />
      <trkpt lat="29.973577" lon="-96.605357" />
      <trkpt lat="29.973006" lon="-96.604726" />
      <trkpt lat="29.972373" lon="-96.603966" />
      <trkpt lat="29.971776" lon="-96.603291" />
      <trkpt lat="29.970719" lon="-96.602046" />
      <trkpt lat="29.969972" lon="-96.601183" />
      <trkpt lat="29.969768" lon="-96.600941" />
      <trkpt lat="29.969419" lon="-96.600591" />
      <trkpt lat="29.96904" lon="-96.600285" />
      <trkpt lat="29.968635" lon="-96.600026" />
      <trkpt lat="29.968542" lon="-96.599979" />
      <trkpt lat="29.968186" lon="-96.599837" />
      <trkpt lat="29.967929" lon="-96.599748" />
      <trkpt lat="29.967685" lon="-96.599684" />
      <trkpt lat="29.967437" lon="-96.599636" />
      <trkpt lat="29.966452" lon="-96.600261" />
      <trkpt lat="29.96638" lon="-96.600837" />
      <trkpt lat="29.966293" lon="-96.601415" />
      <trkpt lat="29.966169" lon="-96.602073" />
      <trkpt lat="29.966063" lon="-96.602567" />
      <trkpt lat="29.965941" lon="-96.603074" />
      <trkpt lat="29.965829" lon="-96.603499" />
      <trkpt lat="29.965712" lon="-96.603907" />
      <trkpt lat="29.965596" lon="-96.604293" />
      <trkpt lat="29.965453" lon="-96.604709" />
      <trkpt lat="29.965121" lon="-96.605604" />
      <trkpt lat="29.964927" lon="-96.60607" />
      <trkpt lat="29.964697" lon="-96.606577" />
      <trkpt lat="29.964514" lon="-96.606958" />
      <trkpt lat="29.964255" lon="-96.607468" />
      <trkpt lat="29.964032" lon="-96.60787" />
      <trkpt lat="29.963712" lon="-96.608421" />
      <trkpt lat="29.963409" lon="-96.608889" />
      <trkpt lat="29.96286" lon="-96.609671" />
      <trkpt lat="29.962375" lon="-96.610378" />
      <trkpt lat="29.961993" lon="-96.610882" />
      <trkpt lat="29.96116" lon="-96.612029" />
      <trkpt lat="29.96012" lon="-96.61346" />
      <trkpt lat="29.959777" lon="-96.613933" />
      <trkpt lat="29.959195" lon="-96.614727" />
      <trkpt lat="29.958083" lon="-96.616267" />
      <trkpt lat="29.95781" lon="-96.616634" />
      <trkpt lat="29.957396" lon="-96.617199" />
      <trkpt lat="29.957302" lon="-96.617334" />
      <trkpt lat="29.957144" lon="-96.617561" />
      <trkpt lat="29.957017" lon="-96.617753" />
      <trkpt lat="29.956827" lon="-96.618069" />
      <trkpt lat="29.956683" lon="-96.618356" />
      <trkpt lat="29.956541" lon="-96.6187" />
      <trkpt lat="29.956216" lon="-96.619598" />
      <trkpt lat="29.95586" lon="-96.620592" />
      <trkpt lat="29.955113" lon="-96.622616" />
      <trkpt lat="29.954651" lon="-96.623899" />
      <trkpt lat="29.954306" lon="-96.624915" />
      <trkpt lat="29.954045" lon="-96.625558" />
      <trkpt lat="29.953791" lon="-96.626206" />
      <trkpt lat="29.953631" lon="-96.62656" />
      <trkpt lat="29.953348" lon="-96.627065" />
      <trkpt lat="29.95261" lon="-96.628014" />
      <trkpt lat="29.951996" lon="-96.628736" />
      <trkpt lat="29.951857" lon="-96.628898" />
      <trkpt lat="29.951534" lon="-96.629271" />
      <trkpt lat="29.951286" lon="-96.629565" />
      <trkpt lat="29.950877" lon="-96.630059" />
      <trkpt lat="29.950335" lon="-96.630681" />
      <trkpt lat="29.949846" lon="-96.631251" />
      <trkpt lat="29.949076" lon="-96.632159" />
      <trkpt lat="29.948607" lon="-96.632675" />
      <trkpt lat="29.948425" lon="-96.632875" />
      <trkpt lat="29.94736" lon="-96.634072" />
      <trkpt lat="29.946676" lon="-96.63482" />
      <trkpt lat="29.946104" lon="-96.635437" />
      <trkpt lat="29.945691" lon="-96.635894" />
      <trkpt lat="29.945476" lon="-96.636139" />
      <trkpt lat="29.945343" lon="-96.636279" />
      <trkpt lat="29.945159" lon="-96.63642" />
      <trkpt lat="29.944952" lon="-96.636569" />
      <trkpt lat="29.944551" lon="-96.63682" />
      <trkpt lat="29.944534" lon="-96.636827" />
      <trkpt lat="29.944397" lon="-96.636881" />
      <trkpt lat="29.94419" lon="-96.63695" />
      <trkpt lat="29.943951" lon="-96.637012" />
      <trkpt lat="29.943726" lon="-96.637046" />
      <trkpt lat="29.943489" lon="-96.637068" />
      <trkpt lat="29.942971" lon="-96.637092" />
      <trkpt lat="29.942739" lon="-96.637095" />
      <trkpt lat="29.942051" lon="-96.637076" />
      <trkpt lat="29.941163" lon="-96.637096" />
      <trkpt lat="29.940753" lon="-96.63711" />
      <trkpt lat="29.939615" lon="-96.63727" />
      <trkpt lat="29.938508" lon="-96.637511" />
      <trkpt lat="29.938285" lon="-96.637559" />
      <trkpt lat="29.938167" lon="-96.637589" />
      <trkpt lat="29.937002" lon="-96.637966" />
      <trkpt lat="29.9363" lon="-96.63825" />
      <trkpt lat="29.935695" lon="-96.638533" />
      <trkpt lat="29.934438" lon="-96.639232" />
      <trkpt lat="29.934351" lon="-96.639285" />
      <trkpt lat="29.933221" lon="-96.640065" />
      <trkpt lat="29.933082" lon="-96.640169" />
      <trkpt lat="29.932118" lon="-96.640979" />
      <trkpt lat="29.932089" lon="-96.641003" />
      <trkpt lat="29.931436" lon="-96.641665" />
      <trkpt lat="29.931198" lon="-96.641874" />
      <trkpt lat="29.9307" lon="-96.642433" />
      <trkpt lat="29.930313" lon="-96.642867" />
      <trkpt lat="29.929761" lon="-96.643529" />
      <trkpt lat="29.929209" lon="-96.644183" />
      <trkpt lat="29.928274" lon="-96.645306" />
      <trkpt lat="29.927504" lon="-96.646217" />
      <trkpt lat="29.926847" lon="-96.647006" />
      <trkpt lat="29.926302" lon="-96.647654" />
      <trkpt lat="29.925755" lon="-96.648303" />
      <trkpt lat="29.924646" lon="-96.649642" />
      <trkpt lat="29.924368" lon="-96.649986" />
      <trkpt lat="29.921685" lon="-96.653149" />
      <trkpt lat="29.920832" lon="-96.65418" />
      <trkpt lat="29.920625" lon="-96.65443" />
      <trkpt lat="29.919748" lon="-96.655457" />
      <trkpt lat="29.919058" lon="-96.656276" />
      <trkpt lat="29.91803" lon="-96.65752" />
      <trkpt lat="29.917553" lon="-96.658077" />
      <trkpt lat="29.916941" lon="-96.658814" />
      <trkpt lat="29.915853" lon="-96.660106" />
      <trkpt lat="29.915427" lon="-96.660635" />
      <trkpt lat="29.915323" lon="-96.660752" />
      <trkpt lat="29.914961" lon="-96.661163" />
      <trkpt lat="29.914584" lon="-96.661619" />
      <trkpt lat="29.914018" lon="-96.662426" />
      <trkpt lat="29.913469" lon="-96.663251" />
      <trkpt lat="29.912611" lon="-96.664552" />
      <trkpt lat="29.912495" lon="-96.664729" />
      <trkpt lat="29.911958" lon="-96.665527" />
      <trkpt lat="29.911441" lon="-96.666336" />
      <trkpt lat="29.911081" lon="-96.666843" />
      <trkpt lat="29.910604" lon="-96.667564" />
      <trkpt lat="29.910076" lon="-96.668381" />
      <trkpt lat="29.909853" lon="-96.668726" />
      <trkpt lat="29.909808" lon="-96.668795" />
      <trkpt lat="29.909428" lon="-96.669364" />
      <trkpt lat="29.90902" lon="-96.669952" />
      <trkpt lat="29.908682" lon="-96.670466" />
      <trkpt lat="29.908449" lon="-96.670757" />
      <trkpt lat="29.907446" lon="-96.671847" />
      <trkpt lat="29.907073" lon="-96.672251" />
      <trkpt lat="29.906504" lon="-96.672835" />
      <trkpt lat="29.905748" lon="-96.673615" />
      <trkpt lat="29.905061" lon="-96.674352" />
      <trkpt lat="29.904319" lon="-96.675099" />
      <trkpt lat="29.904239" lon="-96.675184" />
      <trkpt lat="29.903746" lon="-96.675711" />
      <trkpt lat="29.903633" lon="-96.675831" />
      <trkpt lat="29.903039" lon="-96.676467" />
      <trkpt lat="29.903002" lon="-96.676527" />
      <trkpt lat="29.902985" lon="-96.676598" />
      <trkpt lat="29.903003" lon="-96.676677" />
      <trkpt lat="29.903031" lon="-96.676723" />
      <trkpt lat="29.903556" lon="-96.677389" />
      <trkpt lat="29.904022" lon="-96.677977" />
    </trkseg>
  </trk>
</gpx>