<?xml version='1.0' encoding='UTF-8'?>
<gpx version="1.1" creator="Antigravity Route Generator" xmlns="http://www.topografix.com/GPX/1/1">
  <trk>
    <name>Sisterdale, Kendalia &amp; Luckenbach Run</name>
    <desc>German Towns &amp; Culture (54.0 mi) - FM 1376 -&gt; FM 473 -&gt; Kendalia -&gt; Luckenbach</desc>
    <trkseg>
      <trkpt lat="29.794029" lon="-98.729927" />
      <trkpt lat="29.794612" lon="-98.730234" />
      <trkpt lat="29.795134" lon="-98.730513" />
      <trkpt lat="29.795006" lon="-98.730835" />
      <trkpt lat="29.794933" lon="-98.731017" />
      <trkpt lat="29.794847" lon="-98.731234" />
      <trkpt lat="29.794818" lon="-98.731306" />
      <trkpt lat="29.794497" lon="-98.732111" />
      <trkpt lat="29.795044" lon="-98.732393" />
      <trkpt lat="29.795347" lon="-98.732549" />
      <trkpt lat="29.795388" lon="-98.73257" />
      <trkpt lat="29.795485" lon="-98.732621" />
      <trkpt lat="29.7956" lon="-98.73268" />
      <trkpt lat="29.795721" lon="-98.732742" />
      <trkpt lat="29.796033" lon="-98.732903" />
      <trkpt lat="29.796612" lon="-98.733201" />
      <trkpt lat="29.797098" lon="-98.733452" />
      <trkpt lat="29.797237" lon="-98.733524" />
      <trkpt lat="29.797684" lon="-98.733754" />
      <trkpt lat="29.798186" lon="-98.734013" />
      <trkpt lat="29.798378" lon="-98.734112" />
      <trkpt lat="29.798523" lon="-98.73419" />
      <trkpt lat="29.799345" lon="-98.734634" />
      <trkpt lat="29.799378" lon="-98.734652" />
      <trkpt lat="29.799951" lon="-98.734958" />
      <trkpt lat="29.800903" lon="-98.735439" />
      <trkpt lat="29.801612" lon="-98.735814" />
      <trkpt lat="29.801816" lon="-98.735922" />
      <trkpt lat="29.802251" lon="-98.736153" />
      <trkpt lat="29.802417" lon="-98.73624" />
      <trkpt lat="29.80269" lon="-98.736384" />
      <trkpt lat="29.802847" lon="-98.736467" />
      <trkpt lat="29.802935" lon="-98.736514" />
      <trkpt lat="29.803071" lon="-98.736585" />
      <trkpt lat="29.803291" lon="-98.736701" />
      <trkpt lat="29.803384" lon="-98.736753" />
      <trkpt lat="29.803498" lon="-98.736817" />
      <trkpt lat="29.803558" lon="-98.736851" />
      <trkpt lat="29.80359" lon="-98.736874" />
      <trkpt lat="29.803807" lon="-98.737031" />
      <trkpt lat="29.804071" lon="-98.73726" />
      <trkpt lat="29.804142" lon="-98.73732" />
      <trkpt lat="29.804374" lon="-98.737598" />
      <trkpt lat="29.804699" lon="-98.73759" />
      <trkpt lat="29.805302" lon="-98.73761" />
      <trkpt lat="29.805696" lon="-98.737612" />
      <trkpt lat="29.80584" lon="-98.737613" />
      <trkpt lat="29.806075" lon="-98.737609" />
      <trkpt lat="29.806347" lon="-98.737604" />
      <trkpt lat="29.806375" lon="-98.737603" />
      <trkpt lat="29.806467" lon="-98.737603" />
      <trkpt lat="29.807039" lon="-98.737597" />
      <trkpt lat="29.807619" lon="-98.73759" />
      <trkpt lat="29.808561" lon="-98.737561" />
      <trkpt lat="29.809212" lon="-98.737541" />
      <trkpt lat="29.809864" lon="-98.737521" />
      <trkpt lat="29.811285" lon="-98.737489" />
      <trkpt lat="29.811608" lon="-98.737506" />
      <trkpt lat="29.811646" lon="-98.73752" />
      <trkpt lat="29.811759" lon="-98.737562" />
      <trkpt lat="29.811871" lon="-98.737637" />
      <trkpt lat="29.81198" lon="-98.737777" />
      <trkpt lat="29.812012" lon="-98.737827" />
      <trkpt lat="29.812072" lon="-98.737934" />
      <trkpt lat="29.812307" lon="-98.737811" />
      <trkpt lat="29.812564" lon="-98.737704" />
      <trkpt lat="29.812907" lon="-98.737562" />
      <trkpt lat="29.813045" lon="-98.737504" />
      <trkpt lat="29.813287" lon="-98.737445" />
      <trkpt lat="29.813524" lon="-98.737387" />
      <trkpt lat="29.813809" lon="-98.737353" />
      <trkpt lat="29.814223" lon="-98.737304" />
      <trkpt lat="29.814329" lon="-98.737299" />
      <trkpt lat="29.814502" lon="-98.737291" />
      <trkpt lat="29.814746" lon="-98.73728" />
      <trkpt lat="29.815079" lon="-98.737277" />
      <trkpt lat="29.815751" lon="-98.737275" />
      <trkpt lat="29.816099" lon="-98.737251" />
      <trkpt lat="29.816575" lon="-98.737258" />
      <trkpt lat="29.816593" lon="-98.737258" />
      <trkpt lat="29.817228" lon="-98.737252" />
      <trkpt lat="29.817684" lon="-98.737248" />
      <trkpt lat="29.817755" lon="-98.737248" />
      <trkpt lat="29.817852" lon="-98.737247" />
      <trkpt lat="29.818157" lon="-98.737244" />
      <trkpt lat="29.818336" lon="-98.737244" />
      <trkpt lat="29.819121" lon="-98.737245" />
      <trkpt lat="29.819349" lon="-98.737245" />
      <trkpt lat="29.820044" lon="-98.737234" />
      <trkpt lat="29.821423" lon="-98.737227" />
      <trkpt lat="29.821927" lon="-98.737225" />
      <trkpt lat="29.823377" lon="-98.737218" />
      <trkpt lat="29.82347" lon="-98.737217" />
      <trkpt lat="29.824339" lon="-98.73721" />
      <trkpt lat="29.824521" lon="-98.737208" />
      <trkpt lat="29.826724" lon="-98.737211" />
      <trkpt lat="29.827541" lon="-98.737212" />
      <trkpt lat="29.829303" lon="-98.7372" />
      <trkpt lat="29.829934" lon="-98.737194" />
      <trkpt lat="29.831482" lon="-98.737179" />
      <trkpt lat="29.832274" lon="-98.737212" />
      <trkpt lat="29.832599" lon="-98.737225" />
      <trkpt lat="29.832725" lon="-98.737235" />
      <trkpt lat="29.833385" lon="-98.737285" />
      <trkpt lat="29.833431" lon="-98.737289" />
      <trkpt lat="29.833772" lon="-98.737317" />
      <trkpt lat="29.835884" lon="-98.737588" />
      <trkpt lat="29.836744" lon="-98.737698" />
      <trkpt lat="29.83684" lon="-98.737704" />
      <trkpt lat="29.836874" lon="-98.737706" />
      <trkpt lat="29.837215" lon="-98.737727" />
      <trkpt lat="29.837603" lon="-98.737725" />
      <trkpt lat="29.837637" lon="-98.737725" />
      <trkpt lat="29.837678" lon="-98.737724" />
      <trkpt lat="29.838422" lon="-98.73765" />
      <trkpt lat="29.839259" lon="-98.737471" />
      <trkpt lat="29.839485" lon="-98.737408" />
      <trkpt lat="29.839825" lon="-98.737314" />
      <trkpt lat="29.840652" lon="-98.737085" />
      <trkpt lat="29.841464" lon="-98.73686" />
      <trkpt lat="29.842591" lon="-98.736536" />
      <trkpt lat="29.84278" lon="-98.736482" />
      <trkpt lat="29.843856" lon="-98.736173" />
      <trkpt lat="29.844211" lon="-98.736071" />
      <trkpt lat="29.845159" lon="-98.735796" />
      <trkpt lat="29.845634" lon="-98.735637" />
      <trkpt lat="29.845978" lon="-98.735496" />
      <trkpt lat="29.846291" lon="-98.735334" />
      <trkpt lat="29.84662" lon="-98.735135" />
      <trkpt lat="29.846827" lon="-98.734995" />
      <trkpt lat="29.846941" lon="-98.734918" />
      <trkpt lat="29.847298" lon="-98.734621" />
      <trkpt lat="29.847538" lon="-98.734368" />
      <trkpt lat="29.847751" lon="-98.734134" />
      <trkpt lat="29.847764" lon="-98.734119" />
      <trkpt lat="29.848115" lon="-98.733688" />
      <trkpt lat="29.848506" lon="-98.733057" />
      <trkpt lat="29.848632" lon="-98.732797" />
      <trkpt lat="29.848838" lon="-98.732375" />
      <trkpt lat="29.849068" lon="-98.731875" />
      <trkpt lat="29.849456" lon="-98.731036" />
      <trkpt lat="29.849556" lon="-98.730817" />
      <trkpt lat="29.850219" lon="-98.729352" />
      <trkpt lat="29.850411" lon="-98.728982" />
      <trkpt lat="29.850623" lon="-98.728629" />
      <trkpt lat="29.850938" lon="-98.728201" />
      <trkpt lat="29.851263" lon="-98.727824" />
      <trkpt lat="29.851582" lon="-98.727509" />
      <trkpt lat="29.851909" lon="-98.727243" />
      <trkpt lat="29.852228" lon="-98.727017" />
      <trkpt lat="29.852489" lon="-98.726865" />
      <trkpt lat="29.852899" lon="-98.726654" />
      <trkpt lat="29.853403" lon="-98.72646" />
      <trkpt lat="29.854414" lon="-98.726175" />
      <trkpt lat="29.854477" lon="-98.726157" />
      <trkpt lat="29.855008" lon="-98.725957" />
      <trkpt lat="29.855504" lon="-98.725698" />
      <trkpt lat="29.85605" lon="-98.725372" />
      <trkpt lat="29.856703" lon="-98.724927" />
      <trkpt lat="29.857197" lon="-98.724656" />
      <trkpt lat="29.857579" lon="-98.724493" />
      <trkpt lat="29.857896" lon="-98.724372" />
      <trkpt lat="29.858221" lon="-98.724284" />
      <trkpt lat="29.858568" lon="-98.724206" />
      <trkpt lat="29.858596" lon="-98.724203" />
      <trkpt lat="29.858672" lon="-98.724195" />
      <trkpt lat="29.859551" lon="-98.724102" />
      <trkpt lat="29.860173" lon="-98.724089" />
      <trkpt lat="29.860517" lon="-98.724112" />
      <trkpt lat="29.862415" lon="-98.724211" />
      <trkpt lat="29.863031" lon="-98.724243" />
      <trkpt lat="29.863804" lon="-98.724321" />
      <trkpt lat="29.863951" lon="-98.724347" />
      <trkpt lat="29.864172" lon="-98.724386" />
      <trkpt lat="29.864289" lon="-98.724405" />
      <trkpt lat="29.864517" lon="-98.724444" />
      <trkpt lat="29.864647" lon="-98.724466" />
      <trkpt lat="29.864729" lon="-98.72448" />
      <trkpt lat="29.865334" lon="-98.724616" />
      <trkpt lat="29.865412" lon="-98.724637" />
      <trkpt lat="29.865488" lon="-98.724658" />
      <trkpt lat="29.866032" lon="-98.724809" />
      <trkpt lat="29.866564" lon="-98.724987" />
      <trkpt lat="29.867364" lon="-98.725228" />
      <trkpt lat="29.867473" lon="-98.725257" />
      <trkpt lat="29.868077" lon="-98.725418" />
      <trkpt lat="29.868419" lon="-98.725513" />
      <trkpt lat="29.86879" lon="-98.725575" />
      <trkpt lat="29.869643" lon="-98.725719" />
      <trkpt lat="29.869666" lon="-98.725723" />
      <trkpt lat="29.869989" lon="-98.725777" />
      <trkpt lat="29.870294" lon="-98.725817" />
      <trkpt lat="29.87083" lon="-98.725846" />
      <trkpt lat="29.870942" lon="-98.725842" />
      <trkpt lat="29.871188" lon="-98.725833" />
      <trkpt lat="29.871538" lon="-98.725821" />
      <trkpt lat="29.871943" lon="-98.725768" />
      <trkpt lat="29.872236" lon="-98.72573" />
      <trkpt lat="29.872781" lon="-98.725609" />
      <trkpt lat="29.872866" lon="-98.725581" />
      <trkpt lat="29.874072" lon="-98.725176" />
      <trkpt lat="29.874542" lon="-98.725018" />
      <trkpt lat="29.874796" lon="-98.724956" />
      <trkpt lat="29.875194" lon="-98.724859" />
      <trkpt lat="29.875601" lon="-98.724785" />
      <trkpt lat="29.876369" lon="-98.724743" />
      <trkpt lat="29.878126" lon="-98.724723" />
      <trkpt lat="29.878782" lon="-98.724716" />
      <trkpt lat="29.879793" lon="-98.724704" />
      <trkpt lat="29.882195" lon="-98.724657" />
      <trkpt lat="29.882389" lon="-98.724658" />
      <trkpt lat="29.8865" lon="-98.724674" />
      <trkpt lat="29.890193" lon="-98.72467" />
      <trkpt lat="29.892386" lon="-98.724666" />
      <trkpt lat="29.892812" lon="-98.724692" />
      <trkpt lat="29.892947" lon="-98.724708" />
      <trkpt lat="29.893227" lon="-98.724747" />
      <trkpt lat="29.893798" lon="-98.724866" />
      <trkpt lat="29.894413" lon="-98.724993" />
      <trkpt lat="29.894936" lon="-98.725101" />
      <trkpt lat="29.89544" lon="-98.72519" />
      <trkpt lat="29.895728" lon="-98.725223" />
      <trkpt lat="29.895809" lon="-98.725224" />
      <trkpt lat="29.896292" lon="-98.725228" />
      <trkpt lat="29.896441" lon="-98.725216" />
      <trkpt lat="29.896628" lon="-98.725201" />
      <trkpt lat="29.897001" lon="-98.725143" />
      <trkpt lat="29.897539" lon="-98.724996" />
      <trkpt lat="29.899518" lon="-98.724187" />
      <trkpt lat="29.89999" lon="-98.724015" />
      <trkpt lat="29.900128" lon="-98.723976" />
      <trkpt lat="29.900797" lon="-98.723814" />
      <trkpt lat="29.901459" lon="-98.723724" />
      <trkpt lat="29.902142" lon="-98.723693" />
      <trkpt lat="29.902531" lon="-98.723708" />
      <trkpt lat="29.902689" lon="-98.723714" />
      <trkpt lat="29.903236" lon="-98.723786" />
      <trkpt lat="29.904773" lon="-98.724076" />
      <trkpt lat="29.905541" lon="-98.724131" />
      <trkpt lat="29.906454" lon="-98.724122" />
      <trkpt lat="29.907841" lon="-98.724079" />
      <trkpt lat="29.908311" lon="-98.724005" />
      <trkpt lat="29.908764" lon="-98.723886" />
      <trkpt lat="29.909164" lon="-98.723816" />
      <trkpt lat="29.909526" lon="-98.723654" />
      <trkpt lat="29.909877" lon="-98.723493" />
      <trkpt lat="29.909948" lon="-98.723461" />
      <trkpt lat="29.910406" lon="-98.723267" />
      <trkpt lat="29.911547" lon="-98.722771" />
      <trkpt lat="29.911771" lon="-98.722659" />
      <trkpt lat="29.912025" lon="-98.722531" />
      <trkpt lat="29.912453" lon="-98.722265" />
      <trkpt lat="29.9127" lon="-98.722068" />
      <trkpt lat="29.912983" lon="-98.721819" />
      <trkpt lat="29.913161" lon="-98.721647" />
      <trkpt lat="29.913353" lon="-98.721447" />
      <trkpt lat="29.913515" lon="-98.721263" />
      <trkpt lat="29.913674" lon="-98.72107" />
      <trkpt lat="29.914298" lon="-98.720228" />
      <trkpt lat="29.914676" lon="-98.71982" />
      <trkpt lat="29.914733" lon="-98.719758" />
      <trkpt lat="29.915089" lon="-98.71944" />
      <trkpt lat="29.915346" lon="-98.719251" />
      <trkpt lat="29.915614" lon="-98.719081" />
      <trkpt lat="29.916175" lon="-98.71878" />
      <trkpt lat="29.916623" lon="-98.718603" />
      <trkpt lat="29.917246" lon="-98.718439" />
      <trkpt lat="29.917724" lon="-98.718377" />
      <trkpt lat="29.918373" lon="-98.718363" />
      <trkpt lat="29.920217" lon="-98.718387" />
      <trkpt lat="29.92552" lon="-98.718469" />
      <trkpt lat="29.925857" lon="-98.718474" />
      <trkpt lat="29.925925" lon="-98.718475" />
      <trkpt lat="29.925946" lon="-98.718474" />
      <trkpt lat="29.925959" lon="-98.718473" />
      <trkpt lat="29.926448" lon="-98.718481" />
      <trkpt lat="29.929248" lon="-98.71849" />
      <trkpt lat="29.929746" lon="-98.718492" />
      <trkpt lat="29.931354" lon="-98.718497" />
      <trkpt lat="29.931645" lon="-98.718498" />
      <trkpt lat="29.932435" lon="-98.718509" />
      <trkpt lat="29.934886" lon="-98.718542" />
      <trkpt lat="29.941219" lon="-98.718666" />
      <trkpt lat="29.945645" lon="-98.718673" />
      <trkpt lat="29.946523" lon="-98.718674" />
      <trkpt lat="29.947841" lon="-98.71868" />
      <trkpt lat="29.948112" lon="-98.718657" />
      <trkpt lat="29.949089" lon="-98.718586" />
      <trkpt lat="29.949604" lon="-98.71852" />
      <trkpt lat="29.949853" lon="-98.718477" />
      <trkpt lat="29.950193" lon="-98.718417" />
      <trkpt lat="29.951037" lon="-98.718228" />
      <trkpt lat="29.952249" lon="-98.717898" />
      <trkpt lat="29.953277" lon="-98.717624" />
      <trkpt lat="29.954129" lon="-98.717458" />
      <trkpt lat="29.95448" lon="-98.717405" />
      <trkpt lat="29.955078" lon="-98.717339" />
      <trkpt lat="29.956018" lon="-98.717294" />
      <trkpt lat="29.958048" lon="-98.717232" />
      <trkpt lat="29.95944" lon="-98.717155" />
      <trkpt lat="29.962503" lon="-98.717073" />
      <trkpt lat="29.964327" lon="-98.717015" />
      <trkpt lat="29.964727" lon="-98.717002" />
      <trkpt lat="29.965056" lon="-98.717019" />
      <trkpt lat="29.965472" lon="-98.717081" />
      <trkpt lat="29.965585" lon="-98.717098" />
      <trkpt lat="29.96598" lon="-98.717198" />
      <trkpt lat="29.96636" lon="-98.717328" />
      <trkpt lat="29.966683" lon="-98.717473" />
      <trkpt lat="29.966729" lon="-98.717494" />
      <trkpt lat="29.967068" lon="-98.717681" />
      <trkpt lat="29.968111" lon="-98.718223" />
      <trkpt lat="29.968281" lon="-98.71799" />
      <trkpt lat="29.968581" lon="-98.717558" />
      <trkpt lat="29.969236" lon="-98.716581" />
      <trkpt lat="29.969262" lon="-98.716542" />
      <trkpt lat="29.969488" lon="-98.7161" />
      <trkpt lat="29.969584" lon="-98.715851" />
      <trkpt lat="29.969664" lon="-98.715587" />
      <trkpt lat="29.969731" lon="-98.715314" />
      <trkpt lat="29.969779" lon="-98.715028" />
      <trkpt lat="29.969799" lon="-98.714748" />
      <trkpt lat="29.969809" lon="-98.714592" />
      <trkpt lat="29.969788" lon="-98.714174" />
      <trkpt lat="29.969655" lon="-98.712795" />
      <trkpt lat="29.969652" lon="-98.712369" />
      <trkpt lat="29.969665" lon="-98.712246" />
      <trkpt lat="29.969711" lon="-98.711817" />
      <trkpt lat="29.969769" lon="-98.711534" />
      <trkpt lat="29.969848" lon="-98.711252" />
      <trkpt lat="29.969946" lon="-98.710977" />
      <trkpt lat="29.970066" lon="-98.710715" />
      <trkpt lat="29.970201" lon="-98.71046" />
      <trkpt lat="29.970353" lon="-98.710218" />
      <trkpt lat="29.970516" lon="-98.709997" />
      <trkpt lat="29.970689" lon="-98.709801" />
      <trkpt lat="29.970851" lon="-98.709659" />
      <trkpt lat="29.970968" lon="-98.709544" />
      <trkpt lat="29.971281" lon="-98.709325" />
      <trkpt lat="29.971616" lon="-98.709134" />
      <trkpt lat="29.97206" lon="-98.708946" />
      <trkpt lat="29.973079" lon="-98.70859" />
      <trkpt lat="29.974536" lon="-98.708083" />
      <trkpt lat="29.974547" lon="-98.708079" />
      <trkpt lat="29.975181" lon="-98.707856" />
      <trkpt lat="29.975472" lon="-98.707753" />
      <trkpt lat="29.975849" lon="-98.707619" />
      <trkpt lat="29.977639" lon="-98.707012" />
      <trkpt lat="29.979087" lon="-98.706578" />
      <trkpt lat="29.980924" lon="-98.706028" />
      <trkpt lat="29.981223" lon="-98.705912" />
      <trkpt lat="29.981616" lon="-98.705691" />
      <trkpt lat="29.981857" lon="-98.705506" />
      <trkpt lat="29.981929" lon="-98.705446" />
      <trkpt lat="29.982039" lon="-98.705354" />
      <trkpt lat="29.982232" lon="-98.705163" />
      <trkpt lat="29.98225" lon="-98.70514" />
      <trkpt lat="29.982412" lon="-98.704944" />
      <trkpt lat="29.984809" lon="-98.701546" />
      <trkpt lat="29.98492" lon="-98.701356" />
      <trkpt lat="29.985039" lon="-98.70115" />
      <trkpt lat="29.985168" lon="-98.700863" />
      <trkpt lat="29.985317" lon="-98.700414" />
      <trkpt lat="29.985422" lon="-98.699929" />
      <trkpt lat="29.985452" lon="-98.699594" />
      <trkpt lat="29.98546" lon="-98.69877" />
      <trkpt lat="29.985456" lon="-98.695173" />
      <trkpt lat="29.985456" lon="-98.694953" />
      <trkpt lat="29.985456" lon="-98.694392" />
      <trkpt lat="29.985454" lon="-98.692667" />
      <trkpt lat="29.985449" lon="-98.69178" />
      <trkpt lat="29.985428" lon="-98.691324" />
      <trkpt lat="29.985408" lon="-98.691155" />
      <trkpt lat="29.985396" lon="-98.691056" />
      <trkpt lat="29.985336" lon="-98.690731" />
      <trkpt lat="29.985315" lon="-98.690637" />
      <trkpt lat="29.985236" lon="-98.690279" />
      <trkpt lat="29.985111" lon="-98.689826" />
      <trkpt lat="29.984735" lon="-98.688597" />
      <trkpt lat="29.984633" lon="-98.687974" />
      <trkpt lat="29.984521" lon="-98.687389" />
      <trkpt lat="29.984417" lon="-98.686817" />
      <trkpt lat="29.984336" lon="-98.686474" />
      <trkpt lat="29.98396" lon="-98.685447" />
      <trkpt lat="29.983519" lon="-98.684416" />
      <trkpt lat="29.983357" lon="-98.684072" />
      <trkpt lat="29.983225" lon="-98.683837" />
      <trkpt lat="29.983067" lon="-98.683607" />
      <trkpt lat="29.982887" lon="-98.683383" />
      <trkpt lat="29.982582" lon="-98.683053" />
      <trkpt lat="29.982358" lon="-98.682838" />
      <trkpt lat="29.98225" lon="-98.682747" />
      <trkpt lat="29.982121" lon="-98.682639" />
      <trkpt lat="29.982065" lon="-98.682602" />
      <trkpt lat="29.981611" lon="-98.682303" />
      <trkpt lat="29.981348" lon="-98.682167" />
      <trkpt lat="29.979976" lon="-98.681532" />
      <trkpt lat="29.979803" lon="-98.681445" />
      <trkpt lat="29.979493" lon="-98.681268" />
      <trkpt lat="29.979203" lon="-98.681054" />
      <trkpt lat="29.979011" lon="-98.680887" />
      <trkpt lat="29.978828" lon="-98.680697" />
      <trkpt lat="29.978661" lon="-98.680486" />
      <trkpt lat="29.978508" lon="-98.680268" />
      <trkpt lat="29.978492" lon="-98.680241" />
      <trkpt lat="29.978373" lon="-98.680039" />
      <trkpt lat="29.978249" lon="-98.679792" />
      <trkpt lat="29.977902" lon="-98.678949" />
      <trkpt lat="29.977678" lon="-98.678353" />
      <trkpt lat="29.977549" lon="-98.677919" />
      <trkpt lat="29.977497" lon="-98.677643" />
      <trkpt lat="29.977457" lon="-98.677371" />
      <trkpt lat="29.977441" lon="-98.676976" />
      <trkpt lat="29.977449" lon="-98.676719" />
      <trkpt lat="29.977483" lon="-98.676442" />
      <trkpt lat="29.977495" lon="-98.676344" />
      <trkpt lat="29.977547" lon="-98.676087" />
      <trkpt lat="29.977663" lon="-98.675686" />
      <trkpt lat="29.977766" lon="-98.675427" />
      <trkpt lat="29.978196" lon="-98.67451" />
      <trkpt lat="29.978326" lon="-98.674233" />
      <trkpt lat="29.978534" lon="-98.673751" />
      <trkpt lat="29.979619" lon="-98.671004" />
      <trkpt lat="29.980041" lon="-98.669916" />
      <trkpt lat="29.980354" lon="-98.669088" />
      <trkpt lat="29.9804" lon="-98.668968" />
      <trkpt lat="29.980764" lon="-98.668026" />
      <trkpt lat="29.98203" lon="-98.664609" />
      <trkpt lat="29.982157" lon="-98.664193" />
      <trkpt lat="29.982268" lon="-98.663741" />
      <trkpt lat="29.982366" lon="-98.663108" />
      <trkpt lat="29.982391" lon="-98.662787" />
      <trkpt lat="29.982402" lon="-98.662167" />
      <trkpt lat="29.982382" lon="-98.661749" />
      <trkpt lat="29.982331" lon="-98.661343" />
      <trkpt lat="29.982312" lon="-98.661254" />
      <trkpt lat="29.982141" lon="-98.660414" />
      <trkpt lat="29.981947" lon="-98.659512" />
      <trkpt lat="29.981662" lon="-98.658291" />
      <trkpt lat="29.981474" lon="-98.657653" />
      <trkpt lat="29.981441" lon="-98.657552" />
      <trkpt lat="29.980598" lon="-98.655019" />
      <trkpt lat="29.980178" lon="-98.653804" />
      <trkpt lat="29.979364" lon="-98.651483" />
      <trkpt lat="29.979153" lon="-98.650769" />
      <trkpt lat="29.979053" lon="-98.650199" />
      <trkpt lat="29.978991" lon="-98.649507" />
      <trkpt lat="29.978985" lon="-98.649058" />
      <trkpt lat="29.979008" lon="-98.648604" />
      <trkpt lat="29.979065" lon="-98.648173" />
      <trkpt lat="29.979217" lon="-98.64725" />
      <trkpt lat="29.979547" lon="-98.645241" />
      <trkpt lat="29.97962" lon="-98.644727" />
      <trkpt lat="29.979667" lon="-98.644209" />
      <trkpt lat="29.979667" lon="-98.644169" />
      <trkpt lat="29.979661" lon="-98.643524" />
      <trkpt lat="29.979632" lon="-98.643188" />
      <trkpt lat="29.979565" lon="-98.642697" />
      <trkpt lat="29.979472" lon="-98.642121" />
      <trkpt lat="29.979263" lon="-98.640814" />
      <trkpt lat="29.978944" lon="-98.63883" />
      <trkpt lat="29.978397" lon="-98.635427" />
      <trkpt lat="29.978242" lon="-98.634462" />
      <trkpt lat="29.978181" lon="-98.634009" />
      <trkpt lat="29.978145" lon="-98.633648" />
      <trkpt lat="29.978134" lon="-98.633268" />
      <trkpt lat="29.978174" lon="-98.631796" />
      <trkpt lat="29.978303" lon="-98.629146" />
      <trkpt lat="29.978361" lon="-98.628345" />
      <trkpt lat="29.978366" lon="-98.628045" />
      <trkpt lat="29.978418" lon="-98.627872" />
      <trkpt lat="29.978551" lon="-98.627257" />
      <trkpt lat="29.979228" lon="-98.624629" />
      <trkpt lat="29.979488" lon="-98.623477" />
      <trkpt lat="29.979756" lon="-98.622076" />
      <trkpt lat="29.980279" lon="-98.618728" />
      <trkpt lat="29.980321" lon="-98.618329" />
      <trkpt lat="29.980332" lon="-98.618064" />
      <trkpt lat="29.9803" lon="-98.616098" />
      <trkpt lat="29.980316" lon="-98.615893" />
      <trkpt lat="29.980353" lon="-98.615677" />
      <trkpt lat="29.980424" lon="-98.615416" />
      <trkpt lat="29.980527" lon="-98.61513" />
      <trkpt lat="29.980652" lon="-98.614899" />
      <trkpt lat="29.980829" lon="-98.614647" />
      <trkpt lat="29.981104" lon="-98.61438" />
      <trkpt lat="29.981569" lon="-98.614034" />
      <trkpt lat="29.98182" lon="-98.613828" />
      <trkpt lat="29.981983" lon="-98.613664" />
      <trkpt lat="29.982197" lon="-98.613384" />
      <trkpt lat="29.982312" lon="-98.613181" />
      <trkpt lat="29.982408" lon="-98.612969" />
      <trkpt lat="29.982451" lon="-98.612829" />
      <trkpt lat="29.982506" lon="-98.612655" />
      <trkpt lat="29.982529" lon="-98.612541" />
      <trkpt lat="29.98255" lon="-98.612439" />
      <trkpt lat="29.982576" lon="-98.612208" />
      <trkpt lat="29.982582" lon="-98.611962" />
      <trkpt lat="29.982561" lon="-98.609229" />
      <trkpt lat="29.982572" lon="-98.608957" />
      <trkpt lat="29.982621" lon="-98.608406" />
      <trkpt lat="29.982691" lon="-98.607885" />
      <trkpt lat="29.982782" lon="-98.607392" />
      <trkpt lat="29.983417" lon="-98.604802" />
      <trkpt lat="29.983525" lon="-98.604294" />
      <trkpt lat="29.983574" lon="-98.603952" />
      <trkpt lat="29.983636" lon="-98.603513" />
      <trkpt lat="29.983672" lon="-98.603103" />
      <trkpt lat="29.983697" lon="-98.602548" />
      <trkpt lat="29.983694" lon="-98.601787" />
      <trkpt lat="29.983615" lon="-98.597052" />
      <trkpt lat="29.983611" lon="-98.59616" />
      <trkpt lat="29.983644" lon="-98.595206" />
      <trkpt lat="29.983646" lon="-98.595169" />
      <trkpt lat="29.983698" lon="-98.594016" />
      <trkpt lat="29.983733" lon="-98.593401" />
      <trkpt lat="29.983759" lon="-98.593148" />
      <trkpt lat="29.983766" lon="-98.593088" />
      <trkpt lat="29.983828" lon="-98.592665" />
      <trkpt lat="29.983885" lon="-98.592409" />
      <trkpt lat="29.984173" lon="-98.591322" />
      <trkpt lat="29.984412" lon="-98.590539" />
      <trkpt lat="29.984502" lon="-98.590298" />
      <trkpt lat="29.984642" lon="-98.589977" />
      <trkpt lat="29.985294" lon="-98.588723" />
      <trkpt lat="29.985402" lon="-98.588469" />
      <trkpt lat="29.985538" lon="-98.588074" />
      <trkpt lat="29.985636" lon="-98.587666" />
      <trkpt lat="29.985702" lon="-98.587237" />
      <trkpt lat="29.985737" lon="-98.586794" />
      <trkpt lat="29.985743" lon="-98.586331" />
      <trkpt lat="29.98572" lon="-98.585184" />
      <trkpt lat="29.985703" lon="-98.584655" />
      <trkpt lat="29.985685" lon="-98.584332" />
      <trkpt lat="29.985597" lon="-98.583376" />
      <trkpt lat="29.985431" lon="-98.582066" />
      <trkpt lat="29.985371" lon="-98.581202" />
      <trkpt lat="29.985278" lon="-98.577996" />
      <trkpt lat="29.985227" lon="-98.576743" />
      <trkpt lat="29.985167" lon="-98.574749" />
      <trkpt lat="29.985136" lon="-98.573196" />
      <trkpt lat="29.985121" lon="-98.572006" />
      <trkpt lat="29.98512" lon="-98.571272" />
      <trkpt lat="29.985131" lon="-98.569201" />
      <trkpt lat="29.985161" lon="-98.567756" />
      <trkpt lat="29.98518" lon="-98.566865" />
      <trkpt lat="29.985168" lon="-98.566354" />
      <trkpt lat="29.985116" lon="-98.565873" />
      <trkpt lat="29.985058" lon="-98.565568" />
      <trkpt lat="29.984886" lon="-98.564981" />
      <trkpt lat="29.984705" lon="-98.564562" />
      <trkpt lat="29.984167" lon="-98.563533" />
      <trkpt lat="29.983924" lon="-98.563002" />
      <trkpt lat="29.983822" lon="-98.562715" />
      <trkpt lat="29.983734" lon="-98.562413" />
      <trkpt lat="29.983638" lon="-98.561934" />
      <trkpt lat="29.983601" lon="-98.561595" />
      <trkpt lat="29.983578" lon="-98.561061" />
      <trkpt lat="29.983568" lon="-98.560787" />
      <trkpt lat="29.983501" lon="-98.557406" />
      <trkpt lat="29.983487" lon="-98.556701" />
      <trkpt lat="29.983486" lon="-98.556635" />
      <trkpt lat="29.983396" lon="-98.552093" />
      <trkpt lat="29.983348" lon="-98.551469" />
      <trkpt lat="29.983246" lon="-98.551011" />
      <trkpt lat="29.983088" lon="-98.550556" />
      <trkpt lat="29.98293" lon="-98.550252" />
      <trkpt lat="29.982818" lon="-98.550036" />
      <trkpt lat="29.982631" lon="-98.549767" />
      <trkpt lat="29.982256" lon="-98.549341" />
      <trkpt lat="29.981921" lon="-98.549061" />
      <trkpt lat="29.981627" lon="-98.548879" />
      <trkpt lat="29.979892" lon="-98.548053" />
      <trkpt lat="29.979669" lon="-98.547927" />
      <trkpt lat="29.979353" lon="-98.547711" />
      <trkpt lat="29.978979" lon="-98.547383" />
      <trkpt lat="29.978836" lon="-98.547221" />
      <trkpt lat="29.978664" lon="-98.547028" />
      <trkpt lat="29.978438" lon="-98.546723" />
      <trkpt lat="29.978159" lon="-98.546258" />
      <trkpt lat="29.977823" lon="-98.545466" />
      <trkpt lat="29.976335" lon="-98.541666" />
      <trkpt lat="29.97603" lon="-98.540898" />
      <trkpt lat="29.976005" lon="-98.540825" />
      <trkpt lat="29.975741" lon="-98.540118" />
      <trkpt lat="29.975594" lon="-98.539618" />
      <trkpt lat="29.975326" lon="-98.538562" />
      <trkpt lat="29.974864" lon="-98.536883" />
      <trkpt lat="29.973887" lon="-98.534003" />
      <trkpt lat="29.973544" lon="-98.532813" />
      <trkpt lat="29.973444" lon="-98.532263" />
      <trkpt lat="29.973392" lon="-98.531966" />
      <trkpt lat="29.973336" lon="-98.531404" />
      <trkpt lat="29.973129" lon="-98.528591" />
      <trkpt lat="29.973042" lon="-98.528106" />
      <trkpt lat="29.972887" lon="-98.527642" />
      <trkpt lat="29.97272" lon="-98.52728" />
      <trkpt lat="29.972531" lon="-98.526949" />
      <trkpt lat="29.972331" lon="-98.526671" />
      <trkpt lat="29.972133" lon="-98.526441" />
      <trkpt lat="29.971944" lon="-98.526269" />
      <trkpt lat="29.971786" lon="-98.526124" />
      <trkpt lat="29.971502" lon="-98.525921" />
      <trkpt lat="29.971464" lon="-98.525891" />
      <trkpt lat="29.969984" lon="-98.524716" />
      <trkpt lat="29.969697" lon="-98.524466" />
      <trkpt lat="29.969573" lon="-98.524335" />
      <trkpt lat="29.969498" lon="-98.524234" />
      <trkpt lat="29.969314" lon="-98.523977" />
      <trkpt lat="29.969147" lon="-98.523648" />
      <trkpt lat="29.96909" lon="-98.523514" />
      <trkpt lat="29.969044" lon="-98.52338" />
      <trkpt lat="29.968963" lon="-98.523072" />
      <trkpt lat="29.968949" lon="-98.52298" />
      <trkpt lat="29.968939" lon="-98.522907" />
      <trkpt lat="29.968922" lon="-98.522743" />
      <trkpt lat="29.968904" lon="-98.522479" />
      <trkpt lat="29.968924" lon="-98.522256" />
      <trkpt lat="29.968943" lon="-98.522051" />
      <trkpt lat="29.968975" lon="-98.521897" />
      <trkpt lat="29.969037" lon="-98.521654" />
      <trkpt lat="29.969126" lon="-98.521307" />
      <trkpt lat="29.969807" lon="-98.52153" />
      <trkpt lat="29.970048" lon="-98.521581" />
      <trkpt lat="29.970118" lon="-98.521558" />
      <trkpt lat="29.97015" lon="-98.521548" />
      <trkpt lat="29.970432" lon="-98.521413" />
      <trkpt lat="29.971212" lon="-98.520939" />
      <trkpt lat="29.973137" lon="-98.520201" />
      <trkpt lat="29.975177" lon="-98.520174" />
      <trkpt lat="29.978891" lon="-98.520515" />
      <trkpt lat="29.980676" lon="-98.520737" />
      <trkpt lat="29.983109" lon="-98.521039" />
      <trkpt lat="29.983625" lon="-98.521095" />
      <trkpt lat="29.988144" lon="-98.521535" />
      <trkpt lat="29.989281" lon="-98.521627" />
      <trkpt lat="29.990475" lon="-98.521752" />
      <trkpt lat="29.991724" lon="-98.521873" />
      <trkpt lat="29.992424" lon="-98.521913" />
      <trkpt lat="29.993735" lon="-98.523202" />
      <trkpt lat="29.995544" lon="-98.524872" />
      <trkpt lat="29.997363" lon="-98.526519" />
      <trkpt lat="29.998216" lon="-98.527181" />
      <trkpt lat="29.998984" lon="-98.527561" />
      <trkpt lat="29.999153" lon="-98.527644" />
      <trkpt lat="29.999162" lon="-98.527649" />
      <trkpt lat="29.999355" lon="-98.527749" />
      <trkpt lat="29.999619" lon="-98.527877" />
      <trkpt lat="30.000122" lon="-98.528052" />
      <trkpt lat="30.000212" lon="-98.528091" />
      <trkpt lat="30.00074" lon="-98.528934" />
      <trkpt lat="30.001129" lon="-98.529145" />
      <trkpt lat="30.002046" lon="-98.529329" />
      <trkpt lat="30.005514" lon="-98.528298" />
      <trkpt lat="30.006112" lon="-98.528121" />
      <trkpt lat="30.006323" lon="-98.528092" />
      <trkpt lat="30.006509" lon="-98.528095" />
      <trkpt lat="30.006595" lon="-98.528108" />
      <trkpt lat="30.006726" lon="-98.528181" />
      <trkpt lat="30.007107" lon="-98.528453" />
      <trkpt lat="30.008202" lon="-98.529047" />
      <trkpt lat="30.008235" lon="-98.529063" />
      <trkpt lat="30.008396" lon="-98.529197" />
      <trkpt lat="30.009313" lon="-98.529958" />
      <trkpt lat="30.009588" lon="-98.530064" />
      <trkpt lat="30.009723" lon="-98.53017" />
      <trkpt lat="30.010023" lon="-98.530406" />
      <trkpt lat="30.012338" lon="-98.53159" />
      <trkpt lat="30.012936" lon="-98.531833" />
      <trkpt lat="30.013897" lon="-98.532222" />
      <trkpt lat="30.018963" lon="-98.533932" />
      <trkpt lat="30.019697" lon="-98.534406" />
      <trkpt lat="30.021311" lon="-98.535992" />
      <trkpt lat="30.02172" lon="-98.536415" />
      <trkpt lat="30.021761" lon="-98.536457" />
      <trkpt lat="30.022043" lon="-98.536753" />
      <trkpt lat="30.0222" lon="-98.536959" />
      <trkpt lat="30.022323" lon="-98.536996" />
      <trkpt lat="30.023004" lon="-98.537205" />
      <trkpt lat="30.02364" lon="-98.537471" />
      <trkpt lat="30.025392" lon="-98.537871" />
      <trkpt lat="30.028913" lon="-98.538119" />
      <trkpt lat="30.030655" lon="-98.539251" />
      <trkpt lat="30.031733" lon="-98.539593" />
      <trkpt lat="30.033795" lon="-98.540884" />
      <trkpt lat="30.034322" lon="-98.540989" />
      <trkpt lat="30.034626" lon="-98.54098" />
      <trkpt lat="30.035239" lon="-98.540962" />
      <trkpt lat="30.035972" lon="-98.540778" />
      <trkpt lat="30.036637" lon="-98.540409" />
      <trkpt lat="30.03752" lon="-98.539876" />
      <trkpt lat="30.037739" lon="-98.539788" />
      <trkpt lat="30.038205" lon="-98.539582" />
      <trkpt lat="30.03875" lon="-98.539397" />
      <trkpt lat="30.039803" lon="-98.539234" />
      <trkpt lat="30.040211" lon="-98.539199" />
      <trkpt lat="30.040727" lon="-98.539625" />
      <trkpt lat="30.04109" lon="-98.539936" />
      <trkpt lat="30.041296" lon="-98.540105" />
      <trkpt lat="30.041808" lon="-98.540532" />
      <trkpt lat="30.041903" lon="-98.540582" />
      <trkpt lat="30.042037" lon="-98.540626" />
      <trkpt lat="30.042195" lon="-98.540623" />
      <trkpt lat="30.042426" lon="-98.540558" />
      <trkpt lat="30.042882" lon="-98.540392" />
      <trkpt lat="30.044156" lon="-98.539775" />
      <trkpt lat="30.04485" lon="-98.539466" />
      <trkpt lat="30.045584" lon="-98.53921" />
      <trkpt lat="30.046257" lon="-98.538968" />
      <trkpt lat="30.04676" lon="-98.538828" />
      <trkpt lat="30.046918" lon="-98.538819" />
      <trkpt lat="30.047745" lon="-98.538789" />
      <trkpt lat="30.048169" lon="-98.538736" />
      <trkpt lat="30.048571" lon="-98.538633" />
      <trkpt lat="30.048797" lon="-98.53853" />
      <trkpt lat="30.049634" lon="-98.538012" />
      <trkpt lat="30.050029" lon="-98.537804" />
      <trkpt lat="30.05017" lon="-98.537767" />
      <trkpt lat="30.050255" lon="-98.537751" />
      <trkpt lat="30.050901" lon="-98.537656" />
      <trkpt lat="30.0512" lon="-98.537613" />
      <trkpt lat="30.051188" lon="-98.537708" />
      <trkpt lat="30.051168" lon="-98.537832" />
      <trkpt lat="30.051078" lon="-98.538027" />
      <trkpt lat="30.050998" lon="-98.538177" />
      <trkpt lat="30.05096" lon="-98.538249" />
      <trkpt lat="30.050902" lon="-98.538321" />
      <trkpt lat="30.050849" lon="-98.538388" />
      <trkpt lat="30.050687" lon="-98.538556" />
      <trkpt lat="30.050687" lon="-98.538556" />
      <trkpt lat="30.050849" lon="-98.538388" />
      <trkpt lat="30.050902" lon="-98.538321" />
      <trkpt lat="30.05096" lon="-98.538249" />
      <trkpt lat="30.050998" lon="-98.538177" />
      <trkpt lat="30.051078" lon="-98.538027" />
      <trkpt lat="30.051168" lon="-98.537832" />
      <trkpt lat="30.051188" lon="-98.537708" />
      <trkpt lat="30.0512" lon="-98.537613" />
      <trkpt lat="30.051995" lon="-98.537533" />
      <trkpt lat="30.052405" lon="-98.537473" />
      <trkpt lat="30.053036" lon="-98.537393" />
      <trkpt lat="30.054153" lon="-98.537109" />
      <trkpt lat="30.054694" lon="-98.536959" />
      <trkpt lat="30.055194" lon="-98.536828" />
      <trkpt lat="30.06172" lon="-98.534935" />
      <trkpt lat="30.061789" lon="-98.534907" />
      <trkpt lat="30.061969" lon="-98.534888" />
      <trkpt lat="30.065767" lon="-98.534581" />
      <trkpt lat="30.066778" lon="-98.534499" />
      <trkpt lat="30.067956" lon="-98.53445" />
      <trkpt lat="30.06819" lon="-98.534468" />
      <trkpt lat="30.069433" lon="-98.534736" />
      <trkpt lat="30.070548" lon="-98.534987" />
      <trkpt lat="30.070939" lon="-98.535078" />
      <trkpt lat="30.071109" lon="-98.535085" />
      <trkpt lat="30.071281" lon="-98.535022" />
      <trkpt lat="30.071453" lon="-98.534895" />
      <trkpt lat="30.072615" lon="-98.533845" />
      <trkpt lat="30.072708" lon="-98.533743" />
      <trkpt lat="30.072874" lon="-98.533552" />
      <trkpt lat="30.073812" lon="-98.532351" />
      <trkpt lat="30.073875" lon="-98.53226" />
      <trkpt lat="30.073955" lon="-98.532144" />
      <trkpt lat="30.074265" lon="-98.531827" />
      <trkpt lat="30.07435" lon="-98.531767" />
      <trkpt lat="30.074439" lon="-98.531728" />
      <trkpt lat="30.075018" lon="-98.531597" />
      <trkpt lat="30.075371" lon="-98.531528" />
      <trkpt lat="30.075518" lon="-98.531483" />
      <trkpt lat="30.075663" lon="-98.531426" />
      <trkpt lat="30.076492" lon="-98.531026" />
      <trkpt lat="30.078186" lon="-98.530225" />
      <trkpt lat="30.078429" lon="-98.53011" />
      <trkpt lat="30.078484" lon="-98.530084" />
      <trkpt lat="30.079893" lon="-98.529412" />
      <trkpt lat="30.081258" lon="-98.528744" />
      <trkpt lat="30.081343" lon="-98.528686" />
      <trkpt lat="30.081422" lon="-98.528616" />
      <trkpt lat="30.081493" lon="-98.528535" />
      <trkpt lat="30.082045" lon="-98.527848" />
      <trkpt lat="30.082323" lon="-98.527485" />
      <trkpt lat="30.082342" lon="-98.527464" />
      <trkpt lat="30.08238" lon="-98.527423" />
      <trkpt lat="30.082462" lon="-98.527319" />
      <trkpt lat="30.082526" lon="-98.527223" />
      <trkpt lat="30.082583" lon="-98.527121" />
      <trkpt lat="30.082633" lon="-98.527015" />
      <trkpt lat="30.082892" lon="-98.526419" />
      <trkpt lat="30.082926" lon="-98.526349" />
      <trkpt lat="30.083025" lon="-98.526138" />
      <trkpt lat="30.083091" lon="-98.525965" />
      <trkpt lat="30.083143" lon="-98.525786" />
      <trkpt lat="30.083298" lon="-98.525085" />
      <trkpt lat="30.083463" lon="-98.524235" />
      <trkpt lat="30.083501" lon="-98.524041" />
      <trkpt lat="30.083589" lon="-98.523534" />
      <trkpt lat="30.0837" lon="-98.523007" />
      <trkpt lat="30.083745" lon="-98.522737" />
      <trkpt lat="30.083772" lon="-98.522625" />
      <trkpt lat="30.08381" lon="-98.522517" />
      <trkpt lat="30.083856" lon="-98.522414" />
      <trkpt lat="30.083912" lon="-98.522317" />
      <trkpt lat="30.083976" lon="-98.522227" />
      <trkpt lat="30.084032" lon="-98.522128" />
      <trkpt lat="30.084095" lon="-98.522034" />
      <trkpt lat="30.084164" lon="-98.521945" />
      <trkpt lat="30.084238" lon="-98.521862" />
      <trkpt lat="30.084356" lon="-98.521746" />
      <trkpt lat="30.084398" lon="-98.52171" />
      <trkpt lat="30.084443" lon="-98.521679" />
      <trkpt lat="30.084538" lon="-98.52163" />
      <trkpt lat="30.084639" lon="-98.521599" />
      <trkpt lat="30.086126" lon="-98.521404" />
      <trkpt lat="30.08737" lon="-98.521209" />
      <trkpt lat="30.087441" lon="-98.521206" />
      <trkpt lat="30.087517" lon="-98.521211" />
      <trkpt lat="30.088091" lon="-98.521302" />
      <trkpt lat="30.088361" lon="-98.521351" />
      <trkpt lat="30.088444" lon="-98.521359" />
      <trkpt lat="30.088535" lon="-98.521361" />
      <trkpt lat="30.088755" lon="-98.521346" />
      <trkpt lat="30.0889" lon="-98.521323" />
      <trkpt lat="30.089044" lon="-98.521289" />
      <trkpt lat="30.089099" lon="-98.521272" />
      <trkpt lat="30.090269" lon="-98.521061" />
      <trkpt lat="30.090428" lon="-98.521044" />
      <trkpt lat="30.090641" lon="-98.521045" />
      <trkpt lat="30.091194" lon="-98.521098" />
      <trkpt lat="30.091504" lon="-98.521128" />
      <trkpt lat="30.091716" lon="-98.521134" />
      <trkpt lat="30.092758" lon="-98.521094" />
      <trkpt lat="30.092898" lon="-98.521081" />
      <trkpt lat="30.093272" lon="-98.521019" />
      <trkpt lat="30.093431" lon="-98.520982" />
      <trkpt lat="30.0935" lon="-98.520961" />
      <trkpt lat="30.093564" lon="-98.520935" />
      <trkpt lat="30.09362" lon="-98.520902" />
      <trkpt lat="30.09367" lon="-98.520864" />
      <trkpt lat="30.093721" lon="-98.520813" />
      <trkpt lat="30.093762" lon="-98.520759" />
      <trkpt lat="30.093804" lon="-98.520676" />
      <trkpt lat="30.093877" lon="-98.520363" />
      <trkpt lat="30.093959" lon="-98.519607" />
      <trkpt lat="30.093969" lon="-98.519446" />
      <trkpt lat="30.093992" lon="-98.519302" />
      <trkpt lat="30.094004" lon="-98.519231" />
      <trkpt lat="30.094024" lon="-98.519155" />
      <trkpt lat="30.094232" lon="-98.518535" />
      <trkpt lat="30.09436" lon="-98.518196" />
      <trkpt lat="30.094411" lon="-98.518082" />
      <trkpt lat="30.094466" lon="-98.517978" />
      <trkpt lat="30.094525" lon="-98.517886" />
      <trkpt lat="30.094588" lon="-98.517801" />
      <trkpt lat="30.094658" lon="-98.51772" />
      <trkpt lat="30.094736" lon="-98.517644" />
      <trkpt lat="30.094821" lon="-98.517571" />
      <trkpt lat="30.094965" lon="-98.517471" />
      <trkpt lat="30.095098" lon="-98.517405" />
      <trkpt lat="30.095322" lon="-98.517327" />
      <trkpt lat="30.095651" lon="-98.517234" />
      <trkpt lat="30.095696" lon="-98.517221" />
      <trkpt lat="30.096396" lon="-98.517036" />
      <trkpt lat="30.096796" lon="-98.516909" />
      <trkpt lat="30.096902" lon="-98.516871" />
      <trkpt lat="30.09698" lon="-98.516838" />
      <trkpt lat="30.097047" lon="-98.516802" />
      <trkpt lat="30.097106" lon="-98.516764" />
      <trkpt lat="30.097175" lon="-98.516707" />
      <trkpt lat="30.097245" lon="-98.51664" />
      <trkpt lat="30.097317" lon="-98.516563" />
      <trkpt lat="30.097709" lon="-98.516071" />
      <trkpt lat="30.097823" lon="-98.515925" />
      <trkpt lat="30.098005" lon="-98.515718" />
      <trkpt lat="30.098175" lon="-98.515495" />
      <trkpt lat="30.098304" lon="-98.515314" />
      <trkpt lat="30.098429" lon="-98.515125" />
      <trkpt lat="30.098654" lon="-98.514741" />
      <trkpt lat="30.098867" lon="-98.514346" />
      <trkpt lat="30.099026" lon="-98.514036" />
      <trkpt lat="30.099262" lon="-98.513551" />
      <trkpt lat="30.099616" lon="-98.512898" />
      <trkpt lat="30.099867" lon="-98.512391" />
      <trkpt lat="30.099923" lon="-98.51229" />
      <trkpt lat="30.099985" lon="-98.512193" />
      <trkpt lat="30.10005" lon="-98.5121" />
      <trkpt lat="30.100119" lon="-98.512013" />
      <trkpt lat="30.100182" lon="-98.511946" />
      <trkpt lat="30.100248" lon="-98.511892" />
      <trkpt lat="30.100317" lon="-98.51185" />
      <trkpt lat="30.100386" lon="-98.511822" />
      <trkpt lat="30.100475" lon="-98.511799" />
      <trkpt lat="30.100566" lon="-98.511783" />
      <trkpt lat="30.100591" lon="-98.511781" />
      <trkpt lat="30.100655" lon="-98.511775" />
      <trkpt lat="30.100742" lon="-98.511775" />
      <trkpt lat="30.10102" lon="-98.511798" />
      <trkpt lat="30.101287" lon="-98.511799" />
      <trkpt lat="30.101834" lon="-98.511793" />
      <trkpt lat="30.101897" lon="-98.511792" />
      <trkpt lat="30.101935" lon="-98.511805" />
      <trkpt lat="30.102017" lon="-98.511858" />
      <trkpt lat="30.102214" lon="-98.511967" />
      <trkpt lat="30.102259" lon="-98.511996" />
      <trkpt lat="30.102231" lon="-98.512168" />
      <trkpt lat="30.102218" lon="-98.512416" />
      <trkpt lat="30.102245" lon="-98.512657" />
      <trkpt lat="30.102099" lon="-98.513088" />
      <trkpt lat="30.102048" lon="-98.513269" />
      <trkpt lat="30.102017" lon="-98.513414" />
      <trkpt lat="30.102011" lon="-98.513445" />
      <trkpt lat="30.101996" lon="-98.513514" />
      <trkpt lat="30.10196" lon="-98.513762" />
      <trkpt lat="30.101942" lon="-98.513988" />
      <trkpt lat="30.10194" lon="-98.514014" />
      <trkpt lat="30.101938" lon="-98.514267" />
      <trkpt lat="30.101953" lon="-98.514519" />
      <trkpt lat="30.102119" lon="-98.515912" />
      <trkpt lat="30.102166" lon="-98.516157" />
      <trkpt lat="30.102183" lon="-98.516226" />
      <trkpt lat="30.102238" lon="-98.516458" />
      <trkpt lat="30.10228" lon="-98.516599" />
      <trkpt lat="30.102326" lon="-98.516754" />
      <trkpt lat="30.102427" lon="-98.517044" />
      <trkpt lat="30.102544" lon="-98.517327" />
      <trkpt lat="30.102788" lon="-98.517837" />
      <trkpt lat="30.10313" lon="-98.518553" />
      <trkpt lat="30.103222" lon="-98.518782" />
      <trkpt lat="30.103298" lon="-98.519019" />
      <trkpt lat="30.103328" lon="-98.519142" />
      <trkpt lat="30.103357" lon="-98.519263" />
      <trkpt lat="30.1034" lon="-98.51951" />
      <trkpt lat="30.103425" lon="-98.519761" />
      <trkpt lat="30.103433" lon="-98.520013" />
      <trkpt lat="30.103418" lon="-98.520448" />
      <trkpt lat="30.103411" lon="-98.520523" />
      <trkpt lat="30.103389" lon="-98.520756" />
      <trkpt lat="30.103339" lon="-98.521061" />
      <trkpt lat="30.103268" lon="-98.521361" />
      <trkpt lat="30.10321" lon="-98.521634" />
      <trkpt lat="30.102762" lon="-98.523687" />
      <trkpt lat="30.102648" lon="-98.524211" />
      <trkpt lat="30.102501" lon="-98.524887" />
      <trkpt lat="30.102311" lon="-98.525666" />
      <trkpt lat="30.102248" lon="-98.525989" />
      <trkpt lat="30.102219" lon="-98.52619" />
      <trkpt lat="30.102204" lon="-98.526372" />
      <trkpt lat="30.102201" lon="-98.526575" />
      <trkpt lat="30.102216" lon="-98.526884" />
      <trkpt lat="30.10223" lon="-98.527066" />
      <trkpt lat="30.102254" lon="-98.527264" />
      <trkpt lat="30.102291" lon="-98.527456" />
      <trkpt lat="30.10234" lon="-98.527666" />
      <trkpt lat="30.102396" lon="-98.527864" />
      <trkpt lat="30.102453" lon="-98.528037" />
      <trkpt lat="30.102529" lon="-98.528225" />
      <trkpt lat="30.102625" lon="-98.528428" />
      <trkpt lat="30.10274" lon="-98.528647" />
      <trkpt lat="30.102833" lon="-98.528797" />
      <trkpt lat="30.103233" lon="-98.529366" />
      <trkpt lat="30.103337" lon="-98.529503" />
      <trkpt lat="30.103601" lon="-98.529901" />
      <trkpt lat="30.103684" lon="-98.530046" />
      <trkpt lat="30.103868" lon="-98.530443" />
      <trkpt lat="30.103929" lon="-98.530594" />
      <trkpt lat="30.104158" lon="-98.531235" />
      <trkpt lat="30.104223" lon="-98.531418" />
      <trkpt lat="30.104414" lon="-98.531919" />
      <trkpt lat="30.104454" lon="-98.532044" />
      <trkpt lat="30.104517" lon="-98.532283" />
      <trkpt lat="30.104566" lon="-98.532527" />
      <trkpt lat="30.104599" lon="-98.532774" />
      <trkpt lat="30.104616" lon="-98.533024" />
      <trkpt lat="30.104619" lon="-98.533274" />
      <trkpt lat="30.104602" lon="-98.533582" />
      <trkpt lat="30.104565" lon="-98.533885" />
      <trkpt lat="30.104507" lon="-98.534182" />
      <trkpt lat="30.104427" lon="-98.534474" />
      <trkpt lat="30.104326" lon="-98.534756" />
      <trkpt lat="30.104301" lon="-98.534821" />
      <trkpt lat="30.104116" lon="-98.535227" />
      <trkpt lat="30.103948" lon="-98.535593" />
      <trkpt lat="30.103833" lon="-98.535862" />
      <trkpt lat="30.103737" lon="-98.536142" />
      <trkpt lat="30.103662" lon="-98.536429" />
      <trkpt lat="30.103604" lon="-98.536724" />
      <trkpt lat="30.103575" lon="-98.536963" />
      <trkpt lat="30.10357" lon="-98.537065" />
      <trkpt lat="30.103564" lon="-98.537205" />
      <trkpt lat="30.103572" lon="-98.537447" />
      <trkpt lat="30.103643" lon="-98.538215" />
      <trkpt lat="30.103736" lon="-98.539092" />
      <trkpt lat="30.10374" lon="-98.539131" />
      <trkpt lat="30.10388" lon="-98.540464" />
      <trkpt lat="30.104033" lon="-98.541885" />
      <trkpt lat="30.104053" lon="-98.542262" />
      <trkpt lat="30.104053" lon="-98.542639" />
      <trkpt lat="30.104034" lon="-98.542999" />
      <trkpt lat="30.104014" lon="-98.543271" />
      <trkpt lat="30.103968" lon="-98.543928" />
      <trkpt lat="30.103961" lon="-98.54417" />
      <trkpt lat="30.103969" lon="-98.544413" />
      <trkpt lat="30.103993" lon="-98.544655" />
      <trkpt lat="30.104031" lon="-98.544893" />
      <trkpt lat="30.104187" lon="-98.545597" />
      <trkpt lat="30.104194" lon="-98.545651" />
      <trkpt lat="30.104226" lon="-98.545906" />
      <trkpt lat="30.104245" lon="-98.546219" />
      <trkpt lat="30.104242" lon="-98.546448" />
      <trkpt lat="30.104241" lon="-98.546532" />
      <trkpt lat="30.104216" lon="-98.546843" />
      <trkpt lat="30.104177" lon="-98.547097" />
      <trkpt lat="30.104169" lon="-98.547152" />
      <trkpt lat="30.103804" lon="-98.548827" />
      <trkpt lat="30.103664" lon="-98.549498" />
      <trkpt lat="30.103632" lon="-98.549682" />
      <trkpt lat="30.103597" lon="-98.549991" />
      <trkpt lat="30.103583" lon="-98.550301" />
      <trkpt lat="30.103592" lon="-98.550613" />
      <trkpt lat="30.103623" lon="-98.550922" />
      <trkpt lat="30.103733" lon="-98.5515" />
      <trkpt lat="30.103774" lon="-98.551749" />
      <trkpt lat="30.103925" lon="-98.552656" />
      <trkpt lat="30.103961" lon="-98.552897" />
      <trkpt lat="30.103969" lon="-98.552955" />
      <trkpt lat="30.104004" lon="-98.553316" />
      <trkpt lat="30.104046" lon="-98.554323" />
      <trkpt lat="30.10404" lon="-98.554569" />
      <trkpt lat="30.104019" lon="-98.554814" />
      <trkpt lat="30.10398" lon="-98.555057" />
      <trkpt lat="30.103925" lon="-98.555296" />
      <trkpt lat="30.103919" lon="-98.555319" />
      <trkpt lat="30.103817" lon="-98.555685" />
      <trkpt lat="30.103751" lon="-98.55601" />
      <trkpt lat="30.10369" lon="-98.556305" />
      <trkpt lat="30.103647" lon="-98.556603" />
      <trkpt lat="30.103623" lon="-98.556905" />
      <trkpt lat="30.103618" lon="-98.557201" />
      <trkpt lat="30.103603" lon="-98.558099" />
      <trkpt lat="30.103587" lon="-98.559589" />
      <trkpt lat="30.103581" lon="-98.560126" />
      <trkpt lat="30.103554" lon="-98.562562" />
      <trkpt lat="30.103506" lon="-98.564176" />
      <trkpt lat="30.103479" lon="-98.565083" />
      <trkpt lat="30.103508" lon="-98.565636" />
      <trkpt lat="30.103596" lon="-98.566155" />
      <trkpt lat="30.103743" lon="-98.566629" />
      <trkpt lat="30.103939" lon="-98.567068" />
      <trkpt lat="30.106096" lon="-98.570884" />
      <trkpt lat="30.106404" lon="-98.571479" />
      <trkpt lat="30.106557" lon="-98.571894" />
      <trkpt lat="30.106634" lon="-98.572192" />
      <trkpt lat="30.106708" lon="-98.572616" />
      <trkpt lat="30.106729" lon="-98.572993" />
      <trkpt lat="30.106731" lon="-98.5733" />
      <trkpt lat="30.106713" lon="-98.573567" />
      <trkpt lat="30.106679" lon="-98.573783" />
      <trkpt lat="30.106659" lon="-98.573901" />
      <trkpt lat="30.106606" lon="-98.574146" />
      <trkpt lat="30.10649" lon="-98.574523" />
      <trkpt lat="30.106153" lon="-98.575224" />
      <trkpt lat="30.105762" lon="-98.576005" />
      <trkpt lat="30.105492" lon="-98.576526" />
      <trkpt lat="30.104758" lon="-98.578" />
      <trkpt lat="30.104377" lon="-98.578763" />
      <trkpt lat="30.104063" lon="-98.579483" />
      <trkpt lat="30.103936" lon="-98.579928" />
      <trkpt lat="30.103864" lon="-98.580396" />
      <trkpt lat="30.103844" lon="-98.580874" />
      <trkpt lat="30.103855" lon="-98.581035" />
      <trkpt lat="30.103876" lon="-98.581346" />
      <trkpt lat="30.103929" lon="-98.581661" />
      <trkpt lat="30.104005" lon="-98.581974" />
      <trkpt lat="30.104764" lon="-98.584543" />
      <trkpt lat="30.105147" lon="-98.58584" />
      <trkpt lat="30.105328" lon="-98.586518" />
      <trkpt lat="30.105399" lon="-98.586859" />
      <trkpt lat="30.106067" lon="-98.590602" />
      <trkpt lat="30.106311" lon="-98.592076" />
      <trkpt lat="30.107157" lon="-98.598264" />
      <trkpt lat="30.107239" lon="-98.59881" />
      <trkpt lat="30.107338" lon="-98.599333" />
      <trkpt lat="30.10769" lon="-98.600681" />
      <trkpt lat="30.10831" lon="-98.602945" />
      <trkpt lat="30.108712" lon="-98.604461" />
      <trkpt lat="30.109011" lon="-98.605586" />
      <trkpt lat="30.109788" lon="-98.60839" />
      <trkpt lat="30.110035" lon="-98.609282" />
      <trkpt lat="30.110741" lon="-98.611828" />
      <trkpt lat="30.110828" lon="-98.612193" />
      <trkpt lat="30.110888" lon="-98.612557" />
      <trkpt lat="30.11093" lon="-98.613109" />
      <trkpt lat="30.11091" lon="-98.613659" />
      <trkpt lat="30.110841" lon="-98.614186" />
      <trkpt lat="30.110738" lon="-98.614786" />
      <trkpt lat="30.110589" lon="-98.615475" />
      <trkpt lat="30.110519" lon="-98.615935" />
      <trkpt lat="30.110492" lon="-98.616291" />
      <trkpt lat="30.110473" lon="-98.616529" />
      <trkpt lat="30.110474" lon="-98.616641" />
      <trkpt lat="30.110477" lon="-98.616986" />
      <trkpt lat="30.110502" lon="-98.6173" />
      <trkpt lat="30.110514" lon="-98.617455" />
      <trkpt lat="30.11058" lon="-98.617934" />
      <trkpt lat="30.110913" lon="-98.620047" />
      <trkpt lat="30.111027" lon="-98.620744" />
      <trkpt lat="30.111144" lon="-98.62148" />
      <trkpt lat="30.111293" lon="-98.622148" />
      <trkpt lat="30.111456" lon="-98.622786" />
      <trkpt lat="30.111547" lon="-98.623141" />
      <trkpt lat="30.111712" lon="-98.623786" />
      <trkpt lat="30.111899" lon="-98.624519" />
      <trkpt lat="30.111971" lon="-98.624858" />
      <trkpt lat="30.112018" lon="-98.625187" />
      <trkpt lat="30.112024" lon="-98.625819" />
      <trkpt lat="30.111983" lon="-98.626593" />
      <trkpt lat="30.111792" lon="-98.630712" />
      <trkpt lat="30.111782" lon="-98.631158" />
      <trkpt lat="30.111784" lon="-98.631642" />
      <trkpt lat="30.111807" lon="-98.631994" />
      <trkpt lat="30.111859" lon="-98.632332" />
      <trkpt lat="30.11199" lon="-98.632811" />
      <trkpt lat="30.112845" lon="-98.63511" />
      <trkpt lat="30.113496" lon="-98.636861" />
      <trkpt lat="30.113629" lon="-98.637327" />
      <trkpt lat="30.11373" lon="-98.637778" />
      <trkpt lat="30.113803" lon="-98.638222" />
      <trkpt lat="30.113829" lon="-98.638519" />
      <trkpt lat="30.11387" lon="-98.64074" />
      <trkpt lat="30.113882" lon="-98.641351" />
      <trkpt lat="30.113923" lon="-98.642317" />
      <trkpt lat="30.113924" lon="-98.642363" />
      <trkpt lat="30.113927" lon="-98.642867" />
      <trkpt lat="30.113908" lon="-98.643309" />
      <trkpt lat="30.113867" lon="-98.643718" />
      <trkpt lat="30.113797" lon="-98.644167" />
      <trkpt lat="30.113395" lon="-98.645838" />
      <trkpt lat="30.113368" lon="-98.645972" />
      <trkpt lat="30.11332" lon="-98.646212" />
      <trkpt lat="30.113274" lon="-98.646586" />
      <trkpt lat="30.113253" lon="-98.647152" />
      <trkpt lat="30.113273" lon="-98.647529" />
      <trkpt lat="30.113288" lon="-98.647774" />
      <trkpt lat="30.113318" lon="-98.647914" />
      <trkpt lat="30.113352" lon="-98.648078" />
      <trkpt lat="30.113482" lon="-98.648592" />
      <trkpt lat="30.11376" lon="-98.649513" />
      <trkpt lat="30.113849" lon="-98.649806" />
      <trkpt lat="30.113916" lon="-98.650104" />
      <trkpt lat="30.113968" lon="-98.650334" />
      <trkpt lat="30.114048" lon="-98.650861" />
      <trkpt lat="30.114076" lon="-98.651214" />
      <trkpt lat="30.114084" lon="-98.651572" />
      <trkpt lat="30.114064" lon="-98.652473" />
      <trkpt lat="30.114017" lon="-98.654569" />
      <trkpt lat="30.114049" lon="-98.654968" />
      <trkpt lat="30.114065" lon="-98.655058" />
      <trkpt lat="30.11414" lon="-98.655486" />
      <trkpt lat="30.114193" lon="-98.655669" />
      <trkpt lat="30.114309" lon="-98.655969" />
      <trkpt lat="30.114453" lon="-98.65628" />
      <trkpt lat="30.114661" lon="-98.656637" />
      <trkpt lat="30.114881" lon="-98.656931" />
      <trkpt lat="30.115266" lon="-98.657354" />
      <trkpt lat="30.117367" lon="-98.659528" />
      <trkpt lat="30.118336" lon="-98.660579" />
      <trkpt lat="30.118707" lon="-98.661002" />
      <trkpt lat="30.119063" lon="-98.661476" />
      <trkpt lat="30.119402" lon="-98.661987" />
      <trkpt lat="30.119605" lon="-98.662343" />
      <trkpt lat="30.120631" lon="-98.664339" />
      <trkpt lat="30.120911" lon="-98.664827" />
      <trkpt lat="30.121467" lon="-98.665646" />
      <trkpt lat="30.123021" lon="-98.667605" />
      <trkpt lat="30.123132" lon="-98.667715" />
      <trkpt lat="30.123506" lon="-98.668258" />
      <trkpt lat="30.123957" lon="-98.668964" />
      <trkpt lat="30.12485" lon="-98.670447" />
      <trkpt lat="30.125079" lon="-98.670778" />
      <trkpt lat="30.12532" lon="-98.671086" />
      <trkpt lat="30.125719" lon="-98.671504" />
      <trkpt lat="30.126162" lon="-98.671888" />
      <trkpt lat="30.129885" lon="-98.674627" />
      <trkpt lat="30.130022" lon="-98.674736" />
      <trkpt lat="30.130152" lon="-98.674839" />
      <trkpt lat="30.130394" lon="-98.675056" />
      <trkpt lat="30.130609" lon="-98.675277" />
      <trkpt lat="30.130893" lon="-98.675604" />
      <trkpt lat="30.131133" lon="-98.675919" />
      <trkpt lat="30.131471" lon="-98.67645" />
      <trkpt lat="30.132961" lon="-98.679069" />
      <trkpt lat="30.133313" lon="-98.679728" />
      <trkpt lat="30.133562" lon="-98.680271" />
      <trkpt lat="30.133767" lon="-98.680806" />
      <trkpt lat="30.135932" lon="-98.687003" />
      <trkpt lat="30.136079" lon="-98.687393" />
      <trkpt lat="30.136189" lon="-98.687631" />
      <trkpt lat="30.136312" lon="-98.687846" />
      <trkpt lat="30.136508" lon="-98.688145" />
      <trkpt lat="30.136647" lon="-98.688328" />
      <trkpt lat="30.136867" lon="-98.688577" />
      <trkpt lat="30.137953" lon="-98.68959" />
      <trkpt lat="30.138322" lon="-98.689938" />
      <trkpt lat="30.138584" lon="-98.690174" />
      <trkpt lat="30.139069" lon="-98.690636" />
      <trkpt lat="30.140632" lon="-98.692097" />
      <trkpt lat="30.141071" lon="-98.692438" />
      <trkpt lat="30.141552" lon="-98.692731" />
      <trkpt lat="30.141854" lon="-98.692885" />
      <trkpt lat="30.142279" lon="-98.693052" />
      <trkpt lat="30.143726" lon="-98.693559" />
      <trkpt lat="30.14505" lon="-98.69404" />
      <trkpt lat="30.145906" lon="-98.694386" />
      <trkpt lat="30.146304" lon="-98.694572" />
      <trkpt lat="30.146794" lon="-98.694817" />
      <trkpt lat="30.147729" lon="-98.695323" />
      <trkpt lat="30.149489" lon="-98.696282" />
      <trkpt lat="30.149681" lon="-98.696398" />
      <trkpt lat="30.149867" lon="-98.696538" />
      <trkpt lat="30.150051" lon="-98.696692" />
      <trkpt lat="30.150186" lon="-98.696829" />
      <trkpt lat="30.150292" lon="-98.696936" />
      <trkpt lat="30.150454" lon="-98.697136" />
      <trkpt lat="30.150593" lon="-98.697343" />
      <trkpt lat="30.150722" lon="-98.697561" />
      <trkpt lat="30.150856" lon="-98.697824" />
      <trkpt lat="30.15093" lon="-98.697991" />
      <trkpt lat="30.151008" lon="-98.698206" />
      <trkpt lat="30.151089" lon="-98.698469" />
      <trkpt lat="30.151156" lon="-98.698778" />
      <trkpt lat="30.151221" lon="-98.699213" />
      <trkpt lat="30.151452" lon="-98.701388" />
      <trkpt lat="30.151506" lon="-98.701826" />
      <trkpt lat="30.151562" lon="-98.702111" />
      <trkpt lat="30.15167" lon="-98.702521" />
      <trkpt lat="30.151817" lon="-98.702917" />
      <trkpt lat="30.152062" lon="-98.703416" />
      <trkpt lat="30.152367" lon="-98.703891" />
      <trkpt lat="30.152634" lon="-98.704233" />
      <trkpt lat="30.153667" lon="-98.705438" />
      <trkpt lat="30.154008" lon="-98.705858" />
      <trkpt lat="30.154217" lon="-98.706145" />
      <trkpt lat="30.154404" lon="-98.706421" />
      <trkpt lat="30.154626" lon="-98.706784" />
      <trkpt lat="30.154823" lon="-98.707141" />
      <trkpt lat="30.155031" lon="-98.707549" />
      <trkpt lat="30.155186" lon="-98.707909" />
      <trkpt lat="30.156176" lon="-98.71028" />
      <trkpt lat="30.156517" lon="-98.711146" />
      <trkpt lat="30.157089" lon="-98.712549" />
      <trkpt lat="30.157207" lon="-98.712893" />
      <trkpt lat="30.157307" lon="-98.713194" />
      <trkpt lat="30.157373" lon="-98.713476" />
      <trkpt lat="30.157447" lon="-98.713834" />
      <trkpt lat="30.157492" lon="-98.714143" />
      <trkpt lat="30.157516" lon="-98.714391" />
      <trkpt lat="30.157534" lon="-98.714708" />
      <trkpt lat="30.157608" lon="-98.720789" />
      <trkpt lat="30.157646" lon="-98.721126" />
      <trkpt lat="30.157702" lon="-98.721452" />
      <trkpt lat="30.157786" lon="-98.721773" />
      <trkpt lat="30.157902" lon="-98.722087" />
      <trkpt lat="30.158043" lon="-98.722387" />
      <trkpt lat="30.158289" lon="-98.722804" />
      <trkpt lat="30.158476" lon="-98.723057" />
      <trkpt lat="30.15868" lon="-98.72328" />
      <trkpt lat="30.159118" lon="-98.72368" />
      <trkpt lat="30.159918" lon="-98.724356" />
      <trkpt lat="30.162385" lon="-98.726428" />
      <trkpt lat="30.162608" lon="-98.726624" />
      <trkpt lat="30.162826" lon="-98.726854" />
      <trkpt lat="30.163086" lon="-98.727186" />
      <trkpt lat="30.16324" lon="-98.727427" />
      <trkpt lat="30.163368" lon="-98.727675" />
      <trkpt lat="30.163525" lon="-98.728059" />
      <trkpt lat="30.163647" lon="-98.728463" />
      <trkpt lat="30.163713" lon="-98.728753" />
      <trkpt lat="30.163746" lon="-98.729066" />
      <trkpt lat="30.163778" lon="-98.729476" />
      <trkpt lat="30.163858" lon="-98.731784" />
      <trkpt lat="30.163862" lon="-98.732548" />
      <trkpt lat="30.163811" lon="-98.733149" />
      <trkpt lat="30.163424" lon="-98.735294" />
      <trkpt lat="30.163373" lon="-98.735629" />
      <trkpt lat="30.16334" lon="-98.735984" />
      <trkpt lat="30.163318" lon="-98.736639" />
      <trkpt lat="30.163272" lon="-98.740769" />
      <trkpt lat="30.163243" lon="-98.742321" />
      <trkpt lat="30.163362" lon="-98.74233" />
      <trkpt lat="30.163708" lon="-98.742368" />
      <trkpt lat="30.164882" lon="-98.742411" />
      <trkpt lat="30.166321" lon="-98.742463" />
      <trkpt lat="30.169589" lon="-98.742599" />
      <trkpt lat="30.169899" lon="-98.742624" />
      <trkpt lat="30.17014" lon="-98.742658" />
      <trkpt lat="30.170517" lon="-98.742756" />
      <trkpt lat="30.170728" lon="-98.742819" />
      <trkpt lat="30.170884" lon="-98.74288" />
      <trkpt lat="30.171365" lon="-98.743082" />
      <trkpt lat="30.171574" lon="-98.743193" />
      <trkpt lat="30.171826" lon="-98.743343" />
      <trkpt lat="30.172819" lon="-98.743992" />
      <trkpt lat="30.173111" lon="-98.744183" />
      <trkpt lat="30.175083" lon="-98.745446" />
      <trkpt lat="30.175423" lon="-98.745663" />
      <trkpt lat="30.176258" lon="-98.746222" />
      <trkpt lat="30.177379" lon="-98.746956" />
      <trkpt lat="30.177723" lon="-98.747186" />
      <trkpt lat="30.178126" lon="-98.74753" />
      <trkpt lat="30.178276" lon="-98.747677" />
      <trkpt lat="30.178537" lon="-98.748008" />
      <trkpt lat="30.178761" lon="-98.748371" />
      <trkpt lat="30.178984" lon="-98.748866" />
      <trkpt lat="30.179086" lon="-98.749174" />
      <trkpt lat="30.179165" lon="-98.749484" />
      <trkpt lat="30.17948" lon="-98.750999" />
      <trkpt lat="30.17954" lon="-98.751285" />
      <trkpt lat="30.17964" lon="-98.751758" />
      <trkpt lat="30.179752" lon="-98.752206" />
      <trkpt lat="30.179908" lon="-98.752791" />
      <trkpt lat="30.180227" lon="-98.75373" />
      <trkpt lat="30.180569" lon="-98.754685" />
      <trkpt lat="30.180616" lon="-98.754809" />
      <trkpt lat="30.180999" lon="-98.755823" />
      <trkpt lat="30.181072" lon="-98.756015" />
      <trkpt lat="30.180857" lon="-98.756098" />
      <trkpt lat="30.180795" lon="-98.756111" />
      <trkpt lat="30.180802" lon="-98.756714" />
      <trkpt lat="30.18047" lon="-98.756683" />
      <trkpt lat="30.180219" lon="-98.756682" />
      <trkpt lat="30.180038" lon="-98.756739" />
      <trkpt lat="30.179907" lon="-98.756894" />
    </trkseg>
  </trk>
</gpx>