<?xml version='1.0' encoding='UTF-8'?>
<gpx version="1.1" creator="Antigravity Route Generator" xmlns="http://www.topografix.com/GPX/1/1">
  <trk>
    <name>Willow City Loop &amp; Enchanted Rock Run</name>
    <desc>Twisties &amp; Canyons (35.7 mi) - TX 16 -&gt; RM 1323 -&gt; Willow City Loop -&gt; FM 965</desc>
    <trkseg>
      <trkpt lat="30.275297" lon="-98.872096" />
      <trkpt lat="30.275557" lon="-98.871845" />
      <trkpt lat="30.276086" lon="-98.871334" />
      <trkpt lat="30.276171" lon="-98.871251" />
      <trkpt lat="30.27625" lon="-98.871175" />
      <trkpt lat="30.276716" lon="-98.870724" />
      <trkpt lat="30.276865" lon="-98.87058" />
      <trkpt lat="30.277086" lon="-98.870366" />
      <trkpt lat="30.277206" lon="-98.87025" />
      <trkpt lat="30.277754" lon="-98.86972" />
      <trkpt lat="30.277233" lon="-98.868966" />
      <trkpt lat="30.276932" lon="-98.86855" />
      <trkpt lat="30.276758" lon="-98.868309" />
      <trkpt lat="30.276538" lon="-98.868013" />
      <trkpt lat="30.277495" lon="-98.867096" />
      <trkpt lat="30.278428" lon="-98.866239" />
      <trkpt lat="30.278874" lon="-98.865818" />
      <trkpt lat="30.279356" lon="-98.865363" />
      <trkpt lat="30.280286" lon="-98.864512" />
      <trkpt lat="30.281216" lon="-98.863623" />
      <trkpt lat="30.282093" lon="-98.862778" />
      <trkpt lat="30.2823" lon="-98.862581" />
      <trkpt lat="30.282999" lon="-98.861917" />
      <trkpt lat="30.283377" lon="-98.861539" />
      <trkpt lat="30.283782" lon="-98.86103" />
      <trkpt lat="30.284016" lon="-98.860694" />
      <trkpt lat="30.284144" lon="-98.860464" />
      <trkpt lat="30.284226" lon="-98.860318" />
      <trkpt lat="30.284536" lon="-98.859557" />
      <trkpt lat="30.28469" lon="-98.858968" />
      <trkpt lat="30.284891" lon="-98.858105" />
      <trkpt lat="30.285395" lon="-98.855896" />
      <trkpt lat="30.28562" lon="-98.854985" />
      <trkpt lat="30.285693" lon="-98.854692" />
      <trkpt lat="30.285791" lon="-98.854298" />
      <trkpt lat="30.285837" lon="-98.854111" />
      <trkpt lat="30.286168" lon="-98.852775" />
      <trkpt lat="30.286557" lon="-98.851177" />
      <trkpt lat="30.286699" lon="-98.850736" />
      <trkpt lat="30.286809" lon="-98.850365" />
      <trkpt lat="30.287277" lon="-98.849351" />
      <trkpt lat="30.287502" lon="-98.848776" />
      <trkpt lat="30.287807" lon="-98.847942" />
      <trkpt lat="30.28832" lon="-98.846738" />
      <trkpt lat="30.289271" lon="-98.844569" />
      <trkpt lat="30.290276" lon="-98.8422" />
      <trkpt lat="30.290829" lon="-98.840916" />
      <trkpt lat="30.291135" lon="-98.84017" />
      <trkpt lat="30.291155" lon="-98.840122" />
      <trkpt lat="30.291189" lon="-98.840038" />
      <trkpt lat="30.291606" lon="-98.839022" />
      <trkpt lat="30.291875" lon="-98.838444" />
      <trkpt lat="30.292457" lon="-98.83729" />
      <trkpt lat="30.293248" lon="-98.836117" />
      <trkpt lat="30.293902" lon="-98.835043" />
      <trkpt lat="30.294024" lon="-98.834785" />
      <trkpt lat="30.294213" lon="-98.834383" />
      <trkpt lat="30.294678" lon="-98.833265" />
      <trkpt lat="30.295181" lon="-98.83206" />
      <trkpt lat="30.295529" lon="-98.831313" />
      <trkpt lat="30.296827" lon="-98.829112" />
      <trkpt lat="30.296893" lon="-98.829" />
      <trkpt lat="30.297414" lon="-98.828147" />
      <trkpt lat="30.299264" lon="-98.825001" />
      <trkpt lat="30.299589" lon="-98.824555" />
      <trkpt lat="30.299904" lon="-98.824195" />
      <trkpt lat="30.300378" lon="-98.823833" />
      <trkpt lat="30.300843" lon="-98.823528" />
      <trkpt lat="30.302957" lon="-98.822552" />
      <trkpt lat="30.303285" lon="-98.822352" />
      <trkpt lat="30.30356" lon="-98.822176" />
      <trkpt lat="30.303922" lon="-98.821889" />
      <trkpt lat="30.304985" lon="-98.821" />
      <trkpt lat="30.305623" lon="-98.820453" />
      <trkpt lat="30.306203" lon="-98.81994" />
      <trkpt lat="30.306866" lon="-98.819189" />
      <trkpt lat="30.307173" lon="-98.818798" />
      <trkpt lat="30.308278" lon="-98.817403" />
      <trkpt lat="30.308502" lon="-98.817159" />
      <trkpt lat="30.309785" lon="-98.816092" />
      <trkpt lat="30.311967" lon="-98.814339" />
      <trkpt lat="30.313425" lon="-98.813212" />
      <trkpt lat="30.317441" lon="-98.810433" />
      <trkpt lat="30.31845" lon="-98.809734" />
      <trkpt lat="30.319597" lon="-98.808878" />
      <trkpt lat="30.321007" lon="-98.807889" />
      <trkpt lat="30.321419" lon="-98.807626" />
      <trkpt lat="30.321642" lon="-98.807458" />
      <trkpt lat="30.32188" lon="-98.807286" />
      <trkpt lat="30.322534" lon="-98.806815" />
      <trkpt lat="30.323333" lon="-98.806231" />
      <trkpt lat="30.323954" lon="-98.805643" />
      <trkpt lat="30.324855" lon="-98.804647" />
      <trkpt lat="30.327942" lon="-98.801014" />
      <trkpt lat="30.32842" lon="-98.800485" />
      <trkpt lat="30.329215" lon="-98.799554" />
      <trkpt lat="30.330506" lon="-98.798061" />
      <trkpt lat="30.331155" lon="-98.797583" />
      <trkpt lat="30.33153" lon="-98.797332" />
      <trkpt lat="30.331933" lon="-98.797133" />
      <trkpt lat="30.332654" lon="-98.79685" />
      <trkpt lat="30.334057" lon="-98.796281" />
      <trkpt lat="30.334296" lon="-98.796135" />
      <trkpt lat="30.334376" lon="-98.796083" />
      <trkpt lat="30.334831" lon="-98.795671" />
      <trkpt lat="30.336248" lon="-98.793925" />
      <trkpt lat="30.337333" lon="-98.792587" />
      <trkpt lat="30.338553" lon="-98.791112" />
      <trkpt lat="30.338736" lon="-98.790894" />
      <trkpt lat="30.338978" lon="-98.79068" />
      <trkpt lat="30.342715" lon="-98.787646" />
      <trkpt lat="30.343095" lon="-98.787345" />
      <trkpt lat="30.343308" lon="-98.787175" />
      <trkpt lat="30.343581" lon="-98.786963" />
      <trkpt lat="30.344146" lon="-98.786527" />
      <trkpt lat="30.34502" lon="-98.786011" />
      <trkpt lat="30.346046" lon="-98.785372" />
      <trkpt lat="30.347309" lon="-98.784478" />
      <trkpt lat="30.348029" lon="-98.783968" />
      <trkpt lat="30.348356" lon="-98.78374" />
      <trkpt lat="30.349366" lon="-98.783035" />
      <trkpt lat="30.349992" lon="-98.78261" />
      <trkpt lat="30.350926" lon="-98.781929" />
      <trkpt lat="30.351326" lon="-98.781567" />
      <trkpt lat="30.352845" lon="-98.779964" />
      <trkpt lat="30.353082" lon="-98.779742" />
      <trkpt lat="30.353417" lon="-98.779535" />
      <trkpt lat="30.354003" lon="-98.779325" />
      <trkpt lat="30.355131" lon="-98.778944" />
      <trkpt lat="30.356124" lon="-98.778612" />
      <trkpt lat="30.356476" lon="-98.778498" />
      <trkpt lat="30.356833" lon="-98.778324" />
      <trkpt lat="30.357314" lon="-98.77798" />
      <trkpt lat="30.357636" lon="-98.777652" />
      <trkpt lat="30.357915" lon="-98.777302" />
      <trkpt lat="30.358152" lon="-98.776928" />
      <trkpt lat="30.358547" lon="-98.776136" />
      <trkpt lat="30.359288" lon="-98.774681" />
      <trkpt lat="30.360735" lon="-98.771742" />
      <trkpt lat="30.361384" lon="-98.770414" />
      <trkpt lat="30.362145" lon="-98.768847" />
      <trkpt lat="30.362272" lon="-98.768608" />
      <trkpt lat="30.366301" lon="-98.760598" />
      <trkpt lat="30.366505" lon="-98.760229" />
      <trkpt lat="30.366925" lon="-98.759473" />
      <trkpt lat="30.367342" lon="-98.758728" />
      <trkpt lat="30.369025" lon="-98.755716" />
      <trkpt lat="30.369356" lon="-98.755213" />
      <trkpt lat="30.369781" lon="-98.754736" />
      <trkpt lat="30.370248" lon="-98.754335" />
      <trkpt lat="30.37122" lon="-98.753612" />
      <trkpt lat="30.375828" lon="-98.750274" />
      <trkpt lat="30.377397" lon="-98.749125" />
      <trkpt lat="30.378556" lon="-98.748265" />
      <trkpt lat="30.382024" lon="-98.745762" />
      <trkpt lat="30.382594" lon="-98.745349" />
      <trkpt lat="30.382834" lon="-98.745131" />
      <trkpt lat="30.383605" lon="-98.744621" />
      <trkpt lat="30.384061" lon="-98.744387" />
      <trkpt lat="30.385086" lon="-98.74411" />
      <trkpt lat="30.389575" lon="-98.742821" />
      <trkpt lat="30.391106" lon="-98.742381" />
      <trkpt lat="30.391888" lon="-98.742077" />
      <trkpt lat="30.394284" lon="-98.741124" />
      <trkpt lat="30.400356" lon="-98.738658" />
      <trkpt lat="30.401074" lon="-98.738376" />
      <trkpt lat="30.401478" lon="-98.73821" />
      <trkpt lat="30.4018" lon="-98.738074" />
      <trkpt lat="30.402141" lon="-98.737908" />
      <trkpt lat="30.402493" lon="-98.737683" />
      <trkpt lat="30.403375" lon="-98.736987" />
      <trkpt lat="30.403703" lon="-98.736788" />
      <trkpt lat="30.403726" lon="-98.73678" />
      <trkpt lat="30.404035" lon="-98.736664" />
      <trkpt lat="30.404492" lon="-98.736577" />
      <trkpt lat="30.40523" lon="-98.736564" />
      <trkpt lat="30.406052" lon="-98.736571" />
      <trkpt lat="30.413472" lon="-98.736648" />
      <trkpt lat="30.413353" lon="-98.736034" />
      <trkpt lat="30.413472" lon="-98.736648" />
      <trkpt lat="30.414519" lon="-98.736677" />
      <trkpt lat="30.414494" lon="-98.739835" />
      <trkpt lat="30.414447" lon="-98.744497" />
      <trkpt lat="30.414412" lon="-98.747871" />
      <trkpt lat="30.414407" lon="-98.748401" />
      <trkpt lat="30.414418" lon="-98.750315" />
      <trkpt lat="30.414363" lon="-98.757386" />
      <trkpt lat="30.414272" lon="-98.758947" />
      <trkpt lat="30.41159" lon="-98.758842" />
      <trkpt lat="30.405126" lon="-98.758845" />
      <trkpt lat="30.405058" lon="-98.75911" />
      <trkpt lat="30.405494" lon="-98.761436" />
      <trkpt lat="30.404578" lon="-98.763527" />
      <trkpt lat="30.403616" lon="-98.764691" />
      <trkpt lat="30.403409" lon="-98.765167" />
      <trkpt lat="30.403182" lon="-98.766436" />
      <trkpt lat="30.403937" lon="-98.766621" />
      <trkpt lat="30.404691" lon="-98.766662" />
      <trkpt lat="30.405404" lon="-98.7667" />
      <trkpt lat="30.406734" lon="-98.767995" />
      <trkpt lat="30.407124" lon="-98.768206" />
      <trkpt lat="30.408797" lon="-98.768232" />
      <trkpt lat="30.409256" lon="-98.768126" />
      <trkpt lat="30.409943" lon="-98.768099" />
      <trkpt lat="30.410723" lon="-98.768495" />
      <trkpt lat="30.412144" lon="-98.769579" />
      <trkpt lat="30.413128" lon="-98.769899" />
      <trkpt lat="30.413613" lon="-98.769903" />
      <trkpt lat="30.414643" lon="-98.769912" />
      <trkpt lat="30.414899" lon="-98.769888" />
      <trkpt lat="30.414964" lon="-98.769921" />
      <trkpt lat="30.415304" lon="-98.770747" />
      <trkpt lat="30.415555" lon="-98.771356" />
      <trkpt lat="30.415858" lon="-98.77209" />
      <trkpt lat="30.415927" lon="-98.772592" />
      <trkpt lat="30.416134" lon="-98.772803" />
      <trkpt lat="30.416735" lon="-98.774353" />
      <trkpt lat="30.417005" lon="-98.775051" />
      <trkpt lat="30.41741" lon="-98.775306" />
      <trkpt lat="30.419605" lon="-98.775435" />
      <trkpt lat="30.419655" lon="-98.775438" />
      <trkpt lat="30.421659" lon="-98.775578" />
      <trkpt lat="30.422071" lon="-98.77579" />
      <trkpt lat="30.422209" lon="-98.775975" />
      <trkpt lat="30.422737" lon="-98.777852" />
      <trkpt lat="30.422851" lon="-98.777984" />
      <trkpt lat="30.423401" lon="-98.777958" />
      <trkpt lat="30.427732" lon="-98.775735" />
      <trkpt lat="30.428099" lon="-98.775734" />
      <trkpt lat="30.430048" lon="-98.777638" />
      <trkpt lat="30.430277" lon="-98.778273" />
      <trkpt lat="30.430461" lon="-98.779119" />
      <trkpt lat="30.430782" lon="-98.781791" />
      <trkpt lat="30.43084" lon="-98.782265" />
      <trkpt lat="30.430797" lon="-98.78256" />
      <trkpt lat="30.430471" lon="-98.78317" />
      <trkpt lat="30.430469" lon="-98.783498" />
      <trkpt lat="30.430536" lon="-98.78376" />
      <trkpt lat="30.430989" lon="-98.786526" />
      <trkpt lat="30.43099" lon="-98.787372" />
      <trkpt lat="30.430761" lon="-98.787954" />
      <trkpt lat="30.430417" lon="-98.78843" />
      <trkpt lat="30.429683" lon="-98.788933" />
      <trkpt lat="30.429088" lon="-98.789674" />
      <trkpt lat="30.429059" lon="-98.789716" />
      <trkpt lat="30.42881" lon="-98.789799" />
      <trkpt lat="30.428529" lon="-98.789879" />
      <trkpt lat="30.42832" lon="-98.790009" />
      <trkpt lat="30.428213" lon="-98.790169" />
      <trkpt lat="30.428164" lon="-98.790333" />
      <trkpt lat="30.428222" lon="-98.791166" />
      <trkpt lat="30.428253" lon="-98.791627" />
      <trkpt lat="30.428229" lon="-98.791975" />
      <trkpt lat="30.428189" lon="-98.792242" />
      <trkpt lat="30.428102" lon="-98.792557" />
      <trkpt lat="30.427929" lon="-98.793156" />
      <trkpt lat="30.427279" lon="-98.794717" />
      <trkpt lat="30.426445" lon="-98.796902" />
      <trkpt lat="30.426708" lon="-98.797045" />
      <trkpt lat="30.427943" lon="-98.797477" />
      <trkpt lat="30.429593" lon="-98.79819" />
      <trkpt lat="30.430625" lon="-98.798428" />
      <trkpt lat="30.431226" lon="-98.798516" />
      <trkpt lat="30.43187" lon="-98.798793" />
      <trkpt lat="30.4321" lon="-98.799051" />
      <trkpt lat="30.432138" lon="-98.799327" />
      <trkpt lat="30.432252" lon="-98.799433" />
      <trkpt lat="30.432436" lon="-98.799962" />
      <trkpt lat="30.43261" lon="-98.800416" />
      <trkpt lat="30.432749" lon="-98.80053" />
      <trkpt lat="30.432975" lon="-98.800716" />
      <trkpt lat="30.433251" lon="-98.800944" />
      <trkpt lat="30.43377" lon="-98.803734" />
      <trkpt lat="30.433897" lon="-98.804069" />
      <trkpt lat="30.43406" lon="-98.804357" />
      <trkpt lat="30.434276" lon="-98.804642" />
      <trkpt lat="30.435383" lon="-98.805933" />
      <trkpt lat="30.436294" lon="-98.806995" />
      <trkpt lat="30.436665" lon="-98.807513" />
      <trkpt lat="30.436941" lon="-98.807977" />
      <trkpt lat="30.438198" lon="-98.811039" />
      <trkpt lat="30.438392" lon="-98.811385" />
      <trkpt lat="30.438546" lon="-98.81149" />
      <trkpt lat="30.438739" lon="-98.811503" />
      <trkpt lat="30.439075" lon="-98.81142" />
      <trkpt lat="30.439406" lon="-98.811372" />
      <trkpt lat="30.439819" lon="-98.811463" />
      <trkpt lat="30.440458" lon="-98.811793" />
      <trkpt lat="30.441251" lon="-98.812301" />
      <trkpt lat="30.441587" lon="-98.812565" />
      <trkpt lat="30.442081" lon="-98.813533" />
      <trkpt lat="30.442133" lon="-98.813862" />
      <trkpt lat="30.441955" lon="-98.814991" />
      <trkpt lat="30.441696" lon="-98.81601" />
      <trkpt lat="30.441492" lon="-98.817655" />
      <trkpt lat="30.441486" lon="-98.818373" />
      <trkpt lat="30.441497" lon="-98.819174" />
      <trkpt lat="30.44155" lon="-98.819886" />
      <trkpt lat="30.441749" lon="-98.821156" />
      <trkpt lat="30.442011" lon="-98.822227" />
      <trkpt lat="30.44243" lon="-98.824008" />
      <trkpt lat="30.442361" lon="-98.825595" />
      <trkpt lat="30.442336" lon="-98.826284" />
      <trkpt lat="30.442281" lon="-98.826858" />
      <trkpt lat="30.44209" lon="-98.827486" />
      <trkpt lat="30.441796" lon="-98.827978" />
      <trkpt lat="30.440522" lon="-98.830017" />
      <trkpt lat="30.440348" lon="-98.830362" />
      <trkpt lat="30.440188" lon="-98.830744" />
      <trkpt lat="30.44013" lon="-98.830912" />
      <trkpt lat="30.440027" lon="-98.831674" />
      <trkpt lat="30.439908" lon="-98.832029" />
      <trkpt lat="30.439871" lon="-98.832276" />
      <trkpt lat="30.439884" lon="-98.835044" />
      <trkpt lat="30.439922" lon="-98.836318" />
      <trkpt lat="30.440165" lon="-98.836426" />
      <trkpt lat="30.441006" lon="-98.83725" />
      <trkpt lat="30.441044" lon="-98.838546" />
      <trkpt lat="30.440887" lon="-98.83873" />
      <trkpt lat="30.440786" lon="-98.838873" />
      <trkpt lat="30.440592" lon="-98.839195" />
      <trkpt lat="30.440487" lon="-98.839415" />
      <trkpt lat="30.440343" lon="-98.839783" />
      <trkpt lat="30.440244" lon="-98.840147" />
      <trkpt lat="30.440161" lon="-98.840603" />
      <trkpt lat="30.440131" lon="-98.841117" />
      <trkpt lat="30.440173" lon="-98.844721" />
      <trkpt lat="30.440158" lon="-98.845361" />
      <trkpt lat="30.440124" lon="-98.84565" />
      <trkpt lat="30.440062" lon="-98.845917" />
      <trkpt lat="30.439987" lon="-98.846194" />
      <trkpt lat="30.439914" lon="-98.846411" />
      <trkpt lat="30.439743" lon="-98.846803" />
      <trkpt lat="30.43971" lon="-98.846858" />
      <trkpt lat="30.439503" lon="-98.847201" />
      <trkpt lat="30.439331" lon="-98.847434" />
      <trkpt lat="30.439162" lon="-98.847632" />
      <trkpt lat="30.438919" lon="-98.847862" />
      <trkpt lat="30.438534" lon="-98.848139" />
      <trkpt lat="30.438114" lon="-98.848372" />
      <trkpt lat="30.437713" lon="-98.848509" />
      <trkpt lat="30.437375" lon="-98.848575" />
      <trkpt lat="30.436948" lon="-98.848588" />
      <trkpt lat="30.435781" lon="-98.848606" />
      <trkpt lat="30.435487" lon="-98.848628" />
      <trkpt lat="30.435256" lon="-98.848679" />
      <trkpt lat="30.43489" lon="-98.848793" />
      <trkpt lat="30.434613" lon="-98.848934" />
      <trkpt lat="30.434321" lon="-98.849114" />
      <trkpt lat="30.433954" lon="-98.849393" />
      <trkpt lat="30.433733" lon="-98.849628" />
      <trkpt lat="30.433587" lon="-98.849806" />
      <trkpt lat="30.433439" lon="-98.850017" />
      <trkpt lat="30.433279" lon="-98.850267" />
      <trkpt lat="30.433222" lon="-98.850371" />
      <trkpt lat="30.432542" lon="-98.851622" />
      <trkpt lat="30.430781" lon="-98.854907" />
      <trkpt lat="30.430507" lon="-98.855373" />
      <trkpt lat="30.430048" lon="-98.856071" />
      <trkpt lat="30.429496" lon="-98.856686" />
      <trkpt lat="30.429228" lon="-98.85695" />
      <trkpt lat="30.429141" lon="-98.857017" />
      <trkpt lat="30.428947" lon="-98.857169" />
      <trkpt lat="30.42882" lon="-98.857254" />
      <trkpt lat="30.428662" lon="-98.857333" />
      <trkpt lat="30.428538" lon="-98.857383" />
      <trkpt lat="30.428377" lon="-98.857436" />
      <trkpt lat="30.428008" lon="-98.857524" />
      <trkpt lat="30.427808" lon="-98.857568" />
      <trkpt lat="30.427644" lon="-98.857595" />
      <trkpt lat="30.427486" lon="-98.857626" />
      <trkpt lat="30.427264" lon="-98.857654" />
      <trkpt lat="30.425041" lon="-98.857724" />
      <trkpt lat="30.423637" lon="-98.857817" />
      <trkpt lat="30.423146" lon="-98.857842" />
      <trkpt lat="30.422865" lon="-98.857832" />
      <trkpt lat="30.422553" lon="-98.857807" />
      <trkpt lat="30.422339" lon="-98.857777" />
      <trkpt lat="30.42147" lon="-98.857604" />
      <trkpt lat="30.421323" lon="-98.857574" />
      <trkpt lat="30.421144" lon="-98.857554" />
      <trkpt lat="30.421036" lon="-98.857546" />
      <trkpt lat="30.420917" lon="-98.857538" />
      <trkpt lat="30.419678" lon="-98.857499" />
      <trkpt lat="30.41932" lon="-98.85747" />
      <trkpt lat="30.418703" lon="-98.857426" />
      <trkpt lat="30.417712" lon="-98.857348" />
      <trkpt lat="30.417008" lon="-98.857283" />
      <trkpt lat="30.416437" lon="-98.857223" />
      <trkpt lat="30.416171" lon="-98.857197" />
      <trkpt lat="30.416164" lon="-98.857196" />
      <trkpt lat="30.415937" lon="-98.857183" />
      <trkpt lat="30.415737" lon="-98.857192" />
      <trkpt lat="30.415546" lon="-98.85722" />
      <trkpt lat="30.415332" lon="-98.857284" />
      <trkpt lat="30.415138" lon="-98.857373" />
      <trkpt lat="30.414621" lon="-98.857678" />
      <trkpt lat="30.414268" lon="-98.857824" />
      <trkpt lat="30.414027" lon="-98.857871" />
      <trkpt lat="30.413791" lon="-98.857888" />
      <trkpt lat="30.413422" lon="-98.857852" />
      <trkpt lat="30.413011" lon="-98.857834" />
      <trkpt lat="30.412788" lon="-98.857856" />
      <trkpt lat="30.412406" lon="-98.857951" />
      <trkpt lat="30.412239" lon="-98.858013" />
      <trkpt lat="30.411322" lon="-98.858434" />
      <trkpt lat="30.411173" lon="-98.858482" />
      <trkpt lat="30.410965" lon="-98.858522" />
      <trkpt lat="30.410773" lon="-98.858553" />
      <trkpt lat="30.410565" lon="-98.858569" />
      <trkpt lat="30.410262" lon="-98.858541" />
      <trkpt lat="30.409989" lon="-98.858492" />
      <trkpt lat="30.409552" lon="-98.858383" />
      <trkpt lat="30.409287" lon="-98.85831" />
      <trkpt lat="30.409019" lon="-98.858206" />
      <trkpt lat="30.408322" lon="-98.857951" />
      <trkpt lat="30.408234" lon="-98.857925" />
      <trkpt lat="30.408228" lon="-98.857923" />
      <trkpt lat="30.408027" lon="-98.857864" />
      <trkpt lat="30.407814" lon="-98.857813" />
      <trkpt lat="30.407634" lon="-98.857778" />
      <trkpt lat="30.407277" lon="-98.857716" />
      <trkpt lat="30.407085" lon="-98.85769" />
      <trkpt lat="30.406885" lon="-98.857673" />
      <trkpt lat="30.405978" lon="-98.857591" />
      <trkpt lat="30.405686" lon="-98.857591" />
      <trkpt lat="30.405461" lon="-98.85761" />
      <trkpt lat="30.405406" lon="-98.857618" />
      <trkpt lat="30.405235" lon="-98.857642" />
      <trkpt lat="30.405" lon="-98.857676" />
      <trkpt lat="30.404041" lon="-98.857922" />
      <trkpt lat="30.403257" lon="-98.858147" />
      <trkpt lat="30.402254" lon="-98.858433" />
      <trkpt lat="30.401933" lon="-98.8585" />
      <trkpt lat="30.401675" lon="-98.85853" />
      <trkpt lat="30.401373" lon="-98.858533" />
      <trkpt lat="30.401049" lon="-98.858506" />
      <trkpt lat="30.400854" lon="-98.858476" />
      <trkpt lat="30.400116" lon="-98.858302" />
      <trkpt lat="30.399941" lon="-98.858262" />
      <trkpt lat="30.399732" lon="-98.858223" />
      <trkpt lat="30.399599" lon="-98.858203" />
      <trkpt lat="30.399473" lon="-98.858184" />
      <trkpt lat="30.399077" lon="-98.858122" />
      <trkpt lat="30.398612" lon="-98.858047" />
      <trkpt lat="30.398421" lon="-98.858027" />
      <trkpt lat="30.398284" lon="-98.858028" />
      <trkpt lat="30.398209" lon="-98.858038" />
      <trkpt lat="30.398021" lon="-98.858043" />
      <trkpt lat="30.397757" lon="-98.858093" />
      <trkpt lat="30.397564" lon="-98.858147" />
      <trkpt lat="30.397399" lon="-98.858206" />
      <trkpt lat="30.397213" lon="-98.858285" />
      <trkpt lat="30.396848" lon="-98.858514" />
      <trkpt lat="30.396112" lon="-98.859038" />
      <trkpt lat="30.395704" lon="-98.859243" />
      <trkpt lat="30.395579" lon="-98.859329" />
      <trkpt lat="30.395052" lon="-98.859542" />
      <trkpt lat="30.39439" lon="-98.859715" />
      <trkpt lat="30.394286" lon="-98.859741" />
      <trkpt lat="30.39395" lon="-98.859838" />
      <trkpt lat="30.393612" lon="-98.859967" />
      <trkpt lat="30.391982" lon="-98.860756" />
      <trkpt lat="30.391142" lon="-98.861163" />
      <trkpt lat="30.390275" lon="-98.861588" />
      <trkpt lat="30.389363" lon="-98.862032" />
      <trkpt lat="30.388729" lon="-98.862325" />
      <trkpt lat="30.388431" lon="-98.862431" />
      <trkpt lat="30.388121" lon="-98.862506" />
      <trkpt lat="30.387732" lon="-98.862566" />
      <trkpt lat="30.387424" lon="-98.862583" />
      <trkpt lat="30.386677" lon="-98.862549" />
      <trkpt lat="30.384124" lon="-98.862432" />
      <trkpt lat="30.38328" lon="-98.862349" />
      <trkpt lat="30.382932" lon="-98.862311" />
      <trkpt lat="30.382225" lon="-98.862233" />
      <trkpt lat="30.382088" lon="-98.862208" />
      <trkpt lat="30.381836" lon="-98.862162" />
      <trkpt lat="30.381717" lon="-98.86212" />
      <trkpt lat="30.381601" lon="-98.86208" />
      <trkpt lat="30.381491" lon="-98.86203" />
      <trkpt lat="30.381406" lon="-98.861984" />
      <trkpt lat="30.381327" lon="-98.861934" />
      <trkpt lat="30.381251" lon="-98.86188" />
      <trkpt lat="30.381168" lon="-98.861812" />
      <trkpt lat="30.381049" lon="-98.861696" />
      <trkpt lat="30.380739" lon="-98.861357" />
      <trkpt lat="30.380538" lon="-98.861183" />
      <trkpt lat="30.380399" lon="-98.861097" />
      <trkpt lat="30.380318" lon="-98.861047" />
      <trkpt lat="30.380089" lon="-98.860949" />
      <trkpt lat="30.379782" lon="-98.860859" />
      <trkpt lat="30.378324" lon="-98.860501" />
      <trkpt lat="30.377728" lon="-98.860335" />
      <trkpt lat="30.376633" lon="-98.860014" />
      <trkpt lat="30.376437" lon="-98.859965" />
      <trkpt lat="30.375919" lon="-98.859814" />
      <trkpt lat="30.37449" lon="-98.859434" />
      <trkpt lat="30.373988" lon="-98.85928" />
      <trkpt lat="30.373377" lon="-98.859034" />
      <trkpt lat="30.372578" lon="-98.858598" />
      <trkpt lat="30.372005" lon="-98.858233" />
      <trkpt lat="30.371298" lon="-98.857798" />
      <trkpt lat="30.369399" lon="-98.856606" />
      <trkpt lat="30.369328" lon="-98.856561" />
      <trkpt lat="30.368027" lon="-98.85576" />
      <trkpt lat="30.3677" lon="-98.855568" />
      <trkpt lat="30.367511" lon="-98.855494" />
      <trkpt lat="30.36736" lon="-98.855451" />
      <trkpt lat="30.367254" lon="-98.855429" />
      <trkpt lat="30.367167" lon="-98.85542" />
      <trkpt lat="30.36709" lon="-98.855416" />
      <trkpt lat="30.366815" lon="-98.855425" />
      <trkpt lat="30.366596" lon="-98.855457" />
      <trkpt lat="30.366391" lon="-98.855511" />
      <trkpt lat="30.365623" lon="-98.855762" />
      <trkpt lat="30.365335" lon="-98.855836" />
      <trkpt lat="30.364209" lon="-98.855992" />
      <trkpt lat="30.363729" lon="-98.856097" />
      <trkpt lat="30.363247" lon="-98.856263" />
      <trkpt lat="30.361927" lon="-98.856827" />
      <trkpt lat="30.361606" lon="-98.856974" />
      <trkpt lat="30.361172" lon="-98.857145" />
      <trkpt lat="30.360679" lon="-98.857287" />
      <trkpt lat="30.360359" lon="-98.857346" />
      <trkpt lat="30.360333" lon="-98.857349" />
      <trkpt lat="30.360048" lon="-98.857379" />
      <trkpt lat="30.359518" lon="-98.857406" />
      <trkpt lat="30.358372" lon="-98.857478" />
      <trkpt lat="30.357258" lon="-98.857527" />
      <trkpt lat="30.356143" lon="-98.857574" />
      <trkpt lat="30.354488" lon="-98.857642" />
      <trkpt lat="30.354247" lon="-98.857636" />
      <trkpt lat="30.347254" lon="-98.857691" />
      <trkpt lat="30.345476" lon="-98.857731" />
      <trkpt lat="30.34418" lon="-98.85776" />
      <trkpt lat="30.342594" lon="-98.857796" />
      <trkpt lat="30.339284" lon="-98.857838" />
      <trkpt lat="30.335333" lon="-98.857907" />
      <trkpt lat="30.334893" lon="-98.85794" />
      <trkpt lat="30.333363" lon="-98.85817" />
      <trkpt lat="30.333274" lon="-98.858183" />
      <trkpt lat="30.331656" lon="-98.858427" />
      <trkpt lat="30.331081" lon="-98.858461" />
      <trkpt lat="30.330013" lon="-98.858483" />
      <trkpt lat="30.329791" lon="-98.858487" />
      <trkpt lat="30.328835" lon="-98.858539" />
      <trkpt lat="30.328365" lon="-98.858581" />
      <trkpt lat="30.327074" lon="-98.858777" />
      <trkpt lat="30.326597" lon="-98.858831" />
      <trkpt lat="30.326284" lon="-98.858838" />
      <trkpt lat="30.326001" lon="-98.858826" />
      <trkpt lat="30.325713" lon="-98.858796" />
      <trkpt lat="30.325526" lon="-98.858769" />
      <trkpt lat="30.325088" lon="-98.858699" />
      <trkpt lat="30.324778" lon="-98.858675" />
      <trkpt lat="30.324429" lon="-98.858674" />
      <trkpt lat="30.323944" lon="-98.858717" />
      <trkpt lat="30.323398" lon="-98.858812" />
      <trkpt lat="30.323354" lon="-98.858822" />
      <trkpt lat="30.320933" lon="-98.859342" />
      <trkpt lat="30.320541" lon="-98.859433" />
      <trkpt lat="30.320392" lon="-98.859467" />
      <trkpt lat="30.319236" lon="-98.859733" />
      <trkpt lat="30.318381" lon="-98.859951" />
      <trkpt lat="30.313143" lon="-98.861338" />
      <trkpt lat="30.313105" lon="-98.86135" />
      <trkpt lat="30.312904" lon="-98.861412" />
      <trkpt lat="30.312673" lon="-98.861516" />
      <trkpt lat="30.312453" lon="-98.861656" />
      <trkpt lat="30.312252" lon="-98.861836" />
      <trkpt lat="30.312083" lon="-98.862054" />
      <trkpt lat="30.311949" lon="-98.862297" />
      <trkpt lat="30.311842" lon="-98.862586" />
      <trkpt lat="30.311823" lon="-98.862688" />
      <trkpt lat="30.311779" lon="-98.862953" />
      <trkpt lat="30.311729" lon="-98.864199" />
      <trkpt lat="30.311715" lon="-98.864442" />
      <trkpt lat="30.311686" lon="-98.864673" />
      <trkpt lat="30.311657" lon="-98.864807" />
      <trkpt lat="30.31162" lon="-98.864904" />
      <trkpt lat="30.311559" lon="-98.865068" />
      <trkpt lat="30.311504" lon="-98.86518" />
      <trkpt lat="30.311446" lon="-98.865268" />
      <trkpt lat="30.311382" lon="-98.865379" />
      <trkpt lat="30.311293" lon="-98.865496" />
      <trkpt lat="30.311011" lon="-98.865761" />
      <trkpt lat="30.310857" lon="-98.865863" />
      <trkpt lat="30.310686" lon="-98.865951" />
      <trkpt lat="30.310456" lon="-98.866042" />
      <trkpt lat="30.30919" lon="-98.866465" />
      <trkpt lat="30.309043" lon="-98.866514" />
      <trkpt lat="30.308558" lon="-98.866663" />
      <trkpt lat="30.308206" lon="-98.866709" />
      <trkpt lat="30.307832" lon="-98.866725" />
      <trkpt lat="30.307574" lon="-98.866704" />
      <trkpt lat="30.307222" lon="-98.866628" />
      <trkpt lat="30.306914" lon="-98.866526" />
      <trkpt lat="30.306173" lon="-98.866227" />
      <trkpt lat="30.30584" lon="-98.866107" />
      <trkpt lat="30.305333" lon="-98.86592" />
      <trkpt lat="30.304318" lon="-98.865568" />
      <trkpt lat="30.3041" lon="-98.865479" />
      <trkpt lat="30.303924" lon="-98.865403" />
      <trkpt lat="30.303747" lon="-98.865311" />
      <trkpt lat="30.303521" lon="-98.865153" />
      <trkpt lat="30.303258" lon="-98.864902" />
      <trkpt lat="30.302939" lon="-98.864572" />
      <trkpt lat="30.302772" lon="-98.864415" />
      <trkpt lat="30.302598" lon="-98.864312" />
      <trkpt lat="30.302499" lon="-98.864271" />
      <trkpt lat="30.302376" lon="-98.864229" />
      <trkpt lat="30.302192" lon="-98.864227" />
      <trkpt lat="30.302066" lon="-98.864252" />
      <trkpt lat="30.301894" lon="-98.864317" />
      <trkpt lat="30.301734" lon="-98.864403" />
      <trkpt lat="30.301532" lon="-98.864588" />
      <trkpt lat="30.301246" lon="-98.864968" />
      <trkpt lat="30.301108" lon="-98.865097" />
      <trkpt lat="30.300893" lon="-98.865222" />
      <trkpt lat="30.300673" lon="-98.865314" />
      <trkpt lat="30.298712" lon="-98.865751" />
      <trkpt lat="30.29679" lon="-98.866247" />
      <trkpt lat="30.295769" lon="-98.866466" />
      <trkpt lat="30.295471" lon="-98.866511" />
      <trkpt lat="30.295384" lon="-98.866524" />
      <trkpt lat="30.294796" lon="-98.866567" />
      <trkpt lat="30.293839" lon="-98.866535" />
      <trkpt lat="30.292635" lon="-98.866464" />
      <trkpt lat="30.292378" lon="-98.866443" />
      <trkpt lat="30.291487" lon="-98.866423" />
      <trkpt lat="30.29117" lon="-98.866436" />
      <trkpt lat="30.290866" lon="-98.866422" />
      <trkpt lat="30.290736" lon="-98.866427" />
      <trkpt lat="30.290517" lon="-98.866458" />
      <trkpt lat="30.290379" lon="-98.866508" />
      <trkpt lat="30.290213" lon="-98.866581" />
      <trkpt lat="30.290084" lon="-98.866647" />
      <trkpt lat="30.289912" lon="-98.866777" />
      <trkpt lat="30.289444" lon="-98.867178" />
      <trkpt lat="30.289064" lon="-98.867536" />
      <trkpt lat="30.288683" lon="-98.867875" />
      <trkpt lat="30.288613" lon="-98.867957" />
      <trkpt lat="30.288264" lon="-98.868266" />
      <trkpt lat="30.288214" lon="-98.868313" />
      <trkpt lat="30.287787" lon="-98.868716" />
      <trkpt lat="30.287371" lon="-98.869162" />
      <trkpt lat="30.287216" lon="-98.869317" />
      <trkpt lat="30.286956" lon="-98.869592" />
      <trkpt lat="30.28659" lon="-98.869943" />
      <trkpt lat="30.28606" lon="-98.870482" />
      <trkpt lat="30.285126" lon="-98.87136" />
      <trkpt lat="30.284206" lon="-98.87222" />
      <trkpt lat="30.283837" lon="-98.87256" />
      <trkpt lat="30.283298" lon="-98.873081" />
      <trkpt lat="30.28242" lon="-98.873919" />
      <trkpt lat="30.281477" lon="-98.874805" />
      <trkpt lat="30.281205" lon="-98.875065" />
      <trkpt lat="30.281016" lon="-98.875245" />
      <trkpt lat="30.280896" lon="-98.87536" />
      <trkpt lat="30.280295" lon="-98.875936" />
      <trkpt lat="30.279856" lon="-98.876352" />
      <trkpt lat="30.278908" lon="-98.877283" />
      <trkpt lat="30.278804" lon="-98.877384" />
      <trkpt lat="30.278724" lon="-98.877274" />
      <trkpt lat="30.277752" lon="-98.875938" />
      <trkpt lat="30.277649" lon="-98.875795" />
      <trkpt lat="30.277589" lon="-98.875713" />
      <trkpt lat="30.277523" lon="-98.875623" />
      <trkpt lat="30.277294" lon="-98.875309" />
      <trkpt lat="30.277036" lon="-98.874955" />
      <trkpt lat="30.276581" lon="-98.874331" />
      <trkpt lat="30.276502" lon="-98.874223" />
      <trkpt lat="30.27644" lon="-98.874138" />
      <trkpt lat="30.276366" lon="-98.874036" />
      <trkpt lat="30.276274" lon="-98.873907" />
      <trkpt lat="30.276032" lon="-98.873569" />
      <trkpt lat="30.275769" lon="-98.873201" />
      <trkpt lat="30.275165" lon="-98.872394" />
      <trkpt lat="30.275091" lon="-98.872296" />
      <trkpt lat="30.275204" lon="-98.872187" />
      <trkpt lat="30.275297" lon="-98.872096" />
    </trkseg>
  </trk>
</gpx>